<?xml version="1.0" encoding="UTF-8"?>

<kml xmlns:xsd="http://www.w3.org/2001/XMLSchema" xmlns:gx="http://www.google.com/kml/ext/2.2" xmlns:atom="http://www.w3.org/2005/Atom" xmlns="http://www.opengis.net/kml/2.2">
<Document>
<name>PT06a_11a_moimenta_da_beira-lamego</name>
<visibility>1</visibility>
<Schema name="PT06a_11a_moimenta_da_beira-lamego" id="kml_schema_ft_PT06a_11a_moimenta_da_beira-lamego">
<SimpleField type="xsd:string" name="id">
<displayName>id</displayName>
</SimpleField>
<SimpleField type="xsd:string" name="nombre">
<displayName>nombre</displayName>
</SimpleField>
<SimpleField type="xsd:double" name="longitud">
<displayName>longitud</displayName>
</SimpleField>
<SimpleField type="xsd:string" name="_formato">
<displayName>_formato</displayName>
</SimpleField>
</Schema>
<Folder id="kml_ft_PT06a_11a_moimenta_da_beira-lamego">
<name>PT06a_11a_moimenta_da_beira-lamego</name>
<Placemark id="kml_1">
<name>&lt;img height='20' src='https://nco.ign.es/iconos/icono_todos_caminos_azul.png' /&gt;&lt;img height='20' src='https://nco.ign.es/iconos/Camino Santiago_20.png' /&gt;&lt;img height='20' src='https://nco.ign.es/iconos/icono_todos_caminos_azul.png' /&gt;  Camino de Santiago </name>
<visibility>1</visibility>
<description><![CDATA[<!DOCTYPE html>
<html>
<head>
<style>
#nco {
  border-collapse: collapse;
  overflow:hidden;
}
#nco th, #nco td {
  padding: 4px;
  text-align: left;
}
#nco th {
  color: #364B5F;
  padding-right: 5px;
}
#nco td {
  color: rgb(51, 51, 51);
  font-size: 12px;
  padding-right: 5px;
}
</style>
</head>
<body>
<table id="nco">
<tr>
<td>Caminos Portugueses</td>
</tr>
<tr>
<th><b>Camino: </b></th>
<td>PT06a Camino Torres</td>
</tr>
<tr>
<th><b>Etapa: </b></th>
<td>11a Moimenta da Beira-Lamego</td>
</tr>
<tr>
<th><b>Longitud: </b></th>
<td>30.02 km</td>
</tr>
</table>
</body>
</html>]]></description>
<Style>
<IconStyle>
<scale>0.8</scale>
</IconStyle>
<LabelStyle>
<color>ffffffff</color>
<scale>0.75</scale>
</LabelStyle>
<LineStyle>
<color>ffff0000</color>
<width>3.0</width>
<gx:labelVisibility>1</gx:labelVisibility>
</LineStyle>
<PolyStyle>
<color>66ff0000</color>
</PolyStyle>
</Style>
<ExtendedData>
<SchemaData schemaUrl="#kml_schema_ft_PT06a_11a_moimenta_da_beira-lamego">
<SimpleData name="id">PT06a_11a</SimpleData>
<SimpleData name="_formato">kml</SimpleData>
</SchemaData>
</ExtendedData>
<LineString>
<extrude>0</extrude>
<tessellate>1</tessellate>
<coordinates>-7.61152899965654,40.981022999424,663.354600000006 -7.61153000037977,40.9810419994947,663.271699999998 -7.61205400026141,40.9806839994542,663.729500000001 -7.61257800014305,40.9803259995051,666.890299999999 -7.61256800009729,40.9802979992376,667.041700000002 -7.61257800014305,40.9803259995051,666.890299999999 -7.61307400043559,40.9800539994078,670.9666 -7.61336099959246,40.9800149997431,671.613200000007 -7.61355300011139,40.9801279994904,670.346900000004 -7.61368899965553,40.9801139993162,670.232999999993 -7.61381199967917,40.9801739991701,669.655599999998 -7.61391899980927,40.9803269998051,668.486399999994 -7.61418400012317,40.9804699991423,667.630699999994 -7.61560900035328,40.9812439992662,677.404299999995 -7.61564699998813,40.9812739997033,677.877099999998 -7.61582500026336,40.9814929994963,679.284700000004 -7.61597199967812,40.9816649996754,679.860000000001 -7.61633200042656,40.9823589995561,681.871599999999 -7.61708899993672,40.9838219993645,692.390799999994 -7.61715500005896,40.9839479991669,693.311600000001 -7.61718799967091,40.98401399971,693.733300000007 -7.61751599973397,40.9846469992526,695.778999999995 -7.61781899968268,40.9849759996148,696.8177 -7.61855000015188,40.9857169993392,697.584199999998 -7.61887700039001,40.9860109997751,697.617800000007 -7.61933000012655,40.986235999341,699.177800000005 -7.61931000003504,40.9862809992976,699.082999999999 -7.61931699970776,40.9863349997476,699.120899999994 -7.61942100036316,40.9864309993835,699.633700000006 -7.61948599976217,40.9864799993557,699.952499999999 -7.6195460000366,40.9865249991458,700.251000000004 -7.61967699955786,40.9865959994907,700.794500000004 -7.61974100003027,40.9866319993976,701.034400000004 -7.61984800016041,40.9866329996019,701.4375 -7.6207999996642,40.9869489996692,702.474499999997 -7.62124999992601,40.9870509995994,701.900699999998 -7.62186699969409,40.9871159995524,700.541800000006 -7.62203200044882,40.9871159995524,700.117100000003 -7.62221300019879,40.9871149993554,699.463000000003 -7.62231500030605,40.987504999768,696.972999999998 -7.62248099998739,40.9876229991567,695.786699999997 -7.62280300020267,40.9877769996502,693.631999999998 -7.62296399986117,40.9879099992939,692.169299999994 -7.62319499983985,40.987905999232,691.066699999996 -7.62355700023809,40.9877519997179,689.287599999996 -7.62358400000225,40.9881039996288,687.805800000002 -7.62363199968283,40.9882769996978,687.350399999996 -7.62383599989735,40.988478999686,686.216400000005 -7.62420099977033,40.9888089994097,684.545899999997 -7.62422199968671,40.9890259996121,684.9807 -7.62413600037132,40.9894549997794,687.448099999994 -7.62419300027271,40.9895459994972,687.300600000002 -7.6242760001134,40.9896819994374,687.236499999999 -7.62456499981841,40.9897709992065,685.195500000002 -7.62484400037597,40.9898919997513,683.149099999995 -7.62513399990588,40.9901429995009,682.415099999998 -7.62588499956826,40.9905319994887,677.485100000005 -7.62643799976219,40.9907299994587,672.510399999999 -7.62695800034418,40.9910099993465,666.557799999995 -7.6272050002164,40.9911389993839,663.224600000001 -7.62737599992062,40.9913219996031,660.793900000004 -7.62735500000424,40.9914799994394,660.297999999995 -7.62725799991985,40.9918929992786,660.737599999993 -7.62725299989698,40.9921269995268,660.159899999999 -7.62730099957755,40.9925439991621,659.488700000002 -7.62725799991985,40.9929329992229,661.101699999999 -7.6273390001107,40.9931519996243,661.654899999994 -7.62722100010994,40.9934559997868,661.2834 -7.62713999991906,40.993896999382,658.415500000003 -7.62699599997904,40.9940679996629,658.3655 -7.6269790002606,40.9940869993653,658.425600000002 -7.62686700010762,40.994240999678,658.749899999995 -7.62680199981027,40.994515999148,658.484299999996 -7.62678599991673,40.9947469993349,658.527300000002 -7.62685000038918,40.9948969991461,657.938699999999 -7.62705399970533,40.9951319996558,656.017500000002 -7.62725299989698,40.9952649993797,654.978499999997 -7.62745100026368,40.9953379992722,654.1253 -7.62789599960431,40.9954349994314,652.6823 -7.6279380003354,40.9954479996726,652.607399999994 -7.62805799998601,40.9955319994479,652.339200000002 -7.62819199988031,40.9956379992539,652.032600000006 -7.62834199966814,40.995681999507,651.915599999993 -7.62879799977773,40.9957839994878,651.991599999994 -7.62913000003873,40.9958769994125,652.529899999994 -7.62921600025246,40.9959289993351,652.809099999999 -7.62936100001742,40.9961359992332,653.660199999998 -7.62955900038416,40.9962819997202,654.472200000004 -7.63024099955122,40.9967149996624,655.645399999994 -7.63038000036669,40.9967269995999,655.843599999993 -7.63063200026179,40.9967229993949,656.662700000001 -7.6309650003477,40.9968199995502,657.484500000006 -7.6314580002672,40.9969979993591,656.777400000006 -7.63179700020092,40.9971759993652,655.094100000002 -7.63242300018982,40.9973209995406,652.638500000001 -7.63265499999341,40.9973749997629,652.289099999995 -7.6331749996771,40.9974799992775,652.314499999993 -7.63341099967866,40.9974719996367,652.398799999995 -7.63370600012975,40.9974479993527,652.500700000004 -7.63425400030084,40.9973749997629,651.930200000003 -7.63465599998374,40.9973539995687,651.046300000002 -7.63493499964299,40.9973909997449,650.234700000001 -7.63514399988036,40.9975199995005,649.092499999999 -7.63544400035433,40.9977799996809,647.876699999993 -7.63550999957825,40.9978129994792,647.664099999995 -7.63562699975411,40.9978729995016,647.234800000006 -7.63575599962556,40.9979899992865,646.424700000003 -7.63615800020676,40.9982489996189,646.297600000005 -7.63649399976744,40.998383999208,648.898799999995 -7.63661500014124,40.9984219995095,649.849499999997 -7.63674200036286,40.9984699993596,650.805300000007 -7.63692499976267,40.9986299997371,651.957999999999 -7.63717699965773,40.9988849995149,652.808099999995 -7.63755199957647,40.9992169993851,654.074900000007 -7.63806200011271,40.9996179994817,656.869000000006 -7.63863100020021,41.0001079992247,660.682499999995 -7.63870700036818,41.0001509992068,661.019700000004 -7.63878099998801,41.0001929991622,661.376799999998 -7.63880699992731,41.0001949991594,661.459199999998 -7.63885600033108,41.0002759996733,661.998800000001 -7.63897699980662,41.0003629993862,662.9571 -7.63920100011259,41.000514999287,665.107399999994 -7.63943299991617,41.0006739994549,667.491200000004 -7.63973199966694,41.0008459997717,670.176300000006 -7.63979899961409,41.0008839993318,670.820000000007 -7.64004700020951,41.0009899993448,673.2785 -7.64015099996657,41.0009819994521,673.504199999996 -7.64030699960219,41.0009859993986,674.098499999993 -7.64047099963372,41.0009779995054,674.287299999996 -7.64070800035852,41.0010019991821,674.665399999998 -7.64080899974251,41.0010129997089,674.429600000003 -7.64092799956821,41.0009939992909,673.825700000001 -7.64096199990342,41.0010209995979,673.852100000004 -7.64116000027013,41.001127999375,672.734899999996 -7.64189500003897,41.0015449997001,669.315300000002 -7.64200499964381,41.0016479993985,669.443899999998 -7.6420880003828,41.0018039996224,670.176999999996 -7.64207999998688,41.0019559995897,671.712299999999 -7.64206400009334,41.0020489996199,672.748999999996 -7.64208599983466,41.0021359997042,673.575599999996 -7.64222999977472,41.0023749993527,674.954299999998 -7.64234000027789,41.0024539992926,674.774699999994 -7.64243999983698,41.0024739992539,674.172099999996 -7.64274299978569,41.0024559992213,671.522200000007 -7.64327400023835,41.002395999303,666.931800000006 -7.64339399988895,41.0023829997542,666.057700000005 -7.64375700011209,41.0023649996968,663.574999999997 -7.64400300015941,41.0023989991986,662.529399999999 -7.64418800010732,41.0024619996846,662.504400000005 -7.64432500037469,41.0025509991496,662.854399999997 -7.64451799982022,41.002720999393,664.755300000004 -7.64466299958518,41.0028219993699,666.225200000001 -7.64485099990613,41.0029089997897,667.707699999999 -7.64499300019635,41.0029479994731,668.900999999998 -7.6451649997255,41.0029539992137,670.451100000006 -7.64562099983509,41.0029069991969,676.670800000007 -7.64591799993598,41.0028969996217,680.390400000004 -7.64608199996751,41.0029329994411,681.910999999993 -7.64626400044072,41.0030199997145,683.195200000002 -7.64645199986338,41.0031419996237,683.737299999993 -7.64678499994932,41.0034169992466,683.329400000002 -7.64721400029471,41.0038019997738,683.974600000001 -7.6475220002663,41.0040429993623,684.646200000003 -7.64794599969051,41.0043259994588,684.631099999999 -7.64894400012337,41.0049759993383,686.907900000006 -7.64912400004844,41.0051069996891,687.593299999993 -7.64928999972978,41.0052729997545,688.083799999993 -7.6495850001809,41.0056209993266,688.606499999994 -7.64971099967928,41.0057369996795,689.149900000004 -7.65039199991974,41.0061839992642,693.792100000006 -7.65059600013426,41.0062979994919,695.411399999997 -7.65087200031878,41.0064679995604,697.948499999999 -7.6510010001902,41.0065709996996,699.667300000001 -7.65111900019099,41.0066839993577,702.070099999997 -7.65127999984945,41.0068829995204,704.956000000006 -7.65147599966803,41.0074149995797,701.740099999995 -7.65152099987389,41.007640999197,699.688599999994 -7.65180000043145,41.007774999324,704.727899999998 -7.6520790000907,41.0080299996475,709.034599999999 -7.65233699983358,41.0083499996941,713.717499999999 -7.65253500020029,41.0087139992305,716.596699999995 -7.65276100015609,41.0088439997397,721.520099999994 -7.65287900015689,41.0090909997294,722.950700000001 -7.65323300015921,41.0094029991422,727.460699999996 -7.6535550003745,41.0097019996503,729.318400000004 -7.65426300037915,41.0101269994137,733.467799999999 -7.6545579999319,41.0103499996859,733.903600000005 -7.65520700038535,41.0104869992539,730.193799999994 -7.65556600041056,41.0103459996299,731.670499999993 -7.6559580000477,41.0100909994571,735.752299999993 -7.6564090001344,41.0099849991693,738.5334 -7.65709899969741,41.0098769996856,745.274000000005 -7.65722400026919,41.0097349995802,747.141099999993 -7.65740099982119,41.0096269996866,748.804799999998 -7.65769399972417,41.0096019992278,749.236999999994 -7.65800500006877,41.0096489992148,750.679900000003 -7.65825000029118,41.0098399997401,752.887000000002 -7.6584229996452,41.0100789992412,754.558300000004 -7.65856599976035,41.0101909991374,756.824200000003 -7.65871700027139,41.0102259991931,759.403600000005 -7.65882500022643,41.0110519993113,754.660199999998 -7.65894999989991,41.0110339995881,756.625199999995 -7.65907499957336,41.0110159991822,758.246199999994 -7.65913800022086,41.011072999208,758.280100000004 -7.65920099997007,41.0111309996951,758.264800000004 -7.65930700027527,41.0111119994827,759.307700000005 -7.65941299968218,41.0110919994316,760.113400000002 -7.65949300004812,41.0110749995529,760.765499999994 -7.65957400023897,41.0110579996698,761.447100000005 -7.659646000209,41.0110859997541,761.521500000003 -7.65971800017903,41.0111149996593,761.559999999998 -7.6599009995788,41.0111829997844,761.826400000005 -7.66008300005201,41.0112519996701,762.623900000006 -7.66035900023652,41.0111349997034,766.632100000003 -7.66060600010874,41.0110939997759,769.844200000007 -7.66089099961578,41.0111159994921,773.338799999998 -7.66112300031766,41.0110169996945,777.013699999996 -7.66162000043514,41.010678999223,783.868499999997 -7.66228300023395,41.010449999651,791.275500000003 -7.66271699970392,41.0105579995513,795.128800000006 -7.6632029999507,41.010609999415,799.382100000003 -7.66357000037183,41.0106469996059,802.306200000006 -7.66364499981659,41.010676999544,802.951199999996 -7.66366699955791,41.010727999475,803.270099999994 -7.66375500031977,41.0110839994095,804.986099999995 -7.66378999958155,41.0111649994192,805.507299999997 -7.66384900003108,41.0111919996262,806.047600000005 -7.66394299974242,41.0111839996162,806.719400000002 -7.66406099974319,41.0111229996776,807.205499999996 -7.66427500000343,41.0110419996163,808.107099999994 -7.66448500006574,41.0110179995288,809.718900000007 -7.66465400012011,41.0110259995589,811.067200000005 -7.66481499977861,41.0110659996951,812.442999999999 -7.66515000041269,41.0112099993062,815.267600000006 -7.66535999957666,41.0112589991633,816.193599999999 -7.66552100013345,41.0112809995023,816.751699999993 -7.66566300042366,41.0112849995016,817.166899999997 -7.66650500032261,41.0111509997343,821.6296 -7.66665699976029,41.0111349997034,822.601500000004 -7.66685000010412,41.0111409993765,823.888399999996 -7.66707000021214,41.0111799996109,825.3079 -7.66727799972631,41.0111969994625,826.964600000007 -7.66728199992425,41.0111979992942,826.987899999993 -7.66771999959216,41.0111629997549,830.1685 -7.66814599956451,41.0110969992755,831.905700000003 -7.6684269997719,41.011021999544,834.466199999995 -7.66880300041387,41.0109369993384,838.289799999999 -7.66913599960149,41.0108879992418,838.820600000006 -7.66966100020636,41.0108459993237,837.0386 -7.66992700034512,41.0108309997338,836.496299999999 -7.67005000036879,41.0108309997338,836.299799999993 -7.6701440000801,41.0108179991375,836.207299999995 -7.67017400021734,41.0108939996153,835.804300000003 -7.67029999971572,41.0110069993163,835.049400000004 -7.67042000026462,41.0110279992274,834.678 -7.67061600008322,41.0109929995978,834.502600000007 -7.67089800011552,41.0109549997659,834.256899999993 -7.67109599958393,41.0109629998037,833.751900000003 -7.67129700032368,41.0110049996472,832.886899999998 -7.67272199965553,41.0114199995025,825.214300000007 -7.67299000034242,41.0115189993725,823.119699999996 -7.67375799972324,41.0119589996311,820.561700000006 -7.67394699986913,41.0120519997794,820.4709 -7.67490199974599,41.0124299992936,821.032099999997 -7.67515500036429,41.0125189995308,821.342900000003 -7.67534600015998,41.012575999612,821.571599999996 -7.67558200016154,41.0126069991597,821.444499999998 -7.67734899980016,41.012719999312,813.483099999998 -7.67780699955955,41.0127659993004,811.950800000006 -7.67796300009346,41.0128269997514,811.6875 -7.67857300018882,41.0131809995864,811.339800000002 -7.6786690004483,41.0132359994934,811.359299999996 -7.67895200030553,41.0133999991408,811.889200000005 -7.67902500010047,41.0131789993055,809.066300000006 -7.67928200001841,41.0131059995159,807.506699999998 -7.67986199997653,41.0132599994508,806.006200000003 -7.68055400008768,41.013425999312,806.184800000003 -7.68117099985572,41.0135759993168,805.541700000002 -7.68194300033281,41.0137049992511,804.3266 -7.68203600021922,41.0137599993985,804.337100000004 -7.68294099986737,41.0142959993305,801.2644 -7.68350999995485,41.0148629994881,795.112999999998 -7.6837879997892,41.0153079993054,792.494000000006 -7.68480799996341,41.0158419993207,784.888399999996 -7.68503599956902,41.0161599991924,785.470700000005 -7.68515100009507,41.0163199993233,785.554199999999 -7.68536500035532,41.0164309997026,784.261799999993 -7.6854620004397,41.0164819992462,783.696500000005 -7.6861169998426,41.0164819992462,777.996700000003 -7.68695399971867,41.0167409994292,772.376799999998 -7.68702900006173,41.0170809994634,774.573300000004 -7.68747400030066,41.0172349995952,773.232300000003 -7.68776899985345,41.0172189996863,770.322 -7.6880259997714,41.0171299996985,766.865600000005 -7.68846599998744,41.0170889994351,762.355899999995 -7.68887900043933,41.017222999325,760.284799999994 -7.68895999973188,41.0174049992346,761.761400000003 -7.68906199983911,41.0174409992614,761.367700000003 -7.68961400020817,41.0175099993708,757.400500000003 -7.69016700040211,41.0177809997493,753.504199999996 -7.69074599963704,41.0179799996073,746.381800000003 -7.69118599985308,41.0182749995714,741.212299999999 -7.69140599996111,41.0185139996511,739.230200000005 -7.69156199959672,41.018857999562,737.8698 -7.69162100004625,41.0193559996271,734.907999999996 -7.69166000040434,41.0195779994553,732.982199999999 -7.69168999964324,41.0197519993105,733.099600000001 -7.69193200039088,41.0201329991411,733.929999999993 -7.69222100009589,41.0205299992651,735.305600000007 -7.69256500005246,41.0206909993128,731.953999999998 -7.69274199960449,41.0210189997121,730.270600000003 -7.69285999960525,41.0213999996688,729.530299999999 -7.69316000007922,41.0219019995232,728.4372 -7.6934179998221,41.0222209996242,728.797600000005 -7.69382500042617,41.0225689991428,729.336899999995 -7.69403499959014,41.0228239991358,731.556599999996 -7.69424800002548,41.0229049996207,730.763200000001 -7.69438299974469,41.0229579995577,730.335000000006 -7.69468900006644,41.0229939992604,727.923699999999 -7.69490300032668,41.0229129995628,724.860499999995 -7.69513900032824,41.0230349992367,724.024300000005 -7.69540799994174,41.0231279993364,722.2304 -7.69546599966807,41.0230739992071,721.373699999996 -7.69559999956237,41.023053999399,720.146399999998 -7.69574500022566,41.0230659992846,719.011299999998 -7.69594900044015,41.0231509994282,717.578099999999 -7.6961360000379,41.0232959993803,717.339900000006 -7.69650099991088,41.0236079992929,717.597899999993 -7.69666699959222,41.0237299997125,718.585900000005 -7.69681200025551,41.0237939997757,718.877800000002 -7.69713399957246,41.0238749997452,718.799400000004 -7.6980299998981,41.0240129992881,713.255499999999 -7.69816399979239,41.0240289995798,712.245999999999 -7.69829299966382,41.0241139991583,711.057700000005 -7.69941400012035,41.0247289992184,702.975900000005 -7.69965500014479,41.0248379997319,702.710500000001 -7.69987000022994,41.0249519995349,703.786399999997 -7.70004199975909,41.0250649995194,705.089399999997 -7.70015999975985,41.0251779993101,706.571200000006 -7.70027799976062,41.0253439996345,708.925300000003 -7.7003740000201,41.0254939996085,710.934299999994 -7.70047600012736,41.0255749995202,711.460999999996 -7.70057800023458,41.0256399994358,711.587499999994 -7.70076099963439,41.0256719992248,710.282699999996 -7.70103900036704,41.0256799995084,707.417600000001 -7.70160799955622,41.0256759997056,697.270699999994 -7.70212300011533,41.0256879997911,686.845000000001 -7.702466000247,41.0257249996458,682.710300000006 -7.70262699990549,41.0257889998032,681.608500000002 -7.70283100011998,41.0259109995709,681.236499999999 -7.70306200009866,41.0260689991675,680.771500000003 -7.70325000041965,41.0261739997235,679.887400000007 -7.7034370000174,41.0262269997405,678.630099999995 -7.7037319995702,41.0262589992441,677.474300000002 -7.70401500032572,41.0262739993873,676.512000000002 -7.7041209997326,41.0262799997147,676.638099999996 -7.70423700008355,41.0262859993639,676.769 -7.70447700028309,41.0262999992208,677.322400000005 -7.70493900024045,41.0263139997525,679.169899999994 -7.70533400025064,41.0263659993776,681.748300000007 -7.70603600040754,41.0264169993612,684.797099999996 -7.70601899979076,41.026684999542,684.640899999999 -7.70623899989879,41.0271219993511,685.558600000004 -7.70624399992167,41.0274989995485,686.010999999999 -7.70619000039331,41.0277739991632,685.842000000004 -7.70661399981753,41.0282629993598,685.450800000006 -7.70669500000838,41.0283299991538,685.115300000005 -7.70661399981753,41.0282629993598,685.450800000006 -7.70704300016292,41.0283649997372,686.106 -7.70742399992944,41.0284369993105,686.390599999999 -7.70835200004211,41.0283159997284,687.293900000004 -7.70908699981095,41.0284819995967,694.275299999994 -7.70932600018555,41.0285789997629,697.068199999994 -7.70956300001201,41.0286759997862,699.222899999993 -7.70982999997571,41.0287859994301,698.439100000003 -7.71005500010661,41.0288199995292,697.3649 -7.71032899974299,41.028687999325,697.465200000006 -7.71075800008838,41.0285319997282,697.758700000006 -7.71203500018053,41.0281759992121,697.163700000005 -7.71245199993206,41.0280649996512,697.983300000007 -7.71251200020649,41.0280489996624,698.120800000004 -7.7127239999186,41.0278689991821,700.251499999998 -7.71297400016386,41.0278239991545,701.844400000002 -7.71336499997613,41.0278339996904,702.495500000005 -7.71392800021582,41.0279319997111,702.070999999996 -7.71423399963924,41.0279559997355,702.857199999999 -7.71498500019992,41.027888999561,707.378500000006 -7.71531499991282,41.0278929992294,710.570399999997 -7.71584899984021,41.0279779992418,717.370699999999 -7.71625100042141,41.0280669994801,722.258499999996 -7.71645999976048,41.0281519992679,724.410600000003 -7.71663800003571,41.0283379997922,724.6875 -7.71691099984718,41.0285849992026,725.176000000007 -7.71713599997809,41.028685999515,727.206699999995 -7.71770000004268,41.0288909997196,735.376000000004 -7.7180380001515,41.0290339994315,738.566900000005 -7.71855799983516,41.0293009995694,742.115900000004 -7.71861800010963,41.0295949994205,739.032500000001 -7.71900100042428,41.0302179995264,740.891600000003 -7.71910000015847,41.0302789994016,742.279200000004 -7.71915399968683,41.030391999732,743.234400000001 -7.71916799993056,41.0304239992446,743.538 -7.71941999982562,41.0304129995621,745.666700000002 -7.71966900024597,41.0302609995109,747.881500000003 -7.72011399958657,41.0302509993437,751.793799999999 -7.72040700038785,41.0303069994475,753.310700000002 -7.72059200033577,41.0304349996029,752.950700000001 -7.72095899985859,41.0306999997318,751.073699999994 -7.72115200020242,41.0309449993497,749.474799999996 -7.72118900001233,41.0310089991771,749.353400000007 -7.72133399977729,41.0312509997411,748.522100000002 -7.72141300031833,41.0313839997535,748.385999999999 -7.72143599988455,41.0314409997734,748.265799999994 -7.72168100010693,41.031650999171,747.353799999997 -7.72245000021095,41.0321019992051,741.916800000006 -7.72278199957366,41.032297999271,738.191300000006 -7.72322199978971,41.0324559998051,733.383300000001 -7.72324100005628,41.0324909995505,733.013699999996 -7.7234739996848,41.032944999789,728.352700000003 -7.72353300013433,41.0331149995353,727.146900000007 -7.72346899966193,41.0334189996614,727.446500000005 -7.72357099976919,41.033657999671,725.991599999994 -7.72404299977227,41.0340869993403,719.843800000002 -7.72449399985898,41.034239999527,715.275299999994 -7.72529599957497,41.0344709993743,705.328899999993 -7.72530899999377,41.0344749993205,705.154500000004 -7.72546999965226,41.0346369993096,701.855100000001 -7.72573800033916,41.0349689992797,696.533899999995 -7.72625299999997,41.0350009992782,691.279200000004 -7.72663899978937,41.0348549992012,688.348100000003 -7.7269509999589,41.0349439996301,685.9804 -7.72758399962048,41.0349119996039,686.835399999996 -7.72804499975294,41.0347339992168,689.782699999996 -7.7285490004414,41.0347989995777,687.674799999993 -7.72930000010378,41.0350579995545,687.106199999995 -7.72968599989314,41.0354619994566,686.179000000004 -7.72972899955084,41.0358349994694,681.799700000003 -7.73049099998217,41.0362389993461,685.499299999996 -7.7310280002826,41.0367569991462,678.162400000001 -7.73130399956882,41.0371089995542,675.877299999993 -7.73172000039374,41.0375619996828,676.754300000001 -7.73179700038662,41.037786999436,675.518800000005 -7.73194200015158,41.0381469992031,674.078500000003 -7.73202499999226,41.0385359997402,671.888000000006 -7.73191299983928,41.0389299997749,665.301800000001 -7.73183800039451,41.0391509992555,660.978900000002 -7.73185900031092,41.0394599996888,656.982000000004 -7.73196399989289,41.0400269993487,652.392900000006 -7.73200099970281,41.0402999993501,651.208499999993 -7.732175999605,41.0404719992038,650.186199999996 -7.73229100013105,41.0404959993998,649.9663 -7.73257300016335,41.0403279991993,652.196200000006 -7.73288399960965,41.0404779995924,651.083599999998 -7.73323400031236,41.0405519995972,649.303899999999 -7.73345000022241,41.0405989991816,647.658200000005 -7.73368799987377,41.0406819996055,644.663499999995 -7.73435900006851,41.0409609992672,634.299199999994 -7.73459500007007,41.041251999738,626.639500000005 -7.73460599994072,41.0414019993803,624.402799999996 -7.73476699959922,41.0414389992124,622.233900000007 -7.73520599999036,41.0413819997188,620.234100000001 -7.73566799994769,41.0413579991683,622.867400000003 -7.73591999984279,41.0414219997133,624.910900000003 -7.73655800042555,41.0416609998008,617.422300000006 -7.73678900040423,41.0419359992076,610.677299999996 -7.73698699987264,41.0421589995138,606.823900000003 -7.73715400027721,41.0423729994193,602.552500000005 -7.73732499998146,41.0424499994303,599.988899999997 -7.73753500004373,41.0425029992184,598.013699999996 -7.7391810002068,41.0425629991955,581.4804 -7.73981999971617,41.0425669993275,575.260500000004 -7.74045300027608,41.0426359995341,568.103499999997 -7.74125199961903,41.0426969994209,560.383300000001 -7.74167599994154,41.0425429992092,560.042400000006 -7.74194999957792,41.0425799997549,558.062000000005 -7.74244300039575,41.0428389996047,551.435299999997 -7.74293100029238,41.043076999264,545.9084 -7.74347799974023,41.0433119993526,542.424299999999 -7.74397200038297,41.0437329996707,535.893899999995 -7.7445249996786,41.043978999577,532.351200000005 -7.74453499972436,41.0439839996345,532.252299999993 -7.74491600038917,41.0440969994757,529.726899999994 -7.74511499968249,41.0441819995702,527.844400000002 -7.74535599970692,41.0443149992028,524.329599999997 -7.74553300015725,41.0445379995781,519.163700000005 -7.74589200018242,41.044804999167,511.960500000001 -7.74589200018242,41.044929999597,509.911999999997 -7.74570499968637,41.0451529992432,507.592799999999 -7.74563799973922,41.0453809994401,503.900699999998 -7.74571499973213,41.0455029994884,500.750400000004 -7.74566399967848,41.0456769992659,497.339000000007 -7.74568100029525,41.045829999613,493.892600000006 -7.74556800031733,41.045931999195,492.344899999996 -7.74557900018799,41.0460829996676,488.976800000004 -7.74568299994505,41.0461969992699,485.857199999999 -7.74568899979283,41.0462569992665,484.497900000002 -7.74560500012725,41.0464699994224,480.319000000003 -7.7456000001044,41.0466879994183,475.8174 -7.74548499957835,41.0467549994304,474.896900000007 -7.74530399982838,41.0467129993499,476.515899999999 -7.745390999867,41.046998999626,470.664399999994 -7.74547299988279,41.0471709995867,467.292000000001 -7.7456000001044,41.0473439997358,463.603400000007 -7.74574400004442,41.0474989995103,460.234700000001 -7.74587899976366,41.0477589996018,455.575599999996 -7.74594700043401,41.0478619995337,453.954899999997 -7.74607100028259,41.0479519992632,452.880099999995 -7.74609100037406,41.0479679991571,452.712499999994 -7.74645299987401,41.0481569997685,451.399399999995 -7.74654599976042,41.0482269994808,451.269799999995 -7.7466289996011,41.0482859997127,451.164399999994 -7.7467070003172,41.0483049993629,451.202799999999 -7.74683199999069,41.0483359997072,451.214699999997 -7.74766399984391,41.0485419996357,455.165500000003 -7.7476150003384,41.0487009997348,455.011100000003 -7.7475990004449,41.0488059994234,454.939100000003 -7.74765600034629,41.0492279997532,454.582399999999 -7.74770400002687,41.0493429992566,454.626300000004 -7.74774699968456,41.0494179993841,454.745999999999 -7.74811099973264,41.0500629997966,458.354399999997 -7.74818100005283,41.0503909995305,461.418600000005 -7.74817100000711,41.0506139996385,463.829199999993 -7.74808999981626,41.0508469994179,466.303799999994 -7.747987999709,41.0511859995858,470.319000000003 -7.74769900000399,41.051969999374,477.767200000002 -7.74762399966092,41.0523829994248,480.688200000004 -7.74761799981314,41.0524729997447,481.555699999997 -7.74761899963804,41.0525569992999,482.437099999996 -7.74763000040703,41.0526369992282,482.985499999995 -7.74765200014835,41.0527079994725,482.877399999998 -7.7476920003313,41.0527759993294,482.965599999996 -7.74789999984544,41.053068999463,482.657999999996 -7.7479600001199,41.0533449991629,481.092900000003 -7.7480780001207,41.053492999281,482.647899999996 -7.74809999986198,41.0535839993028,483.168300000005 -7.74804100031075,41.0536829994663,482.043399999995 -7.74786100038572,41.0537939991851,478.634099999996 -7.74787499973108,41.0538409994735,479.163700000005 -7.74795799957177,41.0538929997101,481.219599999997 -7.74856900039036,41.0542849995458,492.902100000007 -7.74866300010171,41.0544349992867,494.671600000001 -7.74885100042266,41.0544369996693,495.927800000005 -7.74993400034604,41.0548079994809,503.1685 -7.74984899995722,41.0550429996741,504.546199999997 -7.74975799972065,41.0551269993348,504.888200000001 -7.74951099984843,41.055189999518,504.404699999999 -7.74922899981614,41.0553409997438,504.228099999993 -7.74898199994392,41.0555919994598,505.078099999999 -7.74892500004253,41.0557179995526,505.445999999996 -7.74904700024126,41.0558669995821,506.129300000001 -7.74903200017263,41.0559339997309,506.174599999998 -7.74889300025545,41.0560559991794,506.066900000005 -7.74894099993603,41.0561349997677,506.723599999998 -7.74971099986498,41.0568879991467,516.642099999997 -7.74925099955742,41.0571099997742,516.5049 -7.74947800023646,41.057305999205,519.225600000005 -7.7497340003295,41.0574209994908,520.978400000007 -7.75000799996591,41.0574689997038,522.359599999996 -7.75027199955653,41.0575109996921,523.123900000006 -7.75073400041223,41.0578829995788,525.209199999998 -7.75095100014718,41.05801999916,525.8989 -7.75128300040822,41.0582289993113,526.266699999993 -7.75141599957929,41.0583139994389,526.026199999993 -7.75176499955873,41.058485999624,525.050199999998 -7.75198800003983,41.0586009992015,523.919399999999 -7.75213700000273,41.0588419994605,521.656799999997 -7.75241499983708,41.0591219998049,518.108900000007 -7.75283400013675,41.0594409997364,513.533200000005 -7.75331100016272,41.0597239995569,510.574800000002 -7.75373499958693,41.0599549993695,509.604099999997 -7.75406799967284,41.0604119997841,505.212700000004 -7.75422300038189,41.0608399993856,500.801000000007 -7.75464199978323,41.0613829997207,495.132500000007 -7.75469799985972,41.061386999386,494.8177 -7.7548240002564,41.061398999735,494.078200000004 -7.75500699965621,41.061462999753,492.510800000004 -7.75542500013094,41.061786999227,488.075899999996 -7.75578400015614,41.0619809994693,486.7929 -7.75595599968529,41.062004999271,487.025200000004 -7.7566749995606,41.0617709993072,486.040699999998 -7.7567819996907,41.061798999503,485.606700000004 -7.75720199981527,41.0620149993551,482.630300000004 -7.75752999987834,41.061786999227,479.109599999996 -7.75773200044302,41.061760999186,476.155899999998 -7.75806100033099,41.0616229995255,470.876699999993 -7.75820799974575,41.0613649995308,468.497399999993 -7.75834900021107,41.0612639992388,465.540800000002 -7.75864299993896,41.0610979994078,459.398300000001 -7.75881899966605,41.0609139995217,455.875100000005 -7.7589009996818,41.0606509993099,454.338699999993 -7.75902100023073,41.0605379994496,452.713499999998 -7.75924999966128,41.0603829992355,449.895600000003 -7.75962999960286,41.0602319997464,446.959099999993 -7.75974500012892,41.0603679994139,444.965299999996 -7.75972199966437,41.0608249996682,441.7693 -7.75976100002242,41.0610129994913,439.878200000006 -7.76007099964381,41.0612559992157,433.923899999994 -7.76032699973685,41.0613329994819,430.720400000006 -7.76075799973208,41.0611769993592,430.3315 -7.76098500041112,41.0611349996798,430.651800000007 -7.76125499984956,41.0611769993592,430.209400000007 -7.76183700035582,41.0615639997394,426.419899999994 -7.7620830004031,41.0617349991347,424.824600000007 -7.76219600038102,41.0618599992352,423.180099999998 -7.76225599975716,41.0623609997032,414.942999999999 -7.76275000039989,41.0624199994516,410.981 -7.76290000018773,41.0623729991971,410.874500000005 -7.76299100042433,41.0623449992456,410.599300000002 -7.76342499989426,41.062164999757,409.813099999999 -7.76383099977514,41.0619829996225,408.418999999994 -7.76439599966467,41.0618759991334,402.978300000002 -7.76525199980731,41.0617489995804,392.440600000002 -7.76602900030728,41.0616519995273,381.079899999997 -7.76675300020546,41.0613599994395,376.832999999999 -7.76671300002247,41.06058599942,380.982399999994 -7.76677800031982,41.0602589994786,383.854800000001 -7.76686100016047,41.0600369993189,386.127699999997 -7.7675449998757,41.0592689993391,390.280299999999 -7.76760000012728,41.0589229996585,392.043000000005 -7.76761799967063,41.0588359993917,392.4084 -7.76784500034967,41.0585869994405,391.664900000003 -7.76875300037086,41.0579549993794,388.170899999997 -7.76898299962631,41.057704999677,388.837400000004 -7.76895199966417,41.0575129993038,391.306599999996 -7.76894900018943,41.0573009994825,393.922300000006 -7.7690110001137,41.0571329995095,395.141699999993 -7.7693969999031,41.056845999438,394.786399999997 -7.76965499964594,41.0566879991969,393.656600000002 -7.76982799989833,41.0565209995114,393.176399999997 -7.76990900008918,41.0563709997853,393.289000000004 -7.76989800021852,41.0561279996251,394.329700000002 -7.76994099987621,41.055973999686,394.491200000004 -7.77002200006706,41.0558329992278,394.562000000005 -7.77064899988089,41.0553549995184,394.477199999994 -7.77092300041557,41.055205999684,394.849400000006 -7.77113199975464,41.05507199919,395.044999999998 -7.77128200044077,41.0549389996229,395.157800000001 -7.77130400018209,41.0547289993311,395.556899999996 -7.77132000007563,41.054311999687,396.570699999997 -7.77132000007563,41.0538469993205,397.644400000005 -7.77137100012924,41.0526139992757,401.097299999994 -7.77138100017499,41.0525529997751,401.578599999993 -7.77139500041869,41.0525159994175,401.877900000007 -7.77152099991708,41.0523839993087,403.164600000004 -7.77185099962994,41.0520629992475,408.502500000002 -7.77198500042258,41.0520339997599,410.184500000003 -7.77214100005816,41.0521149995346,410.2022 -7.77216399962438,41.0521189997635,410.336500000005 -7.77238700010547,41.0521599992158,411.554199999999 -7.77267199961251,41.052171999216,413.689100000003 -7.77285900010856,41.0521229993146,416.034700000004 -7.77322399998154,41.0520019992361,420.750499999995 -7.77356200009036,41.0518679996676,424.1492 -7.77379800009192,41.0517269992152,426.216899999999 -7.77396999962104,41.0516699991484,426.934399999998 -7.77436700017939,41.0514839995137,429.492499999993 -7.77454899975427,41.0514189993718,430.467900000003 -7.77474799994591,41.0513869992262,430.840899999996 -7.77510199994824,41.0513749997603,430.618300000002 -7.77549899960826,41.0513219996658,430.733999999997 -7.77564099989847,41.051339999217,430.331900000005 -7.77577499979277,41.0514779994512,428.522599999997 -7.77585599998365,41.0516519996875,427.7255 -7.77584500011299,41.051784999803,427.326700000005 -7.77580800030308,41.0519309995846,427.215599999996 -7.7758180003488,41.0520969995181,427.274300000005 -7.77586299965634,41.0523699995792,427.709499999997 -7.77586799967921,41.0523859997536,427.750599999999 -7.77596899996154,41.0527159991804,428.6783 -7.77601900019025,41.0529239993727,429.413499999995 -7.77631899976592,41.0533329993768,431.683699999994 -7.77637800021545,41.0534659994811,432.580499999996 -7.77664099998121,41.0534079996978,434.122499999998 -7.77690399974693,41.053348999317,435.933099999995 -7.7770140002501,41.0533289992218,436.757800000007 -7.77712399985495,41.0533089997979,437.589500000002 -7.77738400014596,41.0535029993044,442.1149 -7.77764400043694,41.0536969995937,447.710999999996 -7.77791300005045,41.0539169997534,454.858699999997 -7.77818099983908,41.0541379997118,462.739300000001 -7.77826899970261,41.0541479996372,463.808900000004 -7.77835800028937,41.0541579995611,464.873999999996 -7.77844600015294,41.0541739993006,466.030700000003 -7.7785349998414,41.0541899997137,467.364700000006 -7.77860199978855,41.0541359993201,467.087199999994 -7.7786689997357,41.0540809997016,466.773100000006 -7.77876800036822,41.0539499992058,465.330900000001 -7.77886700010241,41.0538179992645,463.946599999996 -7.7789990003469,41.0537599997916,464.153999999995 -7.77912999986813,41.0537009997264,464.036900000006 -7.77931300016624,41.0536219996021,463.972999999998 -7.77949499974111,41.053542999383,463.771900000007 -7.77953300027426,41.0533369995315,461.034599999999 -7.77957000008421,41.0531309997124,458.381399999998 -7.77967800003922,41.0530599992472,457.725699999995 -7.77978500016936,41.0529889993826,457.095199999996 -7.77995599987357,41.0529159996901,456.632599999997 -7.78012800030102,41.0528429992392,456.336500000005 -7.78029700035543,41.0527439991664,456.052599999995 -7.78046600040984,41.0526449996221,456.085200000001 -7.7807609999626,41.0525759997489,458.042300000001 -7.7810560004137,41.0525079996853,461.722899999993 -7.7813590003624,41.0522389997409,465.700400000002 -7.78166200031111,41.051969999374,473.8658 -7.78186900000034,41.0517709992687,479.280100000004 -7.78207499986467,41.051572999135,483.831200000001 -7.78218000034497,41.051463999529,486.107900000003 -7.78228499992697,41.0513549997424,488.477599999998 -7.78248800031656,41.0512579992646,492.550700000007 -7.78269199963275,41.0511609993213,496.7264 -7.78279200009017,41.0510859991484,498.903600000005 -7.78289099982436,41.0510109995673,500.956999999995 -7.78291799958855,41.0509339994118,501.689599999998 -7.78294400042614,41.0508569991661,502.179900000003 -7.78296600016743,41.0505879992456,502.334700000007 -7.78299600030466,41.0503119994962,501.227599999998 -7.78303200028967,41.0503439994872,501.948799999998 -7.78336100017764,41.0504909996694,507.304000000004 -7.78355100014843,41.0506319993834,510.840100000001 -7.78374000029432,41.0505989996216,513.258799999996 -7.78382700033298,41.0506549993513,515.021699999998 -7.78378399977695,41.0507119996201,514.499200000006 -7.78378399977695,41.0507779996913,514.575800000006 -7.78383499983057,41.0508649997764,515.477599999998 -7.78388900025725,41.0509159997495,516.388999999996 -7.78395899967914,41.0509419993353,517.524900000004 -7.78422900001588,41.0509589997625,522.281400000007 -7.78444699957577,41.0509739996974,526.417199999996 -7.78457499962228,41.0510389996015,528.634399999995 -7.78469400034629,41.0510869997293,530.516600000003 -7.78488599996691,41.0510509991287,533.901400000002 -7.78516600034937,41.0510429992184,537.922999999995 -7.78538499973419,41.0510149991859,540.921300000002 -7.78547099994792,41.0510949996343,541.471799999999 -7.7857179998201,41.0511959992824,543.990999999995 -7.78591100016397,41.0512459997753,546.396099999998 -7.78637800014421,41.0511759992102,554.0861 -7.7865820003587,41.0511239995357,557.890400000004 -7.78665699980347,41.0510629993311,559.5 -7.78669399961339,41.0509619994788,560.419299999994 -7.78678499984999,41.0508729997084,561.807199999996 -7.78688199993437,41.0508159995792,563.4136 -7.78701599982867,41.0508159995792,565.979200000002 -7.78747500031129,41.0508339992688,573.684099999999 -7.78730399970875,41.0509689994936,572.032600000006 -7.78721800039332,41.0511439996238,570.722999999998 -7.78718499988305,41.051425999338,569.748600000006 -7.78726500024899,41.051664999675,569.850900000005 -7.78751399977101,41.0519889993151,570.000799999994 -7.78752999966455,41.0520159997212,569.846799999999 -7.78756499982466,41.0520289996368,570.103300000002 -7.78760099980968,41.0520419995498,570.366800000003 -7.78771899981044,41.0521619996676,569.757299999997 -7.78786199992556,41.0522839993373,569.092900000003 -7.78790700013143,41.0521489997783,571.489000000001 -7.78803299962981,41.0520699991453,573.782500000001 -7.78831999968498,41.0519669997037,577.878100000002 -7.78852999974725,41.0518339992786,581.626900000003 -7.7889549998947,41.0515639993919,587.820000000007 -7.78918800042151,41.051408999709,590.766600000003 -7.79001799972661,41.0511819993002,599.324999999997 -7.79034599978967,41.05127099933,600.332200000004 -7.79064999956328,41.0514809991438,599.641300000003 -7.79089300013582,41.0516509997925,600.167400000006 -7.79097799962631,41.0519049997122,599.486900000004 -7.79091999990002,41.0526739995177,598.647700000001 -7.79062500034722,41.0530429993629,596.868000000002 -7.79057299957038,41.0534049994157,599.160999999993 -7.79055900022498,41.0535019994377,600.022800000006 -7.79059900040797,41.0538539997058,604.356400000004 -7.79054900017926,41.0539749997653,605.151500000007 -7.7899390000839,41.0545709994245,603.314299999998 -7.78992900003814,41.0546439993128,603.392900000006 -7.79022899961378,41.0547449996092,607.587400000004 -7.79076599991421,41.0548339995608,615.2068 -7.79095900025807,41.0548829994752,617.976500000004 -7.79094800038741,41.0550689996612,618.231899999999 -7.79098000017445,41.0553109991523,618.594299999997 -7.79111599971859,41.0557339995901,619.743900000001 -7.79136699978875,41.0566709995728,617.3217 -7.79167800013338,41.0573339992695,608.698199999999 -7.79170800027061,41.0574659996068,606.3747 -7.79173800040784,41.0576029993792,603.976899999994 -7.79181700005055,41.0578919991348,598.518599999996 -7.79188200034787,41.0582079995497,592.270999999993 -7.79199500032578,41.0583959994021,588.345700000005 -7.79247900002447,41.0591959991645,576.355200000005 -7.79258600015457,41.0595199996461,573.204899999997 -7.79260399969791,41.0596319994497,572.300000000003 -7.79275500020898,41.0597819991903,571.503599999996 -7.79279899969158,41.0598269997231,571.270600000003 -7.79282700017901,41.0599769996963,570.860400000005 -7.7927009997823,41.0604159995083,569.948900000003 -7.79217199987778,41.0613019991656,571.189799999993 -7.79208900003713,41.061733999393,573.169200000004 -7.79215400033444,41.0625179994565,577.192200000005 -7.79254099994874,41.062816999253,579.630699999994 -7.79292799956304,41.063114999324,581.925900000002 -7.79316199991476,41.0631739997507,582.9853 -7.79374000022308,41.0634389994647,583.987699999998 -7.79405900006529,41.0638279995003,582.208100000003 -7.7941350002333,41.0637919997764,582.686499999996 -7.79454100011414,41.0636879993347,584.923299999995 -7.79470599997057,41.0636369997808,586.224000000002 -7.79472400041224,41.0636049994827,586.570999999996 -7.79467500000843,41.0635159992069,586.989499999996 -7.79460200021351,41.0634269994879,587.2742 -7.79460800006129,41.0633719995101,587.671499999997 -7.79471400036652,41.063305999205,588.655899999998 -7.79488500007074,41.0632369996772,590.006299999994 -7.79509000011013,41.0631359995509,591.690799999997 -7.7951369999658,41.0631069995262,592.075100000002 -7.79517299995081,41.063050999559,592.515599999999 -7.79529699979939,41.0627939994732,594.251799999998 -7.79535399970078,41.0627149994321,594.891699999993 -7.79555100024259,41.0625729994712,596.428799999994 -7.79580700033563,41.0623989996735,597.823600000003 -7.7958550000162,41.0623739996064,598.028999999995 -7.79597600039004,41.0624429993622,598.421300000002 -7.79609799969045,41.0625109993158,598.815499999997 -7.79651600016521,41.0627979997299,600.668099999995 -7.79693499956655,41.0630849995689,604.442599999995 -7.79716600044353,41.0632069993005,607.008600000001 -7.79739599969898,41.0633279997656,609.7117 -7.79767500025656,41.0633279997656,611.890700000004 -7.79795399991582,41.0633279997656,613.952099999995 -7.79805600002308,41.0633159997686,614.633300000001 -7.79815800013031,41.0633039997694,615.301500000001 -7.79849600023913,41.0634409995735,620.014599999995 -7.79883400034792,41.0635789994831,625.019 -7.79907000034948,41.0636999992637,628.405199999994 -7.79930600035104,41.063821999209,630.954199999993 -7.79948799992591,41.0639749993535,633.1253 -7.79967100022402,41.0641289995245,635.185500000007 -7.79993900001262,41.064282999335,637.782300000006 -7.80020699980122,41.0644359997615,640.170400000003 -7.80016400014352,41.0645369992459,640.7212 -7.8001209995875,41.0646389996274,641.018700000001 -7.80017500001418,41.0647189997627,641.429399999994 -7.80022900044083,41.0647999994958,641.797200000001 -7.80048600035881,41.0649939996551,641.7886 -7.80074400010165,41.0651889996085,641.394100000005 -7.80084000036113,41.0653459993834,640.556100000002 -7.80093700044551,41.0655039991452,639.236099999995 -7.80104899970016,41.0655319997835,639.289499999999 -7.80116199967809,41.0655609994162,639.319199999998 -7.80162899965833,41.0655609994162,640.614100000006 -7.80209499981363,41.0655609994162,641.565499999997 -7.80236400032547,41.0654639995672,643.786300000007 -7.80263200011407,41.0653669995751,646.387799999997 -7.80280399964322,41.0653139992397,648.070200000002 -7.80297500024573,41.0652609995388,649.826199999996 -7.80316799969127,41.0652649996455,651.069799999997 -7.80336100003513,41.065268999752,652.751199999999 -7.80344700024885,41.0652449997869,653.797200000001 -7.80353299956425,41.0652209991357,654.921700000006 -7.80363999969439,41.0650869994028,657.278600000005 -7.80374799964943,41.0649539997669,659.352100000004 -7.80392500009972,41.0648649992848,661.664900000003 -7.80410199965175,41.0647759993596,663.974300000002 -7.804247000315,41.0650389993309,663.680399999997 -7.80439100025506,41.0653019996051,663.172399999996 -7.80460100031733,41.0652609995388,665.750499999995 -7.804796000311,41.0652249992448,668.007100000003 -7.80535500035274,41.0661859997882,667.226500000004 -7.80536399967527,41.0663279993978,667.048299999995 -7.8052749999868,41.0665029993058,665.8128 -7.80522999978097,41.0667119995918,664.537800000006 -7.80526400011614,41.0669319995674,663.667499999996 -7.80550500014058,41.0675419995596,659.495299999995 -7.80558100030855,41.0677479996244,657.243799999997 -7.80558999963107,41.0679179995469,655.3554 -7.80568599989055,41.0678949995194,655.228199999998 -7.80576399970836,41.0678679995357,655.473100000003 -7.80587699968625,41.0678599996387,655.470799999996 -7.80600100043312,41.0678659995615,655.363400000002 -7.80616000044178,41.0679159995743,654.752800000002 -7.8062449999323,41.0679909995222,653.747600000002 -7.8064080001389,41.0681829997846,651.335699999996 -7.80666699970668,41.0685109992463,648.441600000006 -7.80685099982969,41.068769999286,646.6011 -7.80695299993695,41.0688709995637,646.286800000002 -7.80722200044878,41.0690449991686,646.4715 -7.80739900000078,41.0691679996624,647.489700000006 -7.80744500003155,41.0692369997395,647.830300000001 -7.80744699968135,41.0692969997183,647.950800000006 -7.80744900022949,41.0693729997483,648.382199999993 -7.80727199977916,41.069660999635,648.301800000001 -7.80727699980204,41.0698299997337,649.005999999994 -7.80725099986278,41.0700399992191,649.387700000007 -7.80717600041801,41.0703309997579,649.467900000003 -7.80701300021141,41.0705819991578,648.617199999993 -7.80699599959465,41.0707569992572,648.525999999998 -7.80671799976029,41.0711809995091,645.052800000005 -7.80674899972243,41.0715599991353,643.923599999995 -7.8067250003313,41.0716389993861,643.289799999999 -7.80663699956944,41.071937999699,640.887799999997 -7.80659899993462,41.0726119993034,637.626499999998 -7.80641900000955,41.0733129992378,633.524399999995 -7.80638100037473,41.0737249991295,631.969800000006 -7.8063930000703,41.0738269994798,631.745999999999 -7.80644900014679,41.0742409993167,630.776599999997 -7.80643499990309,41.074319999732,630.318400000004 -7.8063930000703,41.0745449997516,628.911300000007 -7.80629299961287,41.0749329995565,626.595499999996 -7.80594899965627,41.0760639995989,616.684800000003 -7.80591500021939,41.0762059995453,614.655899999998 -7.80592100006718,41.0763389994459,612.822100000005 -7.80593899961052,41.0764899991951,610.737599999993 -7.80603999989288,41.0767099996351,607.190499999997 -7.8061400003503,41.0767689993755,606.380699999994 -7.80617600033531,41.0768709997428,604.519400000005 -7.80670600006473,41.0773349996688,597.918799999999 -7.80717600041801,41.0777789995961,596.698000000004 -7.80725500006072,41.0778749993874,596.821299999996 -7.80728500019795,41.07795799951,596.857900000003 -7.80729000022083,41.0780159993133,596.791500000007 -7.80729400041881,41.0780679993969,596.730200000005 -7.80727900035017,41.0782419997163,596.540399999998 -7.80719099958831,41.078385999352,596.057000000001 -7.80704199962541,41.0785439996051,595.459799999997 -7.80682599971533,41.0787429992892,594.856899999999 -7.80646400021539,41.0791589996225,594.498399999997 -7.80630400038183,41.0793639997039,594.570500000002 -7.80620899994729,41.0795609993183,595.266399999993 -7.80613799980216,41.0797579996967,595.678499999995 -7.80615000039606,41.079828999781,596.046799999996 -7.80616200009161,41.0798969993608,596.110400000005 -7.80625699962786,41.0800979992906,596.305500000002 -7.80635700008528,41.0802099992577,596.005799999999 -7.80650600004818,41.0803259995786,595.538199999995 -7.80657700019331,41.0804149994467,594.856 -7.80660800015544,41.0805169995734,594.320999999996 -7.80654299985813,41.0808919997139,593.6443 -7.80649400035262,41.0814129997652,593.313200000004 -7.8064369995529,41.0814779993817,593.622600000002 -7.80651799974378,41.0815199996102,592.831999999995 -7.806660000034,41.0819499995026,588.6872 -7.80667199972955,41.0820609995896,587.690600000002 -7.80671899958523,41.0821689991648,586.133300000001 -7.8067959995781,41.0823969997167,582.888600000006 -7.80683199956311,41.0826959991733,578.950800000006 -7.80683599976109,41.0827789993021,577.872099999993 -7.80683800030922,41.0828309996802,577.202699999994 -7.80659499973665,41.0833179995702,575.673200000005 -7.80662400004898,41.0839979994383,567.575800000006 -7.80647000006317,41.0842299993687,564.657800000001 -7.80630500020673,41.0845359997929,559.0478 -7.8062740002446,41.0847569997774,553.753500000006 -7.80618899985577,41.0848459997389,552.435400000002 -7.80598899983926,41.0849769996304,551.220199999996 -7.80593600013581,41.0850479994935,549.997799999997 -7.80587699968625,41.085197999486,546.782500000001 -7.80579200019576,41.0853389992751,544.2022 -7.8056470004308,41.0854729997114,542.997199999998 -7.80554399960034,41.0856039997071,541.586899999995 -7.80548000002623,41.0857559992147,539.801800000001 -7.80546400013269,41.0859739996853,536.757299999997 -7.80552900043003,41.0861879992451,532.672699999996 -7.80552900043003,41.0863099994415,531.0144 -7.80546400013269,41.0864469993811,530.803899999999 -7.80547500000335,41.0866289995064,529.215200000006 -7.8055279997068,41.0867909997296,527.023700000005 -7.80575500038584,41.0872969992842,516.827000000005 -7.80579300002066,41.087354999648,514.924599999998 -7.80559200017921,41.0878509993833,510.9519 -7.80558299995839,41.0879379991762,509.108300000007 -7.80567800039293,41.08803499972,503.931599999996 -7.80569299956324,41.0881319994435,501.048299999995 -7.80565999995129,41.0882179995253,499.479000000007 -7.80548000002623,41.0884419993518,497.090299999996 -7.80542899997261,41.088505999452,496.009000000005 -7.80538399976674,41.0887419997487,488.299700000003 -7.80446599969983,41.089624999585,480.687300000005 -7.80443399991276,41.0897989997741,475.210099999997 -7.8042880003229,41.0899139994282,475.575299999997 -7.80430000001846,41.0900689997622,473.424299999999 -7.80429199962254,41.0901699991365,472.190700000006 -7.80422800004843,41.090269999725,471.079899999997 -7.80411400024561,41.0904159993763,468.624500000005 -7.80393900034345,41.090575999781,466.001999999993 -7.80376400044126,41.0907219994295,466.585399999996 -7.80354000013526,41.0908959994215,468.251499999998 -7.80327800019444,41.0911259994275,466.562600000005 -7.80316799969127,41.0912539997533,464.111099999995 -7.80313799955407,41.091376999313,461.797600000005 -7.80306999978198,41.0914979993873,459.630600000004 -7.80306200028439,41.0914999993195,459.648700000005 -7.80306999978198,41.0914979993873,459.630600000004 -7.80323299998861,41.0915089996907,459.402700000006 -7.80341899976146,41.0916239997369,462.924400000004 -7.80356699989945,41.0916409998032,464.559399999998 -7.80363100037186,41.0916279995936,464.959300000002 -7.80358100014315,41.0917109992731,465.741099999999 -7.80326899997362,41.0919029993127,465.817599999995 -7.80303399979697,41.0919879992391,465.293900000004 -7.80241100018114,41.0923449997605,458.061199999996 -7.80216299958569,41.0926639996376,456.943299999999 -7.80211999992799,41.0927179995356,456.592099999994 -7.8022129998144,41.0928749992379,458.683600000004 -7.80226300004314,41.093007999257,459.599300000002 -7.80230800024898,41.0930669992607,460.452300000004 -7.802556999771,41.0932659996513,465.080799999996 -7.80279100012272,41.0933899994435,469.956000000006 -7.80296199982694,41.09348099977,473.631699999998 -7.80307399997995,41.0935599994007,475.809399999998 -7.80316000019368,41.0936389996134,477.632899999997 -7.80322100029305,41.0937129993922,478.650699999998 -7.8034079998908,41.0937929993521,481.721900000004 -7.80354799963288,41.0938109994651,483.785499999998 -7.80369800031901,41.093831999365,485.839999999997 -7.80386099962731,41.0937899995585,487.913 -7.80406599966674,41.0937979996849,490.457500000004 -7.80406499984183,41.093822999312,490.524900000004 -7.80405999981895,41.0939439996203,490.845600000001 -7.80486800028102,41.0949289993716,498.222999999998 -7.80493600005311,41.0951069993751,498.2114 -7.80492699983226,41.0951619992064,497.978000000003 -7.80491900033467,41.0952099996247,497.780599999998 -7.80478399971714,41.0955369997213,495.839500000002 -7.80478999956492,41.0956039993911,495.622700000007 -7.80479100028815,41.0956209997815,495.563399999999 -7.80487599977864,41.0957309992142,495.328800000003 -7.80526499994108,41.0960539991613,493.714999999997 -7.80594700000647,41.0965869995226,489.2261 -7.80605800033455,41.0965149993759,489.344800000006 -7.80640099956788,41.0963759996592,489.178799999994 -7.80655799992673,41.0963399994801,489.214500000002 -7.80683400011125,41.0962749996709,490.037700000001 -7.80685300037782,41.0963329995558,489.6394 -7.80685400020273,41.0963389995877,489.596699999995 -7.8068580004007,41.0963499997575,489.522800000006 -7.80695700013489,41.0966589995904,488.898700000005</coordinates>
</LineString>
</Placemark>
</Folder>
</Document></kml>
