<?xml version="1.0" encoding="UTF-8"?>

<kml xmlns:xsd="http://www.w3.org/2001/XMLSchema" xmlns:gx="http://www.google.com/kml/ext/2.2" xmlns:atom="http://www.w3.org/2005/Atom" xmlns="http://www.opengis.net/kml/2.2">
<Document>
<name>ES33a_01a_bayona-ustaritz</name>
<visibility>1</visibility>
<Schema name="ES33a_01a_bayona-ustaritz" id="kml_schema_ft_ES33a_01a_bayona-ustaritz">
<SimpleField type="xsd:string" name="id">
<displayName>id</displayName>
</SimpleField>
<SimpleField type="xsd:string" name="nombre">
<displayName>nombre</displayName>
</SimpleField>
<SimpleField type="xsd:double" name="longitud">
<displayName>longitud</displayName>
</SimpleField>
<SimpleField type="xsd:string" name="_formato">
<displayName>_formato</displayName>
</SimpleField>
</Schema>
<Folder id="kml_ft_ES33a_01a_bayona-ustaritz">
<name>ES33a_01a_bayona-ustaritz</name>
<Placemark id="kml_1">
<name>&lt;img height='20' src='https://nco.ign.es/iconos/icono_todos_caminos_azul.png' /&gt;&lt;img height='20' src='https://nco.ign.es/iconos/Camino Santiago_20.png' /&gt;&lt;img height='20' src='https://nco.ign.es/iconos/icono_todos_caminos_azul.png' /&gt;  Camino de Santiago </name>
<visibility>1</visibility>
<description><![CDATA[<!DOCTYPE html>
<html>
<head>
<style>
#nco {
  border-collapse: collapse;
  overflow:hidden;
}
#nco th, #nco td {
  padding: 4px;
  text-align: left;
}
#nco th {
  color: #364B5F;
  padding-right: 5px;
}
#nco td {
  color: rgb(51, 51, 51);
  font-size: 12px;
  padding-right: 5px;
}
</style>
</head>
<body>
<table id="nco">
<tr>
<td>Caminos del Norte</td>
</tr>
<tr>
<th><b>Camino: </b></th>
<td>ES33a Camino de Baztán</td>
</tr>
<tr>
<th><b>Etapa: </b></th>
<td>01a Bayona-Ustaritz</td>
</tr>
<tr>
<th><b>Longitud: </b></th>
<td>14 km</td>
</tr>
</table>
</body>
</html>]]></description>
<Style>
<IconStyle>
<scale>0.8</scale>
</IconStyle>
<LabelStyle>
<color>ffffffff</color>
<scale>0.75</scale>
</LabelStyle>
<LineStyle>
<color>ffff0000</color>
<width>3.0</width>
<gx:labelVisibility>1</gx:labelVisibility>
</LineStyle>
<PolyStyle>
<color>66ff0000</color>
</PolyStyle>
</Style>
<ExtendedData>
<SchemaData schemaUrl="#kml_schema_ft_ES33a_01a_bayona-ustaritz">
<SimpleData name="id">ES33a_01a</SimpleData>
<SimpleData name="_formato">kml</SimpleData>
</SchemaData>
</ExtendedData>
<LineString>
<extrude>0</extrude>
<tessellate>1</tessellate>
<coordinates>-1.47779222603073,43.4905858712788,17.0 -1.4778835882884,43.4904668481815,17.0 -1.47771896752101,43.4903211708381,19.0 -1.47775534569677,43.4900561349038,20.0 -1.47724354673331,43.4899238683917,21.0 -1.47673174776985,43.4897914340966,21.0 -1.47605549512565,43.489738460558,20.0 -1.47554369616219,43.489738460558,17.0 -1.475488543197,43.4892082214347,15.0 -1.47552508845938,43.4887708540271,15.0 -1.47552508845938,43.4884261895968,15.0 -1.47554336109058,43.4882672691598,14.0 -1.47514102992935,43.4880816939567,10.0 -1.47517757519173,43.487936183573,9.0 -1.4753421950608,43.4878568909125,9.0 -1.47543355821679,43.4873663823324,6.0 -1.47547010347918,43.4868230670406,2.0 -1.47523239218702,43.486067354544,-1.0 -1.47481178839456,43.4853119773811,-4.0 -1.47420862717347,43.484543021983,0.0 -1.47336808973176,43.4836679511617,6.0 -1.47221658338653,43.4827665609883,4.0 -1.47101026004598,43.4819181449791,12.0 -1.47080641254507,43.4817261996659,12.0 -1.47068755734817,43.4814889917519,11.0 -1.47065771711105,43.4810848164442,7.0 -1.47069459744505,43.4807237239406,5.0 -1.47080590948853,43.4803897889394,4.0 -1.47096935615785,43.4800286961929,2.0 -1.47119231531641,43.4796679389386,3.0 -1.47148953730119,43.4793229403232,4.0 -1.47186085592389,43.478983473222,4.0 -1.4722325096182,43.4786438379929,4.0 -1.47260382734257,43.4783043709874,4.0 -1.4730718729618,43.4780349768455,3.0 -1.47352483137582,43.4777385927523,3.0 -1.4742530506609,43.4774368443669,3.0 -1.47499585499292,43.47713492825,6.0 -1.47570915505775,43.4768494402242,10.0 -1.47642983118937,43.4765475244316,11.0 -1.47713575518742,43.4762025249479,12.0 -1.47789347873968,43.475868254666,14.0 -1.4786289070049,43.4755017979628,15.0 -1.47937187932188,43.4751246122988,13.0 -1.48001845881562,43.4747309980205,13.0 -1.48066487122269,43.4743268231383,17.0 -1.48134078789701,43.4739224799712,18.0 -1.48199457637088,43.4735018756951,15.0 -1.48226967105359,43.4733186476172,15.0 -1.4829160834607,43.4730333273547,20.0 -1.48356987193458,43.4727478401602,25.0 -1.48403054058868,43.4724028411485,28.0 -1.48432776347182,43.471939321655,24.0 -1.48455809779885,43.4714702703022,20.0 -1.48469924918115,43.4710012192207,16.0 -1.48478826503926,43.4704783558953,12.0 -1.4847807209875,43.4703060242246,10.0 -1.48475825771552,43.4702091289642,10.0 -1.48486956975902,43.4698693270686,9.0 -1.48492874538002,43.4694113394557,8.0 -1.48490661717965,43.4688453932032,7.0 -1.48480251411632,43.4682470934861,6.0 -1.48463889946204,43.4676541574214,1.0 -1.48439364501642,43.4670612214081,0.0 -1.48408150291308,43.4665167331604,0.0 -1.48372476933736,43.4659829735872,1.0 -1.48333836350944,43.4654599429725,2.0 -1.4830335974729,43.464926350758,4.0 -1.48283276741304,43.4648026342524,4.0 -1.48252816846313,43.4644685310712,4.0 -1.48217126690245,43.4640856458547,3.0 -1.48169567812975,43.4635951372745,2.0 -1.48136844882123,43.4630776385447,2.0 -1.48119762518678,43.462490066795,1.0 -1.48113073752907,43.4619886616687,0.0 -1.4812495936243,43.4614334442048,1.0 -1.48145008861255,43.46102356898,1.0 -1.48170255114001,43.4606084974793,1.0 -1.48207403684934,43.4601825287713,1.0 -1.48261617910646,43.4597942793919,1.0 -1.48320324700925,43.4594762698694,2.0 -1.48377539569181,43.4592120721386,2.0 -1.4841913057869,43.4590397402985,3.0 -1.4847337831156,43.458899594877,7.0 -1.48531330786496,43.4587326272969,13.0 -1.48581102483802,43.4585601278145,19.0 -1.48616742334216,43.4583445453166,18.0 -1.48645726926014,43.4580910763167,14.0 -1.48658333343725,43.4577730669651,11.0 -1.48644955812176,43.4573472660785,7.0 -1.4859887214827,43.4568081423865,3.0 -1.48545362022076,43.4563335586948,2.0 -1.484576538415,43.4557997992008,2.0 -1.48391503880271,43.4553847277046,2.0 -1.48331304988306,43.4548833223423,2.0 -1.4828300850436,43.4544573537308,1.0 -1.48251794294023,43.4540530106735,1.0 -1.48211661699379,43.4537457301832,2.0 -1.48187119546154,43.453621677783,2.0 -1.48165561236978,43.4535356800293,3.0 -1.48144740624311,43.4534064304738,2.0 -1.48100148882428,43.4532178377914,1.0 -1.48055557140545,43.4530020875631,0.0 -1.47992391113198,43.4529375470257,0.0 -1.47926978758648,43.4529432465768,2.0 -1.4788760056918,43.4530082905462,2.0 -1.4783409053282,43.4531378748382,2.0 -1.47780580406626,43.4532458332776,2.0 -1.47747857475771,43.4532622621158,2.0 -1.47712184118198,43.4530897626786,2.0 -1.47683953841743,43.4528362938241,2.0 -1.47663133229077,43.4524912946361,2.0 -1.47635623850635,43.4519466386452,2.0 -1.47619245586712,43.4514559618031,3.0 -1.47610344000897,43.4513535348781,3.0 -1.47606622460339,43.4509273992363,4.0 -1.47582817823964,43.45041509732,4.0 -1.4754865318691,43.4497839395563,4.0 -1.47499585499292,43.4492718053426,4.0 -1.47446813069609,43.4488349405857,4.0 -1.47393303033248,43.4484627843588,4.0 -1.47370269510712,43.4482416699996,4.0 -1.47371744724072,43.447993565191,4.0 -1.47381400715063,43.447697181175,3.0 -1.47402187820567,43.4474168902589,2.0 -1.47425221253274,43.4470554628984,2.0 -1.47451959517873,43.4466672127149,2.0 -1.4747868107381,43.4462734313875,2.0 -1.47502468911689,43.4458097441492,3.0 -1.47524748029053,43.4453297965067,3.0 -1.47540321582143,43.4448877351718,2.0 -1.47548502269941,43.4443323502498,2.0 -1.47557403855755,43.4437712656839,1.0 -1.47554419921874,43.4431295468492,1.0 -1.47550681582819,43.4424445779948,1.0 -1.47538779264633,43.441781233676,2.0 -1.4752541853158,43.4410692750884,1.0 -1.47512041000031,43.4403465876057,1.0 -1.47500893087017,43.439602274735,2.0 -1.4748600683495,43.4389496591554,1.0 -1.47442169498243,43.4382806160268,2.0 -1.47398298564544,43.4379352813811,2.0 -1.47321771804143,43.4376821482196,1.0 -1.47251162695675,43.4375098163425,0.0 -1.47167209562819,43.4375854211467,2.0 -1.47078763685733,43.4376556614455,3.0 -1.47020811210797,43.4376665579046,3.0 -1.46949447697153,43.4375426734308,3.0 -1.46912282327725,43.4374888615574,4.0 -1.46845394759815,43.4375052901095,4.0 -1.46778507191909,43.437521551019,5.0 -1.46708652398784,43.4375379795622,7.0 -1.46638059998981,43.4376030231385,11.0 -1.46562991653441,43.4376678990071,16.0 -1.46487956904896,43.4377329424437,18.0 -1.46432200451504,43.4378087146066,21.0 -1.46374247976568,43.4377981534479,24.0 -1.46329622727527,43.4376472795525,23.0 -1.46282063760428,43.4374533222254,19.0 -1.46234471376,43.4371621349147,15.0 -1.46172059663995,43.4368062390769,8.0 -1.46116303300437,43.4364448115956,7.0 -1.46037530123004,43.4359809570487,9.0 -1.4596616660936,43.4354414974286,10.0 -1.45894836602874,43.4349022058633,11.0 -1.45850228152329,43.4345625714847,13.0 -1.45816063515275,43.4340336734317,8.0 -1.45778898145847,43.4334352053701,4.0 -1.45772209380072,43.43326270549,3.0 -1.45766995827657,43.4330578518257,2.0 -1.4574915914887,43.4326803308861,1.0 -1.45740224055896,43.432389144092,1.0 -1.45753601587446,43.432243633996,1.0 -1.45786291011139,43.43211974951,2.0 -1.45831586762711,43.432028219283,3.0 -1.45889539237644,43.4319529493664,2.0 -1.45948246117756,43.4318776800085,2.0 -1.45999509826918,43.4317159094793,2.0 -1.46053740761292,43.4315543061725,1.0 -1.46090872623562,43.4313710781716,2.0 -1.4611757729117,43.4311285053173,2.0 -1.46133150934093,43.430772442217,2.0 -1.46136872474652,43.4303895569706,2.0 -1.46118281390692,43.4299308991124,1.0 -1.46091509618931,43.429288845599,1.0 -1.46064754555836,43.4286469594614,2.0 -1.46042441931313,43.4279832805554,3.0 -1.46020129306791,43.4273196008963,3.0 -1.46013440541016,43.4270336107875,3.0 -1.46020129306791,43.4268988296368,3.0 -1.46031998117818,43.4268019346224,3.0 -1.46044604445696,43.4267427589106,3.0 -1.46042391625656,43.4265539982853,3.0 -1.46023800631525,43.4262520818366,3.0 -1.46016357460578,43.4261659159948,4.0 -1.46000750400326,43.4261875414646,4.0 -1.45993307229376,43.4261821766891,3.0 -1.45979929697827,43.4260960107478,3.0 -1.45944256340254,43.4258209167121,2.0 -1.45899664598371,43.4254596571887,2.0 -1.45885532751479,43.4252708964769,2.0 -1.45872138421434,43.4249527191325,3.0 -1.45842416222957,43.4245857593822,3.0 -1.45801546021632,43.4242084061193,2.0 -1.45774036643191,43.4239334796631,2.0 -1.4574874008479,43.4235395308002,3.0 -1.45737608880443,43.423032257619,3.0 -1.45735379351737,43.4224874342631,2.0 -1.45735379351737,43.4219426105714,1.0 -1.45710099502002,43.4213384424335,2.0 -1.45675901357786,43.4208797851528,4.0 -1.45614981657637,43.4205024316262,10.0 -1.45577061883033,43.420297577837,13.0 -1.45564405249498,43.4200385769037,13.0 -1.4556738918338,43.4197420252785,10.0 -1.45585963468845,43.4194345770282,6.0 -1.45619390499218,43.4190786813391,3.0 -1.45652817529596,43.4186956288172,3.0 -1.45675851052132,43.4183449298263,2.0 -1.4570704846397,43.417951148178,2.0 -1.45732278008051,43.4175303763988,1.0 -1.45751589900199,43.4172011355594,2.0 -1.45770180984159,43.4167910923953,3.0 -1.45792443303024,43.4163433316335,3.0 -1.45811017588492,43.4159979970949,3.0 -1.45845953339388,43.4156313726242,4.0 -1.45882330796479,43.4152104333383,5.0 -1.45927643436379,43.4147950259177,4.0 -1.45968496839207,43.4143254719181,3.0 -1.46003399082941,43.4139207934152,2.0 -1.46016038917977,43.4137643871031,2.0 -1.46063564377915,43.4136513995119,2.0 -1.46108122522806,43.413532879414,3.0 -1.46157173411928,43.4134951608614,4.0 -1.4619948531945,43.4133659118984,4.0 -1.46232912349824,43.4131987768694,4.0 -1.46238863508919,43.4129992871536,4.0 -1.46226961190733,43.4127347546084,4.0 -1.46212091647328,43.4124328384138,4.0 -1.46200926935819,43.4122601710078,4.0 -1.46204631767715,43.4121686407689,4.0 -1.462261564799,43.4120229632987,4.0 -1.46254369957859,43.4118720891014,4.0 -1.46268485096088,43.4117968195712,4.0 -1.46282583435819,43.411780558276,4.0 -1.46325683255679,43.411775361891,4.0 -1.4636950379389,43.411770164853,4.0 -1.46413324421935,43.4117648007576,5.0 -1.46455686545282,43.4117594360092,13.0 -1.46470522491692,43.4116732704227,17.0 -1.46473489716908,43.4114142691435,17.0 -1.46470488984534,43.4110635703993,17.0 -1.46469013771173,43.410513047388,17.0 -1.46469013771173,43.4099251405515,18.0 -1.46469013771173,43.4093368984492,19.0 -1.46477177750308,43.4088945017395,21.0 -1.46494997630597,43.408430312064,23.0 -1.46534375820065,43.4080363621783,31.0 -1.46555162925574,43.4078045186882,34.0 -1.46556654937429,43.4074161015033,31.0 -1.46534359111403,43.4069844335083,24.0 -1.46517260039295,43.4064825252011,19.0 -1.46506832934466,43.4061155657582,18.0 -1.46498668955331,43.4056569073813,17.0 -1.4648453701861,43.4054631183848,17.0 -1.46379008867912,43.4049883668563,10.0 -1.46273464008551,43.4045136161756,10.0 -1.46167952566516,43.4040170724102,14.0 -1.46049046884272,43.403504267584,15.0 -1.46012619121521,43.4033153392204,15.0 -1.45980667304507,43.403169661994,14.0 -1.45947206766971,43.4028296916271,14.0 -1.45907090970823,43.4024141170505,14.0 -1.45855793754502,43.4020686149746,14.0 -1.45800070808272,43.4015450812771,14.0 -1.45727969687948,43.4009461105771,13.0 -1.45688574789814,43.4004063158846,12.0 -1.45667318224742,43.4000492470899,12.0</coordinates>
</LineString>
</Placemark>
</Folder>
</Document></kml>
