<?xml version="1.0" encoding="UTF-8"?>

<kml xmlns:xsd="http://www.w3.org/2001/XMLSchema" xmlns:gx="http://www.google.com/kml/ext/2.2" xmlns:atom="http://www.w3.org/2005/Atom" xmlns="http://www.opengis.net/kml/2.2">
<Document>
<name>ES34a_02a_malagon-urda</name>
<visibility>1</visibility>
<Schema name="ES34a_02a_malagon-urda" id="kml_schema_ft_ES34a_02a_malagon-urda">
<SimpleField type="xsd:string" name="id">
<displayName>id</displayName>
</SimpleField>
<SimpleField type="xsd:string" name="nombre">
<displayName>nombre</displayName>
</SimpleField>
<SimpleField type="xsd:double" name="longitud">
<displayName>longitud</displayName>
</SimpleField>
<SimpleField type="xsd:string" name="_formato">
<displayName>_formato</displayName>
</SimpleField>
</Schema>
<Folder id="kml_ft_ES34a_02a_malagon-urda">
<name>ES34a_02a_malagon-urda</name>
<Placemark id="kml_1">
<name>&lt;img height='20' src='https://nco.ign.es/iconos/icono_todos_caminos_azul.png' /&gt;&lt;img height='20' src='https://nco.ign.es/iconos/Camino Santiago_20.png' /&gt;&lt;img height='20' src='https://nco.ign.es/iconos/icono_todos_caminos_azul.png' /&gt;  Camino de Santiago </name>
<visibility>1</visibility>
<description><![CDATA[<!DOCTYPE html>
<html>
<head>
<style>
#nco {
  border-collapse: collapse;
  overflow:hidden;
}
#nco th, #nco td {
  padding: 4px;
  text-align: left;
}
#nco th {
  color: #364B5F;
  padding-right: 5px;
}
#nco td {
  color: rgb(51, 51, 51);
  font-size: 12px;
  padding-right: 5px;
}
</style>
</head>
<body>
<table id="nco">
<tr>
<td>Caminos del Centro</td>
</tr>
<tr>
<th><b>Camino: </b></th>
<td>ES34a Camino Manchego de Ciudad Real a Toledo</td>
</tr>
<tr>
<th><b>Etapa: </b></th>
<td>02a Malagón-Urda</td>
</tr>
<tr>
<th><b>Longitud: </b></th>
<td>35.26 km</td>
</tr>
</table>
</body>
</html>]]></description>
<Style>
<IconStyle>
<scale>0.8</scale>
</IconStyle>
<LabelStyle>
<color>ffffffff</color>
<scale>0.75</scale>
</LabelStyle>
<LineStyle>
<color>ffff0000</color>
<width>3.0</width>
<gx:labelVisibility>1</gx:labelVisibility>
</LineStyle>
<PolyStyle>
<color>66ff0000</color>
</PolyStyle>
</Style>
<ExtendedData>
<SchemaData schemaUrl="#kml_schema_ft_ES34a_02a_malagon-urda">
<SimpleData name="id">ES34a_02a</SimpleData>
<SimpleData name="_formato">kml</SimpleData>
</SchemaData>
</ExtendedData>
<LineString>
<extrude>0</extrude>
<tessellate>1</tessellate>
<coordinates>-3.85342005648052,39.1664136570849,634.911500000002 -3.85221390022663,39.1674240118559,637.510800000004 -3.85317480203492,39.1685237179576,636.841 -3.85386111221705,39.1693094374377,642.235000000001 -3.85199429447903,39.1716947595656,639.774000000005 -3.85297497718985,39.1744280981821,634.721600000004 -3.85385876491921,39.1747380606818,630.705400000006 -3.85467013316529,39.1749913619733,629.037200000006 -3.85488303388762,39.1754032482191,629.102100000004 -3.85482603668115,39.1764286904003,628.571100000001 -3.85450735663917,39.1768268308569,629.014899999995 -3.85436436191394,39.1773696432819,629.246899999998 -3.85351024553844,39.1795367001491,630.275999999998 -3.85343715591197,39.1800169831072,630.190400000007 -3.85316273227076,39.1802530177345,629.771900000007 -3.85323666002539,39.1806483080169,629.636899999998 -3.85264657468155,39.1809133442167,630.341400000005 -3.85124243782389,39.1819215193766,630.857499999998 -3.84970704093351,39.1829397529497,630.892900000006 -3.84820165136691,39.1845326495233,633.358399999997 -3.84728953257016,39.185528084323,636.582699999999 -3.84619820885733,39.18699240283,638.296600000001 -3.84413659594155,39.1884456572149,638.8989 -3.84305818012105,39.1890645771818,640.194600000003 -3.84258862623046,39.1903805363181,642.764599999995 -3.84179737395854,39.1918426754938,643.138500000001 -3.8416107929757,39.1936238297893,638.383100000006 -3.84148506476854,39.194703418875,636.872499999998 -3.84126110039516,39.1952981983073,636.8946 -3.84126160255341,39.1963134143823,637.653900000005 -3.84109832386904,39.1971512694961,638.013999999996 -3.84079724541676,39.1980796493484,638.4179 -3.84010188291151,39.1988668777708,638.935500000007 -3.83955018617303,39.1991044210118,639.168699999995 -3.83849289243982,39.1995796749446,640.016900000002 -3.83764162641871,39.1998733766588,640.492199999993 -3.83624637479751,39.2010699769379,641.330199999997 -3.83480401731945,39.2021951639166,642.638800000001 -3.83365955196936,39.2031205255946,644.8223 -3.83324800050006,39.2034829596627,645.832899999994 -3.83177798209777,39.2042307928806,647.556800000006 -3.83065463973327,39.204994049172,652.409799999994 -3.82969038541237,39.2055222767794,656.1826 -3.82903173525617,39.2057378589256,662.106 -3.82851490752373,39.2057826180412,666.997700000007 -3.82858816513516,39.2061239296355,668.885999999999 -3.82780244558706,39.2061115240291,675.886400000003 -3.82742995376462,39.2058806869102,676.093099999998 -3.82666653040189,39.2058144695908,677.035900000003 -3.82581543146741,39.2061443812704,674.725399999996 -3.82489241700456,39.2062587108185,672.277400000006 -3.8230014588399,39.2065959981542,666.936799999996 -3.82173378056546,39.2068747800697,664.571200000006 -3.82115609915908,39.2068789711453,663.7935 -3.82028019055309,39.2070652172517,663.030899999998 -3.81960947063272,39.2070162671902,662.697400000005 -3.81693011144887,39.2075957917414,659.500599999999 -3.81680823881089,39.208564236588,660.467399999994 -3.81628755461097,39.2095030100794,660.932199999996 -3.81429718797868,39.2112430926953,662.460000000006 -3.81356880070864,39.2122009765954,663.516799999998 -3.81232894954675,39.2128926514733,664.630999999994 -3.81173098418124,39.2131488025534,665.045800000007 -3.81129864569624,39.2137450913648,664.614000000001 -3.81070151935721,39.2140731589611,665.444099999993 -3.81013540555675,39.2150836813523,666.752900000007 -3.80949318379047,39.2155198753667,667.306500000006 -3.80915170540488,39.2159719950129,667.641600000003 -3.80862297499493,39.2162276434951,667.847500000003 -3.80777237911703,39.2166291365209,668.246700000003 -3.80703376632413,39.2167060819027,668.515899999999 -3.80620379037526,39.2168918252026,669.028099999996 -3.80537951333852,39.217562712566,669.668799999999 -3.80381913879171,39.2185445689253,671.122000000003 -3.8031505981842,39.2186932635506,671.473100000003 -3.80193153403802,39.2192050631242,672.318499999994 -3.80145628033694,39.2192732916502,672.5723 -3.79978140832062,39.2191482335747,672.395099999994 -3.79867851700191,39.2197130061926,673.059500000003 -3.79713943252731,39.220550693546,674.391600000003 -3.7964769268019,39.2212386798418,675.502200000003 -3.7956491301659,39.2216217333806,676.032000000007 -3.79409277827493,39.2229809428333,677.517900000006 -3.79333756820882,39.2236511596068,678.452699999994 -3.79181005044182,39.2252804338448,680.223899999997 -3.78520544603013,39.2260435225901,680.656900000002 -3.78268886337239,39.2262941414303,679.316500000001 -3.78009969324639,39.2265585065105,678.2166 -3.77922697006642,39.2264083024745,677.576000000001 -3.77789240323594,39.2273152245542,678.217999999993 -3.7761856805529,39.2276503328801,676.507899999997 -3.77496996891935,39.2285036109383,678.012000000002 -3.77442313386316,39.2292266342136,680.455000000002 -3.77408768946135,39.2302535844813,683.496899999998 -3.77382332425637,39.2314418035134,688.520000000004 -3.77355845689319,39.2325760421806,691.1728 -3.77301581247783,39.2336943555928,693.999400000001 -3.7724248881075,39.234615024397,695.975200000001 -3.77183094629615,39.2352481931062,697.040099999998 -3.77089066441693,39.2359378562154,699.656000000003 -3.7698779630544,39.2363582926427,704.973499999993 -3.76939013563432,39.2382490818969,713.739600000001 -3.76825472350568,39.2401262934877,715.1728 -3.7663635982544,39.2426737209335,715.528399999996 -3.76556111524477,39.2451041377713,714.435200000007 -3.76311091718821,39.2478301002739,715.159799999994 -3.76272166190423,39.2479471119162,715.727299999999 -3.76210995051826,39.2491199077088,716.281099999993 -3.76149203626524,39.2497173698935,716.803899999999 -3.76062886756663,39.2511614038211,717.729000000007 -3.76010449578246,39.2518480493575,718.249100000001 -3.76047816170297,39.2522054536152,718.128800000006 -3.75969294431312,39.2523006723478,718.510500000004 -3.75903898875258,39.2538511566986,720.125199999995 -3.75867957280743,39.2548242958791,720.906900000002 -3.75765647703875,39.2564492111606,721.554600000003 -3.75658560527001,39.2579302937292,722.961599999995 -3.75491039818211,39.2591279000546,725.339500000002 -3.75374531380131,39.2604659868303,726.454700000002 -3.75312739954829,39.2610632813946,727.114300000001 -3.75164480922362,39.2608213794725,728.733600000007 -3.75117961306045,39.2605727723686,729.294599999994 -3.75020647440139,39.2603996026011,730.080799999996 -3.74921573325431,39.2607474510348,730.8272 -3.74873444467117,39.261164199856,731.866399999999 -3.74741496504588,39.2610468527618,733.150800000003 -3.74702285940751,39.2611393893161,733.510699999999 -3.74681616245053,39.2612847316167,734.203599999993 -3.74642204458593,39.2611973916164,734.3315 -3.74567052390071,39.2621085045544,734.836500000005 -3.74487055437726,39.2631849088972,735.931100000002 -3.74367848011377,39.2641815171141,737.513399999996 -3.74314907956061,39.2644188922177,738.310100000002 -3.74228037903647,39.2653772792942,739.085099999997 -3.74104388038726,39.2665539307225,740.195300000007 -3.73925132637375,39.2676442486013,742.405199999994 -3.73791592231344,39.2682101949827,744.035199999998 -3.73889677211092,39.2691208050516,743.200800000006 -3.73979128931801,39.2706255243965,742.183399999994 -3.74024273856236,39.2717735096044,741.388200000001 -3.74045463317157,39.2721319201007,741.142000000007 -3.74031867854322,39.2724024874159,741.441399999996 -3.74050643272581,39.2726710439115,741.126099999994 -3.74101219680716,39.2723801920399,740.343800000002 -3.74193839759435,39.2724824509822,741.043300000005 -3.74233452588855,39.2727676034395,741.606299999999 -3.74333599561507,39.2734264209925,742.724000000002 -3.7441243975326,39.2736193723248,743.034700000004 -3.74443067273882,39.2741569874753,744.309599999993 -3.74442178750233,39.2755056362057,747.983900000007 -3.74433646012677,39.2761895990096,748.848499999993 -3.74459378433653,39.2768249472163,750.896900000007 -3.74501019748815,39.278666451827,754.639200000005 -3.74558636882655,39.2806584947845,761.565700000006 -3.74588325663808,39.2824723386686,766.230500000005 -3.74653033918836,39.2846077122497,766.583799999993 -3.74745201336484,39.2864354701637,772.247900000002 -3.74842230256783,39.28849691553,773.419699999999 -3.74991394611395,39.2908133383205,775.537400000001 -3.75292388711899,39.2935471792669,780.974400000006 -3.75531457358461,39.2961975372727,787.699600000007 -3.75709237546452,39.2993764581705,799.368000000002 -3.75869633626893,39.3020757663684,807.821400000001 -3.76025570560095,39.3058239852928,813.191300000006 -3.76107294074415,39.308571908799,818.851800000004 -3.76326212700673,39.3133214299244,822.284899999999 -3.76475511083925,39.3161087479723,830.521999999997 -3.76563420487124,39.3193369546215,834.890100000004 -3.76661773793648,39.3218215184061,839.264200000005 -3.76635421085967,39.3234402315605,839.862699999998 -3.76464480490889,39.3257605096532,834.479699999996 -3.76364400622391,39.3292346409238,829.888000000006 -3.76282542899765,39.3301063587346,828.327600000004 -3.76060489602325,39.3329181523355,827.514899999995 -3.75921886381182,39.3348503484422,828.720100000006 -3.75842040435636,39.335881993361,827.574800000002 -3.75704409550955,39.3367000671225,829.262199999997 -3.75581815835311,39.3378445318297,831.378899999996 -3.75481333611396,39.3385940416063,830.7212 -3.75219549984899,39.3411459957678,831.723299999998 -3.75124767391797,39.3419826775557,831.144499999995 -3.74896628816789,39.3444447778105,822.634399999995 -3.74700995151518,39.345725029387,822.497399999993 -3.74606749032307,39.3470857478915,826.672399999996 -3.74489888544468,39.3483608028752,825.033899999995 -3.74389691266162,39.3494162524391,825.857199999999 -3.74273099015267,39.3509533255415,820.717900000003 -3.74001542077801,39.3549913915629,814.726999999999 -3.73925317061506,39.3574436010969,813.972800000003 -3.7379791214886,39.3594185446873,812.434699999998 -3.73778248206953,39.3621292525061,813.567800000004 -3.73645663249058,39.3645415639356,809.063200000004 -3.73641170594658,39.3656343964084,806.453800000003 -3.73405002069159,39.3688609262775,803.035699999993 -3.73067462796096,39.373962823165,797.040599999993 -3.72952714606819,39.3749428350937,793.319799999997 -3.72965103003407,39.3760348298399,793.166400000002 -3.72883949470132,39.3792303465277,800.485700000005 -3.72786417583104,39.38290748742,800.322799999994 -3.72765529866288,39.3844821114535,798.097299999994 -3.72802678527054,39.3891404385694,802.900399999999 -3.72626943533471,39.3920514731217,795.335300000006 -3.72599517967849,39.3927523682839,794.084099999993 -3.7256862221028,39.3955514210482,796.746700000003 -3.72447738437781,39.3984870985432,785.708199999994 -3.72370373459385,39.3999339825488,784.089099999997 -3.72253227936107,39.4010338556816,782.928499999995 -3.72136283635453,39.402352496909,779.828699999998 -3.72058415780165,39.40331876288,777.334099999993 -3.71998736653421,39.4055515340392,774.820900000006 -3.71938336628663,39.4070850873723,771.8223 -3.71871734006362,39.4080506825386,769.132899999997 -3.71833194034886,39.4089270945024,767.811000000002 -3.71721597405119,39.4099827107443,764.865099999995 -3.71631676314673,39.4102070108266,765.362899999993 -3.71552886428574,39.4102993793136,766.296499999997 -3.71536608775963,39.4109122640464,764.111300000004 -3.71577411873137,39.4122647679286,763.573600000003</coordinates>
</LineString>
</Placemark>
</Folder>
</Document></kml>
