<?xml version="1.0" encoding="UTF-8"?>

<kml xmlns:xsd="http://www.w3.org/2001/XMLSchema" xmlns:gx="http://www.google.com/kml/ext/2.2" xmlns:atom="http://www.w3.org/2005/Atom" xmlns="http://www.opengis.net/kml/2.2">
<Document>
<name>ES19a_09a_almendricos-lorca</name>
<visibility>1</visibility>
<Schema name="ES19a_09a_almendricos-lorca" id="kml_schema_ft_ES19a_09a_almendricos-lorca">
<SimpleField type="xsd:string" name="id">
<displayName>id</displayName>
</SimpleField>
<SimpleField type="xsd:string" name="nombre">
<displayName>nombre</displayName>
</SimpleField>
<SimpleField type="xsd:double" name="longitud">
<displayName>longitud</displayName>
</SimpleField>
<SimpleField type="xsd:string" name="_formato">
<displayName>_formato</displayName>
</SimpleField>
</Schema>
<Folder id="kml_ft_ES19a_09a_almendricos-lorca">
<name>ES19a_09a_almendricos-lorca</name>
<Placemark id="kml_1">
<name>&lt;img height='20' src='https://nco.ign.es/iconos/icono_todos_caminos_azul.png' /&gt;&lt;img height='20' src='https://nco.ign.es/iconos/Camino Santiago_20.png' /&gt;&lt;img height='20' src='https://nco.ign.es/iconos/icono_todos_caminos_azul.png' /&gt;  Camino de Santiago </name>
<visibility>1</visibility>
<description><![CDATA[<!DOCTYPE html>
<html>
<head>
<style>
#nco {
  border-collapse: collapse;
  overflow:hidden;
}
#nco th, #nco td {
  padding: 4px;
  text-align: left;
}
#nco th {
  color: #364B5F;
  padding-right: 5px;
}
#nco td {
  color: rgb(51, 51, 51);
  font-size: 12px;
  padding-right: 5px;
}
</style>
</head>
<body>
<table id="nco">
<tr>
<td>Caminos del Sureste</td>
</tr>
<tr>
<th><b>Camino: </b></th>
<td>ES19a Camino Argar del Sureste de Almería</td>
</tr>
<tr>
<th><b>Etapa: </b></th>
<td>09a Almendricos-Lorca</td>
</tr>
<tr>
<th><b>Longitud: </b></th>
<td>25.34 km</td>
</tr>
</table>
</body>
</html>]]></description>
<Style>
<IconStyle>
<scale>0.8</scale>
</IconStyle>
<LabelStyle>
<color>ffffffff</color>
<scale>0.75</scale>
</LabelStyle>
<LineStyle>
<color>ffff0000</color>
<width>3.0</width>
<gx:labelVisibility>1</gx:labelVisibility>
</LineStyle>
<PolyStyle>
<color>66ff0000</color>
</PolyStyle>
</Style>
<ExtendedData>
<SchemaData schemaUrl="#kml_schema_ft_ES19a_09a_almendricos-lorca">
<SimpleData name="id">ES19a_09a</SimpleData>
<SimpleData name="_formato">kml</SimpleData>
</SchemaData>
</ExtendedData>
<LineString>
<extrude>0</extrude>
<tessellate>1</tessellate>
<coordinates>-1.77625788342134,37.4699191370776,310.0 -1.77336394815714,37.4716875509567,307.303799999994 -1.77186241415971,37.4726072136152,308.0 -1.77164951343738,37.4728283282199,308.0 -1.77143644562839,37.4732542962362,307.411099999998 -1.77125807884054,37.4737882239768,308.0 -1.77097745233231,37.474010008806,306.0 -1.77079522997522,37.4741736237899,307.099100000007 -1.77078047784162,37.4743717718446,310.011400000003 -1.77080696466777,37.474562544174,312.0 -1.77075650539995,37.474824730125,312.0 -1.77054896941652,37.4753760917128,312.0 -1.77023615716994,37.4757551213045,312.0 -1.76965612936404,37.4761990265307,312.0 -1.76924206351023,37.4765255856927,312.0 -1.76876982635191,37.4768819840864,312.0 -1.76794035345958,37.4775143148123,312.0 -1.76759334324847,37.4778666899151,312.0 -1.76709428419238,37.4781437957567,312.0 -1.76630521213166,37.4787280146583,312.0 -1.76580112430658,37.4791154256979,312.0 -1.7651501852888,37.4796091203401,312.0 -1.76384512362378,37.4805857797504,312.0 -1.76270065827373,37.4814263168492,312.0 -1.76208408520544,37.481928225409,312.0 -1.76142241850649,37.4825741345295,311.959000000003 -1.76074516064751,37.4834601020447,312.0 -1.76012808452264,37.4843021479504,312.0 -1.7594253459506,37.4852248274362,312.0 -1.7591210829706,37.485584076246,312.0 -1.75821214870153,37.4863272155846,312.0 -1.75752818581725,37.4869176367829,312.975600000005 -1.75701370448435,37.4877610236966,312.0 -1.75647709495106,37.4885760797909,312.0 -1.75569523097217,37.4898046994624,312.0 -1.75489123879289,37.4910381806669,312.0 -1.75407567990601,37.4923145764368,312.0 -1.75325877983439,37.4935458779645,312.0 -1.75244506429046,37.4947014072234,312.0 -1.75162514677782,37.4958500636532,312.792799999996 -1.75097504588817,37.4967985596169,312.0 -1.75054874228526,37.4973132085943,312.742499999993 -1.75022402736118,37.4975701974944,312.0 -1.74966646372559,37.4979093293789,312.0 -1.74860615255133,37.4985361283737,313.0 -1.74843734114315,37.4986486130044,314.0 -1.74841990664011,37.4987847353592,314.0 -1.74849031479545,37.4989019141172,314.0 -1.74869164791186,37.4989755073604,313.0 -1.74922876050172,37.4991894134809,314.0 -1.749321799914,37.4993359294017,314.0 -1.74925826476889,37.4994923356958,314.0 -1.74895282858915,37.4998611392429,314.569600000003 -1.74862576636726,37.5002493892696,314.706399999995 -1.74820834800081,37.5007323546216,315.0 -1.74778522892559,37.5011549700819,315.036300000007 -1.74747627224822,37.5015341675021,315.9522 -1.74714032568817,37.5019629850038,316.0 -1.74706405063569,37.5021901352024,316.838900000002 -1.7470679062049,37.5029230487949,318.0 -1.7469584384027,37.5032611743364,319.0 -1.74677453978929,37.5037761586126,320.0 -1.74647597572148,37.5045788096493,321.0 -1.74619082350084,37.5053197696231,321.244600000005 -1.74580425058629,37.50596987052,322.0 -1.74570903186112,37.5065039649555,322.325599999996 -1.74563175069556,37.5070990802663,323.0 -1.74553334744271,37.5073922795961,323.243600000002 -1.74526043207286,37.5079905795838,324.0 -1.74499422352494,37.5085694336355,325.0 -1.74474410739702,37.5091603581046,325.0 -1.74453372105917,37.5096265591533,325.0 -1.74430455993188,37.5104054054815,325.566699999996 -1.74417397004239,37.5107225772403,326.0 -1.7438858003807,37.511245272828,325.260800000004 -1.74354834465095,37.511789593362,325.070300000007 -1.74317216524426,37.5123008897174,325.0 -1.74295021219881,37.5126708662851,325.978199999998 -1.74258643762787,37.5134166882087,326.0 -1.74231603754083,37.5140096243027,326.0 -1.74210112549056,37.5145256139323,326.142999999996 -1.74175076186852,37.5152496429409,326.253200000006 -1.74152646242356,37.5157069598776,326.0 -1.74118028944228,37.5168361698135,326.096999999994 -1.74095062525845,37.5177385654208,327.0 -1.74079153721488,37.5183174193989,327.0 -1.74054326532823,37.519089225318,327.0 -1.74008963587269,37.5201937925312,328.0 -1.7398354970889,37.5207288930987,328.0 -1.73943232779952,37.5214395108205,329.0 -1.73906905538682,37.5221132478819,329.103400000007 -1.73874014982195,37.5228092811131,330.0 -1.73828870057759,37.5235182225583,330.0 -1.73771102006954,37.5242735997392,331.0 -1.73701381332301,37.5251367681522,331.0 -1.73684617511457,37.5254323139259,331.0 -1.73641216037325,37.5261513142052,331.810400000002 -1.73587957439416,37.5271418869903,332.305600000007 -1.73518622321681,37.5285658046655,333.0 -1.73474567053688,37.5292309926598,333.0 -1.73436244923667,37.5297461446882,334.0 -1.73350632153324,37.531208283324,335.0 -1.73319233608693,37.5316614091185,335.0 -1.7325375414999,37.5323715244891,335.520900000003 -1.73227116496702,37.532707973628,336.0 -1.73170672742288,37.5334444079419,336.0 -1.73128880599986,37.5339518480966,335.326199999996 -1.73059981344829,37.5348860952199,336.0 -1.73004660754016,37.535679525938,336.0 -1.72958342360325,37.5363433725612,336.0 -1.72920506488367,37.537022642299,336.0 -1.72887414709256,37.5375817150451,336.0 -1.72836586862673,37.5384069974459,336.0432 -1.7280146668765,37.5391523163672,336.0 -1.72785054916568,37.5394614408311,336.944499999998 -1.72760646791983,37.5399053463258,337.0 -1.72717932618873,37.5405762341066,337.0 -1.7265870606337,37.5415438407259,336.252900000007 -1.72623401464223,37.5423309012248,337.0 -1.72591416140047,37.5429468040715,336.083899999998 -1.72556027728081,37.5435999219637,336.0 -1.72517253116652,37.5443511078392,335.0 -1.72458227693943,37.5454679127519,335.0 -1.72430517182708,37.5462467588731,335.0 -1.7240275627599,37.5470557805458,335.0 -1.72376118622702,37.5475598682091,335.0 -1.72343513011824,37.5481841520101,334.949999999997 -1.72304620990585,37.5489334940636,334.0 -1.7226551103806,37.5495207301022,334.0 -1.72191599363282,37.550978678605,332.990999999995 -1.72159161378036,37.5516106738376,332.0 -1.72127813139062,37.5523045281308,332.0 -1.72086339449528,37.553288395965,331.0 -1.72081176202771,37.5536297067085,331.0 -1.72065904393782,37.5540662366937,330.620899999994 -1.7203727176191,37.5545663009544,330.0 -1.72013249284079,37.5549106296639,330.0 -1.71985924239933,37.5553885652463,329.919800000003 -1.71964751577507,37.5558527554445,329.290900000007 -1.71962304027685,37.5560837609446,329.9283 -1.71904368351245,37.5573272995615,329.0 -1.71880714631836,37.5577507538355,328.064899999998 -1.71860061554971,37.5583468746506,328.0 -1.71836206702769,37.5587359626145,327.506899999993 -1.71815603931558,37.5592549698585,327.0 -1.71791229403968,37.5597007193531,327.0 -1.71769972928723,37.5600636559276,327.0 -1.71722648691409,37.5612027568715,326.0 -1.7169892786785,37.5616667784009,325.754300000001 -1.71598294726966,37.5620536871268,325.0 -1.71589158501199,37.5627319507022,325.0 -1.71604732054293,37.5640918309761,324.0 -1.71576971147571,37.5648503930735,323.107900000003 -1.71556334959036,37.5655204425479,323.0 -1.71579971879949,37.5661852951564,323.0 -1.71595159876118,37.5666338948019,323.0 -1.71593131480209,37.5671272534574,323.0 -1.71604681748636,37.5677957935888,323.0 -1.71580692777963,37.5685265282772,323.0 -1.71567080516632,37.5688892972517,322.0 -1.71563258364762,37.5691878601703,322.0 -1.71552177555899,37.5699159125749,321.778200000001 -1.71524668087628,37.5707225868493,321.0 -1.71490184997806,37.5722276417044,319.0 -1.7147311943286,37.5732269321417,318.0 -1.71449549526267,37.5743923520121,317.903600000005 -1.71420682254443,37.5760695704227,316.314599999998 -1.71419491986689,37.57673526152,316.0 -1.7139188199694,37.578280213373,315.0 -1.71380884911062,37.5791648397485,314.2264 -1.71368161173377,37.580396309167,314.0 -1.71377062759192,37.5804479413794,314.0 -1.71396341144178,37.5805180142206,314.0 -1.71410104232645,37.580672576611,314.0 -1.71406416199245,37.5808086988045,314.0 -1.71390876153313,37.5808387057816,314.0 -1.71375134974591,37.5809426415983,313.803700000004 -1.71370457896063,37.581385876437,313.940199999997 -1.71368027144737,37.5818336377426,313.0 -1.71367088315434,37.581993899706,313.0 -1.71363836144612,37.5821950654667,313.0 -1.7135032449459,37.5824334463709,313.0 -1.71328950699374,37.5828647795043,312.179199999999 -1.71308532352291,37.5832159809578,312.0 -1.71293025813517,37.5834929192115,312.0 -1.71282196443105,37.5838411035999,312.0 -1.71271366982863,37.5843733540628,311.390100000004 -1.71261124302161,37.5848517932747,311.0 -1.71257520081577,37.5851314134571,311.0 -1.71255290552874,37.5855555382845,311.0 -1.71253077643004,37.5859783209749,311.0 -1.71251468401004,37.5864341292379,310.418099999995 -1.71248685599915,37.5869053598139,310.0 -1.71242633829509,37.5875420488549,310.0 -1.71241946528486,37.5882265153371,309.0 -1.71252105396372,37.5886885255687,309.0 -1.71251954479403,37.5895086108691,309.0 -1.71258777363648,37.5904493957769,308.0 -1.71257821825682,37.5915076953604,308.0 -1.71258827669305,37.592575214037,307.0 -1.71254049979466,37.5935240453792,307.0 -1.7123053037853,37.5945867035856,306.365099999995 -1.71229239589297,37.5954059509121,306.0 -1.71224495406619,37.5961008101284,305.876000000004 -1.71220069766539,37.5970134322826,305.256699999998 -1.71215174756725,37.5976987362194,304.600999999995 -1.71209558848894,37.5983089386881,304.439599999998 -1.7120508290316,37.5987513356048,304.0 -1.71201730121026,37.599700335167,304.0 -1.71195460509164,37.6005264555072,303.0 -1.71207329230358,37.601917683832,303.0 -1.71208938562192,37.6029738033681,302.0 -1.71208066837038,37.6038118259503,302.0 -1.71211905787408,37.6043958772817,302.0 -1.71200405824635,37.6049396949798,302.0 -1.71195460509164,37.605327609356,302.0 -1.71187263022871,37.6059376446393,302.0 -1.71169275427114,37.6066102080321,302.0 -1.71157825769999,37.6069585603935,302.0 -1.71155562644301,37.6076056430707,302.0 -1.71156987552007,37.6082689869424,301.546400000007 -1.71136636309078,37.6093046549555,301.0 -1.7112833821147,37.6099805717058,300.989799999996 -1.71121045957488,37.6109019103315,300.0 -1.71124499261104,37.6113791756122,300.0 -1.71133836709493,37.6117548529472,300.0 -1.71155428525831,37.6123159373848,300.0 -1.71182837292958,37.6129752578343,300.0 -1.71190347478228,37.6132532018439,300.0 -1.71190481596701,37.613836917174,300.0 -1.71181747726351,37.6142697590326,300.0 -1.71157255788951,37.6150641959287,300.0 -1.71140072904027,37.6157573793619,301.0 -1.71138346162386,37.616254425738,301.0 -1.711410116435,37.6167021871636,300.962199999994 -1.71128757275552,37.6168485355287,300.973599999998 -1.71095967330377,37.6169948836058,301.0 -1.71089898761475,37.6171985633372,301.575800000006 -1.71090485541019,37.6180161342823,302.0 -1.71088557666588,37.6182365782152,302.0 -1.71071710032928,37.6185879478729,302.0 -1.71057192629115,37.6190397325452,301.798999999999 -1.710436641806,37.6195049284117,302.0 -1.71025073186469,37.6198958598648,301.982199999999 -1.7100566068301,37.6202069966221,301.539999999994 -1.70976139617322,37.6205607128408,301.669399999999 -1.70955754777401,37.6209300190393,302.0 -1.70934263572374,37.621385827363,301.929699999993 -1.70928010759008,37.6215747552299,301.815900000001 -1.70920785519347,37.6218828738233,301.630300000004 -1.70908665269872,37.6221561241209,302.0 -1.70872606355375,37.6228600364245,302.865600000005 -1.7085887677407,37.6233116535472,303.487899999993 -1.70846957747215,37.6235309234555,302.943799999994 -1.70847494131272,37.624337430777,303.0 -1.70833479604357,37.6247084136933,302.872300000003 -1.70821728203134,37.6250160290841,302.935899999997 -1.70819582397417,37.6253186158589,302.838000000003 -1.70808501498724,37.6257362022117,304.0 -1.70793347099543,37.6262190000463,303.0 -1.70781830338275,37.6267145386013,303.879000000001 -1.70767782214366,37.6270652371185,303.309500000003 -1.70762853697394,37.627303953803,303.253400000001 -1.70760288827594,37.6276533112805,303.0 -1.70755427324939,37.6279005778128,303.0 -1.70702403366978,37.6293053842633,303.0 -1.70683611150224,37.6298351211091,303.4274 -1.70660728544654,37.6304721456622,303.108500000002 -1.706297658626,37.6311735432874,303.520799999998 -1.70611107764317,37.631982564366,304.0 -1.7060210556719,37.6323193490407,304.0 -1.70603849017494,37.6326740711869,303.635399999999 -1.70594813313209,37.6334825900401,304.974900000001 -1.7058923091254,37.6341281642267,304.770099999994 -1.70585777608924,37.6346822077561,305.0 -1.70569801700417,37.6352396041976,304.9133 -1.70558050299197,37.6356211486965,305.0 -1.7054101824141,37.6359421754231,305.722999999998 -1.70533407444827,37.6363787051232,305.932400000005 -1.70536508788513,37.6368485942487,306.0 -1.70547338158926,37.6375647444736,306.0 -1.705441027866,37.6382052894454,306.4856 -1.70544974511753,37.6391147259587,307.0 -1.70560145709427,37.6403359692436,308.0 -1.70564571439337,37.6407996561056,308.0 -1.70578250625158,37.6413719723271,309.0 -1.705836486017,37.6416437133817,308.830900000001 -1.70585308239187,37.6430424855849,310.0 -1.70589851199242,37.643657381934,310.743499999997 -1.70582525438102,37.6440915645241,310.913799999995 -1.70569349039343,37.6450023423246,311.8986 -1.70576490466192,37.6452107166653,312.0 -1.70578686487733,37.6454103735474,311.0 -1.70584989696587,37.646001129893,311.0 -1.70587588073548,37.6465709314973,311.986600000004 -1.70573472935318,37.6479381878587,312.0 -1.70567488269066,37.6485602928542,313.0 -1.70553104983726,37.6496081978249,313.0 -1.70543415485577,37.650357037581,313.983800000002 -1.70535385624916,37.6512389811762,314.0 -1.70529719411427,37.6515206128104,314.994999999995 -1.70540582378835,37.6522619085159,315.0 -1.70545829438407,37.6524221702416,315.0 -1.70538503677264,37.6526682633357,315.0245 -1.7052837831654,37.652942016354,315.0 -1.7049381132407,37.6538460884379,316.0 -1.70442480600588,37.6552146851772,317.0 -1.70418022170349,37.6558118119121,317.497099999993 -1.70389741678069,37.6565554543597,318.993900000001 -1.70349525270609,37.6567448859403,318.0 -1.70337723563732,37.6568437921881,319.0 -1.70325838044038,37.6570216564014,319.0 -1.70303542128182,37.6573824129909,319.623000000007 -1.70235263159728,37.6586328258872,322.0 -1.70169733485205,37.6593570219219,321.0 -1.70087557309811,37.6601605112709,320.0 -1.70071749026936,37.6602574061058,320.939700000003 -1.69980520348765,37.6606877332494,321.0 -1.69971819985573,37.6607688698654,320.691099999996 -1.69972188743998,37.6609013039924,320.518899999995 -1.69992104214183,37.6611308001187,320.4372 -1.69990712813638,37.6614136060143,320.0 -1.69989438733072,37.6616866881903,320.0 -1.70014450345867,37.6621879260015,320.0 -1.70052990317344,37.6627344257034,320.0 -1.7009005507546,37.6633040605153,321.0 -1.70104505464953,37.6635836801489,323.532699999996 -1.7011201565022,37.6637613767475,324.879499999995 -1.70109735815863,37.6639124189486,324.0 -1.70119106771411,37.6639476226416,324.0 -1.70111764211773,37.6640869296881,324.0 -1.70108227095341,37.6641523086206,324.0 -1.70106030983967,37.6644751796781,324.284199999995 -1.70103566725479,37.6649539540859,325.997099999993 -1.70098738729986,37.6651831155541,326.048599999995 -1.70100666604417,37.6659088206312,328.0 -1.70098738729986,37.6662829885952,329.0 -1.70097766483354,37.6663775366623,329.301300000006 -1.7009416226277,37.6664338628256,329.0 -1.70084774508726,37.6664670550724,329.0 -1.70085076252827,37.6665398101672,329.364700000006 -1.70102091512119,37.6666248023062,330.052299999996 -1.70114010538971,37.667327708823,332.0 -1.70124940610528,37.6680410088591,332.0 -1.70115888107748,37.6683925461939,331.864199999996 -1.70110372811228,37.6692096136247,331.0 -1.7006938528993,37.6693765810555,330.0 -1.7005770090303,37.6694811874023,330.0 -1.70069334984272,37.6700716086193,330.0 -1.70047944390561,37.6700514921583,330.0 -1.70007325717514,37.6705606088064,330.0 -1.69965550283881,37.6711312487019,331.0 -1.69984577230417,37.6713168240764,331.0 -1.69973647248692,37.6714438937714,330.076199999996 -1.69980637758572,37.6720180543265,330.5141 -1.69984174875003,37.672323490758,331.0 -1.69950144356419,37.6722723610347,329.2641 -1.69930966582745,37.6725632131716,330.361300000004 -1.69912945479829,37.6728607705879,330.041800000006 -1.69896567215909,37.6731098810748,330.6158 -1.69866174425068,37.673599048951,330.0 -1.69842051335922,37.6738972769701,330.520000000004 -1.69814474853331,37.6744204751625,331.0 -1.69767016587377,37.6751533891068,331.219500000007 -1.69735517341601,37.6756033296262,331.355899999995 -1.69720916035142,37.6758112007355,331.155299999999 -1.6968524267757,37.6763883783758,331.239499999996 -1.69675569977917,37.6768651413276,332.0 -1.69672384821412,37.6772398121768,331.776500000007 -1.6970081623066,37.6772956359608,332.0 -1.69730689346107,37.6773442510225,333.000400000004 -1.6975204643266,37.6775548040604,334.0 -1.69751141200348,37.6775720709998,334.0</coordinates>
</LineString>
</Placemark>
</Folder>
</Document></kml>
