<?xml version="1.0" encoding="UTF-8"?>

<kml xmlns:xsd="http://www.w3.org/2001/XMLSchema" xmlns:gx="http://www.google.com/kml/ext/2.2" xmlns:atom="http://www.w3.org/2005/Atom" xmlns="http://www.opengis.net/kml/2.2">
<Document>
<name>ES19a_04a_las_negras-carboneras</name>
<visibility>1</visibility>
<Schema name="ES19a_04a_las_negras-carboneras" id="kml_schema_ft_ES19a_04a_las_negras-carboneras">
<SimpleField type="xsd:string" name="id">
<displayName>id</displayName>
</SimpleField>
<SimpleField type="xsd:string" name="nombre">
<displayName>nombre</displayName>
</SimpleField>
<SimpleField type="xsd:double" name="longitud">
<displayName>longitud</displayName>
</SimpleField>
<SimpleField type="xsd:string" name="_formato">
<displayName>_formato</displayName>
</SimpleField>
</Schema>
<Folder id="kml_ft_ES19a_04a_las_negras-carboneras">
<name>ES19a_04a_las_negras-carboneras</name>
<Placemark id="kml_1">
<name>&lt;img height='20' src='https://nco.ign.es/iconos/icono_todos_caminos_azul.png' /&gt;&lt;img height='20' src='https://nco.ign.es/iconos/Camino Santiago_20.png' /&gt;&lt;img height='20' src='https://nco.ign.es/iconos/icono_todos_caminos_azul.png' /&gt;  Camino de Santiago </name>
<visibility>1</visibility>
<description><![CDATA[<!DOCTYPE html>
<html>
<head>
<style>
#nco {
  border-collapse: collapse;
  overflow:hidden;
}
#nco th, #nco td {
  padding: 4px;
  text-align: left;
}
#nco th {
  color: #364B5F;
  padding-right: 5px;
}
#nco td {
  color: rgb(51, 51, 51);
  font-size: 12px;
  padding-right: 5px;
}
</style>
</head>
<body>
<table id="nco">
<tr>
<td>Caminos del Sureste</td>
</tr>
<tr>
<th><b>Camino: </b></th>
<td>ES19a Camino Argar del Sureste de Almería</td>
</tr>
<tr>
<th><b>Etapa: </b></th>
<td>04a Las Negras-Carboneras</td>
</tr>
<tr>
<th><b>Longitud: </b></th>
<td>20.89 km</td>
</tr>
</table>
</body>
</html>]]></description>
<Style>
<IconStyle>
<scale>0.8</scale>
</IconStyle>
<LabelStyle>
<color>ffffffff</color>
<scale>0.75</scale>
</LabelStyle>
<LineStyle>
<color>ffff0000</color>
<width>3.0</width>
<gx:labelVisibility>1</gx:labelVisibility>
</LineStyle>
<PolyStyle>
<color>66ff0000</color>
</PolyStyle>
</Style>
<ExtendedData>
<SchemaData schemaUrl="#kml_schema_ft_ES19a_04a_las_negras-carboneras">
<SimpleData name="id">ES19a_04a</SimpleData>
<SimpleData name="_formato">kml</SimpleData>
</SchemaData>
</ExtendedData>
<LineString>
<extrude>0</extrude>
<tessellate>1</tessellate>
<coordinates>-2.00431002342928,36.879620085946,4.0 -2.00433617428551,36.8798626580196,5.0 -2.00444731834403,36.8799007121483,5.0 -2.0045572892028,36.8801231673573,7.0 -2.00452258818169,36.8802252590102,7.0 -2.00450783604809,36.8805110824338,7.06750000000466 -2.0047219099702,36.8815251248332,7.4832000000024 -2.00503489020169,36.8826070608808,9.96769999999378 -2.00511099726918,36.8832660458869,15.5074000000022 -2.00518995558943,36.8835441575094,16.2531000000017 -2.0053738542028,36.8837671165661,17.0344000000041 -2.00551483760013,36.8838460741601,17.7600999999995 -2.00558591589867,36.8839340835901,18.0 -2.00554585103699,36.8840341640424,18.5690000000031 -2.00554098935467,36.8845481421041,17.4186999999947 -2.00559999788904,36.8848140156745,17.531799999997 -2.00557585836074,36.8851130820082,18.0 -2.0055899394528,36.8853239713136,16.4704000000056 -2.00558021698649,36.885437629709,16.2633999999962 -2.00562732284338,36.8855668787725,14.2739000000001 -2.00595304388054,36.885926294863,12.0135000000009 -2.00573494640431,36.8862320661796,12.6576000000059 -2.0055699905653,36.8863110240986,15.4401000000071 -2.00547493982508,36.8863341582871,16.3356000000058 -2.00536999863359,36.8863331523905,17.0 -2.00515894215253,36.8863200764518,18.0 -2.00514586627525,36.8863180646582,18.1445999999996 -2.00474185885771,36.8862500034935,20.6704000000027 -2.00443793094929,36.8861650108372,23.3561000000045 -2.00405487763408,36.8860610755506,26.8938000000053 -2.00365589898545,36.8859460759229,30.8552999999956 -2.00335985020041,36.8858431462415,33.5524000000005 -2.00317796291494,36.885755136138,35.4174999999959 -2.00284386059616,36.8855521264306,39.4649000000063 -2.00245091682964,36.8853060337821,43.4795000000013 -2.00195839661052,36.8850192051481,48.0 -2.00184591136727,36.8849570116199,49.0313000000024 -2.00165295953245,36.8848740300744,50.9431999999942 -2.00144693271864,36.8848311148183,52.0 -2.00132388598262,36.8848160275077,53.0 -2.00114099348233,36.8848611220175,53.101800000004 -2.00105583319339,36.8849060490875,54.0607000000018 -2.00092893088816,36.8850420034655,54.0492999999988 -2.00075995149502,36.8852480308251,55.0 -2.00075492272606,36.8852550714827,55.0 -2.00064696409352,36.8853861645429,55.8365000000049 -2.00041998138079,36.8856641089354,58.0455999999976 -2.00024094444971,36.8858681242478,60.159599999999 -2.00015796347367,36.885995025959,61.0 -2.00012393259576,36.8860800188046,61.8473999999987 -2.00009593749825,36.8865670071899,64.1389000000054 -1.99999585709075,36.8868000242284,66.4395999999979 -1.99995076256182,36.886872443997,67.3065999999963 -1.99983995447319,36.887013092369,69.0322000000015 -1.99968187164443,36.887125074168,70.5981000000029 -1.99948288492755,36.8871961529268,72.2122999999992 -1.99946796480899,36.8872010142264,72.4603999999963 -1.99929295143207,36.8872640465587,74.0 -1.99921499922498,36.8873150082356,74.8994999999995 -1.99915498457749,36.8873810574038,75.376099999994 -1.99905222269886,36.8875310940185,76.8522999999986 -1.9988446867154,36.8879082797205,80.0 -1.99871208549801,36.8880561361452,81.4370000000054 -1.99859473857244,36.8882016457278,82.6873999999953 -1.99843162697473,36.8885054062544,84.7997999999934 -1.9983558540805,36.8887421110563,87.0 -1.99828092021278,36.8889330505558,88.9988000000012 -1.99821889423736,36.8890730283898,90.0282000000007 -1.99812971039426,36.8894748571153,93.0111000000034 -1.99803985640795,36.8897950460277,95.094299999997 -1.99802895984356,36.8898731654063,96.1062999999995 -1.99802594240254,36.8899581575269,96.460500000001 -1.99802191884838,36.8900459996943,97.847299999994 -1.99803499472566,36.890135854172,97.8809000000037 -1.99816038875953,36.8904438049579,98.120299999995 -1.99824387189382,36.8905841184153,97.5283999999956 -1.99836390118883,36.890830043175,96.034799999994 -1.99843799692842,36.8909951670069,96.0981999999931 -1.99851997179135,36.8911470465335,94.9906999999948 -1.99857495766988,36.8912260043984,95.1693999999989 -1.99865693253282,36.8913560914339,94.4140000000043 -1.99872147289271,36.891519706104,92.7179000000033 -1.99877193216054,36.891761105229,91.0 -1.99876790860641,36.8918481090508,91.0 -1.99872331713402,36.8920596687397,90.1720999999961 -1.99868660388664,36.8922147338765,91.0659000000014 -1.99867788663514,36.8924619997393,91.0 -1.99871158244144,36.8927355847573,91.6049999999959 -1.99878584616598,36.8929610580777,91.980899999995 -1.99888592567515,36.8932881199766,92.4306999999972 -1.99893588188644,36.8934520703231,93.0 -1.99895985432811,36.8935511439921,93.3705999999947 -1.99893588188644,36.89370402998,93.584400000007 -1.99888994922932,36.8937821496689,93.4752000000008 -1.99877897315576,36.8939211214357,94.0 -1.99862591909596,36.8940260625929,94.3444000000018 -1.99832199118758,36.8941130667069,94.8962999999931 -1.99792787422128,36.8941950417566,94.7887999999948 -1.99783097923979,36.8941920243774,94.7400000000052 -1.9977298936175,36.8942071119905,95.0936999999976 -1.99764590742664,36.8942441596435,94.9976000000024 -1.99749587080789,36.8943750849627,95.2783000000054 -1.99729789020408,36.894557140039,95.7770000000019 -1.99718439974605,36.8947106964518,95.3135000000038 -1.99707493194385,36.8949410312102,95.9526000000042 -1.99703587229696,36.8950151272227,95.5476000000053 -1.99697786897741,36.8951071605513,95.261599999998 -1.99684795012942,36.8953140264358,95.9989999999962 -1.99675994038442,36.8954700972033,97.0 -1.99659096099128,36.8956761244384,98.4496999999974 -1.99647093169627,36.8958271663265,99.0 -1.99633497706789,36.8960281644719,100.030299999999 -1.99629491220624,36.8960990754551,100.662400000001 -1.99622685045042,36.8962590017293,101.132400000002 -1.99618997011642,36.8963401389712,101.856599999999 -1.9960868731662,36.896490007113,102.037100000001 -1.9960258533039,36.8965651088204,102.730299999996 -1.99588386379348,36.8966851377759,103.056400000001 -1.99567699795322,36.8968561283156,104.123300000007 -1.99560491354156,36.8969201663351,104.149999999994 -1.99549192524174,36.8970520978481,105.299599999998 -1.99537290295818,36.8971820169073,105.380300000004 -1.99536183840883,36.8971900636546,104.963799999998 -1.99524566558133,36.8973037223434,104.906199999998 -1.99511390159377,36.8974311273167,103.519799999995 -1.99488591366622,36.897617037894,101.716499999995 -1.99465189085664,36.8977811556658,100.576799999995 -1.99463898296432,36.8977880285011,100.6679 -1.9944902884286,36.8978629629832,100.0 -1.99426095931635,36.8978341289957,98.3300000000017 -1.99406683428175,36.8977930579477,98.0047999999952 -1.99383482369837,36.8979439318537,95.9149000000034 -1.99376190115855,36.8980000911205,94.6285999999964 -1.99365595385395,36.8980590994697,93.7544999999955 -1.99351748484112,36.8980916208523,92.3441000000021 -1.99335990506891,36.8980772042623,91.7799999999988 -1.99317684368537,36.8980270802261,92.4928999999975 -1.99306787893971,36.8980111550098,94.1055000000051 -1.99296897263032,36.8979841651802,94.8956000000035 -1.99288045982875,36.8979741070302,94.9646999999968 -1.99275691093445,36.8979720955437,94.8478999999934 -1.99268097095358,36.8978931374733,95.2005999999965 -1.99253194044795,36.8977880285011,97.1760000000068 -1.99232591273584,36.8977451133207,99.0121999999974 -1.99213698535352,36.8976861047287,98.7326999999932 -1.9921299443583,36.8976840932347,98.6257999999943 -1.99195291875516,36.8975980946293,96.2988000000041 -1.99184898277849,36.8975791513599,95.0138000000006 -1.99173985004787,36.8975850191834,95.164499999999 -1.99154689911135,36.8975241663546,93.8506999999954 -1.99142988815572,36.8975410974215,93.4882000000071 -1.991161164325,36.8976250845955,93.4873999999982 -1.99089713419164,36.8976500623387,94.5328000000009 -1.9907420688039,36.8976606234052,94.5026999999973 -1.99068272519795,36.8977595299735,94.6396999999997 -1.99063897095539,36.8978450255244,95.224000000002 -1.9906319308585,36.8978550836915,95.5498999999982 -1.99049111454783,36.8978829119266,95.0185000000056 -1.99036085972996,36.8978750326369,93.7179999999935 -1.99020177168639,36.8979114104082,94.392200000002 -1.99010672004788,36.8979030282494,94.0561000000016 -1.98994813506085,36.8979233126697,94.0132000000012 -1.98985761003305,36.8979539900077,93.7501000000047 -1.98974948341558,36.8979707543132,93.1962000000058 -1.98958603674626,36.8979115777927,94.2777999999962 -1.98948394501083,36.8978750326369,94.6815999999963 -1.98938939732719,36.8978416728018,94.6040999999968 -1.98927406262785,36.8978529048172,95.1460999999981 -1.98918588489789,36.8978081455672,95.5163999999932 -1.98911950029672,36.8977394136129,95.2431999999972 -1.98891280244141,36.8976327958074,97.8674000000028 -1.98886603075784,36.8976270960911,98.0 -1.9888184218444,36.8976339689403,97.8910000000033 -1.98865396906196,36.8976963303017,96.7513999999937 -1.98856344403416,36.8977499746669,95.3582000000024 -1.98849555116159,36.8978024458641,95.2326999999932 -1.98834652065596,36.8978897847527,94.2792000000045 -1.98825683465465,36.897928509492,94.398199999996 -1.98814770192403,36.8979402443664,94.4471999999951 -1.98804242566092,36.8979677363649,94.5139000000054 -1.98791435015595,36.8979995875306,95.1686999999947 -1.98774520277781,36.898025739715,94.9882000000071 -1.98764294395579,36.8980874305013,94.3395000000019 -1.98757672644124,36.8981467742694,94.3037999999942 -1.9875049779995,36.8981880132294,93.8608999999997 -1.98742149396688,36.898201088572,92.9881000000023 -1.98728956289266,36.8982235524953,92.5175000000017 -1.98719920584982,36.8982646233116,91.8454000000056 -1.98711639285873,36.8983221235668,91.2832999999955 -1.98706995714507,36.8984010811933,89.9487999999983 -1.9870049137286,36.898547094039,88.3119000000006 -1.98695814204502,36.8986059345822,87.7786000000051 -1.98688169900761,36.8986744983734,86.6223000000027 -1.98684649582826,36.8987568090363,86.0654000000068 -1.98687281466945,36.8988372755294,85.2609999999986 -1.98698982562508,36.8989963634651,87.3733999999968 -1.98697088285069,36.8990622459197,87.4342000000033 -1.98693852912742,36.8991428794725,87.2495999999956 -1.98682118220185,36.8992357511971,86.9122000000061 -1.98670517646101,36.8992597234053,85.1687999999995 -1.98658782953544,36.8993041470409,83.7513000000035 -1.98652479834523,36.8993827696072,83.9738999999972 -1.98648707898474,36.8994563627558,82.9002999999939 -1.98646226931323,36.8995458814511,82.8025999999954 -1.98643628464533,36.8995784029185,82.525999999998 -1.98639538165549,36.8995998607146,82.2595000000001 -1.98628507572513,36.8996234980468,80.6214999999938 -1.98619320951259,36.8996682569504,79.7326999999932 -1.98613990078871,36.8997353126438,80.1466999999975 -1.98612062294269,36.8998174547823,79.7829999999958 -1.9861244785119,36.8998989273116,80.5228999999963 -1.98609899690054,36.8999716823438,81.2681000000011 -1.98602406303279,36.9000112443632,80.3830000000016 -1.98592381553867,36.900035887284,78.3562999999995 -1.98585273724013,36.9000902023972,77.3806000000041 -1.98580177491576,36.9001612805776,76.3188999999984 -1.98575852462807,36.900253146068,75.8513999999996 -1.98568526611834,36.9003543997686,74.5341000000044 -1.98564386007196,36.9004368774354,73.626099999994 -1.98564352500035,36.9005051062605,73.6564000000071 -1.98564972696907,36.9005594210397,73.9263000000064 -1.98565509170794,36.9006328463933,74.1535000000003 -1.98565090106715,36.9007210239631,74.1753000000026 -1.98561083530717,36.9007981379473,73.1012000000046 -1.98555132371622,36.9008848067689,71.5440999999992 -1.98546314598624,36.9010036623146,71.2206000000006 -1.98540061695427,36.9010541213061,71.3699999999953 -1.98532165953236,36.9011144706242,70.6067999999941 -1.985211353602,36.9012556221841,69.8950000000041 -1.9851510038829,36.9013151337391,69.3018000000011 -1.98511211222099,36.9013521815335,69.5648999999976 -1.9850489121475,36.9013860441199,69.690300000002 -1.98500666797293,36.9013987848792,68.914499999999 -1.98492385408351,36.9014881360742,69.0636999999988 -1.98485394898474,36.9015461389036,70.4321000000054 -1.98478370881437,36.9015751403018,69.9845000000059 -1.98469519601279,36.9016535945886,70.4572000000044 -1.98461473031952,36.9017112625399,71.6873999999953 -1.98445010955212,36.9017979310426,73.213699999993 -1.9843646141916,36.901858448585,73.8306000000011 -1.98430174918969,36.9018871143944,73.0130999999965 -1.98420971589053,36.9019422672235,73.2108000000007 -1.98416747171599,36.9019955767263,73.9315999999963 -1.98413394389462,36.9020711808886,75.2056000000011 -1.98409069360697,36.9021380685319,75.7954000000027 -1.98403202014418,36.9022161882081,77.2302000000054 -1.98398809881499,36.9022933013997,78.1398999999947 -1.98395205660915,36.9023395694209,78.9440999999933 -1.98385801198208,36.9023942197989,78.8969999999972 -1.98380503832978,36.9024186945755,78.3090999999986 -1.98369875505523,36.9024332791567,76.8622000000032 -1.98354151125296,36.902471165436,76.8101000000024 -1.98346188278955,36.9025511287626,78.2964000000065 -1.98341293269141,36.9026300863236,80.1543999999994 -1.98333850098191,36.9026559028912,78.2939000000042 -1.98326004661657,36.9026738399375,78.0185000000056 -1.98318410663571,36.9026917769795,75.218200000003 -1.98313683279389,36.9027531328377,75.3907999999938 -1.98309995245988,36.9028267256092,76.9216000000015 -1.98295427446689,36.9028671266084,75.4671999999991 -1.98289275154804,36.9028875785197,75.6083000000071 -1.98280708820252,36.9029278113948,74.604600000006 -1.98270935599121,36.9029484313816,72.415599999993 -1.98262536890205,36.9029759237308,70.8842000000004 -1.98246276036088,36.9030542106408,66.4850000000006 -1.98244683412921,36.9031110399494,67.6315000000031 -1.98243996111895,36.9031170747207,67.2842999999993 -1.9823019951627,36.903236097754,62.1916000000056 -1.98222286975583,36.9032961127559,61.6016999999993 -1.98214592456018,36.903361156072,56.9841000000015 -1.9820629435841,36.9034191589143,55.7559000000037 -1.98205288514786,36.9034220085562,55.5290999999997 -1.98185289321616,36.9034451425872,55.5581999999995 -1.98177393489595,36.9033950192036,51.875 -1.98166999981757,36.9033911631705,50.1083000000071 -1.98157092552322,36.903412117777,49.093200000003 -1.98146983990091,36.9034500042887,46.9922999999981 -1.98137696847359,36.9034981162954,45.8772000000026 -1.98137495624735,36.9035001283546,45.9318999999959 -1.9811699355467,36.9035190708726,43.2017999999953 -1.98106516144183,36.9035113595371,41.3488999999972 -1.98096055532196,36.9035415346671,41.2029000000039 -1.98087690420268,36.9036040636014,40.2329999999929 -1.98086986320749,36.9036080869957,40.1652000000031 -1.98067288871684,36.9036660896503,34.6891999999934 -1.98067188260372,36.9036660896503,34.656799999997 -1.9806509276031,36.9035440488417,31.4563000000053 -1.98050206508242,36.9034635830018,26.257500000007 -1.98034985004908,36.9033601503997,19.2673000000068 -1.98022395385696,36.9033100262419,13.7477000000072 -1.98008498178756,36.9032981241021,10.5558000000019 -1.97993796350816,36.9032480006219,6.11620000000403 -1.97983939227035,36.9031851359315,3.18099999999686 -1.97967896214375,36.9031730663992,1.86520000000019 -1.97938391947186,36.9031730663992,1.67059999999765 -1.97893984629431,36.9031740720739,1.0 -1.97884798008177,36.9032200048152,1.0 -1.97865687338652,36.9032941006914,3.59459999999672 -1.97858847655912,36.9033490858492,6.03329999999551 -1.97838982581214,36.9033914986339,9.08370000000286 -1.97848135605473,36.9035344935411,10.3521000000037 -1.9784397820234,36.9036841945493,12.0666999999958 -1.97845118164436,36.9038620589351,13.9912999999942 -1.97826292350688,36.9038991069296,16.9691000000021 -1.97811841961199,36.9039178819771,19.9836000000068 -1.97803208612327,36.9038820077469,21.7510000000038 -1.97790199929036,36.9040090770519,26.7427000000025 -1.97776067992311,36.9040392519851,31.0734999999986 -1.97747988632825,36.9041049663064,38.6505999999936 -1.97745490777346,36.9042010228112,40.8044999999984 -1.97745289644552,36.9042090695367,40.9535000000033 -1.97732096537134,36.9043371446748,45.7905000000028 -1.97724083474965,36.9044100671557,48.7543000000005 -1.97708493123379,36.9043450240155,53.082899999994 -1.97697294904712,36.9043510586892,57.1560999999929 -1.97686398430146,36.9043570940808,60.9567999999999 -1.97675619275558,36.9043917950586,64.8064000000013 -1.97669634609302,36.9044653876864,67.8733999999968 -1.97660883850626,36.9045111529986,70.9701000000059 -1.97651697319205,36.9045580920281,74.2214999999997 -1.97645829972927,36.9045968162568,76.9839000000065 -1.97639694479534,36.904706115895,79.4440999999933 -1.97630189315683,36.9047520491507,83.7939000000042 -1.97624892040283,36.9048281569999,85.645399999994 -1.97624791428971,36.9048330186132,85.678899999999 -1.9761749917499,36.9049000733596,89.2456999999995 -1.97606401477801,36.9050408896438,94.2002000000066 -1.97599897136154,36.9051061009962,96.6064999999944 -1.97592437256541,36.9050963778042,100.179499999998 -1.97587307516942,36.9051146504509,102.009099999996 -1.97581943137391,36.9051210205195,104.438399999999 -1.97580685855321,36.9050363635,106.949500000002 -1.97579663213201,36.9049765165176,107.5389 -1.97574298833651,36.904857157869,110.491699999999 -1.97570594001755,36.9047790387417,112.527900000001 -1.97565698991941,36.9048581642398,115.088000000003 -1.97565196115046,36.9048630251328,115.353300000002 -1.97560586050838,36.9050221141543,117.703899999993 -1.97557283574359,36.9051000656639,118.631899999993 -1.97546588232587,36.9050760931355,124.687699999995 -1.97541357971506,36.9051461660512,125.859500000006 -1.97538390746294,36.9051755029732,126.777199999997 -1.97534870338525,36.9053171570272,129.281000000003 -1.97526756665048,36.9052859762343,131.908100000001 -1.97522599261914,36.9052519458552,133.875799999994 -1.97518559178755,36.9052432283292,136.010999999999 -1.97518073010522,36.9053902473763,139.793900000004 -1.97510831062195,36.9054469090137,143.996400000004 -1.9750368963535,36.9054806038516,149.052899999995 -1.9750348850256,36.9055070910811,149.350699999995 -1.97513898808893,36.9056611505502,150.511899999998 -1.97520235524905,36.9057474841416,152.723499999993 -1.97509389355997,36.9057151297976,154.939100000003 -1.97499398113743,36.9056730523213,157.540299999993 -1.97495089883473,36.9056562889897,159.124200000006 -1.97499968094791,36.9057870467579,162.676900000006 -1.97502248018984,36.9058421996413,165.260599999994 -1.97505885746727,36.9059151221204,167.536699999997 -1.97495190404952,36.9059050635791,170.562699999995 -1.9749408403985,36.9059060692178,170.821200000006 -1.97485199162701,36.9059981030601,178.337899999999 -1.9748099145391,36.9060790719186,182.195399999997 -1.97477890200054,36.9061630583153,184.306700000001 -1.9747768897743,36.9061690935635,184.421600000001 -1.9746439534853,36.9060400122722,190.393899999995 -1.97461897493051,36.9061330515887,192.216700000004 -1.97454487919092,36.906283087259,194.938099999999 -1.97449190553862,36.9063550044022,196.826700000005 -1.97447497409216,36.9064420081084,198.183000000005 -1.97450296918967,36.906525156559,196.690900000001 -1.97449693430757,36.906535047653,196.866699999999 -1.97435997446443,36.9066411624171,199.3505 -1.97428185517068,36.9066981592926,200.888099999996 -1.97417490175296,36.9067030207867,201.391199999998 -1.9740719718894,36.9066820663657,202.111999999994 -1.97396786882607,36.906648035891,202.355599999995 -1.97396485138502,36.906648035891,202.321400000001 -1.97377592310436,36.9065821535212,202.601699999999 -1.97355983785432,36.9065751126758,203.831300000005 -1.97345590187765,36.9065640485915,204.399000000005 -1.97335297201406,36.906531024413,205.691800000001 -1.97308894277903,36.9063900406399,207.108500000002 -1.97298299547442,36.9063650621658,207.301800000001 -1.97289397961628,36.9064111632253,208.649099999995 -1.97281183676839,36.9064710098007,208.137100000007 -1.97277897998855,36.9065521469594,209.963399999993 -1.97281183676839,36.9066300983424,212.082500000004 -1.97281686553734,36.9066381448118,212.168600000005 -1.97303596912673,36.9068121529159,212.041800000006 -1.97310486811238,36.9068740118651,211.3554 -1.97312783444094,36.9069581661881,211.926099999997 -1.97310084455824,36.9070401410879,212.387400000007 -1.9730949776611,36.9070510377387,212.489300000001 -1.97296287860196,36.9071591637478,213.659899999999 -1.97287386274381,36.9072061025849,214.044999999998 -1.97268392924834,36.9072770132374,214.975600000005 -1.97258284272773,36.9072961243365,215.462 -1.97247890764938,36.9073031651154,215.109599999996 -1.97237430152948,36.9073108767859,214.459300000002 -1.97215888642267,36.9072760076168,213.088399999993 -1.97205662760061,36.9072574000413,213.007199999993 -1.97195118335255,36.9072488501085,212.317200000005 -1.9718541203861,36.907242815664,211.547699999996 -1.97175689033303,36.9072540470139,212.433799999999 -1.97168698523423,36.9073160729688,211.745800000004 -1.97168095035216,36.9073221081258,211.6005 -1.97151297707214,36.9074040833529,212.207399999999 -1.97147693486629,36.9074860584919,213.456399999995 -1.97146788254317,36.9074870641097,213.544500000004 -1.97135673848466,36.9075184120849,215.436400000006 -1.97120184108188,36.9076290536265,219.842000000004 -1.97111399842351,36.9076820273029,221.550399999993 -1.97104996112019,36.9077490824186,224.226599999995 -1.97087997561393,36.9078560351809,228.019 -1.97078492487371,36.9079021360577,229.060100000002 -1.97067998368222,36.9079061592255,229.483699999997 -1.97057588061889,36.9079120262549,230.487299999993 -1.97045283388283,36.9079080030874,231.777400000006 -1.97025284195113,36.9079541039329,235.228700000007 -1.97014789986134,36.9079251020861,235.482099999994 -1.97018293685236,36.9080131124859,236.690499999997 -1.97024898638192,36.9081430315592,236.936700000006 -1.97021797294506,36.9082240010144,236.159499999994 -1.97016684353403,36.9082991026661,235.376300000004 -1.97008889132693,36.9083591172769,235.404299999995 -1.97003424141831,36.9084519885587,234.410399999993 -1.97002854160783,36.9086057131052,234.954700000002 -1.97004647916744,36.9086945609608,236.371100000004 -1.97008654492741,36.9087862588728,238.261899999998 -1.97012661068739,36.9088640434857,239.5288 -1.97015427071332,36.9089247278119,240.869900000005 -1.97017103417482,36.9090251432604,242.083799999993 -1.97017388452925,36.9091790347301,243.494999999995 -1.97016399317964,36.9093480141003,244.0 -1.97014488242029,36.90942814548,244.021299999993 -1.97013985365134,36.9095161548641,244.447700000004 -1.97014789986134,36.9096050030959,245.964600000007 -1.97016399317964,36.9097590629092,247.0 -1.97016399317964,36.9099270361271,247.0 -1.97016399317964,36.9099391060275,247.0 -1.97014186497924,36.9100881365301,247.379400000005 -1.97008889132693,36.9101590473769,247.693700000003 -1.97007397210671,36.9102410224287,248.0 -1.97002586013673,36.910409163379,247.107000000004 -1.97001999234129,36.9104959994144,247.0 -1.96997188037131,36.9105711017025,246.873200000002 -1.96994690181652,36.9106581056284,246.0 -1.9698518510763,36.9108103209596,246.0 -1.96982687341981,36.9108961516836,246.0 -1.96982284986567,36.9109080540746,246.0 -1.96978094076272,36.9110590959806,246.171799999996 -1.96973685144858,36.9111320185009,246.973800000007 -1.96969293101769,36.9112151668677,247.0 -1.96961699013853,36.9113700645138,246.922399999996 -1.96957692527685,36.9114451666596,247.7598 -1.96951791674248,36.9116020756841,248.0 -1.96948891463352,36.9116770095289,247.591899999999 -1.9694429819764,36.9117531176524,246.896800000002 -1.96937290979098,36.9118191672201,246.4948 -1.96933183791788,36.9118930952919,246.957699999999 -1.96925086916807,36.912059057005,247.0 -1.96917878475641,36.9121386849135,247.0 -1.96907904031883,36.9122729632231,246.502600000007 -1.96896655507558,36.9124214906992,246.0 -1.96891827512065,36.9125006154534,246.0 -1.96883546212956,36.9126124305724,245.053199999995 -1.96878315862045,36.9126697627186,244.7739 -1.96867989368528,36.9127671601839,243.592999999993 -1.96862591391986,36.9128430998678,242.897700000001 -1.96855684784755,36.9129130054802,241.333400000003 -1.96849398284564,36.9129911248975,240.562600000005 -1.96838350982863,36.9130856726716,237.937900000004 -1.96838753338279,36.9132645422281,232.626999999993 -1.96831595112938,36.9134046880357,228.928 -1.96824889638498,36.913418099063,227.7601 -1.96823984406186,36.9134241337373,227.496599999999 -1.96816390408103,36.9135830547936,223.609200000006 -1.96811797052558,36.9136600006381,221.229099999997 -1.96806583589976,36.9137361082195,217.991599999994 -1.96806583589976,36.9137401317978,217.904299999995 -1.96795988859516,36.9138640158154,212.301600000006 -1.9678958503935,36.9139340885598,208.604300000006 -1.96787590150599,36.9140190811776,205.579199999993 -1.96787187795183,36.9141037382844,202.032300000006 -1.96788562487061,36.9141932570322,199.085900000005 -1.96788093117324,36.9142770764842,196.219299999997 -1.96788478674245,36.9143436287848,193.582399999999 -1.96788478674245,36.9143986138795,191.790099999998 -1.9678428767412,36.914532053625,185.801200000002 -1.96782795752094,36.914623080874,182.733399999997 -1.96782393396681,36.9147930659158,178.930300000007 -1.96781085808952,36.9148760472537,176.508499999996 -1.96781286941746,36.9149600340207,174.066500000001 -1.96778789176096,36.9150450262134,171.881299999994 -1.96773391199554,36.9151231456018,170.064799999993 -1.96773089455449,36.9151290127943,169.881599999993 -1.96768596801052,36.9152921247323,167.043099999995 -1.9676509310195,36.9154540627443,163.895900000003 -1.96759192248509,36.9155201126983,162.646299999993 -1.96740685067194,36.9156000759944,160.214800000002 -1.9673459978963,36.9156711540902,159.147800000006 -1.96733493334695,36.9156840626823,159.0 -1.96717299494899,36.9157640258065,157.826700000005 -1.96702396534165,36.9158620944469,156.0 -1.96683688130227,36.9159400456534,156.160300000003 -1.96673093399766,36.9159690473258,155.824200000003 -1.96659011768699,36.916014980264,154.969400000002 -1.96648919915134,36.9160381140675,154.391799999998 -1.96640353670415,36.9160525308549,153.856499999994 -1.96624729811667,36.9160535370781,152.527300000002 -1.96618225470024,36.916061247864,151.508700000006 -1.96603992921987,36.9160015689751,149.986799999999 -1.96594303513671,36.9159496008366,149.0 -1.96584463098553,36.9159534569531,148.0 -1.96573449304013,36.9159489307385,147.287700000001 -1.9656619055719,36.9159088648931,146.756800000003 -1.96560054973968,36.915896627874,146.435700000002 -1.96550231447179,36.9158634353629,146.0 -1.96534842228383,36.9158188432502,146.404800000004 -1.96527415855929,36.9158144850911,147.0 -1.96512898452119,36.9157856514235,147.0 -1.96501415198009,36.9157735810118,147.370899999994 -1.96492228666589,36.9158079471337,148.0 -1.96483461199247,36.9158233694726,148.5576 -1.9647098890001,36.9158230347821,149.0 -1.96460595392172,36.9158230347821,149.628200000006 -1.96459589548549,36.9158220285559,149.790299999993 -1.96439791488172,36.9158351044677,151.0 -1.964290961464,36.9158590764881,152.0 -1.96418484707273,36.9158810374866,153.0 -1.96408392853707,36.9159080267313,153.911099999998 -1.9639799934587,36.9159400456534,154.755000000005 -1.96387873985146,36.9159573123513,155.554799999998 -1.96378687363892,36.9159750817982,156.187099999996 -1.96368696211471,36.9159851404482,157.0 -1.96348428691524,36.9160154830167,158.0 -1.96327809211651,36.9160312407215,158.0 -1.9631781805923,36.9160535370781,157.606700000004 -1.96308447013849,36.9160813644216,157.0 -1.96299310788082,36.9161100306328,156.0 -1.96288749564783,36.9161289736109,156.0 -1.96279529526201,36.9161328297183,155.185400000002 -1.96259798480144,36.9161790979651,154.0 -1.96245431903467,36.9162345859243,153.604699999996 -1.9623899457614,36.9162396148732,153.0 -1.962287854026,36.9162530261203,153.0 -1.96220722034777,36.9162707954983,153.0 -1.96211988074598,36.9163006352024,153.0 -1.96205617851424,36.9163247751388,153.0 -1.96194335819937,36.9163443888764,153.0 -1.96190999836299,36.9163832809302,152.473800000007 -1.96186205347964,36.9163886452755,152.0 -1.96181830013541,36.9164287108689,151.855100000001 -1.96174638370872,36.916485036802,151.0 -1.96166491100403,36.9165200734146,150.969899999996 -1.96158193092628,36.9165710356662,150.880699999994 -1.96152878928902,36.9166454669083,151.0 -1.96149962009343,36.9166994462836,151.009999999995 -1.96140792186585,36.9167861149969,151.982699999993 -1.9613948468869,36.9167931556179,152.0 -1.96123693114477,36.9168781486407,152.0 -1.96117993483664,36.916949059639,152.388000000006 -1.96110399395747,36.9170010270964,152.809999999998 -1.9610228572227,36.917045115772,153.0 -1.96095999311909,36.917101107283,153.0 -1.96094792335495,36.9171830820562,153.463799999998 -1.96094188847285,36.9172620395561,154.277600000001 -1.96088489126642,36.9173321120513,154.551399999997 -1.9608039225166,36.9173830744785,155.0 -1.96072362390996,36.9174266601898,154.193299999999 -1.96067685222638,36.9175081325883,154.808900000004 -1.96058884248138,36.9175540653178,154.219800000006 -1.96050988505947,36.917604021394,154.251099999994 -1.96040594908279,36.9176380520085,154.077999999994 -1.96031693412298,36.9176831465174,154.0 -1.9602259060386,36.9177240502908,154.0 -1.96016086262213,36.9177921113975,154.0 -1.96006899730792,36.9178400556369,154.609400000001 -1.9599578532494,36.9178760978261,155.0 -1.95980764954399,36.9179295743085,155.0 -1.95967940605403,36.9179384591618,155.0 -1.95958184092934,36.9179470086147,155.0 -1.95948595206096,36.9179890857846,153.723599999998 -1.95938386032557,36.9180214399502,151.702999999994 -1.95933189278638,36.9180791077386,151.056100000002 -1.95925695802033,36.9181451568555,150.661500000002 -1.95924790569722,36.9181500183383,150.437099999996 -1.95906786265302,36.9182281374191,146.723100000003 -1.95906383909885,36.9182311552842,146.645799999998 -1.95890324188563,36.918313130279,142.797600000005 -1.9588029943915,36.9183530282398,141.704899999997 -1.95870291398401,36.9183880647124,139.7497 -1.95868883289194,36.9183920880453,139.433900000004 -1.95852890582188,36.918467021683,137.159400000004 -1.95843988996376,36.9185171459368,136.270900000003 -1.95835389154667,36.9185731370853,135.255999999994 -1.95827091146892,36.9186200753627,133.933300000004 -1.95818994182077,36.9186810959417,133.817200000005 -1.95810394340371,36.9187171377334,133.170700000002 -1.95797989145283,36.9187350753126,130.809399999998 -1.95779984840867,36.918800119111,129.204700000002 -1.95769591243196,36.9188291204139,129.023799999995 -1.95760086169175,36.9188700235726,128.930800000002 -1.95751083972052,36.9189161242566,128.999500000005 -1.95745384341235,36.91898602933,129.0 -1.95738896708253,36.9190581140446,127.926800000001 -1.95736935326664,36.9191984265988,125.525399999999 -1.95735309286168,36.9192522389839,124.965400000001 -1.95731587745609,36.9193120855395,122.735100000005 -1.95734387255361,36.9193940608087,120.583899999998 -1.95741897440628,36.919459104045,120.304099999994 -1.9574312121554,36.9195375586135,118.179000000004 -1.95744395296107,36.9196240596371,116.670100000003 -1.95742785964277,36.9197940450233,113.076199999996 -1.9574144486939,36.9198740081472,111.418699999995 -1.95741495085214,36.9199630238591,109.599400000006 -1.95740388720109,36.9200480162217,107.118000000002 -1.95741595696526,36.9201370324487,104.748399999997 -1.95743087708382,36.9202260478535,102.666299999997 -1.95740891597004,36.9203831248214,96.8747000000003 -1.95737991475942,36.9204661058223,94.7186999999976 -1.95735292487672,36.920549086733,92.8929999999964 -1.95732073824009,36.920633911826,90.3399999999965 -1.95728989278815,36.9207180660502,87.6374000000069 -1.95725938330617,36.920856032153,84.5522999999957 -1.95715896782708,36.9209339840003,81.0967999999993 -1.95710398284685,36.921001038957,78.6349999999948 -1.95704296208624,36.9210781525512,75.789300000004 -1.95693885902291,36.9212141071288,71.082699999999 -1.9568143040155,36.9212570220353,67.6840999999986 -1.95679100261535,36.9213001049691,66.4355999999971 -1.95684297015454,36.9214080642738,63.5831000000035 -1.9568469937087,36.921414099034,63.3899999999994 -1.95663090756037,36.9213970001865,59.4260000000068 -1.95653585682015,36.9213611255581,57.4673000000039 -1.95645790551135,36.9213021165587,55.928700000004 -1.95642035413585,36.921306140456,54.4961999999941 -1.95639789086387,36.9213830864085,52.9732999999978 -1.95635799308885,36.9215440182632,49.284799999994 -1.95643058055704,36.9216062121394,48.3313000000053 -1.9565160759176,36.9216529833718,46.248900000006 -1.95660995345804,36.9216811462096,45.6055999999953 -1.95671288332163,36.9217160152571,44.6245000000054 -1.95679686951246,36.9217740177886,43.0458999999973 -1.95680290439456,36.9217790470904,42.8233999999939 -1.95689795513478,36.9219190250014,39.4256000000023 -1.95692293368957,36.9220040173384,37.3644000000058 -1.95693483546875,36.9220880041553,35.6269000000029 -1.95698797710601,36.9221621003771,33.5702000000019 -1.95696786023354,36.9222460870199,30.0213999999978 -1.9569599811102,36.9222491040078,29.8457999999955 -1.95678597294807,36.9223451606464,24.5559000000067 -1.95678195029223,36.9223461667865,24.5096999999951 -1.95657894002118,36.9223750008463,21.1002000000008 -1.95649595904513,36.9223230327421,20.6742999999988 -1.95642689207449,36.922257150984,19.9492999999929 -1.95638297164364,36.9221850664209,19.667100000006 -1.95637593064842,36.9221770201553,19.7168999999994 -1.95623092369696,36.922072078216,19.4082999999955 -1.95615397760298,36.9220191051973,19.8110000000015 -1.95586195237211,36.9219081283201,19.3611999999994 -1.95571929182016,36.9218238066409,18.642399999997 -1.95568693809686,36.9219222100523,15.9002999999939 -1.95559792223875,36.9220680550773,12.2792999999947 -1.95555098346851,36.9221411451757,10.6475000000064 -1.95548594005204,36.9222140678728,9.68409999999858 -1.95542491929144,36.9222881639722,7.15089999999327 -1.95536088198808,36.922359074967,5.19130000000587 -1.95535283577808,36.9223610865287,5.14509999999427 -1.95528896556138,36.9225141402923,4.0 -1.95522090380556,36.9226740664966,2.02920000000449 -1.9554418507379,36.9229600570041,1.97950000000128 -1.95571795063542,36.9232140291481,2.0 -1.95584988260794,36.9233400931583,1.61620000000403 -1.95606295041693,36.9235130950982,2.0 -1.95630686367782,36.9237560030913,2.16839999999502 -1.95632094476989,36.9238430070577,2.0 -1.9564609229524,36.9240520514354,2.0 -1.95672797052681,36.9244000682265,3.0 -1.95690298480203,36.92478513277,3.0 -1.95694992357226,36.9248650964049,3.14900000000489 -1.95712996661646,36.925082020206,3.93039999999746 -1.95713583351357,36.925171035583,4.38219999999274 -1.95713399017062,36.9251770707635,4.47340000000258 -1.95707984242021,36.9252530110167,5.74340000000666 -1.95697188378771,36.9253911448558,7.31540000000678 -1.95693584158186,36.925472113954,7.9377999999997 -1.95689795513478,36.9255500653909,8.59369999999763 -1.95688789669851,36.9256360640859,9.16449999999895 -1.95694087035085,36.9257140153551,9.93799999999464 -1.95702083388584,36.9257750360024,12.2762999999977 -1.95711571753943,36.9258756188515,15.3111000000063 -1.95711186197022,36.9260120761792,17.1891000000032 -1.95709694185166,36.9260960628899,17.9165999999968 -1.95706022860432,36.926177702684,18.6625000000058 -1.95702536049655,36.9262759381808,19.2961000000068 -1.95692913565826,36.9263683065055,20.7663999999932 -1.95685436977551,36.9264040136102,22.2826999999961 -1.95689292636579,36.9265164991753,22.2011000000057 -1.95695914298204,36.9265714841105,22.2152999999962 -1.95702536049655,36.926645580284,22.0583999999944 -1.95701932561448,36.9267428105321,21.4998000000051 -1.95694958760235,36.9268216001478,22.2201000000059 -1.95690616932974,36.9268956960781,23.0785000000033 -1.95683760541567,36.9270276274592,23.5164999999979 -1.95680089306663,36.9270960235203,23.8950000000041 -1.95680189917974,36.9271850394183,25.2065000000002 -1.95691337830988,36.9271950980258,25.5448000000033 -1.9569459000181,36.9272267811588,25.8340999999928 -1.9569378529098,36.9272931663278,26.4600000000064 -1.95685688415998,36.9273520069612,27.4787999999971 -1.95675998917849,36.927388048963,29.0246999999945 -1.95669092220785,36.9274380050597,29.4091999999946 -1.95667315263324,36.9274688507751,29.3395000000019 -1.95662017898093,36.9275815035246,29.0973999999987 -1.95664783900683,36.9276555994345,29.0022000000026 -1.956626213863,36.9277219842301,28.263300000006 -1.95653602480511,36.927793230554,31.0678000000044 -1.95661062360124,36.9278624646767,30.5420000000013 -1.95665387478722,36.9279144325958,30.2508999999991 -1.95659855383707,36.9280068010895,31.661300000007 -1.95656485892911,36.9280656418902,32.645399999994 -1.95655513556446,36.928133871138,32.7983999999997 -1.95655396236469,36.9281772891309,33.7505999999994 -1.95665521507363,36.9282647964687,33.8475999999937 -1.95665890355618,36.9283950508675,35.2385999999969 -1.95664549260731,36.9284669679868,36.4591999999975 -1.95668522239737,36.9285390523554,37.6680000000051 -1.95669243137754,36.9286421492138,39.9541000000027 -1.95669729305987,36.9287392117528,41.0 -1.95672009140344,36.9288019088912,40.5065999999933 -1.95662286135037,36.928948089033,38.2443000000058 -1.95648288316785,36.9290570536134,37.1088000000018 -1.95632094476989,36.9291630006057,36.4149999999936 -1.95627283279991,36.9292320676047,34.8752999999997 -1.95611743234059,36.9292721336308,33.9560999999958 -1.95599723595896,36.92925972785,33.6238000000012 -1.9558808951465,36.9292640866769,33.176999999996 -1.95579137623181,36.929304151968,32.7577000000019 -1.9556029510077,36.9293881386424,32.0875999999989 -1.9555317047242,36.9294526793063,30.8160000000062 -1.95547252910317,36.9295299610029,30.1297999999952 -1.95543145723008,36.9295757256383,29.5859999999957 -1.95541519682512,36.929611432677,29.3300000000017 -1.95537412495199,36.9297592894397,28.4327000000048 -1.95535132660842,36.9298509878764,28.161300000007 -1.95532584589539,36.9299341359407,28.065300000002 -1.95530187345371,36.9300171166002,27.1466999999975 -1.95523599190908,36.9300771313555,27.0908000000054 -1.95515820768694,36.930136475372,27.277700000006 -1.95509886408095,36.9301941426147,26.3003000000026 -1.95502996419698,36.9302541572307,25.2302000000054 -1.95492133542127,36.9302638800881,23.3423000000039 -1.95471731903707,36.9302390695653,21.770399999994 -1.95461355194365,36.9302617007032,21.0 -1.95451146020825,36.9302762849874,21.3469999999943 -1.95440936847285,36.9303111544125,20.1389999999956 -1.95424692701832,36.9304040255324,18.303700000004 -1.9541579111602,36.9304440909425,18.1211000000039 -1.95407509816911,36.9304962265689,18.0 -1.95385096581077,36.9306630260095,17.4091999999946 -1.95364896165283,36.9307280696858,18.1707000000024 -1.95354955228684,36.9307233763175,18.2553999999946 -1.95334587277091,36.9307250523153,17.1784000000043 -1.95323489579902,36.9307290757153,16.4836000000068 -1.95312291361235,36.9307341051445,15.4330000000045 -1.95292828641951,36.9307423192557,15.2863999999972 -1.95283357075091,36.9307612621892,15.7252000000008 -1.95274153745171,36.9307867432278,15.3086000000039 -1.95261849071569,36.9308457520673,15.940499999997 -1.95257088180225,36.9308881639244,15.6275000000023 -1.95253098402723,36.9309610868722,15.0 -1.95243995594285,36.9311300660918,14.0 -1.95235999330616,36.9312700440685,14.0357999999978 -1.95236284276225,36.9313510126673,13.9652999999962 -1.95235194619782,36.9315040663354,14.1220999999932 -1.95236485409015,36.9315940881306,13.0 -1.95240089629599,36.931681092487,13.045299999998 -1.95246594061076,36.9318311281656,12.0 -1.9524369385018,36.9319131036184,11.8233999999939 -1.95240391373701,36.932005136956,11.0439999999944 -1.95236586020326,36.9321600340224,10.8941999999952 -1.95239083875806,36.932243015131,11.5166999999929 -1.95244196816909,36.9323231461511,12.4560999999958 -1.95244498561014,36.9323221401426,12.4331999999995 -1.95241397217328,36.932486090622,16.6154999999999 -1.95240491985016,36.9325720886731,18.7410999999993 -1.95242587485079,36.9326580866272,19.938599999994 -1.95243090361974,36.932664121933,19.8894 -1.95250298803139,36.9328091285389,21.340400000001 -1.95251690203683,36.9328951269435,22.111699999994 -1.95250734665714,36.9329740846886,23.8816999999981 -1.95246493449765,36.9330520363532,24.7321999999986 -1.95243895072804,36.9331350172087,25.1747999999934 -1.95238715027551,36.933194696331,26.0991000000067 -1.95228690278138,36.9333375240667,28.8264999999956 -1.95221045974395,36.9334562120032,30.700800000006 -1.95214021957357,36.9335537767938,32.0 -1.95212094082926,36.9336620713104,33.2262000000046 -1.95212848488102,36.933747398811,34.6732999999949 -1.95212496438342,36.933925095437,37.0613000000012 -1.95213988450198,36.9340060648057,38.0 -1.95214290194303,36.934093068563,38.9538999999932 -1.95214290194303,36.9341740377532,39.8055000000022 -1.9521913489846,36.934456675654,43.5800000000017 -1.95216888571261,36.9345870982651,44.8365000000049 -1.95210836800855,36.9346481182722,46.1064999999944 -1.95201549658122,36.9347005892209,47.4809999999998 -1.95194995010818,36.9347654650202,48.2541999999958 -1.95185054074221,36.9348279942066,47.8113000000012 -1.95171676542676,36.9349139924875,48.6428000000014 -1.9516091418658,36.9349351150715,48.4210000000021 -1.9515043686593,36.9349662952319,49.3007999999973 -1.95130135838821,36.9349649546518,50.2877000000008 -1.95119289669913,36.9349538903778,51.0004999999946 -1.95107169420438,36.9349196922899,52.4272999999957 -1.9508785752829,36.9349314265002,53.6333000000013 -1.95076290551197,36.934961936731,54.1392999999953 -1.95071462555704,36.9350144074638,53.571100000001 -1.95067003408465,36.9351097938857,52.8001999999979 -1.95064270913034,36.9351790278253,52.8340000000026 -1.95055989524092,36.93525513547,53.6454999999987 -1.95045864253198,36.9352977157663,53.9109000000026 -1.95029184245173,36.9353920958657,56.0720000000001 -1.9501708079419,36.9354854705996,56.1301999999996 -1.95004776120588,36.935554704916,56.7664999999979 -1.94995941638926,36.9355910826695,58.0166000000027 -1.9498546422844,36.9356289689938,59.3364000000001 -1.94975540000506,36.9356660166366,60.0482999999949 -1.94964425594654,36.9357250252889,60.3271999999997 -1.94958994200784,36.9357681079451,60.3466000000044 -1.9495195338525,36.9358728823991,61.9649000000063 -1.94939380474701,36.9359245145629,62.1441999999952 -1.94930177144784,36.9360185592842,64.4088000000047 -1.94925483357594,36.9360891351127,64.0320000000065 -1.94925617386234,36.9361670871814,64.182799999995 -1.94927260315056,36.9362507381553,64.7884999999951 -1.94923521976001,36.9363308692701,66.6434000000008 -1.94916497958963,36.936412006255,68.1392999999953 -1.94908384195653,36.9364631354357,68.7896000000037 -1.94898694787337,36.9365050451396,69.9208000000071 -1.94890497211211,36.9365531571181,71.4369000000006 -1.9488298702594,36.9366091486639,72.9107999999978 -1.94880623378768,36.9366978289062,76.2318999999989 -1.94878527878702,36.9367357153983,76.9233999999997 -1.94866038870802,36.9367714219549,77.6313999999984 -1.94855930308573,36.9367975737713,78.3944000000047 -1.94846190504767,36.9368093084105,79.5415999999968 -1.94837356023105,36.9368158460032,80.0645999999979 -1.94832980598853,36.9368062905627,79.9263999999966 -1.94819686969953,36.9367196216295,80.3092000000033 -1.94809293372282,36.9366599431132,80.3380999999936 -1.94798178966431,36.9366461965483,81.2813000000024 -1.94782169550762,36.9366601104127,81.4116000000067 -1.94771273076199,36.9366849209995,81.2486000000063 -1.94759823419081,36.9367372239646,81.0032000000065 -1.94750921833266,36.9367662256249,81.991399999999 -1.94742372297214,36.9367734338544,82.2507000000041 -1.94730570500507,36.9368213783642,82.4351000000024 -1.94719942262885,36.9368649644519,82.4879999999976 -1.94714024700781,36.936861275974,83.2685999999958 -1.94697411707076,36.9369209550507,83.8165000000008 -1.94688325786967,36.9370051092474,83.8588000000018 -1.94679055352898,36.9370284111614,84.8711000000039 -1.94672148655834,36.9370567420802,84.8712999999989 -1.9466651603934,36.9371343585621,85.7084999999934 -1.9466410208651,36.9371876671631,85.6661000000022 -1.94657832384814,36.9372146574821,86.4248999999982 -1.94641035056812,36.9373439064415,86.0060999999987 -1.94632770466365,36.9374295694418,86.0182000000059 -1.94624774202695,36.9375267995768,87.2455000000045 -1.94614598536314,36.937590837201,86.959400000007 -1.94606149611573,36.9376771705489,87.1527999999962 -1.94600969566321,36.9377447284669,86.5552000000025 -1.94590877712755,36.937846317254,87.7163 -1.94582697024958,36.93794656466,86.5994000000064 -1.94575790327894,36.9380184813834,86.0 -1.94569889474457,36.9380910686605,84.9974999999977 -1.94565530848697,36.9381681822005,85.232600000003 -1.94559713808075,36.9382196476671,84.7060999999958 -1.94555807843389,36.938296593063,84.6928999999946 -1.94549638753006,36.9383975112135,84.7804000000033 -1.94544542610398,36.9384528322219,84.9268000000011 -1.94531466822954,36.9385799013703,85.180600000007 -1.94524895377157,36.9386441068407,86.0 -1.94518692779615,36.9387041212652,86.0 -1.94510294160529,36.9387520659965,86.0 -1.94502398328508,36.9388010159025,86.6404000000039 -1.94493798576631,36.9388570072328,86.8996999999945 -1.94486590135465,36.9389150103648,87.0 -1.94477219090084,36.9389691570643,87.4207000000024 -1.9446622209404,36.9390191134689,88.415399999998 -1.94452090157315,36.9391160077057,88.0 -1.94445686426979,36.939184069102,87.1373000000021 -1.94441495426854,36.9392650386274,86.4107999999978 -1.94435594573414,36.9393320932568,85.3763000000035 -1.94427397087121,36.9393921078575,84.8408999999956 -1.94419786290539,36.9394460876426,85.0 -1.94404346855922,36.9394672096885,85.6149000000005 -1.94389192366907,36.9395540463802,86.0 -1.94370098406052,36.9396001467629,85.508799999996 -1.9436059333203,36.9396480909304,85.2853999999934 -1.94352596978527,36.9397040823563,85.3329999999987 -1.94344399492234,36.9397520271763,85.7099000000017 -1.94337090439757,36.9398090237175,85.7185000000027 -1.94326043138056,36.9398397014421,86.9318000000058 -1.94316990635275,36.9398450662911,86.6579999999958 -1.94307418546934,36.9398200880046,86.7286000000022 -1.9430051184987,36.9398019830677,86.9380999999994 -1.9428170283462,36.9398122087389,85.5302999999985 -1.94266699262575,36.9398340020075,83.975099999996 -1.94253992323389,36.9398780904035,82.1340999999957 -1.94253489356661,36.9398811081297,81.9744999999966 -1.94235887407658,36.9399620776325,77.8537000000069 -1.94226097298197,36.9399800145211,74.8791999999958 -1.94207388894256,36.9400140452,70.9002999999939 -1.94186987345672,36.9400760710758,66.2820999999967 -1.94177214034707,36.9401077545986,63.5492999999988 -1.94167222792453,36.9401563697681,60.7002000000066 -1.94149319099345,36.9402500797097,55.2324999999983 -1.94141607691452,36.9403204871998,52.5032000000065 -1.94141490371477,36.9404100060416,51.1564999999973 -1.94126704730721,36.940387375045,50.0 -1.94107342532919,36.9404091681492,47.1612000000023 -1.94086639240227,36.9404752173068,43.7011999999959 -1.94074820734857,36.9404787376007,42.4045000000042 -1.94052474603173,36.9404344815431,39.4137000000046 -1.94042114512664,36.9404170473532,37.8233999999939 -1.94030581042733,36.940406150444,36.507500000007 -1.94015862416297,36.94042006434,35.0 -1.93992225495384,36.9404403489418,32.6848000000027 -1.93983960904938,36.9404534242216,32.0 -1.93977423056132,36.9404743794151,31.2403999999951 -1.93971153354437,36.9405035483802,30.506899999993 -1.93958614040883,36.9406058076788,28.8022999999957 -1.93945320322149,36.9407132636194,26.8307000000059 -1.93932948634224,36.9407846772964,25.2216999999946 -1.93921515685771,36.9408234017985,23.6796999999933 -1.93911021566622,36.9408384895226,22.9685999999929 -1.93877175472169,36.9408671550415,19.0843000000023 -1.93839591038661,36.9408470385615,15.7396000000008 -1.93822190132619,36.9408150200474,13.8337000000029 -1.9377979450211,36.9406686716805,9.50810000000638 -1.93755386377525,36.9405610483861,8.0 -1.93723484866165,36.9404041386405,4.95339999999851 -1.93714298334745,36.9403910633523,3.65270000000601 -1.93701691917037,36.9403991098495,2.93080000000191 -1.93685699210031,36.9404341462426,1.0 -1.93670192761094,36.9404960044853,2.0 -1.93659899774735,36.940546128616,3.0 -1.93649690601195,36.9406021193819,3.0 -1.93625684832027,36.9406651513954,3.0 -1.9360239987104,36.9407090727379,3.0 -1.93590698775477,36.9406990144777,3.0 -1.93551991178365,36.9402740519517,3.0 -1.9352288917676,36.9399550362788,4.41749999999593 -1.93503292249173,36.9397461597245,5.0 -1.93475699057916,36.9394988934645,4.0 -1.93433286628915,36.9395040903262,3.03369999999995 -1.93406648975624,36.9395054315444,2.07140000000072 -1.93373490092364,36.9396581493293,3.0 -1.93351194266337,36.939764096664,3.0 -1.93286284788683,36.9399360934764,2.9603999999963 -1.93282797888076,36.9399421282058,2.70339999999851 -1.93281289167558,36.9398881487721,3.94479999999749 -1.93276394157744,36.9397441479036,2.0 -1.93264391318073,36.9395050962399,1.17440000000352 -1.93254483888638,36.9394581571787,1.98489999999583 -1.93242983925866,36.939433011472,2.0 -1.93219196087983,36.9394231210548,1.98799999999756 -1.9319790601575,36.9393672974341,1.79180000000633 -1.93184897332456,36.939418092199,1.98050000000512 -1.93179985524146,36.9395010725852,2.0 -1.93186389254482,36.9395770129285,2.97400000000198 -1.93196095551127,36.9396301539637,3.25810000000638 -1.93189289465374,36.939712128926,4.72800000000279 -1.93168686694167,36.9397930978903,12.5933999999979 -1.93147899588659,36.9398640091162,20.6502999999939 -1.93137489282326,36.9399091034032,24.4168999999965 -1.93127984208305,36.9399671064523,26.7075000000041 -1.93066863375362,36.9402576236288,47.4692000000068 -1.93013403554826,36.9404960044853,68.7045000000071 -1.9299964046636,36.9405395906253,69.944399999993 -1.92987285576929,36.9409620387294,70.5959000000003 -1.92968375950368,36.941327657136,71.4467000000004 -1.92962491895427,36.9415061919172,71.5553999999975 -1.92962994772322,36.9416932759421,72.0 -1.92966481672929,36.9418765039843,73.0 -1.92965693760595,36.9419581441082,73.5638000000035 -1.92944336674038,36.9421356722512,73.8549999999959 -1.92932266730218,36.9421541126445,73.0518000000011 -1.92920884087423,36.9422610659759,73.1836000000039 -1.92902293093292,36.9423891411111,73.460699999996 -1.92878387845602,36.9425990241909,73.8695000000007 -1.92853040981547,36.9428402552249,74.7201999999961 -1.92816093543405,36.9431631264819,76.9765000000043 -1.92792389518338,36.9431824044884,77.2502999999997 -1.92782197143294,36.9432350425898,78.315499999997 -1.92765198682498,36.9433570837832,78.9017000000022 -1.92749893276521,36.9435030960072,78.5555000000022 -1.92740689946601,36.9435580816121,78.3896999999997 -1.92733883860853,36.9436440800925,78.7568000000028 -1.92723507061678,36.9439205149172,80.7651999999944 -1.92700406524821,36.9441089398948,81.5246999999945 -1.92679099743926,36.9442200840426,82.0 -1.92672343963831,36.9443102731774,82.0 -1.92663526190832,36.9444733851474,83.0 -1.92644884801214,36.9446140335911,84.0 -1.92609999355976,36.9446980206254,86.1034999999974 -1.92598097037787,36.9448004473199,87.2801999999938 -1.92577997233305,36.9447950828197,88.0 -1.9255419259693,36.9448331368753,89.0 -1.92542491501364,36.9448690112268,89.0 -1.92509097978148,36.9449870285917,89.0 -1.92475486523647,36.9451070574532,89.0 -1.92432487404932,36.9452800595294,89.4333000000042 -1.92378692333132,36.9454730113503,90.4238999999943 -1.92347494921291,36.9455890168308,91.0 -1.92305484757873,36.9457440815671,91.0651000000071 -1.92282116073903,36.9458240454708,91.4122000000061 -1.92256534480063,36.9458738336915,90.0 -1.92210199287877,36.9459291542975,87.6839999999938 -1.92115098242008,36.9460520325955,83.7186999999976 -1.92066784959566,36.9461110418203,83.3120999999956 -1.92007591911222,36.9461780968864,85.0 -1.91958993683174,36.9462200062727,87.0 -1.91935189046796,36.9462280528723,87.9024999999965 -1.91923286728607,36.9462250353975,87.5068000000028 -1.91911099464812,36.9462151444261,87.3119000000006 -1.91874755514876,36.9461618356793,86.0 -1.91827297248922,36.9460920983945,83.5351999999984 -1.91802419754604,36.9460599119339,82.0883000000031 -1.91779134793616,36.9460584028342,80.8487000000023 -1.91765690247747,36.946071144028,79.5892000000022 -1.91749244969507,36.9461036657595,78.834400000007 -1.91718298906283,36.9462008955954,77.614499999996 -1.91700193990552,36.9462904139898,77.0 -1.91689699871403,36.9463710478687,76.8987000000052 -1.91680932404061,36.9464374328757,77.0 -1.91673589844423,36.9465220898831,77.0 -1.91646499530064,36.9468431169752,76.1040000000066 -1.91627791126126,36.9470950768896,76.0 -1.91595219112236,36.9474811474575,75.4443000000028 -1.9156499394703,36.9477993246784,74.9591999999975 -1.91548364244659,36.9479069477994,74.8139999999985 -1.91527090970922,36.9479921085872,74.715400000001 -1.91491786371771,36.948103084821,74.9856 -1.91458493459871,36.9482040029058,74.6441999999952 -1.91411890120571,36.9483431425869,73.0 -1.91292397658783,36.9487111075993,73.1128000000026 -1.91236892733668,36.9488710348371,74.6055000000051 -1.91147591929928,36.9492150278782,70.0 -1.9108343685745,36.9494612884122,66.9179000000004 -1.91060889503146,36.9495040359384,65.0 -1.91048048445483,36.949432119287,65.0 -1.9102669135893,36.9494891164838,63.9544000000024 -1.91002819708235,36.9495538246257,63.0 -1.90970499042963,36.9496730149626,62.0081999999966 -1.90929997689894,36.9498891007254,60.0 -1.90886797348555,36.9500500334183,58.0 -1.90863696901528,36.9500860754547,57.0 -1.90819490716566,36.95025304308,57.0 -1.9074589758439,36.9505521091879,58.0 -1.9070459161032,36.9507500894037,60.1350999999995 -1.90658608467893,36.9510084198603,63.863400000002 -1.90633999210518,36.9512590386262,66.1199000000051 -1.90602684388869,36.9515530763188,68.0 -1.90579986207429,36.9517611150413,68.1398999999947 -1.90563188879427,36.9520110629853,68.0776999999944 -1.90555896625442,36.9520811358438,68.8600000000006 -1.90539987731255,36.9522271485763,68.0 -1.90519183917084,36.9524670390023,68.1732000000047 -1.90509896684519,36.9526470817742,69.0 -1.90474994440788,36.9529605655189,69.4116999999969 -1.90463896833429,36.9530891438397,69.398199999996 -1.90453318901464,36.9532876271467,68.6830000000045 -1.90451391027033,36.9536550894587,67.4333999999944 -1.90451692771138,36.9540381426351,66.0 -1.90449999626489,36.9544290745112,63.6729999999952 -1.90447887417764,36.9545201022182,63.0 -1.90445691306386,36.9546210204155,62.1345000000001 -1.90437594431405,36.9547940224206,61.0927999999985 -1.90422892603465,36.9550451441469,60.0 -1.90408693652423,36.955197024638,58.8537000000069 -1.90387588004317,36.9554320530656,57.0883999999933 -1.90368091688042,36.9556791513235,56.0 -1.90362794322812,36.9557790637219,55.3383000000031 -1.90359793590437,36.955876126154,55.0 -1.9035858661402,36.9559671535671,54.0 -1.9035858661402,36.9560670663054,53.4475999999995 -1.90358687225332,36.956168151863,52.4327000000048 -1.90359290713539,36.9562580059781,52.0 -1.90360983858188,36.9563550685176,51.0 -1.90371193031728,36.9566370355163,50.0 -1.90385492504251,36.9569040827509,48.0 -1.90409196529318,36.9573350806182,45.9089999999997 -1.90428743151248,36.9576817559924,43.147100000002 -1.90436504774966,36.9578472146105,42.0890000000072 -1.90439488708844,36.9579540001914,41.6873999999953 -1.90441584208907,36.9580470393297,41.0 -1.90444249690018,36.9581516453254,40.0 -1.90445557277746,36.9583176068319,39.0 -1.90445557277746,36.958520449458,37.0 -1.9044104773502,36.9588899236785,34.0 -1.90434912241631,36.9593609863535,30.011599999998 -1.90425993857321,36.9599281063504,25.6983999999939 -1.90420461852139,36.960414088534,22.0 -1.90419388904362,36.9605567489633,21.0 -1.90416522290461,36.9607223750413,19.9936000000016 -1.90414912958628,36.9608165879827,19.0 -1.90407587197485,36.9610363610202,17.7831000000006 -1.90399909386586,36.9611962882187,16.070000000007 -1.90390789869482,36.9613433063277,14.9253999999928 -1.90380966252863,36.9614846256203,13.8062000000064 -1.90343096873746,36.9619714462915,9.94740000000456 -1.9030058383343,36.9625310223595,7.09189999999944 -1.90243788029253,36.9632510275353,6.0 -1.90218290338062,36.963585130076,5.45239999999467 -1.9019892814026,36.9638642480416,5.0 -1.90190110367261,36.964007578142,5.18390000000363 -1.90184645376399,36.9641539261726,5.05890000000363 -1.90174905572592,36.964858676566,5.0 -1.90164495266259,36.9655280553859,5.0 -1.90157588569199,36.966003141595,6.0 -1.90151888848552,36.9663771422024,6.0 -1.90152794080864,36.9665640589179,6.0 -1.90145585729531,36.9670341159355,5.40150000000722 -1.90134488032342,36.9678000541816,6.0 -1.90132694276381,36.9681891419045,6.0 -1.90143020859732,36.9685354822063,6.0 -1.90157789701992,36.9690440965331,6.0 -1.90158594412822,36.9692440885214,6.0 -1.9015239181528,36.9694861581498,5.0 -1.90164696399053,36.9699461563619,5.0 -1.90175995229032,36.9704071616058,5.0 -1.90178492994681,36.9708850974995,5.0 -1.90178895350098,36.9709840038251,5.0 -1.90179884395225,36.9713821440858,5.0 -1.90183186871705,36.9714770277998,5.0 -1.90191786713411,36.9716681348072,5.0 -1.90192792557038,36.9719400440724,5.06080000000657 -1.90182499570679,36.9729011125926,5.0 -1.90185483504557,36.9735790414138,5.00629999999364 -1.90190797668283,36.9742430557638,5.09219999999914 -1.90193094301139,36.9745380984303,5.0 -1.90195893900724,36.9747280322638,6.0 -1.90198693410475,36.9750130171683,5.8972999999969 -1.90202783799288,36.9755952241292,6.0 -1.90206186887079,36.9763581446298,5.57529999999679 -1.9021369707235,36.9770620572147,6.0 -1.9021899443758,36.9777180251736,6.0 -1.90221894558643,36.9778080469,6.0 -1.90228097156185,36.9785540357309,6.0 -1.90233293910104,36.9791390925527,6.0 -1.90240787386712,36.9798061247665,6.0 -1.90246587628837,36.9807801020284,6.0 -1.90246922880101,36.9810833588906,6.03519999999844 -1.90250694726317,36.9816310322888,7.8466000000044 -1.90251247998699,36.9822083778639,8.0 -1.90249890105316,36.9825961246638,8.95020000000659 -1.90249890105316,36.9831585507755,8.0 -1.90244391517463,36.9840200430056,7.0 -1.90242698372814,36.9844030955344,7.13959999999497 -1.90241592007712,36.9845001580688,7.9600000000064 -1.90240988519502,36.9846880800832,8.0 -1.90236663490736,36.9850806886796,9.0 -1.90229790300834,36.9855690181645,9.0 -1.90221190459125,36.9860531568461,8.0 -1.90207192640873,36.9866201088381,8.0 -1.90186288215391,36.9872790941967,6.82709999999497 -1.90168384432453,36.9877340639555,6.0 -1.90142517893004,36.988375782204,6.0 -1.90110147011907,36.9891031637791,5.0 -1.9008739852481,36.989550087065,4.90899999999965 -1.90081195927268,36.989632062108,5.0 -1.90072596085558,36.9897071639045,5.0 -1.90061196644267,36.9898761433929,5.0 -1.90058397134516,36.9899661650846,5.0 -1.90042689462953,36.9902260034447,5.0 -1.90016789326512,36.9906990785541,4.61169999999402 -1.89989883436278,36.9911401339933,4.85860000000685 -1.8998009341665,36.9913111250619,4.85009999999602 -1.89969498686189,36.9914750748512,4.64519999999902 -1.89952097869977,36.9917380987988,4.53840000000491 -1.89930086989559,36.9920641550746,4.45299999999406 -1.89907891685015,36.9922961659598,4.0 -1.89880801370656,36.9925526521077,5.0 -1.89828984478942,36.9930170095636,3.70339999999851 -1.89789287746872,36.9933750847671,3.7326999999932 -1.89745986794222,36.9938141286452,3.97609999999986 -1.89717991247549,36.9941061544626,4.08629999999539 -1.89689995700878,36.9942761394127,3.49619999999413 -1.89643090617477,36.9945790612245,3.04409999999916 -1.89616184637413,36.9947740247588,3.40529999999853 -1.89593385934491,36.9948580109938,3.23820000000705 -1.89570486530425,36.9949101462967,3.51979999999458 -1.8950698525181,36.995181049839,2.95200000000477</coordinates>
</LineString>
</Placemark>
</Folder>
</Document></kml>
