<?xml version="1.0" encoding="UTF-8"?>

<kml xmlns:xsd="http://www.w3.org/2001/XMLSchema" xmlns:gx="http://www.google.com/kml/ext/2.2" xmlns:atom="http://www.w3.org/2005/Atom" xmlns="http://www.opengis.net/kml/2.2">
<Document>
<name>ES19a_03a_san_jose-las_negras</name>
<visibility>1</visibility>
<Schema name="ES19a_03a_san_jose-las_negras" id="kml_schema_ft_ES19a_03a_san_jose-las_negras">
<SimpleField type="xsd:string" name="id">
<displayName>id</displayName>
</SimpleField>
<SimpleField type="xsd:string" name="nombre">
<displayName>nombre</displayName>
</SimpleField>
<SimpleField type="xsd:double" name="longitud">
<displayName>longitud</displayName>
</SimpleField>
<SimpleField type="xsd:string" name="_formato">
<displayName>_formato</displayName>
</SimpleField>
</Schema>
<Folder id="kml_ft_ES19a_03a_san_jose-las_negras">
<name>ES19a_03a_san_jose-las_negras</name>
<Placemark id="kml_1">
<name>&lt;img height='20' src='https://nco.ign.es/iconos/icono_todos_caminos_azul.png' /&gt;&lt;img height='20' src='https://nco.ign.es/iconos/Camino Santiago_20.png' /&gt;&lt;img height='20' src='https://nco.ign.es/iconos/icono_todos_caminos_azul.png' /&gt;  Camino de Santiago </name>
<visibility>1</visibility>
<description><![CDATA[<!DOCTYPE html>
<html>
<head>
<style>
#nco {
  border-collapse: collapse;
  overflow:hidden;
}
#nco th, #nco td {
  padding: 4px;
  text-align: left;
}
#nco th {
  color: #364B5F;
  padding-right: 5px;
}
#nco td {
  color: rgb(51, 51, 51);
  font-size: 12px;
  padding-right: 5px;
}
</style>
</head>
<body>
<table id="nco">
<tr>
<td>Caminos del Sureste</td>
</tr>
<tr>
<th><b>Camino: </b></th>
<td>ES19a Camino Argar del Sureste de Almería</td>
</tr>
<tr>
<th><b>Etapa: </b></th>
<td>03a San José-Las Negras</td>
</tr>
<tr>
<th><b>Longitud: </b></th>
<td>21.83 km</td>
</tr>
</table>
</body>
</html>]]></description>
<Style>
<IconStyle>
<scale>0.8</scale>
</IconStyle>
<LabelStyle>
<color>ffffffff</color>
<scale>0.75</scale>
</LabelStyle>
<LineStyle>
<color>ffff0000</color>
<width>3.0</width>
<gx:labelVisibility>1</gx:labelVisibility>
</LineStyle>
<PolyStyle>
<color>66ff0000</color>
</PolyStyle>
</Style>
<ExtendedData>
<SchemaData schemaUrl="#kml_schema_ft_ES19a_03a_san_jose-las_negras">
<SimpleData name="id">ES19a_03a</SimpleData>
<SimpleData name="_formato">kml</SimpleData>
</SchemaData>
</ExtendedData>
<LineString>
<extrude>0</extrude>
<tessellate>1</tessellate>
<coordinates>-2.10890997189314,36.7623108244743,3.0 -2.10903268265925,36.7624576758958,3.32420000000275 -2.10905011716229,36.7625175222169,3.99809999999707 -2.1091108028513,36.7626355393505,4.5798000000068 -2.10917668439593,36.7626685645406,3.97920000000158 -2.10937198263027,36.763001158142,4.0 -2.10953492714135,36.7632551302807,5.0 -2.10958890600844,36.7633508514238,5.0 -2.10958002167028,36.7633961132841,4.98070000000007 -2.10963081600972,36.7634596485302,5.0 -2.10954900823342,36.7635173156836,4.1140000000014 -2.10940299516883,36.763671040334,4.0 -2.1092760937619,36.7638272784095,4.0 -2.10920384136529,36.7638931607907,4.0 -2.10914483283092,36.7639850259868,4.0 -2.10905598495773,36.764049063778,4.0 -2.10884693980457,36.7642760457787,4.0 -2.10873763998733,36.7644247407612,4.0 -2.10859498033371,36.7645831585352,4.0 -2.10837285930327,36.7647950531489,4.0 -2.10820086336741,36.7650510364904,4.99989999999525 -2.10783340031392,36.7655497600898,4.90929999999935 -2.10767045580284,36.7657368442008,4.0 -2.10763961035094,36.7657951817767,4.0 -2.10737993974166,36.7661054799972,5.0 -2.10730031127825,36.7661730378714,5.0 -2.10708389095663,36.7663941529619,5.0 -2.10696185033369,36.7664251659028,4.0 -2.10688691556764,36.7665091525049,4.0 -2.10681298781301,36.7666801435282,4.41999999999825 -2.10666999218944,36.7668420813444,5.0 -2.10656220064356,36.7669304269462,6.0 -2.10651995646902,36.7669932914575,6.0 -2.10634393608066,36.7671141578672,6.35400000000664 -2.10616389303647,36.7672511183151,7.0 -2.10598284387919,36.7673750031055,7.0 -2.10561990743641,36.7676301481208,7.4597999999969 -2.10536995929345,36.7678311458781,8.0 -2.1051198431655,36.7680460581933,8.01069999999891 -2.10482496758024,36.7683540093047,9.0 -2.10437636779197,36.7688044527618,10.1241000000009 -2.10424309553306,36.7689504656468,11.0 -2.10391284878345,36.7693071996854,12.0 -2.10356684378716,36.7694681317154,12.0 -2.10303694017747,36.7697001427474,14.0090999999957 -2.10295597052932,36.7697670303917,15.1405999999988 -2.10272697738699,36.7698131311081,16.0 -2.10248591358219,36.7698191663312,16.911500000002 -2.10213286759068,36.769764013138,17.9698999999964 -2.10154194411871,36.7696780145183,19.2314999999944 -2.10094984654864,36.7696030802898,21.3003000000026 -2.10070392106152,36.7695770964436,22.514599999995 -2.10058188043858,36.7695831316854,23.0 -2.09999497962245,36.7695011568414,25.2694999999949 -2.09963489353405,36.7694540499423,27.0 -2.09917590023794,36.7694000708679,28.8261000000057 -2.09858799330869,36.7693470970325,31.0 -2.09799891317964,36.7692941238801,33.0 -2.09731193285434,36.76921902161,35.2954999999929 -2.09719995066763,36.7692151660027,35.3322000000044 -2.09685092823029,36.7692560693956,37.195000000007 -2.0966118757534,36.7693040140277,37.0 -2.0964908412436,36.7693241310904,37.0 -2.09602497493727,36.7693930303353,38.0 -2.09545483848093,36.7694721549758,40.0 -2.09498494862043,36.7695420600817,42.087400000004 -2.0947559554781,36.7695680439398,43.3625999999931 -2.09463492006997,36.7695891669268,44.0 -2.0944208461479,36.769672147669,45.0 -2.09430886396119,36.7697100335621,45.8888000000006 -2.09408389437303,36.7697500990845,46.8647999999957 -2.09386546182517,36.7698047492925,47.9397999999928 -2.09362188363586,36.7698300624014,49.8715999999986 -2.09350889533607,36.769835091633,50.0 -2.09316171714001,36.7698049169576,53.0905999999959 -2.0928712001805,36.7697646837987,55.5871000000043 -2.09257749869331,36.7696748295956,56.960699999996 -2.09247875947054,36.7696352670303,57.4560000000056 -2.09235688683256,36.7696290641272,58.116200000004 -2.09224993341484,36.769668124419,57.7200000000012 -2.0921419747823,36.7697251212798,57.0877999999939 -2.09207709845249,36.7697893262603,56.5464000000065 -2.09202798126769,36.7698810246434,57.2060000000056 -2.09200786439522,36.7699750695037,58.3270000000048 -2.09198791550771,36.7700721314903,59.1484000000055 -2.09195790818397,36.7701591356539,60.5256999999983 -2.09192655967549,36.7701901492308,60.7367999999988 -2.09187593332104,36.7702045661971,61.075800000006 -2.09164492795244,36.7702776562526,63.7400000000052 -2.09130898139238,36.7702991136525,67.3141000000032 -2.09109038085957,36.770375724559,68.0669000000053 -2.09097236379079,36.7704008698155,67.5440999999992 -2.09086423717333,36.7704003668241,65.6211999999941 -2.0907358265967,36.770383100329,65.4398999999976 -2.09063222658994,36.7703525905414,66.0 -2.09054756935758,36.7703011256207,66.2888999999996 -2.09046425330992,36.7702307174948,67.0 -2.09039283904146,36.770154107163,67.0 -2.09027498995765,36.7699940127375,66.3917999999976 -2.09013870025768,36.7698340856428,66.1974000000046 -2.09006309534843,36.7697625041512,66.7505999999994 -2.08997961131581,36.769702490062,67.1720999999961 -2.08989964778078,36.7696646034455,67.7804000000033 -2.08980241772771,36.7696361053578,68.6530999999959 -2.08969362096701,36.769624370213,69.5767000000051 -2.08956571254866,36.7696092831951,69.5819000000047 -2.08945440140348,36.7696285618503,70.7103000000061 -2.08940846874636,36.7696337580411,70.8334000000032 -2.08929279807714,36.7696288964617,70.8834000000061 -2.08920361513237,36.7696337580411,71.7363999999943 -2.08908358583736,36.7696453255189,72.290399999998 -2.08896355744065,36.7696584012643,72.9113999999972 -2.08885123928406,36.7696714770074,73.5742000000027 -2.08873623965634,36.7696776791876,74.8441000000021 -2.08861285784869,36.7696838820868,75.2168999999994 -2.08850992888344,36.76968304376,75.295100000003 -2.08848595644176,36.7696701356842,75.3755999999994 -2.0884966850212,36.7695935255119,73.4988000000012 -2.0885939150743,36.7694280660456,74.2942999999941 -2.08867086116828,36.7693610111591,74.4358999999968 -2.08876188835433,36.7692951291579,74.3022000000055 -2.08881687333453,36.7692081254531,75.2786999999953 -2.0888188855608,36.7691181036508,76.5071000000025 -2.08880396544224,36.7690230531778,78.6909000000014 -2.08879239873465,36.7689323604901,81.1524000000063 -2.08877915487241,36.7688485413309,83.7495999999956 -2.08873339020024,36.7687617047867,86.9658000000054 -2.08869483360996,36.768662966624,88.0627999999997 -2.08863984773139,36.7685880321231,87.8087999999989 -2.08859492118742,36.768501027616,85.4412000000011 -2.08859827370005,36.7684383312892,83.1162999999942 -2.08869433055338,36.7683506566587,80.3462 -2.08876825830801,36.7682772308686,79.6931000000041 -2.0888725293563,36.7682229163481,78.3613000000041 -2.08895752166028,36.7681612258062,78.760500000004 -2.08903798825186,36.7680931645183,79.0164999999979 -2.08909498545829,36.7680130331602,79.0616000000009 -2.08913790067436,36.7679270354551,79.305600000007 -2.08912298055584,36.7678360075715,79.5935000000027 -2.08911392823272,36.7677441419514,79.8168000000005 -2.08914762403901,36.7677062558065,80.0696999999927 -2.08919590309565,36.7676821156848,80.5712000000058 -2.0893083883389,36.7676594845835,80.9520000000048 -2.08941752106948,36.7676055056849,80.6193999999959 -2.08950083711714,36.7675500169985,80.3242000000027 -2.08956185697945,36.7674670361185,80.8392000000022 -2.08959840224184,36.7673875762269,81.2035999999935 -2.08964098238632,36.7672829699821,80.4655999999959 -2.08966059620221,36.7671825546461,81.0 -2.08969462618183,36.7669674751179,80.5746999999974 -2.08969663840806,36.7668130799123,80.571299999996 -2.08971893459342,36.766536141985,81.2189999999973 -2.08971876660846,36.7663405085179,82.5613000000012 -2.0897038464899,36.7660830168236,85.5948999999964 -2.08968121523293,36.7659153786607,88.757500000007 -2.08962740345246,36.7657936734314,92.4376999999949 -2.08957090930257,36.7657341614168,94.8119000000006 -2.08942908777711,36.7654743224013,103.713099999994 -2.08933940177576,36.7652748332984,111.038700000005 -2.0892599412973,36.7651491050048,114.717699999994 -2.08918970112692,36.765066291361,116.0 -2.08908744140653,36.7650837260091,116.760599999994 -2.08885140726902,36.7651447461669,118.332200000004 -2.0887496506052,36.765166203564,119.648499999996 -2.08863330979278,36.7651697240244,120.822400000005 -2.08840599290676,36.7651531284918,122.1878 -2.08829484884821,36.7651271445769,122.024000000005 -2.0881769988661,36.7651120566742,121.705799999996 -2.08805093558732,36.7651291559612,121.367100000003 -2.08780987178252,36.7651100452894,121.478799999997 -2.08769286082687,36.7651070278524,121.692299999995 -2.08758993096331,36.7651551398755,122.133199999997 -2.08752891020267,36.7652340976158,123.479600000006 -2.08734584971746,36.7653541262652,124.896299999993 -2.08714099610343,36.7654361012249,126.219800000006 -2.08680287023048,36.7655340015724,127.476699999999 -2.08670899269004,36.7655970334636,127.573000000004 -2.08651872322466,36.7657093514172,127.724700000006 -2.08617087488539,36.7658615669278,126.984200000006 -2.08609644317588,36.7659115228873,126.761199999994 -2.08599619568176,36.7659820983351,126.516600000003 -2.08582336071941,36.7661066537096,126.303199999995 -2.08573015422047,36.7661745469288,125.706300000005 -2.08567131277276,36.7662437814711,125.051500000001 -2.08557290951987,36.7664099105829,125.723800000007 -2.08553820849876,36.7664873594193,126.905599999998 -2.08544667825617,36.7665260838082,126.1296 -2.08536889403404,36.7665871042575,126.176999999996 -2.08518683876361,36.7666940574191,125.628200000006 -2.08507787401795,36.7667220528651,124.998900000006 -2.08473287513478,36.766988597382,126.675199999998 -2.08435887504094,36.7671391365224,120.437000000005 -2.08419894797092,36.7672690554785,117.944399999993 -2.0841119434407,36.7673361107552,115.852599999998 -2.08404690002426,36.767419091777,115.418399999995 -2.08397012191524,36.7675929325994,114.232000000004 -2.08391698117628,36.7676760810129,113.593500000003 -2.08384908740542,36.7677466562759,112.407699999996 -2.0837642621881,36.7678130411768,111.445800000001 -2.08356292907166,36.7678987043908,108.955600000001 -2.08337500690412,36.7679327347688,106.671400000007 -2.08323268232208,36.7680274505358,105.304799999998 -2.08320988308018,36.7681141195231,104.832399999999 -2.08321072120834,36.768208835066,104.902600000001 -2.08321491274747,36.7682970121443,104.813899999994 -2.08324994884016,36.7684921433727,103.551900000006 -2.08331113668742,36.7688730164197,103.0 -2.08334097602621,36.7689670617967,103.404399999999 -2.08339026209429,36.7690636213397,103.337700000004 -2.08352370143984,36.7692000789043,104.3367 -2.08359746300614,36.7693014997542,104.721600000004 -2.08366066218134,36.7694741669658,103.183099999995 -2.08368279038171,36.7695784377684,102.279800000004 -2.08366585893525,36.7696692973572,101.385599999994 -2.08361288528294,36.76974708183,100.456600000005 -2.08352286331168,36.7698171543503,99.8646000000008 -2.08333896469831,36.7699026498192,98.9333999999944 -2.08311500032493,36.770010440997,97.8888000000006 -2.08300687370743,36.7700687789195,97.2839999999997 -2.08279849959581,36.7701648355212,96.7452000000048 -2.08260571574594,36.770250331322,95.5862999999954 -2.08251787308757,36.7702971024038,95.0204999999987 -2.08243489300982,36.7703740479204,94.5635000000038 -2.08241092056818,36.7704721161035,94.2546000000002 -2.08236498791106,36.7706560155559,93.3757999999943 -2.0823138576017,36.7708340470872,91.6640000000043 -2.08223003849749,36.7711041118897,88.0822999999946 -2.08224009693373,36.7711948041672,86.8325000000041 -2.08226574563172,36.7712821431001,86.7375999999931 -2.0822332239235,36.7714095480279,87.1842000000033 -2.08219282309191,36.7715753421384,87.0 -2.08219801984582,36.7716504442592,86.1937999999936 -2.08223976186214,36.7717193435723,86.0390999999945 -2.08230094970941,36.77180282715,85.3073000000004 -2.08235945518724,36.7718851377325,84.5528999999951 -2.08240119720353,36.7719728119193,83.3785000000062 -2.08238426575704,36.7721116165841,83.088699999993 -2.08233213023289,36.7722128702403,82.3505000000005 -2.08227094238563,36.7722691960096,82.0192999999999 -2.0820794997205,36.7723724613716,82.9452000000019 -2.0817826128073,36.7725236706524,83.0 -2.081487905207,36.772670018968,85.0 -2.08130702403465,36.7727858567457,86.0 -2.08104684947046,36.7729850111393,85.3442000000068 -2.0808748526363,36.7731261619009,84.3043999999936 -2.08070889158251,36.7732540696151,83.3695000000007 -2.08053085986621,36.7733813072065,82.6046999999962 -2.08024050999336,36.7735564887182,83.0319000000018 -2.0800463858571,36.7736807087079,82.139599999995 -2.07986516871483,36.7737812918248,82.0 -2.07975704209733,36.7738278952549,82.534799999994 -2.07964891547983,36.7738630987536,83.0 -2.0795339158521,36.7738810365288,83.7522000000026 -2.07942193366543,36.7738790246545,84.3396999999968 -2.07931397503289,36.7738530408183,85.0675000000047 -2.07902295501684,36.7736931138582,86.8775000000023 -2.07871785390868,36.7735410664406,89.0372000000061 -2.07829691504465,36.7733740986626,90.9026000000013 -2.07807395588605,36.7733211254142,92.375 -2.07795895625832,36.7733020146254,92.7550999999949 -2.07769945273567,36.7732864239196,93.0 -2.07758612936427,36.773318610553,93.0 -2.07738814876049,36.7734292514176,92.9291999999987 -2.077228892732,36.7735890105519,92.0 -2.07708975267764,36.7738684637527,89.9045000000042 -2.07698296724484,36.7740396218502,88.0351999999984 -2.07692043821288,36.7741105330431,87.9535999999935 -2.07683259645281,36.7741477482793,88.0 -2.07671390834253,36.7741670265129,88.0 -2.07657275696024,36.7741616622542,88.6208999999944 -2.07624066596939,36.7740645996884,88.0 -2.07590321113798,36.7740092797346,87.0 -2.07565393313819,36.7739960356362,85.942200000005 -2.07542192165651,36.7740520269424,85.0445000000036 -2.0752138835148,36.7741390309069,84.1055999999953 -2.07511598242019,36.7741901608185,83.0 -2.07506099743999,36.7742711297538,83.0 -2.07504590933647,36.774366013261,82.531799999997 -2.07505093900372,36.7744590524466,82.0 -2.07527004169478,36.7747810852207,82.6211000000039 -2.07534866404507,36.7749975056471,82.1244000000006 -2.07535034030142,36.7751153553477,82.1260000000038 -2.07530071916176,36.775220799966,82.1514000000025 -2.07520667453466,36.775303109757,82.5923000000039 -2.07504088056749,36.7754536491223,84.0 -2.0747962962651,36.7756440858599,86.6836999999941 -2.0745927838358,36.7757399750196,87.8463000000047 -2.07448599840303,36.7757691436054,88.5118999999977 -2.07436697522114,36.7757810461811,89.2823999999964 -2.07425851353206,36.7757366219771,90.0387999999948 -2.0741797240951,36.7756611849569,91.0 -2.07410193987297,36.7755253979897,92.0114999999932 -2.07396833254246,36.7753498806345,93.1465999999928 -2.07386774907839,36.7751741959436,94.1352000000043 -2.07379465945195,36.7749958291096,95.0 -2.07363490036685,36.774836070029,95.0 -2.07353163543171,36.774783264006,95.0 -2.07341261224982,36.7747613034592,95.0 -2.07328889537056,36.7747800792954,95.2253999999957 -2.07317389574284,36.7748141094973,95.0 -2.0730409585555,36.7749929797154,94.8815000000031 -2.07289494549092,36.7752330372138,94.0 -2.07282386719238,36.7754140866609,94.0896999999968 -2.07281800029527,36.7756970596617,92.8099999999977 -2.07284498927967,36.7758851493889,91.630799999999 -2.07287097304924,36.7761635962272,90.0 -2.07289796293197,36.7762546235778,88.7773000000016 -2.07290835643979,36.7763662704267,87.9937999999966 -2.07288639622438,36.7764675242197,87.4397999999928 -2.07280106884878,36.7766415323231,86.9231 -2.07274055114472,36.7767238427471,86.8907999999938 -2.07251893317089,36.7769452922102,86.9315000000061 -2.07219807471431,36.7772297741546,85.3187000000034 -2.07187855654418,36.7775221352297,82.6790000000037 -2.07178300274739,36.7775616973227,81.9955000000045 -2.07166548783689,36.7775953931522,81.9478999999992 -2.07134999322088,36.7776632862715,82.0 -2.0712078366238,36.7776780385673,82.0 -2.07096191113668,36.7776760267926,81.428700000004 -2.07084892283689,36.7777090512611,81.1809999999969 -2.07076393053291,36.7777851590151,81.7448000000004 -2.07070592811162,36.7778691461248,81.9575999999943 -2.07066284491059,36.7779630228925,82.0 -2.07068664936731,36.7783589845547,81.5865999999951 -2.07063434675654,36.778648830234,82.0 -2.0705835524171,36.7787494133077,82.8831000000064 -2.07051398238992,36.7788181450709,82.9389999999985 -2.07042094297764,36.7788751416046,83.1267999999982 -2.07031499567303,36.7789311329446,84.0 -2.07008197897653,36.778989135984,84.7146999999968 -2.06996697934881,36.7789970145798,85.1092000000062 -2.06974586443152,36.7789740479309,86.4783000000025 -2.06952156498655,36.7789237565579,87.4159000000072 -2.06928821321844,36.7788466433431,88.1842000000033 -2.06892410267758,36.7786728028546,89.9796999999962 -2.06852294471609,36.778438612234,92.0127000000066 -2.06823091948522,36.7782721479898,94.0669999999955 -2.06813083997606,36.7782260473235,94.1300999999949 -2.06801785167627,36.7781900047166,94.3962999999931 -2.06790285204851,36.778187155441,95.2998999999982 -2.06778584019455,36.7781831319184,95.1793999999936 -2.06755483482599,36.778249013477,94.7568000000028 -2.06739088510013,36.7783801065586,94.075800000006 -2.06733791144782,36.7784600702278,93.5467999999964 -2.06732785301159,36.7785561263889,93.0 -2.06734595855612,36.7786540272524,92.2658999999985 -2.06742256868019,36.7787732175319,92.2583000000013 -2.0675674076467,36.7789849448584,91.0485999999946 -2.06778382886665,36.7791899658172,90.3888000000006 -2.06811491374438,36.7794568461669,89.9674999999988 -2.06820694704355,36.7795480408479,90.0 -2.06836184444633,36.7796890248325,89.8405999999959 -2.06843258857158,36.7797738495116,89.8614999999991 -2.06848924980813,36.7798896873473,89.6993999999977 -2.06845605705838,36.7799820557328,90.0 -2.06838766112928,36.7800759335102,89.1123999999982 -2.06828020555331,36.7801384620309,88.5378000000055 -2.0681601762583,36.7801557292068,87.9312000000064 -2.06781886495935,36.7800771070086,87.0 -2.06747185474824,36.7799961377305,86.0 -2.06726297758008,36.7799770271667,85.832899999994 -2.06710858233558,36.7799914437316,85.0 -2.06678051489886,36.780071742444,83.0 -2.06667004188184,36.7801024203232,83.0 -2.06653710469451,36.7801133163708,82.9328999999998 -2.066317162977,36.7800935352659,81.8748000000051 -2.06607593208554,36.7800320118454,81.5489999999991 -2.06583587439386,36.7799721655238,81.0 -2.06572188087925,36.7799730037381,81.0 -2.06560822243622,36.780009548435,80.908500000005 -2.06551283572609,36.7800620191698,80.6870999999956 -2.0653529095544,36.7804200944434,76.8399000000063 -2.06519784416666,36.7807890654345,74.5773999999947 -2.06515492895059,36.780884116429,74.0 -2.06514084696019,36.7809751439296,73.3631000000023 -2.06514084696019,36.7810700270529,72.4033999999956 -2.06516196994581,36.7811660835405,70.7243000000017 -2.06520186772083,36.7812520822238,69.7088999999978 -2.06544259555571,36.7815776349458,66.7063000000053 -2.06552792382961,36.7817640482432,64.9459000000061 -2.06557083904568,36.7819541498544,63.7170999999944 -2.06566689500071,36.7823261388535,61.9309999999969 -2.06569338182686,36.7827205915473,62.8441000000021 -2.06573965045386,36.7831006269531,64.0 -2.06572422727877,36.7835125133127,64.0 -2.06571098431486,36.7835991827805,63.9192000000039 -2.06566102810357,36.7837381541727,64.0489999999991 -2.06538325194972,36.7839886056553,65.0 -2.06509491430311,36.7841740130419,64.0492999999988 -2.06496583268498,36.784329078352,63.8594000000012 -2.06467598676697,36.784618086313,65.0 -2.06437390309987,36.7849091062077,64.6061000000045 -2.06431589978028,36.7849951042881,64.3993000000046 -2.0642838811286,36.78509401135,62.1864999999962 -2.06428891079588,36.7851900678302,61.0 -2.06430684745716,36.7852871299774,60.0 -2.06434691321717,36.7853751399255,59.0 -2.06459635830356,36.7858054670436,55.1110000000044 -2.06472191942409,36.7862621131167,50.9983999999968 -2.06476483464016,36.7865450863563,48.4838000000018 -2.06474388053783,36.7866470101654,48.0 -2.06471990809616,36.7867390430642,48.877800000002 -2.06465989344867,36.7868171627386,48.9064999999973 -2.06449594372281,36.7869581463009,49.4563999999955 -2.06424985114902,36.787185128104,49.6756000000023 -2.06372899896415,36.7875710313098,51.5893999999971 -2.06350989627309,36.7877960012272,51.6722000000009 -2.06341383941976,36.7879700095103,50.9955000000045 -2.06330688690034,36.7885391408577,47.2915000000066 -2.06329397900801,36.7886300009941,47.0 -2.06329599033594,36.7887280688427,47.0 -2.06331493311034,36.7888180906375,46.0102999999945 -2.06334896398825,36.7889071065866,45.1419000000024 -2.06357594580265,36.7893431331736,41.9079999999958 -2.06374794263684,36.7897920677239,38.6166999999987 -2.06400694310295,36.7904290925265,33.0 -2.06430098056005,36.7912661095349,26.5188000000053 -2.06440592175154,36.7916461450038,24.0 -2.06448890272759,36.7919311291835,22.0 -2.06450784550198,36.7921230752496,21.0 -2.0645088516151,36.7922161144613,20.9021999999968 -2.06449493760966,36.7923061357547,20.1064000000042 -2.06444799883946,36.7923931398599,19.9391999999934 -2.06438094409505,36.792476121094,19.0 -2.0643039980011,36.7925480374674,18.0 -2.06383695849499,36.7928420745228,15.0 -2.06373989552854,36.7929051069808,14.0 -2.06366596777391,36.792976017265,13.3888000000006 -2.06360494701331,36.7930551427402,13.0 -2.06355884637123,36.7931421467141,12.0 -2.06352297215034,36.793235018513,11.0746000000072 -2.0634849186166,36.7934331666059,10.0 -2.06345893484702,36.7940921513965,7.0 -2.06343295017911,36.794861107409,7.0 -2.06336086576746,36.7955311572058,8.0 -2.0633129217824,36.7959140424333,9.0 -2.06333488199785,36.7964040482235,9.0 -2.06336790676264,36.7971631131797,11.0 -2.06340193764055,36.7979230165444,12.0 -2.06342591008223,36.7982160482114,11.3144000000029 -2.06348793605765,36.7986980073323,11.0 -2.06357292836163,36.7992651269012,10.0 -2.06369295675831,36.8000290540858,9.0 -2.06397391833816,36.8019260461195,6.0 -2.06425689124591,36.8037080389744,4.0 -2.06427684013342,36.8040441530072,4.0 -2.0641958713836,36.8041070172882,3.32420000000275 -2.06400493177502,36.804233080875,3.0 -2.06379991017603,36.8043251142256,3.0 -2.06345692262079,36.8044091010168,2.85349999999744 -2.06323094691947,36.8044660979352,2.0 -2.06312399350175,36.8045080074705,2.0 -2.06302190176635,36.804571039679,2.0 -2.06316892094405,36.8048181381816,2.02099999999336 -2.06320194570884,36.8049100039599,2.0 -2.06321988237012,36.8051941504831,3.0 -2.06318484627743,36.8054831581343,2.0 -2.06309096873696,36.8057411532892,3.0 -2.06296389934506,36.806106101123,3.0 -2.06275485419194,36.806430145705,3.83990000000631 -2.06256894425064,36.8067840296984,4.0 -2.06244891495563,36.8070440365086,4.0 -2.06251898803935,36.8071151149524,4.0 -2.06251798192623,36.8072120097887,5.0 -2.06249685983898,36.8073080658678,4.71499999999651 -2.062419913745,36.8073821619973,4.3573999999935 -2.06231899520935,36.807442009206,5.0 -2.06220097814057,36.80746413732,4.40180000000692 -2.06208497329806,36.8074979998095,4.0 -2.06196997277201,36.8075241513279,4.27999999999884 -2.06170795486488,36.8077150916651,2.0 -2.06127997500566,36.8080320946125,1.67909999999392 -2.06107394729356,36.8081301635148,1.42130000000179 -2.06099498987164,36.8081970507035,2.18889999999374 -2.06085098903329,36.808555125389,3.06179999999586 -2.0608359018281,36.8086461530987,1.25479999999516 -2.0607158725331,36.8090201536313,2.71450000000186 -2.06094184913271,36.8090530106765,9.89119999999821 -2.06091385313687,36.8092390888535,13.0 -2.06105986620145,36.8094910493237,15.4602000000014 -2.06120017945559,36.8097430089647,17.5244999999995 -2.06137670200219,36.8102360325586,20.4982000000018 -2.06116547843448,36.8102464259062,21.0 -2.06105584264732,36.8102330147404,20.6435000000056 -2.06117905647,36.8103788602322,21.0 -2.0612187871584,36.8104227810422,21.8649000000005 -2.06122415099893,36.8104757552535,21.7461000000039 -2.06125583457903,36.810561083098,22.2067999999999 -2.06132289022173,36.8106420517203,23.0 -2.06137100219171,36.8107330791064,23.0 -2.06134418029394,36.8108189101095,22.9149999999936 -2.06134485043714,36.8110244341954,22.9717999999993 -2.06135289754547,36.8111131150808,23.9670999999944 -2.06136262001179,36.8112173860471,23.4213000000018 -2.06144493084464,36.811589039495,24.8800999999949 -2.0614839904915,36.8117710940648,26.6165999999939 -2.06151584205655,36.8120520556984,28.0 -2.06154987203613,36.8122411515174,28.9952000000048 -2.06158692035509,36.8123281552726,30.0 -2.06173997351656,36.8124691393498,31.0 -2.06184390949323,36.8132191516341,36.212400000004 -2.06188397525324,36.8136360678303,38.8696999999956 -2.0618928595914,36.8141041130819,41.5512000000017 -2.06191297646387,36.8147000666393,44.0 -2.06191599390488,36.8149910858816,45.9032000000007 -2.06190006767324,36.8150769171449,46.0 -2.06187793947284,36.8151751524999,46.9937000000064 -2.06179629968149,36.8153550281015,47.9671999999991 -2.06163587045322,36.8156160406793,49.0 -2.06135859735596,36.8159467907272,50.0592000000033 -2.0611643043364,36.8161845013167,51.0 -2.06108082120211,36.8163233057216,51.6070999999938 -2.06097068235838,36.8165440855436,52.0 -2.06082299393578,36.8170071012619,53.0 -2.06072492485622,36.8172870570086,53.0 -2.06064093866535,36.8174722975039,53.0 -2.06053482337579,36.8176369175505,53.8160000000062 -2.06039082253743,36.8178268517567,54.0 -2.06018496281029,36.8180471281588,54.0083000000013 -2.06003995585882,36.8181830828362,54.2930000000051 -2.05979889295232,36.8183830749696,54.0 -2.05953989158791,36.8185651299216,53.7764000000025 -2.05924049029024,36.8187530518475,53.0 -2.0587209801884,36.818983051111,50.0 -2.05828696454874,36.8191590711416,47.9722000000038 -2.05774784063097,36.8193840417674,45.0 -2.05743486039948,36.8195280425261,44.0 -2.0568972456514,36.8197624009453,43.0 -2.05638293140513,36.8199980998082,42.0 -2.0553219500877,36.820479053139,42.0 -2.05455785658173,36.8207980685281,42.9986999999965 -2.05390188879496,36.8210600872783,48.5840999999928 -2.05357566470123,36.8211765954593,50.3994999999995 -2.05312991526736,36.8213321633073,53.2301000000007 -2.05265315239663,36.8214322437753,55.0889000000025 -2.05216985158725,36.8215321558413,56.0 -2.05169895651193,36.8216481613677,56.1830999999947 -2.05159183600758,36.8216880595079,55.3266000000003 -2.05127784966293,36.8218171402721,54.0 -2.05073487017599,36.8219760614326,53.0 -2.05016087725215,36.8221550991189,53.0 -2.04959090788248,36.8223540849206,52.0 -2.04905496939072,36.8225581010099,51.0 -2.04885296523278,36.8226690770602,51.0 -2.04854887023774,36.8229560735956,50.0 -2.0483488774077,36.8232202709942,51.0 -2.0481039580337,36.8235121286571,51.0 -2.04778192547908,36.8239280388783,52.0 -2.04766390841031,36.8240931627788,52.0 -2.04756399598777,36.8242651593021,52.0 -2.04752493634091,36.8243640652715,52.0 -2.04742083327757,36.8247461124219,51.5385999999999 -2.04730398940858,36.8250170161984,51.0 -2.0472498425565,36.8250981528933,51.0 -2.04716049162676,36.8251960532417,51.0 -2.04700190574147,36.8253011621574,50.7464999999938 -2.04689897587788,36.8253460897336,51.0 -2.04667685574581,36.8254161617433,51.0 -2.04631492451781,36.8254830496477,52.0 -2.04571796616374,36.8255551342066,53.6407000000036 -2.04524790831828,36.8255940257706,54.0923999999941 -2.04465983430237,36.8256640989914,55.440499999997 -2.04407494481414,36.8257350098616,57.4294999999984 -2.04349793534759,36.825793012697,59.0 -2.04313298667857,36.825839112782,60.0 -2.04275898658477,36.8258610737882,62.3012000000017 -2.04252295154892,36.8258540326909,64.334600000002 -2.04228993485242,36.8258111173616,66.6784999999945 -2.04206395915114,36.8257551264901,68.9565000000002 -2.04172583327819,36.8256530346894,72.0470000000059 -2.04151192644275,36.8255781005526,74.6071999999986 -2.04139390937397,36.8255630130468,75.8080000000045 -2.04127890974625,36.8255710594293,77.2229999999981 -2.04116893888748,36.8256101192474,78.1778000000049 -2.04107489426038,36.8256800241915,79.7455999999947 -2.04092284631369,36.8258280485053,81.1106 -2.04083299232742,36.8259940103308,84.130799999999 -2.04079393268052,36.8260800090212,85.3683000000019 -2.04073291281825,36.8262620636399,87.4683999999979 -2.04069083573034,36.8264511595874,88.9233999999997 -2.0406708868428,36.8268350507657,92.0 -2.04069184094513,36.8271230527338,94.849000000002 -2.04070793426346,36.8274020029135,97.0075999999972 -2.04066485196073,36.8274890066927,97.954700000002 -2.04055689242989,36.8276551360495,99.0 -2.04042295002777,36.8278090275691,100.579599999997 -2.04034097516484,36.8278760830769,101.0 -2.04024190087046,36.827919166224,102.0 -2.03984895710394,36.8279151424373,104.747900000002 -2.03973395747621,36.8279391147405,105.815900000001 -2.03967696026974,36.8280170665583,106.968399999998 -2.03970294403935,36.8281141290797,108.0 -2.03984392833498,36.8283670951989,112.693299999999 -2.04005297258981,36.8287010301339,119.024300000005 -2.04026386108591,36.8290550815296,125.0 -2.04046184168968,36.8294030978812,126.278699999995 -2.04053778167054,36.8295831413719,125.560200000007 -2.04059461089205,36.8297618434485,124.0 -2.040620427575,36.8299143940574,122.225600000005 -2.04063031802628,36.8300557131635,120.091899999999 -2.04051950903935,36.8307054784327,109.655799999993 -2.04043367860721,36.8311760386742,102.673999999999 -2.04036444454994,36.8314828157203,99.1401999999944 -2.04029722182061,36.8318465903578,94.1750000000029 -2.04028096051732,36.832392084778,88.0 -2.04032052322076,36.8331757925021,82.0 -2.0403579066113,36.8337420742964,78.0 -2.04028297184526,36.8339281521286,77.0 -2.04020183511048,36.834107022365,76.0 -2.04020937916224,36.8342185014932,75.0 -2.04016361359175,36.8343301487019,75.0 -2.04008163872882,36.8343916716481,74.0 -2.03997250689653,36.8344339163836,73.9850000000006 -2.03985599809912,36.8344510152997,73.0 -2.03974720133845,36.8344783403403,73.0 -2.03955693187307,36.8345881436941,72.0 -2.03934185183784,36.834683026549,71.0 -2.03923422827692,36.8347172249849,71.0 -2.03910749395664,36.8347351621716,70.5469000000012 -2.03898394506234,36.8347351621716,70.0 -2.03887799775774,36.8346971085558,70.0 -2.0383254628911,36.8344230201545,69.0 -2.03771492470488,36.834155301727,67.0 -2.03757360533763,36.8340897558476,67.0408000000025 -2.03752297898317,36.8341770949789,67.0 -2.03747486701319,36.8342640989622,66.0506000000023 -2.03735684994442,36.8345470724267,65.0 -2.03720698131063,36.8347842801897,64.5656000000017 -2.03713690822687,36.8349690174635,64.0 -2.03707035653904,36.8352533313711,64.0 -2.03699139911716,36.8357279143348,63.0 -2.03691344691007,36.8361892545372,61.0 -2.0368442128528,36.8367682763495,60.0 -2.03684085944184,36.8370561107923,59.0611000000063 -2.03677883346641,36.837234142597,59.0 -2.03672904524012,36.837531532377,58.0 -2.03665796694158,36.837695147309,58.0 -2.03649703375844,36.8380497020444,56.9968999999983 -2.03628245767809,36.8384922665896,55.1306000000041 -2.03602110991416,36.83900272412,54.0 -2.03594014026602,36.8392032190181,54.0 -2.03593091995794,36.8392670896985,53.0779000000039 -2.03597584740024,36.8394610465965,53.0 -2.0359753443437,36.8395872784238,53.0 -2.03589823116306,36.8397487134585,52.0804999999964 -2.03587777921901,36.8398549958123,52.0 -2.0358652063983,36.8400633701367,52.0 -2.03558692718788,36.8402090480671,51.0 -2.03547896855534,36.8403830558721,51.0 -2.03525986496599,36.8408311527071,49.0 -2.03520387387263,36.8409220126231,49.0 -2.03512307220948,36.8412986951745,49.0 -2.03508988035803,36.8413920693182,49.0 -2.03505484426533,36.8417669084085,49.0 -2.03502751931102,36.8420470316582,48.0 -2.0349829269403,36.842641140712,47.8827000000019 -2.03495291961656,36.8427320006343,47.7535000000062 -2.03490095207737,36.8428151487344,47.9900000000052 -2.03469291303733,36.8430451482781,48.9456000000064 -2.03464295682608,36.8431261177587,48.004700000005 -2.03459853333865,36.843351758384,46.0095000000001 -2.03449677667484,36.8435130265951,46.0 -2.03432209747121,36.8436375817313,46.0 -2.03397944588588,36.8439148548926,45.9092999999993 -2.03361466520183,36.8441629593579,45.8347000000067 -2.03326430157975,36.8444095547829,45.0 -2.03316539527036,36.8445094670364,45.0151000000042 -2.03302038831886,36.8447713175977,44.0 -2.0328034649407,36.8453981160902,42.6310999999987 -2.03268259751753,36.8455986114746,42.0 -2.03252702907326,36.845846045514,42.0 -2.03243499577409,36.84601502417,42.0 -2.03225092917573,36.8462897834336,41.4829999999929 -2.03183686332195,36.8468320923359,40.0 -2.03172588724836,36.8472060931606,38.9829000000027 -2.03140687213476,36.8477240944794,37.3680000000022 -2.03135356341088,36.8480335540664,36.0 -2.0312891901376,36.8482033718251,35.0 -2.03120084442269,36.8483021102625,34.7421999999933 -2.03045183812194,36.8488090482348,33.117499999993 -2.03034086115005,36.8488400608795,33.4725000000035 -2.02998999536973,36.8488140773132,34.0 -2.02949395375469,36.8490930267465,33.0 -2.02918985875966,36.8493930991462,32.9939000000013 -2.02875299366394,36.8497191550732,31.9162000000069 -2.0283818430262,36.8499640742157,31.0537999999942 -2.02799392892696,36.8503400861186,29.1013999999996 -2.02785998562651,36.8505050423075,29.0396000000037 -2.02780818607231,36.8505997580542,28.9821999999986 -2.02775990611734,36.8507781249335,28.2063000000053 -2.02784992719028,36.8509551507779,28.9474999999948 -2.02773978924488,36.8512277300542,28.0 -2.0277225227268,36.8513271395641,28.0 -2.02775085379423,36.8514275545821,28.0 -2.02791094795091,36.8515601562884,28.0 -2.02792553209956,36.8516285524274,28.0 -2.02745664835217,36.8517861321546,27.254700000005 -2.02677754715021,36.8520541856523,26.7767000000022 -2.02606189978754,36.8521820938223,25.9097000000038 -2.02558279051726,36.8522714443902,25.0 -2.02538497789844,36.8523344767963,25.0 -2.02510585966157,36.8525341331037,24.0 -2.02463747897075,36.8528449346518,23.0 -2.02436087691498,36.8530241394577,23.0 -2.02426498714828,36.8530672228161,23.0 -2.02415686142911,36.8530841536773,22.8273999999947 -2.02404387312932,36.8530761073136,22.0 -2.02376693510364,36.8532450865225,21.0709999999963 -2.02348295608277,36.8534150716879,21.0 -2.02318841556909,36.8535827095748,21.0 -2.02302698022767,36.8537131317216,21.023199999996 -2.0227859173212,36.8539411196202,20.0 -2.02251786363368,36.8541290416261,20.0 -2.02223489072593,36.854436155008,19.0176999999967 -2.02205384156861,36.8546740335319,19.0338999999949 -2.0219829303567,36.8547521528963,19.0 -2.02190397293482,36.8548180347128,19.0 -2.02156785838977,36.8548850895436,19.9223000000056 -2.02109696331448,36.8549430925572,19.4228000000003 -2.02086897538697,36.854989025565,20.0 -2.02053084951402,36.8550470277809,20.9774000000034 -2.0200519073304,36.8550440102925,20.0151999999944 -2.01981687930596,36.8550510515779,19.1371000000072 -2.01954396483444,36.8550896082827,18.0 -2.01912185187233,36.8552020933201,16.2756999999983 -2.01803974846762,36.855163536672,15.0 -2.01773263513323,36.8551814733758,15.0 -2.01685488228594,36.8553564879145,14.2627000000066 -2.01673200353487,36.8554035944556,14.0 -2.01649798072526,36.8557180832073,13.0749000000069 -2.01639890643088,36.8557730681291,13.0 -2.01628994168525,36.8558101164594,13.0 -2.01605893631666,36.8558431410166,13.0 -2.01521689060362,36.8558691250689,12.2402000000002 -2.0150138812309,36.8559303129848,12.6350999999995 -2.01479393951335,36.8560350864043,12.0 -2.01426889758598,36.8562670975791,12.0 -2.0138179513982,36.856378074322,11.1089000000065 -2.01338745625614,36.8565378329369,11.0 -2.01303994298849,36.8566930658016,11.0 -2.01262017732423,36.8568588600297,11.0 -2.01239302752484,36.856902781474,11.0 -2.0114398377533,36.8570340417956,11.0 -2.01132299388426,36.8570521469721,11.0314999999973 -2.01107891263841,36.8571401570873,11.0 -2.01067490522087,36.8573131596149,10.0763000000006 -2.01027894401329,36.8575391357242,10.0 -2.00987292436948,36.8578811170901,9.0 -2.00945198550545,36.8582031498391,8.0 -2.00894605343913,36.8586463847795,6.0 -2.00865587244953,36.8589270111282,5.00960000000487 -2.00851153564127,36.8590740295322,5.0 -2.00843090196304,36.8591799766783,4.0798000000068 -2.00839117127464,36.8592705014135,3.3923000000068 -2.00828371569868,36.8594312659833,2.78239999999641 -2.00814239722976,36.859576440544,2.02749999999651 -2.00777577230443,36.8598069430997,2.0 -2.00754962861815,36.8599390422413,2.0 -2.0074056277798,36.8600572269755,2.00169999999343 -2.007343936876,36.8601571389042,2.0 -2.00738634903549,36.8603371825884,3.72359999999753 -2.00748274096044,36.8604774953028,5.04090000000724 -2.00747804726307,36.860559470526,5.0 -2.00740545979484,36.8607321375687,5.08980000000156 -2.00713690394907,36.8610310365827,5.11320000000705 -2.00707186053264,36.8611091559182,5.29480000000331 -2.0070698483064,36.8612010209634,5.23699999999371 -2.00712466619998,36.861266902971,5.27270000000135 -2.00708409738343,36.8614380612348,5.76540000000386 -2.00702274244951,36.8615513850312,5.95140000000538 -2.00692987102218,36.8617627763848,5.95990000000165 -2.00687086248781,36.8619357792292,6.90210000000661 -2.00680498004485,36.862042396573,7.51210000000719 -2.00671093541779,36.8620863179134,7.0 -2.0065508412611,36.8621054288274,7.0 -2.00628295555853,36.8620100423914,9.54069999999774 -2.00616493848976,36.8619890879197,10.0875999999989 -2.00592488079808,36.8620140658218,9.33349999999336 -2.00582496837554,36.8620720684563,9.17239999999583 -2.00574802228156,36.8621434824595,9.0 -2.00564106886383,36.8623055885924,9.82690000000002 -2.00556848229394,36.8624118712143,10.0 -2.00549706802548,36.862573306211,9.5573000000004 -2.00549187127157,36.8628490711021,9.5283000000054 -2.005457673307,36.8629444572096,9.02400000000489 -2.00533077100177,36.8629981015561,9.92849999999453 -2.00523186469235,36.8630150330923,8.56309999999939 -2.00513798715191,36.8630720294827,8.0 -2.00506992629442,36.8632550906509,6.09979999999632 -2.00498191654939,36.8633130930621,5.54420000000391 -2.00484797324894,36.8633481296509,4.09350000000268 -2.0048159545973,36.863371096148,4.76589999999851 -2.00479885606418,36.8634066350907,5.27959999999439 -2.00482685116169,36.8636671452135,8.42799999999988 -2.00481997815143,36.8638740100355,10.2130999999936 -2.00483288604375,36.8639561526676,10.6015000000043 -2.00481394326936,36.8640131497935,11.0 -2.00477890627834,36.8641021659876,12.0 -2.00470799596475,36.8642310795885,13.1269000000029 -2.00466558380526,36.8643423911825,14.1604999999981 -2.00463322918367,36.8644657725189,15.0 -2.0045639951264,36.8645911660221,15.8932000000059 -2.00445922102154,36.8646634178331,16.0 -2.00441295239454,36.864721085698,16.2734999999957 -2.00457086813663,36.8649710336581,15.7146999999968 -2.00482886248959,36.8651690140154,21.6202000000048 -2.005007900319,36.8652974248857,23.4661000000051 -2.00506238224266,36.8653788968828,23.4562000000005 -2.0050400869556,36.8654627160475,24.0525000000052 -2.00493531285077,36.8655319506786,24.7562999999936 -2.0048548471575,36.8656630438164,25.3727999999974 -2.00478041544803,36.8657218845501,25.3932000000059 -2.00458914076782,36.8658481161409,24.7372000000032 -2.00452795292056,36.8659210387382,25.2796999999991 -2.00441999338972,36.8659580864611,25.0804000000062 -2.0043014732644,36.8659652949143,25.9801000000007 -2.00420659050915,36.8660323500263,27.6490000000049 -2.00407801194756,36.8660804626186,30.7891999999993 -2.00399436082831,36.8661005786968,33.5503999999928 -2.00391389423674,36.8661000763339,35.1760999999969 -2.00385991447132,36.8663830491286,36.8650999999954 -2.00378799804463,36.8665620863605,37.5921999999991 -2.00369697085858,36.8667411238914,39.3353000000061 -2.00367886531401,36.8668360070943,40.5675000000047 -2.00370283775569,36.8669280406126,41.4222000000009 -2.00370099351441,36.8670240971866,43.2985999999946 -2.0036508702165,36.8671870410051,48.127800000002 -2.00361667225193,36.8672752191177,50.5084999999963 -2.00354609611164,36.8673369095989,52.2434000000067 -2.00354995168084,36.8674550943902,54.5077000000019 -2.00358934729762,36.8675469604303,55.1472000000067 -2.00361013431332,36.8676805676227,55.9005000000034 -2.00358398255875,36.8677310270805,56.3551000000007 -2.00352899757852,36.8678140078495,57.3160999999964 -2.00349597281376,36.8679020177882,57.0 -2.00344383728961,36.8679870099294,58.0 -2.00341265676609,36.8680862517516,58.6538 -2.00336772932379,36.8681372140097,59.0 -2.00323898367558,36.8682041012031,59.9474999999948 -2.00316924566344,36.8682751796069,58.6503999999986 -2.00315834909905,36.8683162514429,58.3855999999942 -2.00315667284274,36.8684337656413,58.3733000000066 -2.003176119572,36.8685522857897,58.2021999999997 -2.00325574713708,36.8687633422824,57.5605000000069 -2.0032862575174,36.8688114538736,58.4109000000026 -2.00329178934293,36.8688639248381,58.1670000000013 -2.00328189889165,36.8690528529262,58.1318000000028 -2.00327670213774,36.8691738874209,58.0041999999958 -2.00327988756372,36.8692521745028,58.0865999999951 -2.00333353135922,36.8693323055799,59.5065000000031 -2.00335348024673,36.8694265179327,58.2642000000051 -2.00340159221674,36.869521233947,58.0984999999928 -2.00343864053567,36.8696112555901,59.4679999999935 -2.00343310871014,36.8696670785281,59.5424000000057 -2.00338650501152,36.8697602857905,60.1972999999998 -2.00333856012821,36.8698612033629,61.1698999999935 -2.00331391754333,36.8699435141907,61.397100000002 -2.0033097269025,36.8701507148768,61.632500000007 -2.00332347292299,36.8702668881294,61.6563000000024 -2.00332749647715,36.8703699854101,61.7378000000026 -2.00334493098019,36.870443075448,61.9909000000043 -2.00331391754333,36.8706350208157,62.4370000000054 -2.00330151270754,36.8707121342911,61.3335999999981 -2.00333436948738,36.8707944449206,58.6597000000038 -2.00333487254395,36.8709111209629,56.767399999997 -2.00331190621539,36.871002148504,54.6064999999944 -2.00327787533748,36.8710940138721,52.5777999999991 -2.0032259077983,36.8711810182478,50.5709000000061 -2.00308190695994,36.8713307187503,48.4067000000068 -2.00299791987078,36.8714001212556,46.7768000000069 -2.00292482934598,36.8714913163753,43.9845999999961 -2.00286548573999,36.8715424459601,42.7397000000055 -2.00277999037947,36.8715920663746,41.7115000000049 -2.00263297210006,36.8717330504672,36.6768000000011 -2.00260983778655,36.8719100759239,30.0301000000036 -2.00260296477632,36.8720961542911,26.5564000000013 -2.00262492499177,36.8721377285519,24.9079000000056 -2.00272584352742,36.8721432605743,22.0037000000011 -2.00290404233031,36.872185337851,16.6542000000045 -2.00301988008619,36.8721900319466,13.7685000000056 -2.00310470530355,36.87217108884,12.803899999999 -2.00315801402743,36.8721918759529,11.7185000000027 -2.0031479555912,36.8722840769276,7.80190000000584 -2.00337694963186,36.8723110665013,2.0 -2.00345188349961,36.8723880122815,2.0 -2.0035259801375,36.8725620201422,2.0 -2.00360493755938,36.8726381284698,3.0 -2.00369898218648,36.8727050160343,3.0 -2.00379587716797,36.8727581569577,4.04120000000694 -2.00389847195994,36.8727784415919,5.2103000000061 -2.00400358023809,36.8728154895826,7.30169999999634 -2.00410986351261,36.8728570634519,10.4122999999963 -2.00413584728219,36.8729531197574,13.0240999999951 -2.0041329969278,36.8730500145747,14.3203000000067 -2.00422184569929,36.8731100295966,16.2079999999987 -2.00434589765013,36.8732701240395,20.1665000000066 -2.00439786518932,36.8733581334415,22.7258000000002 -2.00439484774827,36.8735420323061,26.6394 -2.00434086888118,36.8736250132307,27.3034000000043 -2.00430398764888,36.8737120175982,28.9845000000059 -2.00427699866448,36.8738080742657,29.5169000000024 -2.00426995766927,36.8739041308126,30.7100000000064 -2.00419384970345,36.8740830009473,32.3643000000011 -2.0041088573995,36.8742630441551,33.9146000000037 -2.0040610805011,36.87436463271,34.3494000000064 -2.00412997948675,36.8745411555095,35.3147000000026 -2.00417893048322,36.874632015601,36.2084000000032 -2.00427046072584,36.8748100468551,36.533500000005 -2.00436685265075,36.8749840549471,36.2075999999943 -2.00440691751244,36.8750730712937,35.7189000000071 -2.00444497194451,36.8753580559906,33.1241000000009 -2.0044558685089,36.8755500012243,31.1059999999998 -2.00451889969914,36.8757340679938,29.2060000000056 -2.00462484700375,36.8759040527191,26.3760000000038 -2.00469190264645,36.8759811666241,24.8905999999988 -2.00472509449787,36.8760661591184,23.975099999996 -2.00473984663147,36.8763420908863,21.2418000000034 -2.00475895739083,36.8767251445193,19.6710000000021 -2.00475493473499,36.8768220388631,19.585699999996 -2.00473699717538,36.8769170899104,18.2688000000053 -2.00461193911142,36.8772760027481,12.1499999999942 -2.00454890702289,36.8774580576423,9.81239999999525 -2.00448788716058,36.8775370152926,8.05550000000221 -2.00427096378238,36.8776010529914,5.74340000000666 -2.00424699134074,36.8776900691623,4.76870000000054 -2.00424598522759,36.8777810965294,4.43899999999849 -2.00425788790513,36.8780530052646,2.02520000000368 -2.00424598522759,36.8781430269132,2.0 -2.00427146594063,36.8783421810562,2.71169999999984 -2.00430599987511,36.8786050374013,3.03220000000147 -2.00432695487574,36.8787880979976,3.44809999999416 -2.00439099217909,36.8788660497151,4.0 -2.00441395850765,36.8789580831115,4.0 -2.00438696862493,36.8790511223896,3.75419999999576 -2.00436383520974,36.8791401383074,3.18690000000061 -2.00436484042452,36.879337112603,3.0167999999976 -2.00436299708158,36.8794281401627,2.23859999999695 -2.00431002342928,36.879620085946,4.0</coordinates>
</LineString>
</Placemark>
</Folder>
</Document></kml>
