<?xml version="1.0" encoding="UTF-8"?>

<kml xmlns:xsd="http://www.w3.org/2001/XMLSchema" xmlns:gx="http://www.google.com/kml/ext/2.2" xmlns:atom="http://www.w3.org/2005/Atom" xmlns="http://www.opengis.net/kml/2.2">
<Document>
<name>ES01a_03a_larrasoana-cizur_menor</name>
<visibility>1</visibility>
<Schema name="ES01a_03a_larrasoana-cizur_menor" id="kml_schema_ft_ES01a_03a_larrasoana-cizur_menor">
<SimpleField type="xsd:string" name="id">
<displayName>id</displayName>
</SimpleField>
<SimpleField type="xsd:string" name="nombre">
<displayName>nombre</displayName>
</SimpleField>
<SimpleField type="xsd:double" name="longitud">
<displayName>longitud</displayName>
</SimpleField>
<SimpleField type="xsd:string" name="_formato">
<displayName>_formato</displayName>
</SimpleField>
</Schema>
<Folder id="kml_ft_ES01a_03a_larrasoana-cizur_menor">
<name>ES01a_03a_larrasoana-cizur_menor</name>
<Placemark id="kml_1">
<name>&lt;img height='20' src='https://nco.ign.es/iconos/icono_todos_caminos_azul.png' /&gt;&lt;img height='20' src='https://nco.ign.es/iconos/Camino Santiago_20.png' /&gt;&lt;img height='20' src='https://nco.ign.es/iconos/icono_todos_caminos_azul.png' /&gt;  Camino de Santiago </name>
<visibility>1</visibility>
<description><![CDATA[<!DOCTYPE html>
<html>
<head>
<style>
#nco {
  border-collapse: collapse;
  overflow:hidden;
}
#nco th, #nco td {
  padding: 4px;
  text-align: left;
}
#nco th {
  color: #364B5F;
  padding-right: 5px;
}
#nco td {
  color: rgb(51, 51, 51);
  font-size: 12px;
  padding-right: 5px;
}
</style>
</head>
<body>
<table id="nco">
<tr>
<td>Camino Francés</td>
</tr>
<tr>
<th><b>Camino: </b></th>
<td>ES01a Camino Francés por Navarra</td>
</tr>
<tr>
<th><b>Etapa: </b></th>
<td>03a Larrasoaña-Cizur Menor</td>
</tr>
<tr>
<th><b>Longitud: </b></th>
<td>19.81 km</td>
</tr>
</table>
</body>
</html>]]></description>
<Style>
<IconStyle>
<scale>0.8</scale>
</IconStyle>
<LabelStyle>
<color>ffffffff</color>
<scale>0.75</scale>
</LabelStyle>
<LineStyle>
<color>ffff0000</color>
<width>3.0</width>
<gx:labelVisibility>1</gx:labelVisibility>
</LineStyle>
<PolyStyle>
<color>66ff0000</color>
</PolyStyle>
</Style>
<ExtendedData>
<SchemaData schemaUrl="#kml_schema_ft_ES01a_03a_larrasoana-cizur_menor">
<SimpleData name="id">ES01a_03a</SimpleData>
<SimpleData name="_formato">kml</SimpleData>
</SchemaData>
</ExtendedData>
<LineString>
<extrude>0</extrude>
<tessellate>1</tessellate>
<coordinates>-1.54029775449134,42.9008101856065,498.262700000007 -1.54039984532844,42.900756206083,498.063899999994 -1.54055072007535,42.9006792600101,497.134699999995 -1.54069187145765,42.9005483347936,497.138600000006 -1.54086168897895,42.9003302373505,501.367599999998 -1.54097182692435,42.9000732481744,504.168999999994 -1.54114969065565,42.8998341965432,506.766600000003 -1.54128396902772,42.8995222218139,508.978700000007 -1.54147071799548,42.8991782287629,511.039199999999 -1.54168898255838,42.8988352412932,514.541800000006 -1.54197581103534,42.8984042441266,517.854600000006 -1.54208980544828,42.8979873280908,518.562600000005 -1.54186785240283,42.8975502956631,520.370800000004 -1.54182979797076,42.8972252450939,520.446800000005 -1.54193373394743,42.8969462957765,520.809599999993 -1.54213188253619,42.8967942478613,519.742199999993 -1.54244083921352,42.8966941676256,523.560800000007 -1.54263496424812,42.8967193138884,526.578500000003 -1.54280276954319,42.8968812517321,528.113599999997 -1.54297895701818,42.8970042982276,530.471399999995 -1.54315883297571,42.8970012809012,532.071299999996 -1.54329696691695,42.8968552677892,534.617700000003 -1.54346494019698,42.8966762307284,536.765199999994 -1.5436719731239,42.8964913256004,537.035399999993 -1.54397875048838,42.8964512602927,533.113200000007 -1.54433095835169,42.8964343288903,526.660900000003 -1.54474485622054,42.8963302258021,520.962499999994 -1.54517384219291,42.8962252841255,513.922399999996 -1.54550693929688,42.8960323330703,513.920499999993 -1.54579795931296,42.8957443307998,515.958899999998 -1.5460638327893,42.8955713279392,515.231299999999 -1.54671795633479,42.8951403309927,513.638099999996 -1.54750870555014,42.8949141868107,511.976500000004 -1.54770283058473,42.894922233506,510.4758 -1.54829777761086,42.8950452799619,505.952900000004 -1.54856666942655,42.8950762932634,505.086299999995 -1.54885886264241,42.8950362276944,504.833499999993 -1.54915088787328,42.8950291866024,503.644 -1.5495258940802,42.8949792302975,502.495699999999 -1.54984591530691,42.8947411842536,501.797999999995 -1.54978288321837,42.8945432038643,503.318899999998 -1.55003383747445,42.8943432116405,504.002500000002 -1.55049886565263,42.8939692110751,505.242499999993 -1.55080983455622,42.8937921854076,504.336599999995 -1.55133185904257,42.8935402253448,505.320999999996 -1.55178699676948,42.8932761955348,508.537100000001 -1.55191792173055,42.893118280574,510.3943 -1.55215194454016,42.8930342935218,510.748699999996 -1.55238579936482,42.8929322018622,511.934500000003 -1.55253868543966,42.8927803217452,513.304300000003 -1.55255192930187,42.8925172976019,515.125799999994 -1.55295191316528,42.8920603163828,516.044299999994 -1.55311184023531,42.8919463226168,516.864799999996 -1.55345868335979,42.8917912572969,519.685599999997 -1.55368499413269,42.8917342608497,520.257100000003 -1.55386487009023,42.8916931894412,519.820300000007 -1.55416997119838,42.891460172109,520.859500000006 -1.55438287192071,42.8913032627544,521.483800000002 -1.55437281348448,42.8910722578874,523.268100000001 -1.55463080873577,42.8907973316671,523.137499999997 -1.55507085835916,42.8905923101815,516.712499999994 -1.55584786065572,42.8900562031878,506.085200000001 -1.55638698457349,42.8897341709473,506.825100000002 -1.55762985317642,42.8892352799322,495.939499999993 -1.55857583486613,42.8886933060175,488.328399999999 -1.55927991462291,42.8880923233671,483.698900000003 -1.55989699074777,42.8875932650566,480.943400000004 -1.56039990447474,42.8873372818257,482.559200000003 -1.56073283359375,42.8870853217204,482.472999999998 -1.56115796399691,42.8868263211901,486.085600000006 -1.56149491667008,42.8868263211901,481.380499999999 -1.56180387334744,42.8867721740912,482.128100000002 -1.56198089984892,42.8866042003602,483.074500000002 -1.56218793277581,42.8864581876432,482.189899999998 -1.56250091300734,42.8862442818148,483.383700000006 -1.56261172109594,42.8858841953017,483.080799999996 -1.56272185993967,42.8855671917137,482.076499999996 -1.56276578126885,42.8851313324046,481.732000000004 -1.56255874744363,42.8846663043783,483.083700000003 -1.56246487080149,42.8842963274256,481.776800000007 -1.56222984187876,42.8840752124679,484.983300000007 -1.56220469623734,42.8836552796576,481.2307 -1.56221894531437,42.8830422272286,481.365900000004 -1.5623788723844,42.8825322716958,477.4948 -1.56265597749671,42.8819312895794,477.974000000002 -1.5628199281209,42.8817492345661,480.589800000002 -1.56357396408893,42.8812042432629,477.354000000007 -1.56387873012547,42.8808471744114,476.317500000005 -1.56411392613486,42.8805813004527,475.675099999993 -1.56447267193682,42.8798472131759,475.489300000001 -1.56496183964333,42.878946325914,474.735700000005 -1.56534975374258,42.8784641990733,472.903900000005 -1.56562183008594,42.8785102993626,469.544200000004 -1.56617989767643,42.8785672961799,477.233999999997 -1.56650092411793,42.8780263285391,476.993499999997 -1.56690476444885,42.877359296537,476.691399999996 -1.56735487250847,42.8766511936745,476.203999999998 -1.56789986422168,42.875776290108,474.695099999997 -1.56850285835615,42.8748941786742,475.451400000005 -1.56911792225478,42.873953226734,475.708400000003 -1.56932881075088,42.8735981692721,477.086800000005 -1.56913267438835,42.8735032858371,476.5965 -1.56914189469642,42.8733663258716,476.144700000004 -1.56943391992733,42.8730672590083,475.303 -1.56957691555086,42.8728261954754,475.977299999999 -1.56924398643185,42.8713861845449,468.479800000001 -1.56910886993166,42.8713082333802,469.457200000004 -1.56912596936308,42.8710653254849,468.914499999999 -1.56928388420687,42.8706391898674,468.724600000001 -1.56931590285855,42.8702283084255,468.3413 -1.56896185165226,42.8697032662627,469.637300000002 -1.56901281307833,42.8689903015997,472.757199999993 -1.5687999132543,42.8688032171704,476.977400000003 -1.56886680091204,42.86845922397,475.512300000002 -1.56879287225912,42.8680902526454,475.910000000003 -1.56887384100893,42.8675283297548,474.383000000002 -1.56899789385807,42.8672592709916,475.128700000001 -1.56910099080829,42.8670701751533,472.943400000004 -1.56952293578544,42.8661092737541,475.901800000007 -1.56956098931919,42.8659342599296,478.6446 -1.56992292054718,42.8655862429285,479.811499999996 -1.56997187064532,42.8654442534775,482.459600000002 -1.56980087992424,42.8653912800189,484.954299999998 -1.56988369291533,42.8652672275959,484.630099999995 -1.57020589345494,42.8651532337025,484.284700000004 -1.57047981403957,42.8651322792829,482.875400000004 -1.57073395282336,42.8649923016022,479.917799999996 -1.57094886487359,42.864584270455,477.607699999993 -1.57095691198192,42.8642231778616,477.882400000002 -1.57110678061571,42.8636622607659,478.405499999993 -1.57128196197758,42.8629932173414,474.502699999997 -1.57128095586447,42.8625312067544,474.958799999993 -1.57100368276716,42.8621332344148,477.499100000001 -1.57076898981438,42.8619372650079,474.808999999994 -1.57086588479587,42.8616873168203,472.533800000005 -1.57102899639357,42.8615133084466,473.4758 -1.57131699807028,42.8613993148647,475.616399999999 -1.57163199052804,42.8610843228753,476.419299999994 -1.57196089609291,42.8607022756173,473.612899999993 -1.57233489708504,42.8603043026826,470.571200000006 -1.57270571175284,42.8600483194936,468.579899999997 -1.57313385959705,42.8598102736468,466.998699999996 -1.57370667932111,42.8597091878242,461.430900000007 -1.57444177161642,42.8599872993725,460.277400000006 -1.57479079405376,42.8596811923565,458.235199999996 -1.57516395691773,42.8593583213528,457.913100000005 -1.57577566830373,42.8590222070533,459.205499999996 -1.57638084175106,42.8585503057634,459.7114 -1.57707888662574,42.8579801687941,459.636400000003 -1.57782387027065,42.8573173282001,464.079599999997 -1.57811589550152,42.8572283120928,469.422099999996 -1.57838596051695,42.8568642019656,469.669699999999 -1.57869189975326,42.8564412516891,470.968200000003 -1.57891385279874,42.8561762155879,469.4372 -1.57927997376917,42.8560722803133,469.727700000003 -1.57969990741842,42.8556173102838,473.362599999993 -1.58020483337162,42.8551992213145,470.9663 -1.580923665262,42.8547762701709,469.318899999998 -1.58113488882968,42.8546532237386,468.861499999999 -1.58147469185728,42.8544622842292,469.9277 -1.58172698729809,42.8542182030338,469.347099999999 -1.58197894676895,42.8539882038676,466.580400000006 -1.58240893885443,42.8537082483645,465.664399999994 -1.58269979088556,42.8533352533686,461.268200000006 -1.58295493578243,42.8529872364718,459.022599999997 -1.58319666973046,42.8524321871629,456.005600000004 -1.5836558301132,42.8524253137517,456.172300000006 -1.58431196588493,42.8523032735299,462.070500000002 -1.58466383777836,42.8522912033804,473.023300000001 -1.58490892513733,42.852136305773,473.732399999994 -1.58521084081947,42.8517862774366,473.700299999997 -1.58541871277285,42.8514912346073,473.933499999999 -1.58559892290367,42.8512612351639,476.417400000006 -1.58560479069911,42.8509792678583,470.770799999998 -1.58582774895938,42.8507762583988,473.384300000005 -1.58572766945018,42.850569224996,473.718099999998 -1.58565994366431,42.8500922953394,469.947700000004 -1.58561870470456,42.8498522373195,466.500599999999 -1.58566966613063,42.8496101676851,462.925099999993 -1.58583495793952,42.8493531786153,462.805800000002 -1.58619387082814,42.8490812699237,466.703899999993 -1.58650785717278,42.8487423058996,464.323699999994 -1.58711990363037,42.8478452745665,461.726899999994 -1.58732274591646,42.8474132711045,461.605899999995 -1.58752189972001,42.847156282115,463.882599999997 -1.58766590055836,42.8468312314493,461.621799999994 -1.58837199254134,42.8458103159798,464.959099999993 -1.58896492823957,42.8447302235987,461.391300000003 -1.58916994894023,42.8442132280054,463.567899999995 -1.58946080097136,42.8439242198032,468.624899999995 -1.58987285549723,42.8438202843279,471.531400000007 -1.59012699517932,42.8426183197658,467.753700000001 -1.59079670898657,42.8416721702666,474.221399999995 -1.59111186853096,42.8413332064245,477.7935 -1.59141294698328,42.8410691765082,474.796799999996 -1.59195089680294,42.8409082435535,471.511199999994 -1.59213697562753,42.8407602191167,471.917799999996 -1.59212490586337,42.8402412115905,473.314799999993 -1.59222984705486,42.8396321827046,475.672500000001 -1.59215675653009,42.839321214357,473.792600000001 -1.59200990533734,42.8392942247067,471.994000000006 -1.59191468751047,42.8389502311166,472.961599999995 -1.59201979668692,42.8388261789283,474.560800000007 -1.59279797218325,42.838585283381,481.159 -1.59316392606709,42.8385142046257,483.568700000003 -1.59360867028614,42.8384612311187,486.729200000002 -1.59405391666347,42.8383671862349,490.581900000005 -1.59494189503362,42.8383532722621,493.346600000004 -1.59577271000898,42.838313206748,493.856 -1.59641090822109,42.8382712968117,492.275899999993 -1.59689772862976,42.8383613184291,489.229800000001 -1.59765880559298,42.838387302634,487.123999999996 -1.59829666873351,42.8383702031353,482.664399999994 -1.59924382362299,42.8382231850605,477.093900000007 -1.59984899707035,42.8381222667876,471.593900000007 -1.60054788007319,42.8378882441845,465.297500000001 -1.60145580733085,42.8374892652573,457.1446 -1.60223683318158,42.8371223057098,449.167400000006 -1.60307770569487,42.8366802442119,436.474300000002 -1.60339370336741,42.8362492469504,433.239700000006 -1.60345287988674,42.8360782557141,433.470600000001 -1.60425569886625,42.836201302261,433.033299999996 -1.60445988143878,42.8356482641038,433.758199999997 -1.60497285450028,42.8349782149438,432.695800000001 -1.6053156740706,42.8344742950293,431.872499999998 -1.60616392265069,42.8336862285949,431.273700000005 -1.60670187336868,42.8330532270781,430.483500000002 -1.60735683504234,42.8323462972002,429.660199999998 -1.60825872831623,42.8314361900376,429.944000000003 -1.60889692563005,42.8308611918932,430.097899999993 -1.60986989720248,42.8302243344802,430.318100000004 -1.61127084863416,42.8292632655496,429.852799999993 -1.61282686545355,42.8282012788244,429.341199999995 -1.61444893090419,42.8271112959053,428.135800000004 -1.61610972093011,42.8259282742195,426.641399999993 -1.616849843791,42.8253921675069,425.900299999994 -1.6176959130582,42.8246872491249,424.620999999999 -1.61936374407934,42.8232132080797,422.595300000001 -1.62036471074928,42.8223973131573,422.903600000005 -1.62035683162594,42.8221812277794,420.047699999996 -1.62046277893054,42.8220042024152,419.721300000005 -1.62077290970595,42.821848298519,422.602899999998 -1.62101984040789,42.821663226497,422.926699999996 -1.62192793565051,42.8221632909664,420.059399999998 -1.62214267971582,42.8222321898322,420.039399999994 -1.62265481464919,42.822210229229,419.376799999998 -1.62307390927195,42.8223103090311,419.874500000005 -1.62487870103452,42.8221252370744,418.034100000004 -1.62574890983006,42.8220702517781,417.876300000004 -1.62649171416208,42.821928262428,418.232399999994 -1.62669371832002,42.8220533203926,418.5628 -1.62805577719147,42.82168418117,419.313899999994 -1.62980373973256,42.82118830801,418.865000000005 -1.63103889629874,42.821363322133,418.625199999995 -1.63255769771254,42.8214292035041,417.639599999995 -1.63435678966466,42.8215252600621,416.968200000003 -1.63575790818297,42.8211002980251,416.708899999998 -1.63738785275699,42.8207631776143,415.061000000002 -1.6376468541214,42.8211893134837,416.589200000002 -1.63929490334165,42.8205601677017,419.178100000005 -1.63950193716684,42.8210052469426,417.388699999996 -1.6401319202857,42.8214082487447,419.025899999993 -1.64061890957766,42.8219032840127,420.5242 -1.64163680769409,42.8215012882704,421.542799999996 -1.64235681278418,42.8212662591921,428.006899999993 -1.6433158703512,42.8212112744497,435.212599999999 -1.64327597257615,42.8206942784293,441.016699999993 -1.64303490877135,42.8194592886801,443.855599999995 -1.64274288354048,42.8187702966357,440.633300000001 -1.64278479264344,42.8186112079199,441.452399999995 -1.64309391730572,42.8184832997368,442.410999999993 -1.6439418308142,42.8182492772276,443.702600000004 -1.64431499277987,42.8181222077697,444.653000000006 -1.64467994144889,42.8183522067037,444.777100000007 -1.64520381017648,42.8183113032483,446.223599999998 -1.64710667012035,42.8177421720455,446.447499999995 -1.64922980595502,42.8170521737769,445.078500000003 -1.64960380604882,42.8168692810135,445.118799999997 -1.65055096183663,42.8161843113239,445.899099999995 -1.65172778090994,42.8155031981626,445.946299999996 -1.651821993522,42.8152782276835,445.650599999994 -1.6524967360982,42.8147602258988,445.183900000004 -1.65313091165452,42.8144013131416,444.722500000003 -1.65256194749963,42.8141123052156,445.969100000002 -1.65276898042652,42.8133912938233,446.794599999994 -1.65332989747311,42.8122692924089,449.634900000005 -1.65266487736322,42.8105402734478,450.348899999997 -1.65335671937084,42.8092132501248,447.592000000004 -1.65371395690147,42.8092462750564,447.387900000002 -1.6538839415094,42.809051312244,447.329500000007 -1.65377397065063,42.8087963345489,447.361300000004 -1.656037922796,42.807487249156,445.605899999995 -1.65708499010799,42.8068701728212,444.744600000005 -1.65740383813496,42.8068832489825,444.718399999998 -1.65752168721875,42.8067533295098,444.406700000007 -1.65816776455424,42.8063662531177,443.070300000007 -1.65844989933387,42.8063322229102,443.049899999998 -1.65859490628533,42.8061173105306,442.073999999993 -1.65983995420113,42.8052392221385,434.453299999994 -1.66043691345352,42.8047852585212,433.407699999996 -1.660131979432,42.8046783052449,429.539399999994 -1.66038192847329,42.8043522494826,427.703899999993 -1.66088987186754,42.8038602320196,426.905599999998 -1.66147979012472,42.8031533018074,425.208199999994 -1.66228881107299,42.802335228189,417.748900000006 -1.66323479276269,42.8016971976832,412.320500000002 -1.6635348651019,42.8014091955094,411.578999999998 -1.66357794740459,42.8011471773543,411.452699999994 -1.6640029098228,42.8009922794054,411.133300000001 -1.66498979540067,42.8007973169431,411.206300000005 -1.66572790603533,42.7997532670674,411.5628 -1.66604792726204,42.7990983045624,411.132299999997 -1.66666584061677,42.7982693344881,410.407999999996 -1.66711091990744,42.7977662530269,409.4372 -1.6676279156248,42.7974442198701,410.723899999997 -1.66824884731885,42.7970752488254,411.070699999997 -1.66882686289852,42.7963113219846,412.538199999995 -1.669256854984,42.7959022854587,414.552599999995 -1.66986269857453,42.7956183062363,418.380300000004 -1.67067289362087,42.7953452237748,418.149099999995 -1.67140681271641,42.7950163179969,414.757899999997 -1.67239369829428,42.794237304088,417.218299999993 -1.67295478242749,42.7937082382887,419.095300000001 -1.67353782767445,42.7926621768979,426.536300000007 -1.67409589526491,42.7916432724364,433.051699999996 -1.67470475629649,42.7906352645971,439.653699999995 -1.674977838753,42.7898202088899,446.944300000003 -1.67508194181633,42.7885153142532,458.927200000006 -1.67543783816219,42.7881822169463,460.757299999997 -1.67608391459939,42.7877932964722,463.438699999999 -1.67657190910613,42.787315192782,460.447799999994 -1.67694188654409,42.7867333215934,457.150899999993 -1.67707080017726,42.7862942772161,456.532699999996 -1.67731672566438,42.7859452544891,456.845400000006</coordinates>
</LineString>
</Placemark>
</Folder>
</Document></kml>
