<?xml version="1.0" encoding="UTF-8"?>

<kml xmlns:xsd="http://www.w3.org/2001/XMLSchema" xmlns:gx="http://www.google.com/kml/ext/2.2" xmlns:atom="http://www.w3.org/2005/Atom" xmlns="http://www.opengis.net/kml/2.2">
<Document>
<name>ES40b_01a_ramallas-a_armenteira</name>
<visibility>1</visibility>
<Schema name="ES40b_01a_ramallas-a_armenteira" id="kml_schema_ft_ES40b_01a_ramallas-a_armenteira">
<SimpleField type="xsd:string" name="id">
<displayName>id</displayName>
</SimpleField>
<SimpleField type="xsd:string" name="nombre">
<displayName>nombre</displayName>
</SimpleField>
<SimpleField type="xsd:double" name="longitud">
<displayName>longitud</displayName>
</SimpleField>
<SimpleField type="xsd:string" name="_formato">
<displayName>_formato</displayName>
</SimpleField>
</Schema>
<Folder id="kml_ft_ES40b_01a_ramallas-a_armenteira">
<name>ES40b_01a_ramallas-a_armenteira</name>
<Placemark id="kml_1">
<name>&lt;img height='20' src='https://nco.ign.es/iconos/icono_todos_caminos_azul.png' /&gt;&lt;img height='20' src='https://nco.ign.es/iconos/Camino Santiago_20.png' /&gt;&lt;img height='20' src='https://nco.ign.es/iconos/icono_todos_caminos_azul.png' /&gt;  Camino de Santiago </name>
<visibility>1</visibility>
<description><![CDATA[<!DOCTYPE html>
<html>
<head>
<style>
#nco {
  border-collapse: collapse;
  overflow:hidden;
}
#nco th, #nco td {
  padding: 4px;
  text-align: left;
}
#nco th {
  color: #364B5F;
  padding-right: 5px;
}
#nco td {
  color: rgb(51, 51, 51);
  font-size: 12px;
  padding-right: 5px;
}
</style>
</head>
<body>
<table id="nco">
<tr>
<td>Caminos de Galicia</td>
</tr>
<tr>
<th><b>Camino: </b></th>
<td>ES40b Camino Variante Espiritual</td>
</tr>
<tr>
<th><b>Etapa: </b></th>
<td>01a Ramallas-A Armenteira</td>
</tr>
<tr>
<th><b>Longitud: </b></th>
<td>17.74 km</td>
</tr>
</table>
</body>
</html>]]></description>
<Style>
<IconStyle>
<scale>0.8</scale>
</IconStyle>
<LabelStyle>
<color>ffffffff</color>
<scale>0.75</scale>
</LabelStyle>
<LineStyle>
<color>ffff0000</color>
<width>3.0</width>
<gx:labelVisibility>1</gx:labelVisibility>
</LineStyle>
<PolyStyle>
<color>66ff0000</color>
</PolyStyle>
</Style>
<ExtendedData>
<SchemaData schemaUrl="#kml_schema_ft_ES40b_01a_ramallas-a_armenteira">
<SimpleData name="id">ES40b_01a</SimpleData>
<SimpleData name="_formato">kml</SimpleData>
</SchemaData>
</ExtendedData>
<LineString>
<extrude>0</extrude>
<tessellate>1</tessellate>
<coordinates>-8.6443677171235,42.4569064377483,5.66539999999804 -8.64472478666914,42.4567183477584,4.8292999999976 -8.64518394705191,42.4568043461964,4.119200000001 -8.64669084578817,42.4579744598667,9.3469999999943 -8.64687390627342,42.4583826583855,12.9505999999965 -8.64727187880889,42.4585975706725,8.77210000000196 -8.64801468314092,42.4588666296759,19.3080999999947 -8.64892696992266,42.4587544802006,29.1073999999935 -8.64948989829712,42.4580576087362,37.1333000000013 -8.65033395623641,42.457717638782,35.7562999999936 -8.65079881642964,42.457213551123,42.0485000000044 -8.65183582530542,42.4568112197303,47.8337000000029 -8.65229867417071,42.4568266422648,52.2902000000031 -8.6528079587497,42.457401640951,56.3407000000007 -8.65349091552086,42.457663659337,61.7793999999994 -8.65506285767359,42.4589615131975,62.3901000000042 -8.65538673446951,42.4598144550445,52.5274000000063 -8.65537382657719,42.4602476323993,46.3788999999961 -8.65779384932505,42.460861522668,43.2985999999946 -8.65797288715443,42.4614943565996,41.2139000000025 -8.6586179583768,42.4616856311604,46.022100000002 -8.66008495933807,42.4614133873279,53.9373999999953 -8.66072885736068,42.4618383499149,61.4192999999941 -8.66107469437201,42.4625303594551,66.9587000000029 -8.66248771556786,42.462390381582,75.0651999999973 -8.66260690583638,42.4627383985404,84.3475000000035 -8.66250095853177,42.46315766155,90.2419999999984 -8.66376880568946,42.4634386228363,97.2210999999952 -8.66433994825891,42.4639425424229,106.719100000002 -8.66648185978135,42.4635915082897,107.060400000002 -8.66759983830524,42.4631025085174,108.583199999994 -8.6682997274212,42.462487611703,110.161399999997 -8.66862896805765,42.4612405520636,109.4326 -8.67018079423625,42.4597554465964,111.827999999994 -8.67084078467885,42.4592996386248,102.501399999994 -8.67092996852196,42.4589866582875,97.3190999999933 -8.6717678235942,42.4581824988464,91.1986999999936 -8.67180168648715,42.4573614075187,84.1177000000025 -8.6725506927879,42.4572655188167,80.9992999999959 -8.67322392799104,42.4569134789502,78.6515000000072 -8.67330690806879,42.4563344567456,72.1679000000004 -8.67307372428567,42.4557914768981,69.7143000000069 -8.67334177707486,42.4554934167351,71.8867000000027 -8.67424685487643,42.4551566314474,64.0939000000071 -8.67490567301759,42.4545866625948,59.7363000000041 -8.67843780649394,42.453462649012,69.1252999999997 -8.67874089627416,42.4535136110373,70.9921000000031 -8.67920173291325,42.453295346083,71.9268000000011 -8.6790496858649,42.4528806096212,70.1828999999998 -8.68179995536233,42.4520330316137,56.9554999999964 -8.68273889605686,42.4514595419277,51.6456000000035 -8.6829469350969,42.4506044202383,47.5561000000016 -8.68288792656249,42.4502843989063,45.5022000000026 -8.68320375714841,42.4497236495625,45.6346000000049 -8.68361480556117,42.4494514054252,47.7554999999993 -8.68451770404985,42.4492205680524,49.7176000000036 -8.68507476552723,42.4481366199965,48.5935999999929 -8.68563098797812,42.4475824084608,46.9429999999993 -8.68566585698419,42.4462045912937,45.520199999999 -8.68505397851156,42.4461365303582,45.6956999999966 -8.68566669511234,42.4462025801247,45.5142999999953 -8.68566971255336,42.4460215309072,44.719299999997 -8.6861489898086,42.445712406484,39.6359999999986 -8.68609584906964,42.4449575321991,32.7658999999985 -8.6841789071354,42.4438363686464,30.9079000000056 -8.6840816770823,42.4437463471418,29.9149000000034 -8.68415895824789,42.4433644674263,26.9979000000021 -8.68627371280094,42.4426025525342,21.3147000000026 -8.68763778389862,42.4425604753075,12.8218999999954 -8.68825083557102,42.4416195225488,9.42609999999695 -8.68822585791456,42.4412904494247,11.8151999999973 -8.6884468048469,42.4409563468921,8.21210000000428 -8.68833180521917,42.4404636581203,7.53549999999814 -8.68863774445548,42.4403033966874,4.02199999999721 -8.68856096634646,42.4393394772816,3.25329999999667 -8.68955271360663,42.4393394772816,3.45209999999497 -8.68986887836583,42.439036387896,3.51429999999527 -8.69034379699529,42.438978552524,4.36040000000503 -8.69011882650879,42.4390293473362,4.36239999999816 -8.69037698974504,42.4383705297446,1.74150000000373 -8.69304796674898,42.4375204369994,2.78669999999693 -8.69336178510867,42.4374644459353,2.21289999999863 -8.69408279631191,42.437642477523,3.46229999999923 -8.69451379361218,42.437990661844,3.99129999999423 -8.69588892925921,42.4376394596944,11.4542999999976 -8.6966458146833,42.4372124858593,14.1021000000037 -8.69780687640826,42.43626164264,11.1747000000032 -8.69822697714414,42.4361005423931,11.3393999999971 -8.70232790679039,42.4353726580547,7.65069999999832 -8.70314396873385,42.4353954570068,6.92149999999674 -8.70394896702625,42.4349751880083,7.398199999996 -8.7041238133165,42.4345393290529,2.14119999999821 -8.70568485890484,42.4337204173762,7.51829999999609 -8.70615893940617,42.434013448816,14.1713000000018 -8.70606573290723,42.4341125230517,13.6015999999945 -8.70615189930929,42.4340245130594,14.1168999999936 -8.70682395951606,42.4342330545856,23.4946000000054 -8.70646286731455,42.4348415809453,26.4423999999999 -8.70683066543962,42.435433510712,33.9569999999949 -8.70699679447838,42.4354564773785,36.2773000000016 -8.70734095613172,42.4351966381708,40.7648000000045 -8.70760984704911,42.4353493565466,47.6450999999943 -8.70840478690528,42.4353056030454,57.5316000000021 -8.70851391963586,42.4354725701507,63.1610999999975 -8.70866797891048,42.437087427969,75.4394000000029 -8.707779999642,42.4382106030575,84.7648999999947 -8.70779290753432,42.4385844360475,86.3202000000019 -8.70795769628667,42.4386573580318,90.2431999999972 -8.70830269516985,42.4384945820178,96.7746999999945 -8.70907768613851,42.4388273432598,107.178700000004 -8.7101669985234,42.4385415201322,115.043399999995 -8.71152771621011,42.438735477507,115.787599999996 -8.71170792723927,42.4391312709647,120.115300000005 -8.71216490830915,42.4395636095543,120.320800000001 -8.71253371254734,42.4403146282068,121.658200000005 -8.71214797686266,42.4407146127099,125.105299999996 -8.71209567425188,42.4414245598221,129.8465 -8.71228376440438,42.4416724962433,135.129499999995 -8.71299069361722,42.4418915991948,135.205100000006 -8.71311977523534,42.4421373567384,135.751999999993 -8.71124591650214,42.442299630741,144.882299999997 -8.71099596835914,42.442464418766,147.281499999997 -8.71102798701082,42.4427076616186,150.233200000002 -8.71170591591133,42.4433084762809,157.953299999994 -8.71166970572056,42.4438385476055,161.949500000002 -8.71359000016743,42.4453154395272,183.239100000006 -8.71539680325797,42.4462315809888,202.391300000003 -8.71680781222756,42.4461913483351,217.306400000001 -8.71706295802276,42.4459953790009,221.923699999999 -8.71673790712876,42.4448306296927,229.523199999996 -8.71695382529214,42.4446113593637,232.392399999997 -8.7170339559138,42.4437823891694,237.558399999994 -8.71729178318013,42.443151399449,243.261199999994 -8.71744684856783,42.442859541667,245.744500000001 -8.71808085613919,42.4423556214621,249.995500000005 -8.7180867230363,42.4419953677187,252.918900000004 -8.71863171474951,42.441002447205,259.531099999993 -8.71877286613177,42.4393493684898,268.861799999999 -8.71897671363269,42.4390953966401,271.252399999998 -8.71917787966247,42.4378034100534,279.3701 -8.71891686697012,42.4376225288243,278.744500000001 -8.71985681377779,42.438285369171,286.801000000007 -8.72126782274738,42.4382382631355,294.9853 -8.72139086948344,42.4383420310802,296.695200000002 -8.72138097903213,42.4391215481119,303.998500000002 -8.72350193555394,42.4385723655763,317.531199999998 -8.72506482538355,42.4393594267596,319.451000000001 -8.72537696748692,42.4399035799359,321.083700000003 -8.72583277535703,42.4400645119627,321.4427 -8.7270379254978,42.4399505183207,327.060400000002 -8.72797686619232,42.440698519295,326.463399999993 -8.72812589669795,42.4411593563996,325.551500000001 -8.72843585948843,42.4413482846517,328.915099999998 -8.72860081532741,42.442559301947,339.556500000006 -8.72894782553852,42.4430984256791,343.804399999994 -8.72948996689731,42.4430484694327,343.300900000002 -8.73027283698934,42.443300429907,343.958400000003 -8.73210277439336,42.4425554464297,350.0959 -8.73360866701654,42.4425473992963,359.102700000003 -8.73387889911859,42.4426964298653,361.510399999999 -8.73371796683378,42.4433453564752,369.193700000003 -8.73500274453963,42.446331661376,389.091499999995 -8.73509075518296,42.4466795103891,391.798800000004 -8.73491674702086,42.4470905586186,395.7745 -8.73580975415997,42.4473125115034,404.668600000005 -8.73627478233815,42.4478115701947,407.734100000001 -8.73681591848215,42.4497605299573,407.190199999997 -8.73617285858771,42.4511282894205,408.124299999996 -8.73566575332162,42.4517493884228,408.201100000006 -8.73496485899084,42.4518373980442,412.417499999996 -8.73373171285426,42.4517024495981,419.178599999999 -8.73344890793144,42.4518186224124,420.869999999995 -8.73431693741408,42.4524476006944,420.575100000002 -8.73441684983662,42.4528133870995,420.601299999995 -8.73422691634114,42.4533712865749,419.811100000006 -8.73422389890009,42.4533712865749,419.835699999996 -8.73378267517863,42.4541724284648,417.849700000006 -8.73478598914642,42.4556273595331,418.588199999998 -8.73707575707639,42.4562425908154,413.413400000005 -8.73686084502616,42.4564804694073,412.355100000001 -8.73577270673934,42.4565406513893,408.647700000001 -8.73521782457486,42.4568474292108,408.251099999994 -8.73516384480943,42.4572264590456,406.964699999997 -8.73530667244804,42.4576354955248,405.080700000006 -8.73594168613248,42.4582584387142,402.068899999998 -8.73606875552438,42.4586116520324,400.441500000001 -8.73599868244062,42.4590294064416,398.1967 -8.73568067344018,42.4594500104832,395.768599999996 -8.73435599706094,42.4600364079072,394.832299999995 -8.73407067775367,42.4599730408846,394.153099999996 -8.73352082435813,42.4593983779593,390.977100000004 -8.73329669199983,42.4593693765641,390.134399999995 -8.73305294672389,42.4596855414153,389.920499999993 -8.73299695563054,42.4601314586524,389.828399999999 -8.73333977520085,42.4608625286798,380.698799999998 -8.73516099535334,42.4630036020595,354.010800000004 -8.73544815890192,42.4630840682748,346.687099999996 -8.73591268402353,42.4633856489929,335.330100000006 -8.73670175698259,42.4637163986282,330.241500000004 -8.73781772328025,42.4637276305887,318.569799999997 -8.7387769479339,42.4634936079113,301.354500000001 -8.73914692537187,42.4635212680922,296.570699999997 -8.73943727434642,42.463351785922,296.916100000002 -8.7411129844909,42.4639816026434,272.036900000006 -8.74133426739318,42.464057709765,269.733800000002 -8.74164875589603,42.4641291236426,266.165500000003 -8.74202409717457,42.46410246969,263.901599999997 -8.74251142153811,42.4641572871848,262.662400000001 -8.74245693871611,42.4651681444653,258.388200000001 -8.74267285687949,42.4656363573357,257.127200000003 -8.74254880492865,42.4662644977258,256.380099999995 -8.74289195957055,42.4666773901614,255.2503 -8.74266581588431,42.467282396138,254.116399999999 -8.74286849018545,42.4673771111829,253.693899999998 -8.74285893480576,42.4675854853675,253.272599999997 -8.74278249176835,42.4679266289655,252.0334</coordinates>
</LineString>
</Placemark>
</Folder>
</Document></kml>
