<?xml version="1.0" encoding="UTF-8"?>

<kml xmlns:xsd="http://www.w3.org/2001/XMLSchema" xmlns:gx="http://www.google.com/kml/ext/2.2" xmlns:atom="http://www.w3.org/2005/Atom" xmlns="http://www.opengis.net/kml/2.2">
<Document>
<name>ES01b_06a_monreal-puente_la_reina</name>
<visibility>1</visibility>
<Schema name="ES01b_06a_monreal-puente_la_reina" id="kml_schema_ft_ES01b_06a_monreal-puente_la_reina">
<SimpleField type="xsd:string" name="id">
<displayName>id</displayName>
</SimpleField>
<SimpleField type="xsd:string" name="nombre">
<displayName>nombre</displayName>
</SimpleField>
<SimpleField type="xsd:double" name="longitud">
<displayName>longitud</displayName>
</SimpleField>
<SimpleField type="xsd:string" name="_formato">
<displayName>_formato</displayName>
</SimpleField>
</Schema>
<Folder id="kml_ft_ES01b_06a_monreal-puente_la_reina">
<name>ES01b_06a_monreal-puente_la_reina</name>
<Placemark id="kml_1">
<name>&lt;img height='20' src='https://nco.ign.es/iconos/icono_todos_caminos_azul.png' /&gt;&lt;img height='20' src='https://nco.ign.es/iconos/Camino Santiago_20.png' /&gt;&lt;img height='20' src='https://nco.ign.es/iconos/icono_todos_caminos_azul.png' /&gt;  Camino de Santiago </name>
<visibility>1</visibility>
<description><![CDATA[<!DOCTYPE html>
<html>
<head>
<style>
#nco {
  border-collapse: collapse;
  overflow:hidden;
}
#nco th, #nco td {
  padding: 4px;
  text-align: left;
}
#nco th {
  color: #364B5F;
  padding-right: 5px;
}
#nco td {
  color: rgb(51, 51, 51);
  font-size: 12px;
  padding-right: 5px;
}
</style>
</head>
<body>
<table id="nco">
<tr>
<td>Camino Francés</td>
</tr>
<tr>
<th><b>Camino: </b></th>
<td>ES01b Camino Francés - Tramo Aragonés</td>
</tr>
<tr>
<th><b>Etapa: </b></th>
<td>06a Monreal-Puente la Reina</td>
</tr>
<tr>
<th><b>Longitud: </b></th>
<td>28.24 km</td>
</tr>
</table>
</body>
</html>]]></description>
<Style>
<IconStyle>
<scale>0.8</scale>
</IconStyle>
<LabelStyle>
<color>ffffffff</color>
<scale>0.75</scale>
</LabelStyle>
<LineStyle>
<color>ffff0000</color>
<width>3.0</width>
<gx:labelVisibility>1</gx:labelVisibility>
</LineStyle>
<PolyStyle>
<color>66ff0000</color>
</PolyStyle>
</Style>
<ExtendedData>
<SchemaData schemaUrl="#kml_schema_ft_ES01b_06a_monreal-puente_la_reina">
<SimpleData name="id">ES01b_06a</SimpleData>
<SimpleData name="_formato">kml</SimpleData>
</SchemaData>
</ExtendedData>
<LineString>
<extrude>0</extrude>
<tessellate>1</tessellate>
<coordinates>-1.50828793685199,42.7048541976111,550.748999999996 -1.50784587500237,42.7050841969029,543.883199999997 -1.50910198656918,42.7063062787053,558.243300000002 -1.50941681104198,42.7064982242076,555.492199999993 -1.50989474711249,42.7065693028084,555.438200000004 -1.51081189557652,42.7065012415974,554.198999999993 -1.51151195177914,42.7064082028146,553.880900000004 -1.51221083478198,42.7063642812628,554.645199999999 -1.51259388809723,42.7064341863295,552.048699999999 -1.51374992015487,42.7070122028548,545.039499999999 -1.51526369190139,42.7078032867202,537.415999999997 -1.51743292837813,42.7089152298659,524.182499999995 -1.51941088927638,42.7098162847525,514.513099999996 -1.52170099317625,42.7098233251722,513.819099999993 -1.52268787875413,42.709804214517,517.053599999999 -1.52418086348498,42.7096942436448,552.0193 -1.52516674294973,42.7096912264102,554.355800000005 -1.52651891136991,42.7099842578838,543.960999999996 -1.52897682056489,42.7107922729607,531.998099999997 -1.52888696657858,42.7118252591275,525.051900000006 -1.53413286463146,42.7124592659167,511.139500000005 -1.5373979505334,42.7106742562479,523.3508 -1.54015576498093,42.7108392118588,540.794699999999 -1.54027176982344,42.7105332727347,543.094700000001 -1.5405168571824,42.7103912829477,547.017800000001 -1.54169686168175,42.7105522155069,540.612899999993 -1.54329797213177,42.710508294247,540.701199999996 -1.54441377134281,42.7105552333598,546.640199999994 -1.54522195416289,42.7106942049258,538.780400000003 -1.54572369558842,42.7107983079828,529.563899999994 -1.54618486729909,42.7107232064715,520.930999999997 -1.54661871495375,42.7109231984172,533.121100000004 -1.54755799071989,42.7110812814075,545.272700000001 -1.54873480979324,42.7113552020814,541.640899999999 -1.54901392713178,42.7115852010486,543.479800000001 -1.54898190848013,42.7120373212862,545.717600000004 -1.54942899909871,42.7116391808807,553.196400000001 -1.54984893274796,42.711483277519,556.995500000005 -1.55058871963893,42.7117032186695,550.903900000005 -1.55141182257757,42.7121011910099,544.204700000002 -1.55300689904382,42.712332196435,532.969200000007 -1.55359597917287,42.7124532310562,536.854800000001 -1.55418287998901,42.7126552352016,529.252600000007 -1.5555016885728,42.7125102278911,527.507500000007 -1.55629092861849,42.7125041930355,532.268400000001 -1.55701076572362,42.7126262338986,540.613299999997 -1.55861791195404,42.7123233114492,542.994600000005 -1.55910674458894,42.7120232396283,531.419500000004 -1.55943866849316,42.7118981817724,527.922600000005 -1.55985189621881,42.7120322923116,526.284899999999 -1.56026193851846,42.712313253546,532.349300000002 -1.56056284898582,42.7125432529231,538.321400000001 -1.56135192104655,42.7125372180708,532.512900000002 -1.56203588482912,42.7123682386664,530.396399999998 -1.56258171467049,42.7124242296588,529.761700000003 -1.56310474526996,42.7125442588418,525.157000000007 -1.56334798748932,42.7124663066965,523.065799999997 -1.56346080780415,42.7123062127488,522.679499999998 -1.56431274486679,42.7124141717719,515.2644 -1.56481968214793,42.7123082245938,515.079599999997 -1.56502168630586,42.7120842599027,519.8024 -1.56545788036008,42.7121543327825,524.845600000001 -1.56604595437598,42.7123402431513,535.723800000007 -1.5668137372628,42.7122852580061,540.828200000004 -1.56775888082435,42.7122002653863,544.613299999997 -1.56878868161829,42.712181322457,544.6204 -1.56992996154237,42.7121142667245,545.660000000003 -1.57041091505392,42.7121692520213,544.158800000005 -1.571119856493,42.7118552660746,542.1103 -1.57136192551258,42.7117942462351,543.224000000002 -1.57188394999893,42.711962219294,545.020000000004 -1.57240999893772,42.7119692601303,535.625700000004 -1.57293386766534,42.7120401707522,535.554900000003 -1.57336888851978,42.7121752875694,539.720700000005 -1.57413667050827,42.7121372333755,542.543699999995 -1.57450597690473,42.7122711764044,538.420599999998 -1.57533980932114,42.7122332899232,542.808699999994 -1.57578187027243,42.7120772190795,536.659299999999 -1.57619476292646,42.712195236425,534.768200000006 -1.57645393137753,42.7123932170657,538.902799999996 -1.57750384904394,42.7124711686427,541.777100000007 -1.57785572093737,42.712411321663,542.630799999999 -1.57820977304196,42.7122542446835,539.041700000002 -1.57855996867908,42.7122751994366,542.289499999999 -1.57868485875808,42.7125352062332,539.576100000006 -1.57915977738753,42.7128652853378,529.347899999993 -1.57991968115101,42.7131822891801,518.410999999993 -1.58052871016754,42.7133671938646,509.287400000001 -1.58116389093864,42.7134082650184,509.7068 -1.58180091505269,42.7133351751768,509.926999999996 -1.5825009721536,42.7133921718618,511.044899999994 -1.58322785025395,42.7132082731597,518.8465 -1.58401893454094,42.7131371942407,521.521900000007 -1.58481085695606,42.7130181714552,526.584799999997 -1.58525090657945,42.7129102128227,531.448900000003 -1.58556070138497,42.7127692291081,535.174400000004 -1.58587167028857,42.712579295032,537.414499999999 -1.58634290133377,42.7121001857441,543.101599999995 -1.58652395049108,42.7118442021655,545.759000000005 -1.58676786375197,42.7117342316074,547.085900000005 -1.58715980140538,42.7118363230399,548.763099999996 -1.58734772357292,42.7122103239679,550.185899999997 -1.58756397680789,42.7123422549952,546.487599999993 -1.58793797690172,42.7122991719507,547.2359 -1.58831583346303,42.7120292745307,552.348499999993 -1.5886998919931,42.7115173077128,563.625599999999 -1.58911898751416,42.7113932554347,569.597399999999 -1.58942895030464,42.7112681976295,569.745299999995 -1.59040477133316,42.7107461729771,582.038199999995 -1.59137288122327,42.710581217119,590.270199999999 -1.59179784364147,42.7101983316454,597.685500000007 -1.59224594037319,42.7097673344738,605.411500000002 -1.59258792181531,42.7091572989972,605.594200000007 -1.59292990325747,42.7085641955381,614.041500000007 -1.59330792690544,42.7083263176869,616.220600000001 -1.59366399033796,42.708072178043,619.678400000004 -1.59448189652269,42.7077591978293,621.747000000003 -1.595245822942,42.7078822441152,622.138099999996 -1.59603774535712,42.7077462895234,614.305500000002 -1.59637385990213,42.7074602993939,623.295800000007 -1.59685883696786,42.7073042277701,626.674400000004 -1.59723669263087,42.707051262238,626.830700000006 -1.59781286486756,42.7067993023469,623.610100000005 -1.59814680009972,42.7065453307216,619.999500000005 -1.59837378191412,42.7061761917636,624.2356 -1.59866681325814,42.7058243194327,621.220400000006 -1.59893570507382,42.7055212297808,617.684800000003 -1.5992248799503,42.7053302899336,612.428199999995 -1.59966375637391,42.7053202315574,606.131399999998 -1.60023188240064,42.7053752169317,605.145999999993 -1.60067092591091,42.7053492329735,608.488899999997 -1.60112069889895,42.7057912947864,599.740300000005 -1.60166284025774,42.7060563304786,596.535900000003 -1.6021858717555,42.7061761917636,593.563899999994 -1.60246985077637,42.7062283273071,590.377699999997 -1.60282289586955,42.7061042750204,586.612500000003 -1.60304769837109,42.7058321980012,586.257700000002 -1.60320997273896,42.7054462954979,591.551200000002 -1.60339085391132,42.7051582932575,591.214399999997 -1.60368086781429,42.7049353345541,586.669200000004 -1.60396769629122,42.7048422954048,586.449999999997 -1.60442685667399,42.7048962751598,581.581999999995 -1.60488484385695,42.7049502542077,574.930900000007 -1.60543469725249,42.7048602325503,572.118199999997 -1.60598488482128,42.7047702114225,571.560800000007 -1.60684185065287,42.7046682872644,571.3701 -1.60725994006085,42.7045762537627,574.675000000003 -1.60814976357057,42.7049752322916,558.087899999999 -1.60866776450276,42.7053212375931,555.714500000002 -1.60921292420092,42.7054581975885,558.603900000002 -1.60972271093812,42.7051893061649,563.682400000005 -1.61003367984171,42.7049992049846,559.357900000003 -1.61041187147464,42.7047462386411,550.969899999996 -1.61082979289766,42.7046542059151,549.399900000004 -1.61155482765503,42.7045661959244,542.150399999999 -1.61230081651473,42.7044942786363,535.191699999996 -1.61302585127214,42.704439293802,538.746100000004 -1.61368584261304,42.7043341845905,540.505900000004 -1.61410493813413,42.7041772753102,539.663799999995 -1.61428498117833,42.7039702423313,540.940000000002 -1.61453174389528,42.7036983335384,547.039000000004 -1.61528293040722,42.703432291615,549.521200000003 -1.61603394893421,42.7031672559426,549.734400000001 -1.61672294148577,42.7027072568264,558.843200000003 -1.61686090744205,42.7024182489995,559.626699999993 -1.61706190548688,42.7022263034252,559.595300000001 -1.61741495147838,42.7021501960182,559.415200000003 -1.6187609170315,42.7017302628133,551.694300000003 -1.61926567589807,42.7016722598871,555.004499999995 -1.6193389335095,42.7013502268352,556.369099999996 -1.61986967524735,42.7010982669115,556.209099999993 -1.62042271317053,42.7008622327095,556.8416 -1.62090986954912,42.7006582169125,556.881899999993 -1.6214278713796,42.7004733119982,560.111900000004 -1.62182668204327,42.7001883274908,557.3704 -1.62244074072708,42.7000993116507,556.391300000003 -1.62310274339592,42.6997853253861,557.259000000005 -1.62352569358789,42.6994202097092,559.222500000003 -1.62407672018317,42.6992012747443,560.539099999995 -1.62458566969054,42.6988691839791,566.685800000007 -1.62496587265139,42.6984873043727,572.585000000006 -1.62509981505351,42.6983282155105,574.976599999995 -1.62538899082832,42.6981062628588,574.907300000006 -1.62550399045605,42.6978492735118,580.440499999997 -1.62609491482635,42.6977922764189,581.410699999993 -1.62655591945036,42.6976853238724,584.601699999999 -1.62683771915837,42.6977532171521,583.3606 -1.62710694604564,42.6974513009067,581.468299999993 -1.62731397897256,42.6969542542678,586.316200000001 -1.62731867266989,42.6966962592593,589.541200000007 -1.6278019734793,42.6966062375178,594.316600000006 -1.62865776611112,42.6963903197555,589.030100000004 -1.62949394402871,42.6961432214162,580.622499999998 -1.63023691634569,42.6961361801053,568.357799999998 -1.63044998415468,42.6963641683014,560.625599999999 -1.63137786119818,42.6968592033566,544.197199999995 -1.6319226849264,42.6969302817694,538.892000000007 -1.6329519826638,42.696814276138,530.383900000001 -1.63393182724646,42.6969552597788,528.8079 -1.63427498188836,42.6972332040741,526.836500000005 -1.63490278659266,42.697515171114,531.645699999994 -1.63697294877502,42.6967663316843,547.964600000007 -1.63775095718473,42.6961313188604,556.168799999999 -1.63841899473564,42.6955273185971,560.666599999997 -1.63837976710382,42.6946852727391,570.0052 -1.63847699805522,42.6943412793522,570.555600000007 -1.63866072868367,42.6940802673792,572.292300000001 -1.63896499166366,42.6939362658135,574.863700000002 -1.63928182836267,42.6937092841713,577.281799999997 -1.63969974978569,42.6935002394859,576.836899999995 -1.64051178817498,42.6930992493591,575.3796 -1.64080599361704,42.692889198364,574.127399999998 -1.64131393611299,42.6921043171826,571.069499999998 -1.64204970034813,42.6916112937151,568.6486 -1.64197191612599,42.6910761933136,568.207500000004 -1.64196789257182,42.6907553334348,568.761400000003 -1.6421529652833,42.6904202255507,571.082500000004 -1.64268990988818,42.6903773101913,568.255799999999 -1.64320673762059,42.6902022955088,560.431700000001 -1.64371686032773,42.6898303066202,557.418399999995 -1.64420586094759,42.6893912629586,558.4185 -1.64469486066911,42.6889693180252,557.748800000001 -1.64560496813797,42.6886591871338,558.144799999995 -1.6466148200444,42.6883832553829,559.278399999996 -1.64709074388867,42.68806021643,558.205300000001 -1.6480296845832,42.68742922705,558.902900000001 -1.64877383009992,42.6865571737357,557.322100000005 -1.64970891522527,42.6856303028091,557.673599999995 -1.64999490647237,42.6852802745953,557.748000000007 -1.65041483922329,42.6849392990622,558.523499999996 -1.65067283447458,42.684893198371,556.289199999999 -1.65103090923504,42.6848402247628,553.438899999994 -1.65172275124269,42.6837782377182,560.707999999999 -1.6525827345153,42.6826693119812,560.741299999994 -1.65338790079266,42.681592237092,556.490600000005 -1.65412567545744,42.6809832079112,558.079800000007 -1.65478985743916,42.6801842452385,563.241200000004 -1.65532294647483,42.679261229776,573.431899999996 -1.65608586767932,42.6780022682313,579.033500000005 -1.65651585886648,42.6772091721085,575.575599999996 -1.65689991829484,42.6762881690532,564.551800000001 -1.65711399131865,42.6756052112843,568.428400000004 -1.65709169603159,42.6750982739416,571.140199999994 -1.6567088107013,42.6743593253788,573.691500000001 -1.65645584421899,42.6737273296528,573.259600000005 -1.65642868724964,42.6734332928973,572.770999999993 -1.65667578593654,42.6732643134005,572.8606 -1.65708398489321,42.6733102463752,571.174299999999 -1.6576777587196,42.6734812368689,568.383300000001 -1.6584398408976,42.6735642178755,565.842199999999 -1.65905289346833,42.6738652958666,563.473100000003 -1.65954088797504,42.6738393119327,564.037299999996 -1.65980592332322,42.6738342831665,570.714900000006 -1.66008269426224,42.6738373001621,564.523100000006 -1.66034571828248,42.6739472711373,563.618199999997 -1.66048083478271,42.6738103109913,564.9133 -1.66072793346957,42.6736332847505,567.288 -1.66110796844548,42.6729682646369,572.711599999995 -1.66152287242745,42.6721733249318,569.880900000004 -1.66191698939372,42.6718512921507,571.543699999995 -1.66202696025249,42.6713792237875,572.055699999997 -1.66249584399988,42.6706493273699,573.8315 -1.66297093061429,42.6701812815817,573.946100000001 -1.66318584266456,42.6699313332618,571.683399999994 -1.6632488738548,42.6695482803477,568.1734 -1.66313672458146,42.6690981724223,564.226299999995 -1.66318483655144,42.6689022037076,562.689899999998 -1.66370283838192,42.6685002073504,557.748300000007 -1.66406292447032,42.6681942676798,557.025399999999 -1.66421581054513,42.667763270247,556.384600000005 -1.66427968076185,42.6673642917603,557.232799999998 -1.66441697657491,42.6671703348499,557.400099999999 -1.664760969345,42.66709221543,557.916899999997 -1.66500186516484,42.6671933009513,558.752900000007 -1.6652739424065,42.6674172657362,564.679399999994 -1.6660038379479,42.6669202185358,563.470499999996 -1.66631598005127,42.6667933167702,564.155199999994 -1.66803175595572,42.6667971723303,568.479600000006 -1.6695027795728,42.6668223176832,566.750499999995 -1.67268471831037,42.6670803132524,569.328999999998 -1.67317187379062,42.6670702546257,569.366399999999 -1.67511697880735,42.6667002772847,569.3413 -1.67592784399687,42.6665381715642,569.248500000002 -1.68057393244295,42.6661182380102,581.006200000003 -1.68082689892529,42.6661792584804,582.725600000005 -1.68142888694664,42.6670271718738,585.153900000005 -1.68177086838877,42.667089198107,584.600399999996 -1.68233899441549,42.6674392257574,577.043099999995 -1.68262582289246,42.66798119974,566.823000000004 -1.68283285581934,42.6681392824111,564.803599999999 -1.68400296896909,42.6682512648515,558.641199999998 -1.68443497238248,42.6682071762812,555.833299999998 -1.68521784247448,42.6683392747863,554.160999999993 -1.68585889014272,42.6683962718251,553.870699999999 -1.68643288306656,42.6684603092974,551.885299999994 -1.68825997011619,42.6683912426184,540.481100000005 -1.68873690097188,42.6683722995339,540.619099999996 -1.68921399891423,42.6682722199237,538.316399999996 -1.68979084129413,42.6682053321011,531.616299999994 -1.69032275713005,42.668138277094,528.122199999998 -1.69155171172754,42.6681443116381,526.596600000004 -1.69230273025453,42.6681942676798,526.014200000005 -1.69285593526437,42.6682252812127,525.186199999996 -1.69322289526128,42.6681312359111,519.603000000003 -1.69340193309069,42.6679862289798,516.229600000006 -1.69392395757701,42.6679272202637,516.901100000003 -1.69452091682941,42.6679511927266,514.641499999998 -1.69578474043297,42.6678263023888,507.631599999993 -1.69596193402107,42.6677882487562,505.9378 -1.69617466586011,42.6676522942339,501.123000000007 -1.69651899460012,42.6675993204583,497.896299999993 -1.69711595385248,42.6676553115296,494.609599999996 -1.69793587136515,42.6675751807457,492.163700000005 -1.69900992855986,42.6675792040319,483.291700000002 -1.6992649063701,42.6675413173621,481.255799999999 -1.69946288697387,42.6675683072737,481.531000000003 -1.6997309397631,42.6674492843244,478.6103 -1.70050978630094,42.6672622005254,474.735100000005 -1.70147085519586,42.6668082363397,469.253800000006 -1.70173170080154,42.6664763132193,466.238899999997 -1.70196890813883,42.6657192595339,462.532099999997 -1.70212866722394,42.665435280777,459.609100000001 -1.7026919315683,42.6650012659466,455.430699999997 -1.70294271783946,42.6646121774901,454.728600000002 -1.70382784675351,42.664598264089,453.032900000006 -1.70474566536075,42.6646411794207,452.439599999998 -1.70559391394084,42.6648302745827,450.346699999995 -1.70655079219497,42.6650782115436,450.075599999996 -1.70674994599848,42.6651052012035,450.800000000003 -1.7071088588871,42.6654042678339,449.398000000001 -1.7074587194526,42.6656042597608,448.547699999996 -1.70880988265799,42.6660932601509,448.273499999996 -1.70983599496935,42.6667673325219,444.702900000004 -1.71136485392109,42.6677242105916,443.775599999994 -1.71252692086083,42.6682762431647,443.156900000002 -1.71305380792781,42.6684623212421,442.839099999997 -1.71385897330683,42.6686022991942,439.530799999993 -1.71438971504469,42.6686083336932,439.821400000001 -1.71505590925265,42.6684772410714,440.4712 -1.7156007329809,42.6683773287421,440.597899999993 -1.71623088408472,42.6683932545653,440.982399999994 -1.71706890714192,42.6685412784603,442.241999999998 -1.71764994016264,42.6687932390197,442.233099999998 -1.71791899906495,42.669164221754,441.777900000001 -1.7182247712146,42.6693142577117,439.775099999999 -1.7187687568147,42.6692393233329,436.313500000004 -1.71967081717525,42.6690042948911,433.016300000003 -1.7201398689076,42.6687561906257,433.628700000001 -1.72062098950575,42.6687362416845,432.298800000004 -1.72136597315066,42.6684282905694,432.016499999998 -1.72210374871374,42.6684872994704,431.812099999996 -1.72330185785929,42.668716292737,432.407900000006 -1.72424599530775,42.668777313299,431.919200000004 -1.72503171485585,42.6689892074175,429.129199999996 -1.72609487548617,42.6690902931565,428.635999999999 -1.72706684094548,42.6694693230875,427.873900000006 -1.72808289571894,42.6702292260805,426.061700000006 -1.72905184283891,42.6707472281396,423.972699999998 -1.73009488749509,42.6709623077086,422.347599999994 -1.73149097724445,42.6708002018744,421.433399999994 -1.73541873685677,42.6703112015236,418.095799999996 -1.74133099620423,42.6703641749696,414.573499999999 -1.74458082781433,42.6710972563271,411.190799999997 -1.74849098583698,42.6715461912811,404.208499999993 -1.75107680255198,42.6711441948508,400.908599999995 -1.75518695250631,42.6701742412907,400.456300000005 -1.75551770231245,42.6699492705835,401.380099999995 -1.75776589621108,42.6709892974558,394.850900000005 -1.75832580804285,42.6712992602849,394.335900000005 -1.76090391361946,42.6721902563549,392.283800000005 -1.76138084357682,42.6723982955148,391.434999999998 -1.76233671571783,42.6727012172567,391.385999999999 -1.76280291709579,42.6726172305137,392.063500000004 -1.76289277108206,42.6723652702643,392.6639 -1.76486687730943,42.6725262029722,396.806899999996 -1.76543785279221,42.6732042991762,395.628500000006 -1.76589382774898,42.6735772937804,392.956200000001 -1.76662774774284,42.6738272419684,389.467999999993 -1.76731590216625,42.6737712511731,388.804300000003 -1.76767766451092,42.6737372207653,388.585300000006 -1.76825383674765,42.6741242964837,386.520499999999 -1.76924189552527,42.6745661909138,383.859500000006 -1.77057595929921,42.6748982815191,381.934699999998 -1.7715578152098,42.6756692492547,381.256500000003 -1.77195981129944,42.6779442655973,390.751699999993 -1.77205989170694,42.6780731786844,391.588799999998 -1.77634974963384,42.6784232072183,383.411600000007 -1.77703689794413,42.6784822158759,385.000100000005 -1.77768398049444,42.6787422222089,391.9424 -1.77838487572351,42.6789402032029,396.477499999994 -1.77868897071855,42.6792231758799,390.889899999995 -1.78053198399986,42.6799022781027,385.190400000007 -1.78087597676991,42.6798813229891,386.547000000006 -1.78200367865846,42.6793222498912,395.123600000006 -1.78252385890351,42.679074313612,401.730800000005 -1.78297195563523,42.6790032352369,406.816399999996 -1.78346497980925,42.6792622355735,413.513999999996 -1.78407970773794,42.6794592104371,413.284199999995 -1.78464699563651,42.6794662509971,412.918099999995 -1.7851996984881,42.6793073306839,412.162500000006 -1.78623486312258,42.6793772351728,411.460999999996</coordinates>
</LineString>
</Placemark>
</Folder>
</Document></kml>
