<?xml version="1.0" encoding="UTF-8"?>

<kml xmlns="http://www.opengis.net/kml/2.2" xmlns:atom="http://www.w3.org/2005/Atom" xmlns:gx="http://www.google.com/kml/ext/2.2" xmlns:xsd="http://www.w3.org/2001/XMLSchema">
<Document>
<name>ES01c_23a_rabanal_del_camino-ponferrada</name>
<visibility>1</visibility>
<Schema name="ES01c_23a_rabanal_del_camino-ponferrada" id="kml_schema_ft_ES01c_23a_rabanal_del_camino-ponferrada">
<SimpleField type="xsd:string" name="id">
<displayName>id</displayName>
</SimpleField>
<SimpleField type="xsd:string" name="nombre">
<displayName>nombre</displayName>
</SimpleField>
<SimpleField type="xsd:double" name="longitud">
<displayName>longitud</displayName>
</SimpleField>
<SimpleField type="xsd:string" name="_formato">
<displayName>_formato</displayName>
</SimpleField>
</Schema>
<Folder id="kml_ft_ES01c_23a_rabanal_del_camino-ponferrada">
<name>ES01c_23a_rabanal_del_camino-ponferrada</name>
<Placemark id="kml_1">
<name>&lt;img height='20' src='https://nco.ign.es/iconos/icono_todos_caminos_azul.png' /&gt;&lt;img height='20' src='https://nco.ign.es/iconos/Camino Santiago_20.png' /&gt;&lt;img height='20' src='https://nco.ign.es/iconos/icono_todos_caminos_azul.png' /&gt;  Camino de Santiago </name>
<visibility>1</visibility>
<description><![CDATA[<!DOCTYPE html>
<html>
<head>
<style>
#nco {
  border-collapse: collapse;
  overflow:hidden;
}
#nco th, #nco td {
  padding: 4px;
  text-align: left;
}
#nco th {
  color: #364B5F;
  padding-right: 5px;
}
#nco td {
  color: rgb(51, 51, 51);
  font-size: 12px;
  padding-right: 5px;
}
</style>
</head>
<body>
<table id="nco">
<tr>
<td>Camino Francés</td>
</tr>
<tr>
<th><b>Camino: </b></th>
<td>ES01c Camino Francés</td>
</tr>
<tr>
<th><b>Etapa: </b></th>
<td>23a Rabanal del Camino-Ponferrada</td>
</tr>
<tr>
<th><b>Longitud: </b></th>
<td>32.22 km</td>
</tr>
</table>
</body>
</html>]]></description>
<Style>
<IconStyle>
<scale>0.8</scale>
</IconStyle>
<LabelStyle>
<color>ffffffff</color>
<scale>0.75</scale>
</LabelStyle>
<LineStyle>
<color>ffff0000</color>
<width>3.0</width>
<gx:labelVisibility>1</gx:labelVisibility>
</LineStyle>
<PolyStyle>
<color>66ff0000</color>
</PolyStyle>
</Style>
<ExtendedData>
<SchemaData schemaUrl="#kml_schema_ft_ES01c_23a_rabanal_del_camino-ponferrada">
<SimpleData name="id">ES01c_23a</SimpleData>
<SimpleData name="_formato">kml</SimpleData>
</SchemaData>
</ExtendedData>
<LineString>
<extrude>0</extrude>
<tessellate>1</tessellate>
<coordinates>-6.28404088282326,42.4822782921593,1147.85370000001 -6.28477782025817,42.482371330926,1151.6427 -6.28551593089283,42.4824642026061,1156.8526 -6.28622587754672,42.482571323692,1160.84179999999 -6.28698293095577,42.4826962139241,1160.8613 -6.28773998436486,42.4828152369002,1161.9133 -6.28864992384875,42.4829372772838,1164.3703 -6.28941183894013,42.4829822045677,1166.4127 -6.28981299690161,42.4828702221793,1168.1033 -6.29058094687505,42.4826952082631,1171.62669999999 -6.29133783319748,42.4826462574637,1173.3064 -6.29217585535634,42.4826031743156,1176.3083 -6.29265597073974,42.4826222852119,1178.9621 -6.2929206710163,42.4826692240449,1180.1385 -6.29327489020755,42.4826921906176,1181.0567 -6.29576599215228,42.4831362639118,1189.69839999999 -6.29661491177387,42.4831183264357,1191.844 -6.29808375607809,42.4835033907676,1198.5585 -6.29863696198626,42.4835763134543,1196.0992 -6.29901850613182,42.4836056501129,1196.8753 -6.29943190184242,42.4837335578632,1197.38800000001 -6.30006741768511,42.484220714442,1201.63710000001 -6.30092723297279,42.484550793535,1201.4571 -6.30198234649478,42.4850040870932,1207.2559 -6.30310652788574,42.4853908277724,1213.4204 -6.30452340465077,42.4858229987476,1219.4322 -6.30540786342162,42.4860662414608,1221.0163 -6.30669062979958,42.4867064513268,1228.901 -6.30803709840927,42.4866244766093,1235.8146 -6.30847714803266,42.4864290107427,1241.5194 -6.30849391239249,42.4874033231745,1251.1964 -6.30875576321299,42.4862060517849,1247.24280000001 -6.30889741675353,42.4861374878007,1249.39109999999 -6.30913110449153,42.4861629691008,1254.03999999999 -6.30955908435075,42.4862902065201,1258.6528 -6.31015202004898,42.4862409206823,1263.3446 -6.31079005117447,42.4862224806317,1265.66 -6.31151089439275,42.4863951475516,1269.4289 -6.31245972553855,42.4870341841741,1276.7104 -6.31303120407791,42.4874046639549,1279.25079999999 -6.31353445377479,42.4879806682371,1284.348 -6.31371114430636,42.4881610469852,1285.1636 -6.31408447425696,42.488376964625,1285.5781 -6.31432939363096,42.4884453612096,1287.19439999999 -6.31469467647326,42.488331870308,1291.9808 -6.31500296300742,42.4881923952889,1290.9982 -6.31534511243451,42.488168758366,1291.8042 -6.31572498032378,42.4880681758127,1292.1458 -6.31647465766603,42.4882939838758,1295.999 -6.31729708956317,42.4885794713193,1301.28260000001 -6.31771836439713,42.4888215407569,1304.60739999999 -6.31838254637885,42.4892693019622,1306.8149 -6.31879309173504,42.4896627490796,1310.6225 -6.31902895878593,42.4898672673396,1312.6116 -6.31934026276114,42.4900040598246,1315.53170000001 -6.31972733873223,42.4899515893771,1317.5047 -6.31997242609119,42.4898483242602,1319.7919 -6.3201534752485,42.4897606495965,1320.4286 -6.32077893265495,42.4896173191815,1321.446 -6.3212868760492,42.4897827775973,1326.8285 -6.3217423479494,42.4899686882655,1331.9553 -6.32243067035776,42.4903472148431,1338.44650000001 -6.32309502032444,42.4909736784271,1344.1562 -6.32371511299203,42.4912921908354,1347.48669999999 -6.32468322288213,42.4915183343562,1348.16650000001 -6.32613429761173,42.4915795226175,1347.0959 -6.32654467588129,42.4916155642732,1349.02009999999 -6.32720869077636,42.4915345955462,1352.89139999999 -6.3277422819703,42.491271738578,1357.9437 -6.32794428612824,42.4910529713401,1361.2914 -6.32821384808713,42.4905366458557,1367.12940000001 -6.32862824991082,42.4901262676854,1372.5995 -6.32969073949964,42.4898620706952,1379.8311 -6.33028954299331,42.4897759043715,1382.8832 -6.33081140039301,42.4898158023239,1385.23239999999 -6.33156510039109,42.4901990230111,1389.8973 -6.33221335703948,42.4905237381773,1391.16710000001 -6.33308088436387,42.4909518853613,1390.7828 -6.33356586142957,42.491171323965,1390.2504 -6.33402451875576,42.4914189249974,1390.5696 -6.33441394202466,42.4915862280588,1390.989 -6.33484141882734,42.4915942748523,1392.2034 -6.33543636675181,42.4916113732916,1394.9633 -6.33588077500098,42.4915915921463,1398.308 -6.33625477509478,42.4916423866809,1400.87119999999 -6.33659625437869,42.491605003688,1403.61659999999 -6.33710436485957,42.4913842239235,1407.47719999999 -6.33771272373294,42.4911327669152,1407.9372 -6.33829643912309,42.4909373012254,1408.1418 -6.33864814392987,42.4909200343513,1408.58719999999 -6.33903689705556,42.4909002529874,1409.5252 -6.339604854199,42.4907032782726,1411.8841 -6.33991297364654,42.4907141748498,1413.3367 -6.34050389711851,42.4907642984179,1414.68640000001 -6.34132398261613,42.4908942178253,1418.7922 -6.34166697017137,42.4908912005753,1419.3707 -6.34200593417247,42.4909683142865,1421.13099999999 -6.34271889916571,42.4912762654191,1427.5006 -6.34297387697595,42.4914832981642,1430.3986 -6.34325768801186,42.4917153091538,1433.94040000001 -6.34345198013312,42.4918043250758,1435.9332 -6.34385196489483,42.4918462347494,1437.52499999999 -6.34412588547946,42.4919052434162,1438.3673 -6.34438890949971,42.4920852862753,1439.9957 -6.34518485546899,42.4924363202373,1441.09639999999 -6.34571090350948,42.4926353071206,1441.34600000001 -6.34617492557454,42.4926963273682,1442.07550000001 -6.34675092982632,42.4926322892922,1441.77830000001 -6.34729793286743,42.4925571873127,1442.2999 -6.34776983405587,42.4924162041847,1442.5589 -6.34817099201735,42.4923172976813,1443.67049999999 -6.348447930043,42.4922432014935,1446.3279 -6.34864792197471,42.4920961826117,1447.40979999999 -6.34921588001648,42.4920732161793,1451.31050000001 -6.34949097380089,42.4919791717567,1453.3509 -6.34971393295945,42.4919122839935,1454.8005 -6.35001886608265,42.4918702067786,1457.3349 -6.35014593637284,42.4918863002916,1458.5319 -6.3503098860987,42.4917352578459,1459.92819999999 -6.35035296929973,42.4915402948111,1459.9831 -6.35025992988745,42.4913221981983,1461.82090000001 -6.35022087024059,42.491096221556,1463.24559999999 -6.3501898568037,42.4908492909242,1465.0061 -6.35027485000601,42.4905792260724,1467.6871 -6.35064583265879,42.4900803353529,1475.12729999999 -6.35079083961026,42.4899091769864,1476.4296 -6.35102989118883,42.4898221727722,1478.06570000001 -6.3513359984101,42.489800211714,1479.5836 -6.35172793606351,42.4898692790934,1481.7913 -6.35209288473252,42.4900862023406,1484.6188 -6.35254684836135,42.4904742847737,1487.9044 -6.35304389519121,42.4911362875787,1488.9556 -6.35326886567771,42.4913042604197,1488.5373 -6.35352484870273,42.4913572344805,1487.4458 -6.35414293004242,42.4915862280588,1485.3072 -6.35434392808724,42.4916283048024,1484.2043 -6.35462086611293,42.4915532029421,1482.2694 -6.35489294335458,42.4915652731384,1483.5368 -6.35523995356569,42.4913012431894,1489.10219999999 -6.35563490955845,42.4909151729706,1489.2699 -6.35585585649078,42.4908223012503,1490.71829999999 -6.35699093354783,42.4907492108102,1494.2969 -6.35793792045235,42.4906881906501,1495.6672 -6.35888691958311,42.4903452031047,1493.17110000001 -6.35969895887073,42.4899872961272,1493.7833 -6.36033883333916,42.4896072603715,1495.45209999999 -6.36092187858612,42.4891891714739,1496.3285 -6.36151699359724,42.4888242229193,1500.0505 -6.36204890943317,42.4886212135721,1496.68180000001 -6.36267587511098,42.4886703312653,1495.717 -6.36335598332438,42.4887233049071,1493.1764 -6.36416198683157,42.4889011689356,1489.0454 -6.365088689777,42.4891621817461,1485.2072 -6.36598488324041,42.4893502716344,1481.5704 -6.36688090871886,42.4893702204183,1477.5288 -6.36776788187423,42.4892112996769,1474.1612 -6.36885283473503,42.4892133114517,1471.7804 -6.3698579929441,42.4892433184871,1471.9887 -6.37083884363987,42.4895033249809,1481.72840000001 -6.37176889909794,42.4898032296791,1480.9108 -6.37235395567283,42.4900882140873,1479.7691 -6.37289794127289,42.4901252621439,1480.6284 -6.3734429329861,42.4900092564573,1482.359 -6.37377988565927,42.4897122018001,1481.9599 -6.37403285124328,42.489377261281,1480.17200000001 -6.37451397273979,42.4890751771553,1477.53569999999 -6.37506399322196,42.4888782026549,1476.1634 -6.37564267984313,42.4887142528424,1472.44319999999 -6.37605389624085,42.4886222191378,1469.0294 -6.37697590548891,42.4886222191378,1460.8045 -6.37793093950176,42.4885742745678,1459.21120000001 -6.37852488041478,42.4885162723004,1459.1783 -6.37911697888318,42.4882653178094,1461.69530000001 -6.37970890846827,42.488000282266,1456.46769999999 -6.38024685918629,42.4877572067203,1456.9657 -6.38052295908379,42.4876822724458,1455.7173 -6.38111991833619,42.4876981981147,1464.37790000001 -6.38143490989562,42.4876691972441,1462.2285 -6.3819529117261,42.4878882995856,1461.49770000001 -6.38263285195455,42.4880822571679,1462.447 -6.3835179808686,42.4882302817826,1460.4075 -6.38419389754288,42.4883581893516,1456.5846 -6.38432599570376,42.4886423357482,1453.1679 -6.38483494521113,42.4891962123569,1446.4004 -6.38521883665453,42.4894262114508,1445.1879 -6.38572074516668,42.4896541992631,1447.4166 -6.38613799554817,42.4898592203239,1447.44010000001 -6.38651786343741,42.4901991906011,1443.5192 -6.38675389847326,42.4903852689461,1442.6216 -6.38711884624398,42.4904493066731,1440.852 -6.38760097295528,42.4906031985873,1439.13619999999 -6.38791697062783,42.4905933075248,1437.6574 -6.38856790964564,42.4905161940137,1436.575 -6.38914592522532,42.4903492265815,1437.91409999999 -6.38954691610014,42.4902541760144,1441.3006 -6.38998797183665,42.4902571932952,1443.8937 -6.3907369781374,42.4903272663707,1447.9856 -6.39115590567353,42.4903653198234,1448.16280000001 -6.39164490629339,42.4906352173475,1451.57550000001 -6.39223683587851,42.4911362875787,1452.67170000001 -6.39281099678727,42.4915292307914,1452.9449 -6.39323998275964,42.4917342523302,1454.4779 -6.39366595039263,42.4916802730722,1454.76549999999 -6.3939928446296,42.4914611701026,1457.5048 -6.39445183792568,42.4913812066971,1458.893 -6.39509892047599,42.4914462502496,1460.0242 -6.39619192134343,42.4918152214611,1462.22070000001 -6.39722188922399,42.4922772317528,1462.5537 -6.39781683714846,42.4926192138003,1461.5091 -6.3983269598556,42.4926552555193,1462.2359 -6.39877991737132,42.4924832589929,1463.35679999999 -6.39925684822701,42.4923183031876,1464.3029 -6.39963990064396,42.4922991926037,1465.9782 -6.40075067018772,42.4925922242278,1471.9589 -6.40171794194966,42.4927142647476,1468.7602 -6.40266090619835,42.4928282583954,1464.5883 -6.40334587519575,42.4927581854723,1464.0059 -6.40406286374315,42.4926542500184,1464.7776 -6.40477884527911,42.4925162836186,1466.4596 -6.4052799156631,42.4924012838972,1470.3049 -6.40568392308068,42.492138260337,1472.652 -6.4058049584888,42.4916752435021,1470.36599999999 -6.40585793214111,42.4911812142737,1472.88 -6.40597192565571,42.490801179148,1476.74890000001 -6.40620594846533,42.4905272582126,1479.04120000001 -6.40638196885366,42.4902302033659,1484.726 -6.40646394371662,42.4898682728853,1487.5727 -6.40666494176144,42.4896201689014,1491.76820000001 -6.40690583758128,42.4894882377313,1494.6302 -6.40732996187133,42.4896092721336,1495.3913 -6.40792893245163,42.4898173113061,1496.2264 -6.40824291879624,42.4899923251707,1498.1082 -6.40861591367526,42.4900062391646,1496.26700000001 -6.4093288777702,42.490236238592,1496.0561 -6.41022691547488,42.4903431913662,1494.0794 -6.41104985042856,42.4903192194142,1491.0013 -6.4117849436222,42.4901302911763,1490.9289 -6.41242397906418,42.4898362543949,1493.67849999999 -6.41286084415989,42.4895722244339,1496.0019 -6.41325077048537,42.4894771733486,1498.1002 -6.41383783928649,42.4894771733486,1499.9351 -6.41527198256959,42.4894763353886,1501.776 -6.41671786054525,42.4894753291742,1500.79949999999 -6.41758790225412,42.489491255049,1502.84940000001 -6.41816893617315,42.4893742439578,1503.0753 -6.41849599749671,42.4891641928601,1506.8481 -6.41869096065946,42.4887992448222,1506.2647 -6.41921784772644,42.4883233209719,1504.63559999999 -6.41969192732941,42.4881092466992,1505.4568 -6.42010398185528,42.4879962586381,1505.572 -6.42045484853393,42.488020230818,1505.6272 -6.421592943032,42.4883871905653,1501.61659999999 -6.42277998852654,42.4888282464939,1495.2629 -6.42331391569036,42.4888882609197,1492.8575 -6.42390785750171,42.4887952219082,1488.7448 -6.42429090991866,42.4887843249967,1488.4418 -6.42668092624108,42.4895482521863,1468.9601 -6.42840491634049,42.4909103109271,1440.0123 -6.42869191280241,42.4910102231955,1436.90429999999 -6.42992891360991,42.4913242099053,1425.69869999999 -6.43121285408593,42.4916712201106,1416.7375 -6.43165893859139,42.4917832026426,1413.1508 -6.43215497930813,42.4917521893231,1410.1563 -6.43270483270363,42.4917022334703,1408.6262 -6.43395189194736,42.4913723219416,1405.22779999999 -6.43481891621518,42.4911292462516,1399.92290000001 -6.43530288716779,42.4910901870753,1400.5039 -6.4357779737822,42.4909082998692,1395.992 -6.43619187165103,42.4908382267822,1394.49460000001 -6.43826991295676,42.4906342111517,1382.7092 -6.43901288527375,42.4907953115648,1385.6207 -6.43995299916804,42.4910432479365,1387.902 -6.44025189830747,42.4913522048844,1389.28479999999 -6.44047183912669,42.4916552947909,1386.41800000001 -6.44078984812713,42.4919052434162,1380.86380000001 -6.44119368845808,42.4922613065873,1367.99249999999 -6.44146895022742,42.4925372388827,1359.3753 -6.44182283434708,42.4926182076365,1352.06690000001 -6.44207093824877,42.4930292563463,1347.85460000001 -6.4423448588334,42.4934812087563,1341.2326 -6.44261391863404,42.4942672632841,1327.1346 -6.4428519640995,42.4951123268204,1317.7303 -6.44324692009229,42.4953181864178,1314.5508 -6.44407488381492,42.4955862397702,1305.9327 -6.44493889064169,42.4958863120198,1295.07889999999 -6.44534792772655,42.4961422949511,1290.2384 -6.44553584989409,42.4964872940395,1286.2105 -6.44684493511324,42.4966373301695,1272.68979999999 -6.44911190469963,42.4969571841157,1260.21339999999 -6.45017892089916,42.4969092393113,1255.19 -6.45088098932797,42.4969692539315,1250.85370000001 -6.45274898026577,42.4971871831509,1231.16039999999 -6.45328592487065,42.4974143326379,1223.52559999999 -6.45381499125049,42.4975112275205,1214.08809999999 -6.45448286081646,42.4977502792502,1197.9825 -6.45494587676841,42.4978332600381,1184.9761 -6.45530294631405,42.4979682090595,1175.1384 -6.45574199072265,42.4980042510074,1163.72470000001 -6.4561808671463,42.4980552132015,1156.1654 -6.45631799497439,42.4983033175038,1153.2763 -6.4569409379964,42.49875929315,1148.5481 -6.45737495273769,42.4990243288034,1145.5181 -6.4580669627303,42.499300261064,1142.8799 -6.45820694001449,42.499402185285,1140.7084 -6.4584659413789,42.4997372933299,1138.2102 -6.45854389268769,42.5001902516526,1135.69990000001 -6.45873785063563,42.5006333192062,1130.3278 -6.45916197492568,42.501043193967,1125.4106 -6.4594548382847,42.5013382370674,1122.5653 -6.45964393365202,42.5015442642601,1120.0591 -6.46010192083498,42.5020842265726,1115.6094 -6.46071497340568,42.5026932553209,1111.6393 -6.46102895975033,42.5030402660217,1108.9691 -6.46168392142398,42.5034493031256,1101.7815 -6.46212799460153,42.5039052783323,1099.8149 -6.46258195823036,42.504360248212,1097.96520000001 -6.46303089309021,42.5047552037175,1094.9241 -6.46409288052079,42.5052452098208,1089.6885 -6.46514983828409,42.5058073002495,1082.37820000001 -6.46630788256799,42.5064382896746,1074.29670000001 -6.46742988374776,42.5070582154318,1065.5022 -6.46798593911199,42.5075963335007,1057.6421 -6.46814385395579,42.5078622078175,1053.18090000001 -6.46811183530411,42.5081002537918,1049.3254 -6.46790396424906,42.5083713243832,1046.6321 -6.46798392778406,42.5090152222538,1038.2029 -6.46802298743095,42.5093912343676,1035.07640000001 -6.46823789948118,42.50973422142,1032.9286 -6.46850494705559,42.5100562545552,1031.83259999999 -6.46962594212224,42.5109732345973,1026.51330000001 -6.47072296564552,42.5119363154921,1015.5922 -6.4711998965012,42.5123441786214,1009.5567 -6.47192493125861,42.51287022682,1001.6983 -6.47210396818969,42.5130492644014,999.3514 -6.4722119268222,42.5132313196287,997.113400000002 -6.47204495965529,42.5135862091896,993.312600000005 -6.4719319713555,42.5139662448977,990.467199999999 -6.47208670167162,42.5143581825258,986.069000000003 -6.47235391633265,42.515155301294,975.737099999998 -6.47207295565113,42.5155462336157,969.863400000002 -6.47195393246924,42.5159792423899,962.245500000005 -6.47199785379842,42.5164462824852,957.973700000002 -6.47247495174077,42.5168543134969,956.709099999993 -6.47293796769272,42.5171572354312,957.142600000006 -6.4736549553418,42.5175453173764,954.600300000006 -6.47399090190185,42.5178121968453,955.406300000002 -6.47568689690375,42.5186451903708,949.583700000003 -6.47670395689203,42.5191293292644,948.564299999998 -6.47765094379655,42.5198132924009,944.399600000004 -6.4781999590639,42.52038426819,938.959600000002 -6.4784249286521,42.5204172926453,935.462799999994 -6.47866884281129,42.5206271752008,933.738700000002 -6.47886196173277,42.5207342964695,932.466 -6.47880798196735,42.5208942229189,932.9899 -6.47896086804216,42.5212331869295,927.452999999994 -6.47919690217971,42.5216351829584,925.885999999999 -6.47963091692103,42.5220512607001,923.785900000003 -6.47973183545665,42.5222732132906,923.810599999997 -6.47996284082525,42.5224242554578,923.142000000007 -6.48032896179571,42.5225783149671,922.8802 -6.48069391046472,42.5227392476722,920.363400000002 -6.48148298252545,42.5229722642215,920.143700000001 -6.48145599264272,42.5231321909011,909.945600000006 -6.48176897287425,42.5233072048714,906.5625 -6.48200366672537,42.5235122268177,900.756299999994 -6.48296490270692,42.5237992231768,886.910300000003 -6.48402286658333,42.524375227218,872.855299999996 -6.48433584681486,42.5245432008041,871.225300000006 -6.48523690196059,42.5248793147805,866.806700000001 -6.48589286974736,42.5252823168213,863.515199999994 -6.48671798401393,42.5253693206859,861.390100000004 -6.48688998084813,42.5252452690722,860.293799999999 -6.48836184259336,42.5254122366689,857.016699999993 -6.48956196396518,42.5258182554709,856.895000000004 -6.4898679032015,42.5258553035423,857.757500000007 -6.49014098565797,42.5258071915584,857.122099999993 -6.4903788640368,42.5257542182173,855.148000000001 -6.49068195381702,42.525752206294,852.932199999996 -6.49122677754527,42.5259272202072,852.288499999995 -6.49169499025113,42.526163254979,852.970300000001 -6.49229496694454,42.5261982909368,853.270199999999 -6.49289997330524,42.526332234013,851.938399999999 -6.49358594751745,42.5266343175546,846.429300000003 -6.4935998615229,42.5268981804254,847.090400000001 -6.49361193218536,42.5271032011794,846.969200000007 -6.49375090335646,42.5275212907827,842.510299999994 -6.49385098376393,42.527881209922,841.817200000005 -6.49411585202544,42.5281573094007,839.473700000002 -6.49441994702048,42.528319247888,838.1486 -6.4944908582324,42.5284763248471,840.715700000001 -6.49476293457576,42.5285671844136,840.0769 -6.49551294788792,42.5287292906491,841.507199999993 -6.49611895946344,42.5287172210073,838.534799999994 -6.49709779793301,42.5291623000854,836.698900000003 -6.49766089429242,42.5291792313572,835.580000000002 -6.49798393206185,42.5292152731845,834.767600000006 -6.4982838373144,42.5293123359116,831.904200000004 -6.49847092135381,42.5294782976593,827.965800000005 -6.49877987803114,42.5295741862621,824.104999999996 -6.49946283570064,42.5298243023786,813.519400000005 -6.49966383374546,42.5299113065372,809.457999999999 -6.49994395629882,42.5301403005753,805.349199999997 -6.50035399949676,42.5302863131459,802.721999999994 -6.50074694326329,42.5303072676664,800.277100000007 -6.50119084845589,42.5302672022516,794.785199999998 -6.5017599796974,42.5302303216316,789.882100000003 -6.50192493553641,42.5303112912195,784.660600000003 -6.50160893786386,42.5304142207431,781.565799999997 -6.5014778449178,42.530464176778,779.967000000004 -6.50150198444611,42.5305692859617,780.382100000003 -6.50170097116303,42.5306293007048,781.904599999994 -6.50216599934121,42.5306353353413,781.739499999996 -6.50256698931774,42.5304722238638,778.238700000002 -6.50306990394304,42.5303713055485,774.091899999999 -6.50416189779903,42.5304502631816,764.973100000003 -6.50504987706748,42.5305221798524,756.528200000001 -6.50581296535863,42.5304593158241,747.719500000007 -6.5062969363112,42.5303453219421,746.650500000003 -6.50662684798919,42.5301771805865,742.503700000001 -6.50695089277007,42.5300752568954,741.364100000006 -6.5073329399722,42.5300512842888,737.084799999997 -6.50781892225268,42.5301221951967,735.069799999997 -6.50844790015675,42.5301952852872,737.7791 -6.50876792138347,42.5301791923673,735.886499999993 -6.50941986561607,42.530516312687,736.924199999994 -6.50982789658778,42.5307942560517,733.521699999998 -6.51031890853557,42.5309642413448,724.576300000001 -6.51063289488018,42.5309872080547,718.940600000002 -6.51076398782624,42.5311022076336,718.5674 -6.51078192538582,42.5312602904182,717.377500000002 -6.51057992122788,42.5318012584046,710.080900000001 -6.51052393013456,42.5323911766324,701.656000000003 -6.51060590499749,42.5325863075155,698.2111 -6.51131384032345,42.5328022253205,688.929999999993 -6.51136396451965,42.5329073338794,685.787100000001 -6.51126086667114,42.5331411895941,679.276299999998 -6.5112389064557,42.5336902038473,668.749800000005 -6.51122985413258,42.5341792039858,655.846399999995 -6.51091385646003,42.535066177312,646.183199999999 -6.51143588094635,42.5349912428083,645.392699999997 -6.51190191523768,42.5348651788148,648.0052 -6.51222998267436,42.5346832918673,650.819799999997 -6.51258587812196,42.5345082779948,652.008300000001 -6.51291495167176,42.5343332636319,652.132599999997 -6.51314796836826,42.5341812156376,647.227700000003 -6.51360193289542,42.5341741751868,643.988599999997 -6.51398599142546,42.5343342691243,640.015599999999 -6.51425287101491,42.5346492615225,637.3073 -6.5145799332368,42.5347453176007,634.498600000006 -6.51484798602603,42.534750179545,629.763500000001 -6.51514789127858,42.5348532765051,625.685899999997 -6.51557385891156,42.5348212578841,620.376999999993 -6.51611398894245,42.5349102739918,615.081200000001 -6.51670189587173,42.535050251793,603.837299999999 -6.51736792209473,42.5361122385023,591.629700000005 -6.51752298658414,42.5364842272499,591.408599999995 -6.51753287793371,42.5368201743777,588.745800000004 -6.51781283340044,42.5372012152068,585.087299999999 -6.51818783960736,42.5375262654277,583.177800000005 -6.51874490108474,42.5374372497393,580.705000000002 -6.51902183911039,42.5376072348239,581.636499999993 -6.52032891300164,42.5380021900485,579.421799999996 -6.52206396675207,42.5385362853865,577.178100000005 -6.52263896578903,42.5387832156477,579.845100000006 -6.52316886939872,42.5391562104466,578.773300000001 -6.52422985071618,42.5396121859265,576.251199999999 -6.52530089046988,42.5401011866878,576.147500000006 -6.52625692969752,42.5405992387634,576.923699999999 -6.52754891638355,42.54151018443,572.789900000003 -6.52855692404867,42.5421462028982,571.040900000007 -6.529901884387,42.542731260039,570.266000000003 -6.53127685204911,42.54338219868,568.671300000002 -6.53264997546991,42.5439992740542,568.100900000005 -6.53402293090575,42.544617188492,568.562000000005 -6.53539789856783,42.5452682941052,568.628400000001 -6.53587583463833,42.5455043285871,573.267500000002 -6.53617188342337,42.5455412094527,574.328999999998 -6.53652492941484,42.5454781772169,575.672999999995 -6.5372469458329,42.5454622517061,580.523100000006 -6.53792990350237,42.545547243972,583.064700000003 -6.53849199374869,42.5457081764021,584.283200000005 -6.53899993714295,42.546003219768,583.741899999994 -6.539202947414,42.5461222426883,583.072499999995 -6.53962388627804,42.5461492323128,585.035399999993 -6.5410199760274,42.5462251726258,586.303199999995 -6.54210995855549,42.5462513236831,589.103099999993 -6.54476584835424,42.5460372498817,599.037500000006 -6.54742190613795,42.5458231766698,606.361999999994 -6.54848489878331,42.5456842045018,611.352100000004 -6.54910398623608,42.5454211801106,614.768299999996 -6.5495748822097,42.5452292350018,612.972599999994 -6.55024291976064,42.5452082801934,606.909199999995 -6.55038993804004,42.545138207083,604.996700000003 -6.55167287240295,42.5447823113989,594.833599999998 -6.5528468411219,42.5445543240913,585.053899999999 -6.55346089980572,42.5443772981015,581.236300000004 -6.55422884977916,42.5440701850094,571.173500000004 -6.55493594697696,42.5439493182565,564.503299999997 -6.5557018856225,42.5439322189098,558.0481 -6.556014865854,42.5437783272269,556.373300000007 -6.55703594939644,42.5429082860632,560.232799999998 -6.55796986042368,42.5420742863755,569.514800000004 -6.55903587140842,42.5415202428317,577.069199999998 -6.55942797704679,42.5413562927337,578.4761 -6.55991094188625,42.5412231880341,576.724199999997 -6.56032886330924,42.5408802004101,572.146200000003 -6.56122287745979,42.5399682494168,563.209700000007 -6.56146192903835,42.5397763040901,561.050199999998 -6.56171590073548,42.5393801753033,556.272200000007 -6.5622028891291,42.5390023189055,549.234899999996 -6.5625688430129,42.5388522825284,544.841 -6.56306086107381,42.5387252129646,540.3851 -6.56327091144175,42.5384881732416,539.032600000006 -6.56354198257029,42.5383932898513,535.9948 -6.56403785530208,42.5384901847547,532.379100000006 -6.5640809385031,42.5386152426259,531.791200000007 -6.56431797875377,42.5387062701269,530.981100000005 -6.56461285433903,42.5385652864916,530.242599999998 -6.56571490663129,42.5386502788802,527.669899999994 -6.56760586389762,42.5389542064578,525.681299999997 -6.56813291805122,42.5389652706892,525.573999999993 -6.56909599917237,42.5386442436943,522.163700000005 -6.57001297965148,42.5384512928428,524.425799999997 -6.5722559767962,42.538211235128,523.755999999994 -6.5741729178321,42.5380152659769,522.912800000006 -6.57510884108561,42.5378972489217,522.353400000007 -6.57545886963606,42.5378182914364,522.2304 -6.57584996916132,42.5375971764537,521.365900000004 -6.57669486522874,42.5370042407462,521.529200000004 -6.5774799137353,42.5364822156722,520.877600000007 -6.57783597716785,42.5362622748439,520.795599999998 -6.57827988236045,42.5360963132502,520.764500000005 -6.57896585747097,42.5360693232514,520.521900000007 -6.5796258488119,42.536212318813,520.419599999994 -6.58026890870634,42.5362973110945,518.736300000004 -6.58079596196165,42.5361021805534,518.251099999994 -6.58129988270003,42.5358663137376,515.859899999996 -6.5814589707436,42.5356633042259,513.716899999999 -6.58152485228823,42.535467335022,513.213300000003 -6.58177295708824,42.5352131957602,513.588300000003 -6.58214896940828,42.5349763234144,510.564299999998 -6.58260796180606,42.5348152229902,509.259099999996 -6.5831469186372,42.5347042462366,509.471099999995 -6.58335093412304,42.5346722275392,510.775500000003 -6.5835988709381,42.5347952741432,513.555300000007 -6.58400388446879,42.5349402809399,516.375400000004 -6.58444192276425,42.5350422046352,516.800399999993 -6.58496595947683,42.5350422046352,517.051600000006 -6.58589098616591,42.5352333126049,517.500100000005 -6.58623598504909,42.5355581950098,517.430699999997 -6.5866949783452,42.5359112407243,517.161300000007 -6.58723393427801,42.5362872525134,516.667799999996 -6.58762084316247,42.5364751748188,516.206999999995 -6.58803088546211,42.5367081917613,515.777400000006 -6.58844796965524,42.5370672729324,514.870500000005 -6.5887569263326,42.5373933286319,513.408100000001 -6.58920384986455,42.537757270883,511.616500000004 -6.58949084542817,42.5379532401818,510.693299999999 -6.58976292266983,42.5382432539965,509.791299999997 -6.58978488288527,42.5383842370351,507.801000000007 -6.58960584595419,42.5386003227739,497.845000000001 -6.58942697610977,42.5389362697698,501.969500000007 -6.58932890703021,42.5390921729674,505.294200000004 -6.58949084542817,42.5393231779249,505.071500000005 -6.58984188009174,42.5394391834502,504.264800000004 -6.59063497570664,42.5396502398279,504.769400000005 -6.59169193346993,42.5404232188673,509.5524 -6.59183794653452,42.5406792020939,513.099000000002 -6.59261394271796,42.5411522771547,523.681500000006 -6.5927219022488,42.541240286799,524.459199999998 -6.59294988927802,42.5412781729168,525.908299999996 -6.59297084427868,42.5430061865935,528.619600000005 -6.59333596003432,42.5430071919463,529.194600000003 -6.59347292077578,42.5431252092712,530.135800000004 -6.59314384722599,42.5434442243771,531.704700000002</coordinates>
</LineString>
</Placemark>
</Folder>
</Document></kml>
