<?xml version="1.0" encoding="UTF-8"?>

<kml xmlns="http://www.opengis.net/kml/2.2" xmlns:atom="http://www.w3.org/2005/Atom" xmlns:gx="http://www.google.com/kml/ext/2.2" xmlns:xsd="http://www.w3.org/2001/XMLSchema">
<Document>
<name>ES01c_24a_ponferrada-villafranca_del_bierzo</name>
<visibility>1</visibility>
<Schema name="ES01c_24a_ponferrada-villafranca_del_bierzo" id="kml_schema_ft_ES01c_24a_ponferrada-villafranca_del_bierzo">
<SimpleField type="xsd:string" name="id">
<displayName>id</displayName>
</SimpleField>
<SimpleField type="xsd:string" name="nombre">
<displayName>nombre</displayName>
</SimpleField>
<SimpleField type="xsd:double" name="longitud">
<displayName>longitud</displayName>
</SimpleField>
<SimpleField type="xsd:string" name="_formato">
<displayName>_formato</displayName>
</SimpleField>
</Schema>
<Folder id="kml_ft_ES01c_24a_ponferrada-villafranca_del_bierzo">
<name>ES01c_24a_ponferrada-villafranca_del_bierzo</name>
<Placemark id="kml_1">
<name>&lt;img height='20' src='https://nco.ign.es/iconos/icono_todos_caminos_azul.png' /&gt;&lt;img height='20' src='https://nco.ign.es/iconos/Camino Santiago_20.png' /&gt;&lt;img height='20' src='https://nco.ign.es/iconos/icono_todos_caminos_azul.png' /&gt;  Camino de Santiago </name>
<visibility>1</visibility>
<description><![CDATA[<!DOCTYPE html>
<html>
<head>
<style>
#nco {
  border-collapse: collapse;
  overflow:hidden;
}
#nco th, #nco td {
  padding: 4px;
  text-align: left;
}
#nco th {
  color: #364B5F;
  padding-right: 5px;
}
#nco td {
  color: rgb(51, 51, 51);
  font-size: 12px;
  padding-right: 5px;
}
</style>
</head>
<body>
<table id="nco">
<tr>
<td>Camino Francés</td>
</tr>
<tr>
<th><b>Camino: </b></th>
<td>ES01c Camino Francés</td>
</tr>
<tr>
<th><b>Etapa: </b></th>
<td>24a Ponferrada-Villafranca del Bierzo</td>
</tr>
<tr>
<th><b>Longitud: </b></th>
<td>22.89 km</td>
</tr>
</table>
</body>
</html>]]></description>
<Style>
<IconStyle>
<scale>0.8</scale>
</IconStyle>
<LabelStyle>
<color>ffffffff</color>
<scale>0.75</scale>
</LabelStyle>
<LineStyle>
<color>ffff0000</color>
<width>3.0</width>
<gx:labelVisibility>1</gx:labelVisibility>
</LineStyle>
<PolyStyle>
<color>66ff0000</color>
</PolyStyle>
</Style>
<ExtendedData>
<SchemaData schemaUrl="#kml_schema_ft_ES01c_24a_ponferrada-villafranca_del_bierzo">
<SimpleData name="id">ES01c_24a</SimpleData>
<SimpleData name="_formato">kml</SimpleData>
</SchemaData>
</ExtendedData>
<LineString>
<extrude>0</extrude>
<tessellate>1</tessellate>
<coordinates>-6.59307595345513,42.5434583064971,532.416299999997 -6.59248385588505,42.5433491737901,529.9038 -6.59237086758523,42.5436572924622,532.398199999996 -6.5923398550467,42.5438671756952,534.299100000004 -6.59227095516272,42.5441742884623,537.902199999997 -6.5923499125846,42.5446042800667,540.149300000005 -6.59228989883541,42.5448872528671,540.054199999999 -6.59254688797359,42.5450153284477,536.915500000003 -6.59267295125237,42.545148265562,535.227400000003 -6.59265199715004,42.5453412168969,532.879300000001 -6.59265199715004,42.5455343357389,526.753500000006 -6.59263288639069,42.5461522502049,518.156799999997 -6.59250397275752,42.5467413300227,515.407099999997 -6.59247983233089,42.5468792958705,515.0524 -6.59310696689198,42.5470442519745,513.935400000002 -6.59390592940399,42.5471872475515,512.035699999993 -6.59389385963985,42.5475322461627,508.262499999997 -6.59434497381259,42.5476472463791,507.353000000003 -6.5951969099769,42.5477723044398,506.825599999996 -6.59592093862116,42.5479102699944,508.565199999997 -6.59592797961637,42.5480391838278,508.604900000006 -6.59610886168703,42.5481692714228,508.710800000001 -6.5957958805572,42.5491412365705,508.200400000002 -6.59546496366442,42.5501782457908,508.553199999995 -6.59520998585418,42.5510202915092,508.997799999997 -6.59496489939352,42.551845238615,509.299499999994 -6.59506799634373,42.5521312292831,509.587599999999 -6.59499088316313,42.5523102668518,509.592399999994 -6.59485492853474,42.5525872046321,509.694799999997 -6.59450791742534,42.5533442581547,510.991299999994 -6.59421589219447,42.5541071786932,515.131399999998 -6.59420583375823,42.5545081690712,517.710399999996 -6.59444589144992,42.5549012803526,520.687000000005 -6.59491393706915,42.5553202082018,522.687399999995 -6.59478083279519,42.5554611917198,522.864600000001 -6.59473490013807,42.5556072046394,523.256299999994 -6.59377299221669,42.5562222686578,524.052800000005 -6.59357886718209,42.5564212549623,524.189599999998 -6.59324493284827,42.556648236806,524.510599999994 -6.59327594538683,42.5568162102763,524.600200000001 -6.59285785597885,42.5572782205133,525.575299999997 -6.59233784282044,42.5576721699188,525.208299999998 -6.59178698421011,42.5578983134782,525.661200000002 -6.59105189101651,42.5581212721585,526.774300000005 -6.5901608952053,42.5582781815188,527.325700000001 -6.58914098486267,42.5584622481472,529.064400000003 -6.58859783739074,42.5586402796564,531.812999999995 -6.58856799805195,42.5588743023438,533.756599999993 -6.58870998756237,42.5590783182338,534.744999999995 -6.58947693142273,42.5595991698021,534.845100000006 -6.59075584223147,42.5605292256951,534.792300000001 -6.59221395885455,42.5615662342708,537.539499999999 -6.59285685076407,42.56200326711,537.465800000005 -6.59273497722779,42.5621432450408,537.460300000006 -6.59265585271925,42.5622741699973,537.744600000005 -6.59241596211419,42.5624423109375,538.362999999998 -6.59223893651104,42.5625762536877,538.845000000001 -6.59333596003432,42.5633602972332,537.307100000005 -6.59450087732845,42.5641973140455,534.863100000002 -6.59532398026709,42.5636182923815,533.904999999999 -6.59681797021276,42.5647102866358,532.803100000005 -6.59741392335201,42.5650842870002,532.849600000001 -6.59791197629498,42.5652613124841,532.867100000003 -6.59823283564985,42.5657402549882,533.401400000002 -6.59837096959109,42.5660731838945,533.514899999995 -6.59890288452872,42.5666501940011,533.619999999995 -6.59946497567335,42.5671852946554,534.758300000001 -6.60003393892991,42.5676561900196,536.929600000003 -6.60054992853416,42.5681451900808,539.108999999997 -6.60117488378237,42.5688232861043,540.881699999998 -6.60146389157222,42.5695203254501,543.566200000001 -6.60167293582704,42.5699462934492,541.688699999999 -6.60205096037331,42.5706802133799,539.589900000006 -6.60274598780694,42.5708832228086,538.558699999994 -6.60313390190621,42.571031247151,540.659700000004 -6.60365089762358,42.5713361807406,544.620999999999 -6.60396890752236,42.5715992050738,545.019700000004 -6.60400796716922,42.571902294806,544.840800000005 -6.6048228550146,42.5721172067107,544.050399999993 -6.6056018695374,42.5722612079366,543.033200000005 -6.60644089780941,42.5723393273462,538.479000000007 -6.60768192217104,42.572413255141,534.334400000007 -6.60805491705005,42.5724891952502,532.254700000005 -6.60836487984053,42.5726001716507,529.653200000001 -6.60847786814032,42.5725002594915,528.868499999997 -6.60861398985533,42.5724082261141,528.797099999996 -6.60877291081224,42.5725322786337,528.370599999995 -6.60931387897129,42.5727072924171,526.782099999997 -6.61018392068016,42.5729443331825,525.119900000005 -6.6109848954184,42.5732883261094,523.438800000004 -6.61150792601786,42.5737132886551,522.406700000007 -6.61189097933312,42.5741342275764,521.900800000003 -6.61207789538754,42.5743692565307,521.979999999996 -6.61232097052027,42.5744572663063,521.544699999999 -6.61293486121913,42.5745672370064,521.369099999996 -6.61486286680441,42.574706209026,520.221399999995 -6.61642290627964,42.5748663035407,518.867100000003 -6.61816198358424,42.5751242980704,517.970000000001 -6.61980986571786,42.5753122205487,517.100000000006 -6.62162488300333,42.575375252421,516.344599999997 -6.62436895053207,42.5755692097283,514.909100000004 -6.62608690574938,42.5758282101433,514.479699999996 -6.62727696778664,42.5759593035066,513.357699999993 -6.62858789814539,42.5763182164423,512.588900000002 -6.62933489311821,42.5766712624998,512.402100000007 -6.63030283502339,42.5772742564002,511.082299999995 -6.63098897811886,42.5776941896438,510.444799999997 -6.63150999739039,42.5778863028035,510.014200000005 -6.63195088514194,42.5780162223427,509.756699999998 -6.63236696232365,42.5780923302601,509.414099999995 -6.63299091145874,42.5779922502842,508.836899999995 -6.63366699611801,42.5778671919271,508.463300000003 -6.63432799267373,42.5776853052524,508.510599999994 -6.63492294059819,42.5774583232102,508.058000000005 -6.63545083287996,42.577218265352,507.795599999998 -6.63607394298859,42.5771103062878,507.650299999994 -6.63642799509321,42.577059177049,507.583400000003 -6.63682797895659,42.5770301753069,507.389500000005 -6.63795685404492,42.5768662252142,507.189100000003 -6.63880895819418,42.5767832442053,506.434699999998 -6.6393928415693,42.576749213658,506.166299999997 -6.64052288985736,42.5771622742535,505.589000000007 -6.6410888356729,42.5773771858928,505.342300000004 -6.64336485758238,42.5773612605841,504.487599999993 -6.64398293982036,42.5773491904212,504.308199999999 -6.64470093358255,42.5773912676328,503.673599999995 -6.64593189950797,42.5773042634907,503.241999999998 -6.64637396135759,42.5772583310652,503.0478 -6.64829391983455,42.5770772813845,501.852299999999 -6.65024891530256,42.5769342861627,501.249200000006 -6.65154894819859,42.5769171872538,500.309699999998 -6.6530669105859,42.5770932074272,499.473299999998 -6.65348097643971,42.5771292493777,499.124299999996 -6.6539659535054,42.5770732581993,498.816500000001 -6.65442494680152,42.5769552409025,498.555800000002 -6.65477983613596,42.5769032734258,498.316000000006 -6.65528895362829,42.5769032734258,497.8272 -6.65581483368382,42.5769912835943,497.3024 -6.65632395117614,42.576983236551,497.135599999994 -6.65689693798686,42.576941327083,496.966400000005 -6.65725098919316,42.5768742722726,497.051000000007 -6.65752591589094,42.576761283937,497.164399999994 -6.65776496746951,42.5765852641497,496.926900000006 -6.65804894649037,42.5764322103951,496.616200000004 -6.65841389426106,42.5763653230578,496.433099999995 -6.66074993081809,42.5760743029357,495.114199999996 -6.66208583883327,42.5766652270211,494.029999999999 -6.66344890381783,42.577166297433,492.789799999999 -6.66519887768686,42.5777763326644,491.661600000007 -6.66527397953957,42.5779501728166,491.230200000005 -6.6654868793636,42.5780722133359,490.913 -6.66576499148732,42.5781912366123,490.7209 -6.66602298584032,42.5783362438111,490.591199999995 -6.66641995316098,42.5784512434871,490.548299999995 -6.66668599462227,42.5785472996363,491.007700000002 -6.66749987725283,42.5791152579056,490.841199999995 -6.66779190338203,42.5792822249897,490.763399999996 -6.66904885307704,42.5798191699085,490.2454 -6.67048785804246,42.580502295048,489.986399999994 -6.67186399890428,42.5810362218541,490.147200000007 -6.672212854255,42.5812492899201,490.620200000005 -6.67276488606506,42.5817852290461,491.356499999994 -6.6746548381166,42.5834963105561,493.767699999997 -6.67524693568667,42.5841512726913,495.635599999994 -6.67573191185407,42.5844642530269,498.180300000007 -6.67665895076938,42.5852922171,505.018800000005 -6.67710185074719,42.5858232945924,508.679999999993 -6.67733989621264,42.5859922741987,510.809800000003 -6.67760191501806,42.5862081918076,512.958599999998 -6.67882399660533,42.5872441947785,517.765499999994 -6.67909892240475,42.5873233198992,519.697899999999 -6.67939983287211,42.5872742023621,521.509099999996 -6.6797679660688,42.5870701867531,523.607600000003 -6.68012889118365,42.5869382556248,523.971699999995 -6.68041890508662,42.5868971842105,524.182199999996 -6.68069299275788,42.5869531751653,524.841799999995 -6.6814478677524,42.587233298499,523.700700000001 -6.68216887895561,42.5876993321634,521.944000000003 -6.68279483941864,42.5880082894021,519.9041 -6.68340688587622,42.5882693016291,517.827699999994 -6.68452486440015,42.58828220962,517.528600000005 -6.68594794313391,42.5885091919414,514.760800000004 -6.6880008387982,42.5891002838897,502.666200000007 -6.68896291380623,42.5894142697769,499.255799999999 -6.68932283280797,42.5894513178076,497.198600000003 -6.68965592991193,42.5893923093277,495.714300000007 -6.68999087035887,42.5893742039385,495.010500000004 -6.6915418584093,42.5897332850193,492.910399999993 -6.69178895619787,42.5898772859083,493.671300000002 -6.6921099835377,42.5901802081019,492.440900000001 -6.6924068704509,42.5904273063764,492.8606 -6.69277584177574,42.5906232756351,494.082599999994 -6.69351596373834,42.5908482455582,494.316399999996 -6.69431090359451,42.5910712041896,494.320999999996 -6.69548286098553,42.5914512399116,494.384699999995 -6.69743299477121,42.5921412377827,493.715299999996 -6.69844888155972,42.5924372870395,493.777900000001 -6.69963089738697,42.5928082701713,493.880999999994 -6.70075591690609,42.5931091802712,497.322199999995 -6.70183097931562,42.5933073287387,504.343099999998 -6.70312598344266,42.5935623060951,509.745899999994 -6.70439684804144,42.5939622902974,510.179699999993 -6.70495089117944,42.5941522245752,510.910799999998 -6.70680396289697,42.5948542923855,514.803400000004 -6.70897185818899,42.5957382476644,506.691600000006 -6.71118283668202,42.5966201920074,505.077000000005 -6.71313799923666,42.5973913266883,504.897500000006 -6.71347495190984,42.5975812610957,504.921199999997 -6.71446183658941,42.5984952235183,501.633400000006 -6.71488696699254,42.5987062798695,496.8701 -6.71540295749512,42.5989862353236,490.945699999997 -6.71582188413293,42.5992931806227,486.450899999996 -6.71627987131593,42.599503231151,485.161900000006 -6.71675998759762,42.5995602284485,484.673699999999 -6.71896593642338,42.5996172250326,483.193700000003 -6.72043293738462,42.5996572908988,483.140599999999 -6.72191485756612,42.5997622319897,482.740699999995 -6.72242498027326,42.5997612262288,482.671300000002 -6.72302294563874,42.5997982740602,482.563999999998 -6.72377597549366,42.5998913131045,481.463000000003 -6.72429397732414,42.5999052270921,480.618799999997 -6.72483192714384,42.599887290069,480.046900000001 -6.72534590631849,42.5998302930706,479.525800000003 -6.72570599240685,42.5997422834029,479.177599999995 -6.72594789433984,42.5996381800836,478.698999999993 -6.7262219820111,42.599598282163,477.788 -6.72682598225868,42.599778325485,476.597800000003 -6.72725697955898,42.599958200991,476.851200000005 -6.72770390309093,42.6000401758154,476.956099999996 -6.72784388037512,42.5999642361985,477.236000000004 -6.72809684685746,42.6000333028153,474.411200000002 -6.72992896267604,42.600106225082,474.960900000005 -6.73133393766186,42.6001632224892,474.671499999997 -6.73293588713836,42.6005342052554,475.614499999996 -6.73461696112341,42.6009583294607,475.991500000004 -6.73630088546281,42.601424195701,477.226599999995 -6.73711694740627,42.6016831964895,477.931899999996 -6.73795295913556,42.6020432831274,478.747700000007 -6.73897085725197,42.6025711756221,480.608699999997 -6.74013292419171,42.6031812102189,485.385699999999 -6.74129398501834,42.6037902397586,492.299299999999 -6.74238983534187,42.6043462952054,500.7745 -6.74298092679883,42.604643181743,506.650999999998 -6.74399899290019,42.6048242307125,511.458199999994 -6.74569196956274,42.6050902722991,518.7791 -6.74738494712363,42.6053563140718,527.036800000002 -6.74907691767303,42.6056221880892,535.248399999997 -6.75076989433559,42.605888229574,542.3842 -6.75150096397506,42.6059971947127,543.943799999994 -6.75247292943438,42.6060831928227,547.566399999996 -6.75265096115064,42.6059502559478,548.990999999995 -6.75407789635193,42.6060463127018,558.163700000005 -6.75496587562038,42.6061192352038,561.294800000003 -6.75556199584629,42.6060493296802,565.296799999996 -6.757623944732,42.6055583179959,561.199699999997 -6.75973584893069,42.6051172622013,550.266099999993 -6.76036097126555,42.6049543182577,546.949500000002 -6.76193090119205,42.6044393340703,538.861499999999 -6.762385870934,42.6043072353971,536.529599999994 -6.76372999314417,42.6042933210701,527.099400000006 -6.76502684151249,42.6042812514931,522.900299999994 -6.76570694882759,42.604116295304,521.560200000007 -6.76681587502838,42.6035143068709,520.069399999993 -6.76795195819854,42.6028962258862,518.191000000006 -6.76885083313309,42.6022402579488,523.051200000002 -6.76964594007588,42.6015812725226,532.122499999998 -6.77002496983697,42.6013502672579,533.677899999995 -6.77030894885787,42.6012491818523,534.675900000002 -6.77066685653167,42.6012272209446,534.805099999998 -6.77210787282503,42.6013232777073,532.772899999996 -6.77280792992594,42.6013812803972,531.359400000001 -6.77396597331152,42.6015931746701,522.862699999998 -6.7747278884029,42.6016453106782,521.3796 -6.77545091093404,42.601499297742,519.241699999999 -6.77618198057351,42.6011593273595,519.278000000006 -6.7765789478942,42.6013351799042,519.933000000005 -6.77694188433699,42.6015071769743,520.649699999994 -6.77721999556242,42.6015492537507,521.411600000007 -6.77937397774731,42.601565179493,531.642600000006 -6.78109997917466,42.6015842903784,548.342300000004 -6.78182987471603,42.6016723000892,554.622399999993 -6.78284089982224,42.6019502439904,556.253500000006 -6.78325697790225,42.6021101706875,556.458599999998 -6.78356291713856,42.6021462127222,555.824999999997 -6.78392585358135,42.6021043036389,553.908599999995 -6.78423497824366,42.6020732901982,551.112699999998 -6.78459690857333,42.6021333049577,549.796900000001 -6.78569192076867,42.6023262559552,544.924700000003 -6.78595896834308,42.6024052138154,543.6774 -6.78616499515685,42.6025052936124,543.257899999997 -6.78639398919752,42.6025232312043,543.513900000005 -6.78662784402218,42.602516189867,544.674400000004 -6.78698290134158,42.6024482970253,546.498900000006 -6.78750693805417,42.6024462849289,549.409799999994 -6.78770190121689,42.6024762924668,550.510299999994 -6.78837597364989,42.6028972315966,555.906000000003 -6.7887598650933,42.6033082801165,557.628700000001 -6.78965488445867,42.6039511720543,561.495200000005 -6.7899368521516,42.6040442108482,562.779999999999 -6.79032091068167,42.6041183073464,564.163799999995 -6.79076397774608,42.6042623080579,566.347699999998 -6.79153997482785,42.6046602809818,571.214099999997 -6.79175890953395,42.6047452732732,573.228199999998 -6.79195186136877,42.6047382328482,574.563099999999 -6.79217699894193,42.6047011846481,573.827099999995 -6.79251093417405,42.6047462796149,577.098299999998 -6.79304586745103,42.6048002590446,578.641600000003 -6.79332096123544,42.6047912066051,578.166800000006 -6.79376184898699,42.6047823214471,580.218699999998 -6.79500589168799,42.6048072994626,586.503100000002 -6.7963319083536,42.6047122484628,579.8557 -6.79717395496496,42.6043793195486,574.475600000005 -6.79774694177568,42.6041561936376,571.639200000005 -6.79806193333511,42.6040033074117,570.907099999997 -6.79839687378205,42.6039521777477,568.581999999995 -6.79877590354314,42.6039342405671,567.478499999997 -6.80044792610337,42.6040882999382,563.395900000003 -6.8012019620714,42.6042312950302,561.261599999998 -6.8019559980394,42.6043752961417,560.028099999996 -6.80262990338578,42.6044502306478,559.001699999993 -6.80334789714797,42.6044572711054,554.789699999994 -6.80409388600767,42.604478225851,551.040699999998 -6.80479997799068,42.6045162798678,547.926000000007 -6.8055469729635,42.6045372345936,545.934999999998 -6.80617796219547,42.6044711853958,544.609299999996 -6.80679285900745,42.6043793195486,541.217499999999 -6.80726492818085,42.6043022062979,539.527799999996 -6.80768586704488,42.6042022940268,537.271999999997 -6.80788485376177,42.6041753043894,535.925099999993</coordinates>
</LineString>
</Placemark>
</Folder>
</Document></kml>
