<?xml version="1.0" encoding="UTF-8"?>

<kml xmlns="http://www.opengis.net/kml/2.2" xmlns:atom="http://www.w3.org/2005/Atom" xmlns:gx="http://www.google.com/kml/ext/2.2" xmlns:xsd="http://www.w3.org/2001/XMLSchema">
<Document>
<name>ES01c_12a_san_juan_de_ortega-burgos</name>
<visibility>1</visibility>
<Schema name="ES01c_12a_san_juan_de_ortega-burgos" id="kml_schema_ft_ES01c_12a_san_juan_de_ortega-burgos">
<SimpleField type="xsd:string" name="id">
<displayName>id</displayName>
</SimpleField>
<SimpleField type="xsd:string" name="nombre">
<displayName>nombre</displayName>
</SimpleField>
<SimpleField type="xsd:double" name="longitud">
<displayName>longitud</displayName>
</SimpleField>
<SimpleField type="xsd:string" name="_formato">
<displayName>_formato</displayName>
</SimpleField>
</Schema>
<Folder id="kml_ft_ES01c_12a_san_juan_de_ortega-burgos">
<name>ES01c_12a_san_juan_de_ortega-burgos</name>
<Placemark id="kml_1">
<name>&lt;img height='20' src='https://nco.ign.es/iconos/icono_todos_caminos_azul.png' /&gt;&lt;img height='20' src='https://nco.ign.es/iconos/Camino Santiago_20.png' /&gt;&lt;img height='20' src='https://nco.ign.es/iconos/icono_todos_caminos_azul.png' /&gt;  Camino de Santiago </name>
<visibility>1</visibility>
<description><![CDATA[<!DOCTYPE html>
<html>
<head>
<style>
#nco {
  border-collapse: collapse;
  overflow:hidden;
}
#nco th, #nco td {
  padding: 4px;
  text-align: left;
}
#nco th {
  color: #364B5F;
  padding-right: 5px;
}
#nco td {
  color: rgb(51, 51, 51);
  font-size: 12px;
  padding-right: 5px;
}
</style>
</head>
<body>
<table id="nco">
<tr>
<td>Camino Francés</td>
</tr>
<tr>
<th><b>Camino: </b></th>
<td>ES01c Camino Francés</td>
</tr>
<tr>
<th><b>Etapa: </b></th>
<td>12a San Juan de Ortega-Burgos</td>
</tr>
<tr>
<th><b>Longitud: </b></th>
<td>25.24 km</td>
</tr>
</table>
</body>
</html>]]></description>
<Style>
<IconStyle>
<scale>0.8</scale>
</IconStyle>
<LabelStyle>
<color>ffffffff</color>
<scale>0.75</scale>
</LabelStyle>
<LineStyle>
<color>ffff0000</color>
<width>3.0</width>
<gx:labelVisibility>1</gx:labelVisibility>
</LineStyle>
<PolyStyle>
<color>66ff0000</color>
</PolyStyle>
</Style>
<ExtendedData>
<SchemaData schemaUrl="#kml_schema_ft_ES01c_12a_san_juan_de_ortega-burgos">
<SimpleData name="id">ES01c_12a</SimpleData>
<SimpleData name="_formato">kml</SimpleData>
</SchemaData>
</ExtendedData>
<LineString>
<extrude>0</extrude>
<tessellate>1</tessellate>
<coordinates>-3.43711171308303,42.3757925822258,1003.58960000001 -3.43801293531542,42.3759885513644,1001.60400000001 -3.43915689760893,42.3761105922013,1000.3397 -3.44044771019689,42.3763216483225,1000.1428 -3.44086177605067,42.3763563494568,1000.8122 -3.44124885292008,42.3761575305643,1003.2019 -3.44146694949802,42.3759585444737,1004.7403 -3.44321692336701,42.3757716277072,1008.4857 -3.44440598018949,42.3754606590688,1010.5583 -3.44600977390727,42.3751656159695,1013.2265 -3.44751583451537,42.3749072862129,1012.95789999999 -3.44863582436723,42.3747126582207,1012.6441 -3.44968289167922,42.374685668261,1012.49280000001 -3.45036584845042,42.3746655515422,1013.09149999999 -3.45113480453698,42.3745805592797,1012.4362 -3.45199193835352,42.3745295974469,1011.74589999999 -3.45279291309176,42.3743855964659,1010.95819999999 -3.45330085648601,42.3743016098987,1010.79150000001 -3.45394291026737,42.3742695907162,1010.4973 -3.45435580202308,42.3742275134189,1010.04429999999 -3.45488687973084,42.3740726161086,1009.5701 -3.45548886775219,42.373917550515,1009.0145 -3.45633694924562,42.3737433749344,1007.59420000001 -3.45848590176324,42.3733465754168,1004.86040000001 -3.46024392184227,42.372733523466,1003.25900000001 -3.4613989477868,42.3722815708743,1002.2218 -3.46307968759856,42.3719806606698,1000.44469999999 -3.46564387916973,42.3719055586576,998.388600000006 -3.46691491085513,42.3719655729792,999.357600000003 -3.46745587901417,42.372163553667,1000.1017 -3.4680838508051,42.3722676572684,1001.117 -3.46875071515626,42.3722415051231,998.407500000001 -3.46928195995069,42.3721742823925,997.077699999994 -3.47031494617061,42.3723295155502,998.373900000006 -3.47128389418891,42.3723675690348,996.897200000007 -3.47248988245784,42.3722213889487,990.713000000003 -3.47347190635338,42.3719345600453,985.356899999999 -3.47425494353205,42.3715436278578,978.196800000005 -3.47504485372093,42.3710985489743,971.984299999996 -3.47643692081446,42.3703046153574,964.179699999993 -3.47713295346287,42.370001525439,963.858399999997 -3.47791699675465,42.3697685086393,964.660300000003 -3.47832083708557,42.3697086621219,965.367499999993 -3.4790138531913,42.3699465406244,966.571800000005 -3.47957191988346,42.370256670463,967.039900000003 -3.47980996624724,42.370273602267,966.416200000007 -3.48014289536625,42.370213587656,965.814299999998 -3.48046794536191,42.3702422540027,964.755300000004 -3.48077891426551,42.37031752326,963.834400000007 -3.48099499951551,42.3705585870969,962.571599999996 -3.48223686200533,42.3710475869708,957.745500000005 -3.48349381259863,42.371478584527,950.260399999999 -3.48461598176336,42.3717506609299,949.574299999993 -3.48621189635776,42.371761557633,948.307100000005 -3.48795784667262,42.3717375854146,948.010399999999 -3.48895093421922,42.3717565283856,948.298500000004 -3.49139073876797,42.3721935610436,949.596999999994 -3.49383188450141,42.3726315994162,950.396699999998 -3.4962728622499,42.3730686319581,952.030100000004 -3.49876999817837,42.3735636667252,952.804300000003 -3.50129798045707,42.3740355677446,954.426200000002 -3.50231587857351,42.374290545736,953.832699999999 -3.50448897151776,42.3749465134254,953.772200000007 -3.50594691925758,42.3755406225232,953.697799999994 -3.50714284909028,42.3761776474688,953.059200000003 -3.5082589833729,42.3767325294652,953.342099999994 -3.50973486867234,42.3776446477636,951.935100000002 -3.50996486882608,42.3775725632902,951.817599999995 -3.51025689405698,42.3773715656517,951.991800000003 -3.51049393430762,42.3773006547832,951.844400000002 -3.51077992465642,42.3773222796967,951.824500000002 -3.51150998818278,42.3772666237492,953.012300000002 -3.51210493610724,42.3771586649133,953.663 -3.51248597719626,42.3771745908192,954.548500000004 -3.51280381911008,42.377309539135,954.670499999993 -3.51412497499169,42.3775975412936,958.7742 -3.51512795298957,42.3778935902652,965.102599999998 -3.51560387773214,42.3779395232703,966.585200000001 -3.5162398966314,42.3780243477418,968.137799999997 -3.51668396980896,42.3779936702624,970.369099999996 -3.51911991878849,42.378771510846,978.354800000001 -3.51973297046086,42.3789225530621,979.221999999994 -3.52035289604182,42.378954571863,980.690199999997 -3.52096393728458,42.3790055334229,985.917700000005 -3.52134598448672,42.379109636964,990.258300000001 -3.52171193837052,42.3791376323463,993.724100000007 -3.52309998101158,42.3790021809781,1008.3262 -3.52337691903726,42.3789126622746,1011.99739999999 -3.52355796819458,42.3787765401953,1013.52860000001 -3.52372476827483,42.3787116642805,1014.9564 -3.52400287950026,42.3787696667291,1018.3958 -3.52438492670239,42.3788685734318,1021.8958 -3.525068890485,42.3790415755111,1025.5321 -3.52543467638384,42.3790816415692,1027.3814 -3.52576090047761,42.3792155844364,1028.5389 -3.52608695658639,42.3793084558002,1030.4433 -3.52645291047019,42.3793305836827,1033.3325 -3.52686496409777,42.3793175084183,1035.0778 -3.52730199717844,42.3793035943805,1036.325 -3.52767499205746,42.3793555616504,1041.4509 -3.52802585783774,42.3795305763596,1045.811 -3.52843992369155,42.3796465816812,1049.4635 -3.52885399044366,42.3798566318774,1053.056 -3.52934868997567,42.380137593761,1055.53539999999 -3.52985797455465,42.3802765655955,1057.3146 -3.53057194476268,42.3802435408261,1059.41069999999 -3.5312148366722,42.3801996194751,1061.213 -3.53180190547328,42.3800856258112,1065.7723 -3.53218998755748,42.3800135414855,1069.5478 -3.53328499975286,42.3799265371934,1072.2637 -3.53410894081965,42.3797166544532,1074.4342 -3.53481385870459,42.3794776025796,1075.6342 -3.53550184514301,42.3791986523888,1074.3575 -3.5360949488262,42.3788605267501,1070.6839 -3.53642486050418,42.3784405935159,1066.48880000001 -3.53680271616719,42.3781155432942,1060.50750000001 -3.5373249095368,42.3779246035746,1054.67479999999 -3.53766487875273,42.377788649235,1050.57889999999 -3.53801993697043,42.3775516087019,1045.92690000001 -3.5383208465395,42.3774612517896,1042.64750000001 -3.53976488117217,42.377284561017,1027.8977 -3.54095494410776,42.3771965515611,1016.8636 -3.54117790236803,42.377284561017,1016.1195 -3.54138493529492,42.377324626869,1015.6105 -3.54216897858669,42.3771502828908,1013.28539999999 -3.54239897784214,42.3771266465239,1012.7372 -3.54254297868049,42.3771965515611,1013.4889 -3.54506777643152,42.3772491894898,1006.52 -3.54872094441767,42.3763665751091,998.621899999998 -3.55101691521469,42.3756965262464,993.614000000001 -3.55175787620373,42.3750576575034,991.183699999994 -3.55259489224952,42.3745596043567,988.891499999998 -3.55421695859849,42.3739165450983,984.538199999995 -3.55616994184024,42.3739425286449,985.349499999997 -3.55651292939548,42.374064569476,985.086800000005 -3.55806592877385,42.3737566179338,982.640599999999 -3.55873094888373,42.3735955183654,981.162400000001 -3.56028679771816,42.3735586376221,977.628200000006 -3.56112699918992,42.373371218632,978.333299999998 -3.56190098494376,42.3729155780694,977.562000000005 -3.5623279586899,42.3727365404367,977.443299999999 -3.56449686009503,42.3720845960045,974.467000000004 -3.56479492020796,42.3718366598175,973.770000000004 -3.56521183641617,42.3716505809384,973.262900000002 -3.56589479408566,42.3714075057331,970.952699999994 -3.56684597252931,42.3705896000466,969.1541 -3.56748685221256,42.3698516570618,965.421000000002 -3.56810392833743,42.3693405284289,961.426600000006 -3.56858890540312,42.3689665281811,965.316800000001 -3.56907488768362,42.36867265852,966.731899999999 -3.57002791036855,42.3681466102214,965.741399999999 -3.57121394974997,42.3673875451595,963.792799999996 -3.57236796958138,42.3665255506817,962.7454 -3.57352098419801,42.3656635556591,963.482699999993 -3.57467399881463,42.3648015607561,962.064499999993 -3.57590395952524,42.3639955569753,959.430099999998 -3.57665497805222,42.3635075622141,954.840899999996 -3.57728294984315,42.3627845396429,953.924199999994 -3.57762191474259,42.3624635124344,951.822799999994 -3.57809599524388,42.3622725729201,948.388900000005 -3.57867283762378,42.3621562321652,946.671700000006 -3.57986591800042,42.3621745043037,942.600099999996 -3.58105598003768,42.3619285793799,933.283800000005 -3.5818289596784,42.361807544475,930.099000000002 -3.58262691607729,42.3616395714436,927.801600000006 -3.5833638535122,42.361720372914,926.280899999998 -3.58350886046367,42.3616725960396,924.786999999997 -3.58292497708856,42.3609515848414,917.494900000005 -3.58275096892646,42.3606845375991,913.739600000001 -3.58274292181813,42.3604305657659,911.223400000003 -3.58286797988209,42.3602936050947,909.385399999999 -3.58319286279113,42.3603955292509,909.800199999998 -3.58377590803808,42.3603175776977,908.509699999995 -3.58434487129464,42.3601735766599,906.888000000006 -3.58489589788991,42.3600116384067,905.719599999997 -3.58529487653851,42.3599576584537,905.469200000007 -3.5865848509983,42.3601256319987,904.806400000001 -3.58767684575262,42.3602376141126,904.056400000001 -3.58910797159468,42.3605645085834,902.956300000005 -3.59034195585945,42.3608835236237,902.243499999997 -3.59152296557359,42.3610236691417,901.829199999993 -3.59192999043219,42.3610786544649,903.077300000004 -3.59264899030749,42.3612955777566,907.0959 -3.59338190418824,42.3617255695711,903.625599999999 -3.5940769316219,42.3620465965676,909.242599999998 -3.59481990304055,42.3620856565778,907.558499999999 -3.59565071801591,42.3620816328257,907.236999999994 -3.59643895194848,42.3622846428114,906.127200000003 -3.59719784959884,42.3626576374181,900.476699999999 -3.59798792777268,42.3629925779706,899.557700000005 -3.59883986393699,42.3631955876681,901.564299999998 -3.59945291650769,42.3633335542373,902.371100000004 -3.59996085990194,42.3634515714409,901.813899999994 -3.60043996917222,42.3637456082326,899.746499999994 -3.60088387526312,42.3640146675538,898.789999999994 -3.60136181133362,42.3642835591232,898.175900000002 -3.60180588451118,42.3645775960035,898.630699999994 -3.60186690437348,42.3649286298945,897.555399999997 -3.60149793304863,42.3657366454109,897.155400000003 -3.60163087023593,42.3665102950871,896.778600000005 -3.60255790915128,42.3672195717812,895.760800000004 -3.6033129503341,42.3675563570164,894.272500000006 -3.60414896116506,42.3675216556659,894.6109 -3.60502185322833,42.3669895725277,893.848700000002 -3.60668096699793,42.365648635702,894.347999999998 -3.60842389987174,42.3643375386785,895.398100000006 -3.60883796572555,42.3638696607829,896.387199999997 -3.60942184910066,42.3637435964098,896.425799999997 -3.61034385834869,42.3639865041398,895.816900000005 -3.61123183761717,42.3641776116825,894.125100000005 -3.61251594517983,42.364326642015,894.1103 -3.61377591231588,42.3640364603234,893.4948 -3.61476598331973,42.3635065566307,895.332299999995 -3.61531499768877,42.3629075858428,896.433199999999 -3.61564088581259,42.3629625708449,895.964500000002 -3.61594699303387,42.3629756468593,897.479500000001 -3.61651092752147,42.3638666433864,898.797099999996 -3.61710688066075,42.3641335231152,894.841499999995 -3.61794088016378,42.3642726624504,891.954599999997 -3.6185408568572,42.3643486026032,891.568100000004 -3.61920990052125,42.3644005703008,891.690400000007 -3.62039694601579,42.3644225308632,891.968399999998 -3.62062091038917,42.3643144045891,892.048299999995 -3.62081386132566,42.3642346087078,892.349499999997 -3.621082920228,42.3642525457151,892.489499999996 -3.62133990936614,42.3643715687533,892.084900000002 -3.62255578898468,42.3641385523092,892.292000000001 -3.62378977235112,42.3638906152899,891.359299999996 -3.62569799613553,42.3635005218027,890.401400000002 -3.62580293822535,42.3633895451156,890.350000000006 -3.62616470057002,42.3633176281404,890.2745 -3.62627098294625,42.3633776427022,890.459700000007 -3.62642085158004,42.3633861925009,890.318799999994 -3.62844089046449,42.3629915723791,888.618600000002 -3.6301179417937,42.3626485850536,887.655199999994 -3.6302919499558,42.3625785124865,887.456099999996 -3.63037895448601,42.3625225208854,887.384099999996 -3.63069696348649,42.3624655242982,887.277199999997 -3.63084783733507,42.3625065952467,887.328200000004 -3.63225683587509,42.3622586584248,886.967300000004 -3.63384688267405,42.3619295849884,885.647599999997 -3.63556098232219,42.3616144257973,883.999100000001 -3.63728798896433,42.361299601559,881.815300000002 -3.63849196590535,42.3610706074952,881.253299999997 -3.63857192944035,42.3609965120017,881.389299999995 -3.6387469437156,42.3610375832467,881.324999999997 -3.63891977777962,42.3606883928402,880.808099999995 -3.63980121910946,42.3605150554418,877.817599999995 -3.64040773374152,42.3606055801108,881.453399999999 -3.64091081545344,42.3604533647471,880.886700000003 -3.64259926640359,42.3602195093487,881.198799999998 -3.64483187004045,42.3598755158526,881.262100000007 -3.64667789986451,42.3595834908277,880.845199999996 -3.6491879445836,42.3589115974494,880.349799999996 -3.65070993052508,42.3584435516971,879.575599999996 -3.65085979915887,42.3582695436355,879.375199999995 -3.65100396798222,42.3581376119111,878.948799999998 -3.65123094979662,42.3580425611552,878.866999999998 -3.65146497260623,42.3581015697754,878.933099999995 -3.65167485588751,42.3581096164614,878.589300000007 -3.65225689502135,42.3579765121132,878.266099999993 -3.65319885315692,42.3577505362414,878.231299999999 -3.65486199048069,42.3573004274712,877.349600000001 -3.65653082761491,42.3568516603797,876.657300000006 -3.65819999982075,42.3563745626115,875.903200000001 -3.65991292537081,42.355873660192,875.1734 -3.66316393018069,42.3549885315301,873.800600000002 -3.66481902039612,42.3545075779379,873.146699999998 -3.66540709531036,42.3543613974497,872.990699999995 -3.66553181740441,42.354289312809,872.695300000007 -3.66568369826443,42.3542668494905,872.753800000006 -3.66600707200378,42.3541959384277,872.680399999997 -3.66646774155621,42.3540951878616,872.2166 -3.66696730277054,42.3539540364234,871.805900000007 -3.66719260832862,42.3539019014247,871.376999999993 -3.66737181324466,42.3541270394157,871.564599999998 -3.66776861258039,42.3540375204425,871.369999999995 -3.66805762037021,42.3539632566674,871.045700000002 -3.66831209512391,42.3538816173974,870.738599999997 -3.66868022832061,42.3538687087731,870.239600000001 -3.66931138553754,42.3536430679818,869.323999999993 -3.66958010936826,42.3535141543961,868.5867 -3.66999668960655,42.353428156316,867.604699999996 -3.67044210396881,42.3532910283588,866.0481 -3.67052374376015,42.3531119905587,865.782699999996 -3.67121793306563,42.3528057161196,865.110000000001 -3.67179930205626,42.3525183843129,865.150500000003 -3.67235586047707,42.3522020513307,865.414099999995 -3.6727466249307,42.3519995445157,865.1584 -3.67290487484611,42.3521081739529,865.108900000007 -3.67353988853055,42.3517655215621,865.233699999997 -3.67420876420965,42.3513901798823,865.155400000003 -3.6747844333898,42.3510299260279,864.979000000007 -3.67530712891765,42.3507720984946,864.809099999999 -3.67539748506217,42.3505094095747,864.698300000004 -3.67544392167416,42.350265329096,864.607999999993 -3.67547158170006,42.3501012109768,864.693599999999 -3.67583250591661,42.3498624945167,864.688200000004 -3.67619225783171,42.3495290627281,864.459199999998 -3.67675853871884,42.3492125620035,864.316500000001 -3.67702642442137,42.3490072053731,864.234100000001 -3.67794373997207,42.3488963962854,864.060700000002 -3.67893481619077,42.3487924604301,863.804600000003 -3.67996964575366,42.3486481242651,863.064799999993 -3.68084253781693,42.3485265870934,862.701400000005 -3.68088025627905,42.3483845972438,862.645799999998 -3.68106566406215,42.3482744589378,862.7071 -3.68143765282802,42.3481596272344,862.338399999993 -3.68159590274343,42.3478055757693,862.545899999997 -3.68180880346576,42.3475093590963,862.281000000003 -3.68221214074013,42.3471137330105,862.0285 -3.68264984306567,42.3467105635317,861.868799999997 -3.68318142383002,42.3463652293062,861.808699999994 -3.68380118142598,42.3460046399136,861.453599999993 -3.68445061127411,42.3456512588417,861.126900000003 -3.68509015067096,42.3452941895675,860.570200000002 -3.68571007625192,42.344948184942,860.210300000006 -3.68599807882695,42.3447864139436,860.2166 -3.6863362046999,42.3447299198143,860.307100000005 -3.68639688949059,42.3449010785184,860.533599999995 -3.68647668504066,42.3450174193495,860.5432 -3.68669260320401,42.345009037022,860.4185 -3.68684951193469,42.3449937821789,860.289799999999 -3.68707951119017,42.3453791822801,860.427100000001 -3.68759315439487,42.3451865661819,860.272400000002 -3.68824459646926,42.3450335127514,860.141600000003 -3.68876310045799,42.3448484400411,859.855299999996 -3.68895420805153,42.3448221211179,859.814100000003 -3.68911648152108,42.3448395550819,859.743499999997 -3.68923332539008,42.3447480250569,859.753700000001 -3.68960045247365,42.3446367131541,859.488400000002 -3.69024166812682,42.3444435941607,859.315900000001 -3.69094138925782,42.3442174501179,859.107300000003 -3.69166106017466,42.3440166199653,858.964300000007 -3.69276378261012,42.3438025458359,858.633499999996 -3.69391562402697,42.3435881370048,858.134300000005 -3.69468541824172,42.3434744785951,857.520600000003 -3.69538581041421,42.3433101933541,857.221300000005 -3.69581026977587,42.3430563890063,857.267600000006 -3.69658894832875,42.3428661202271,857.480100000001 -3.69677552931159,42.3428688019995,857.655100000004 -3.69712404869236,42.3428560617536,856.968699999998 -3.69821855783115,42.3427913532428,856.420299999998 -3.6988420039097,42.3427769364561,856.089699999997 -3.6993880008377,42.3428612586428,855.809999999998 -3.69982637420477,42.342982796144,856.243199999997 -3.70027950060377,42.3431004777544,856.5435 -3.70073296117603,42.3432473291427,856.865600000005 -3.70095089066735,42.3433056671065,857.084300000002 -3.70138792284968,42.3433036552932,857.436000000002 -3.70194196688601,42.3431566367169,857.5671 -3.70227389079023,42.3431785974,858.626999999993 -3.7027379128553,42.3428565643786,860.138500000001 -3.70337091341521,42.3425095536974,861.407500000001 -3.70391188157425,42.3422616169918,864.118700000006 -3.70407097051612,42.3419776378857,865.409899999999 -3.7041909989128,42.3415885504189,864.946299999996 -3.70459886279788,42.3411505120665,865.230899999995 -3.70479583728854,42.3409315764047,867.785099999994 -3.70543386751573,42.3405252219395,869.346799999999</coordinates>
</LineString>
</Placemark>
</Folder>
</Document></kml>
