<?xml version="1.0" encoding="UTF-8"?>

<kml xmlns="http://www.opengis.net/kml/2.2" xmlns:atom="http://www.w3.org/2005/Atom" xmlns:gx="http://www.google.com/kml/ext/2.2" xmlns:xsd="http://www.w3.org/2001/XMLSchema">
<Document>
<name>ES01c_26a_o_cebreiro-triacastela</name>
<visibility>1</visibility>
<Schema name="ES01c_26a_o_cebreiro-triacastela" id="kml_schema_ft_ES01c_26a_o_cebreiro-triacastela">
<SimpleField type="xsd:string" name="id">
<displayName>id</displayName>
</SimpleField>
<SimpleField type="xsd:string" name="nombre">
<displayName>nombre</displayName>
</SimpleField>
<SimpleField type="xsd:double" name="longitud">
<displayName>longitud</displayName>
</SimpleField>
<SimpleField type="xsd:string" name="_formato">
<displayName>_formato</displayName>
</SimpleField>
</Schema>
<Folder id="kml_ft_ES01c_26a_o_cebreiro-triacastela">
<name>ES01c_26a_o_cebreiro-triacastela</name>
<Placemark id="kml_1">
<name>&lt;img height='20' src='https://nco.ign.es/iconos/icono_todos_caminos_azul.png' /&gt;&lt;img height='20' src='https://nco.ign.es/iconos/Camino Santiago_20.png' /&gt;&lt;img height='20' src='https://nco.ign.es/iconos/icono_todos_caminos_azul.png' /&gt;  Camino de Santiago </name>
<visibility>1</visibility>
<description><![CDATA[<!DOCTYPE html>
<html>
<head>
<style>
#nco {
  border-collapse: collapse;
  overflow:hidden;
}
#nco th, #nco td {
  padding: 4px;
  text-align: left;
}
#nco th {
  color: #364B5F;
  padding-right: 5px;
}
#nco td {
  color: rgb(51, 51, 51);
  font-size: 12px;
  padding-right: 5px;
}
</style>
</head>
<body>
<table id="nco">
<tr>
<td>Camino Francés</td>
</tr>
<tr>
<th><b>Camino: </b></th>
<td>ES01c Camino Francés</td>
</tr>
<tr>
<th><b>Etapa: </b></th>
<td>26a O Cebreiro-Triacastela</td>
</tr>
<tr>
<th><b>Longitud: </b></th>
<td>20.97 km</td>
</tr>
</table>
</body>
</html>]]></description>
<Style>
<IconStyle>
<scale>0.8</scale>
</IconStyle>
<LabelStyle>
<color>ffffffff</color>
<scale>0.75</scale>
</LabelStyle>
<LineStyle>
<color>ffff0000</color>
<width>3.0</width>
<gx:labelVisibility>1</gx:labelVisibility>
</LineStyle>
<PolyStyle>
<color>66ff0000</color>
</PolyStyle>
</Style>
<ExtendedData>
<SchemaData schemaUrl="#kml_schema_ft_ES01c_26a_o_cebreiro-triacastela">
<SimpleData name="id">ES01c_26a</SimpleData>
<SimpleData name="_formato">kml</SimpleData>
</SchemaData>
</ExtendedData>
<LineString>
<extrude>0</extrude>
<tessellate>1</tessellate>
<coordinates>-7.04378278962968,42.7078353065617,1299.0 -7.04449592170955,42.7076735358879,1294.0377 -7.04482281594649,42.7076765532205,1293.401 -7.04505918515562,42.7077605400978,1293.6721 -7.04528164125764,42.7078391622156,1292.75079999999 -7.04543989117305,42.7078747014185,1291.8371 -7.04578623213926,42.7079187902274,1290.18459999999 -7.04615972917652,42.7079652256616,1287.41160000001 -7.04637430615517,42.7079850068846,1285.6525 -7.04651847497848,42.7079620406775,1285.1464 -7.04673053667435,42.7079100729355,1285.14350000001 -7.04705458145523,42.7077972523472,1286.8784 -7.04719170928332,42.7077543371144,1287.4978 -7.04743729880053,42.7076472162389,1288.12820000001 -7.04768003886168,42.7075174648002,1287.9669 -7.04772781576007,42.7074973480947,1287.78599999999 -7.04791406167129,42.7074274429049,1287.1137 -7.04805906862276,42.7073674286756,1286.192 -7.0484530185024,42.7072046520975,1284.6848 -7.04875577231271,42.7070834494751,1283.996 -7.0492226447322,42.7069456514238,1285.088 -7.04954668861474,42.7068692085242,1285.0273 -7.04987710334927,42.706814223153,1284.44010000001 -7.05024473348943,42.7067513586221,1283.0429 -7.05040818105704,42.7067099523462,1282.3069 -7.05073373410928,42.7065708127718,1282.14 -7.05088729032729,42.7064730793472,1281.94319999999 -7.05102860969454,42.7062952154075,1282.97930000001 -7.05110270543413,42.7060813090577,1286.8484 -7.05108091230531,42.7057587734169,1290.63710000001 -7.05110438169045,42.7055487229952,1290.6398 -7.05158701145829,42.7053653271754,1292.2304 -7.0521548015151,42.705316041342,1286.4826 -7.05261614210903,42.7051234254525,1287.3268 -7.05292493080144,42.7050573760567,1285.51300000001 -7.05329507622436,42.7050389359479,1278.78389999999 -7.05368164913891,42.7049650077846,1272.81 -7.05419914791281,42.7046409632151,1272.75599999999 -7.05475453313388,42.7043797832902,1264.72900000001 -7.05515418192567,42.7039881806691,1262.82279999999 -7.05549079952726,42.7036113298565,1262.5258 -7.05585407104162,42.7033982618899,1261.3165 -7.0563890043186,42.7032078251497,1258.9666 -7.05686274884999,42.7032076574714,1257.0338 -7.05713683741958,42.7032784011827,1252.1884 -7.05767948183494,42.7033295304512,1246.3167 -7.05874733616263,42.7036036186834,1251.00019999999 -7.05912435459581,42.7036649740073,1256.41469999999 -7.06030653750969,42.704038806985,1261.1183 -7.06084398517114,42.7042066128917,1265.82670000001 -7.06115495407474,42.704296299486,1272.2859 -7.06143692176767,42.7044597464684,1272.53200000001 -7.06166725609474,42.704727631706,1265.21739999999 -7.06193245942787,42.704872638715,1262.44990000001 -7.06236446284126,42.7049551170228,1259.08590000001 -7.06268481913956,42.7049343294524,1260.66770000001 -7.06316594063607,42.704787646507,1260.3702 -7.06333659628553,42.7047504307755,1259.3033 -7.06380514406301,42.7046791843982,1258.4491 -7.06439020153619,42.7045506064199,1254.79059999999 -7.06555075930625,42.703932021652,1265.5726 -7.06559166319442,42.7039464385178,1265.22010000001 -7.06574169891484,42.7039893537425,1263.2966 -7.06594102070334,42.7040212049544,1261.6881 -7.06618610806231,42.7039937126639,1265.5745 -7.06630932188499,42.7040315988934,1264.73579999999 -7.06650176976494,42.7040906076514,1264.1384 -7.06687979431123,42.7042949580828,1262.4129 -7.06713477122315,42.7044845570748,1258.09880000001 -7.06762762741221,42.7046357666269,1254.5993 -7.06804253139418,42.7046609118515,1251.75539999999 -7.06829817934762,42.7047371871557,1247.4068 -7.06841217376056,42.7047568010731,1245.97349999999 -7.06864837588304,42.7047353433996,1244.5444 -7.0687747742334,42.704693266402,1244.99770000001 -7.06890972364696,42.7046639293307,1244.0733 -7.0691130680913,42.7045905037446,1243.3452 -7.06926662430935,42.7045276396023,1242.4433 -7.06941800211283,42.7044463351117,1241.22010000001 -7.06962285572683,42.7043019991287,1240.6286 -7.06972209710784,42.7042099657441,1239.9311 -7.06982335071511,42.7041207820527,1240.0776 -7.06996617835368,42.703957334838,1239.6391 -7.07014035450077,42.7037003459426,1239.522 -7.07037169494095,42.7033855216754,1237.575 -7.07033498169358,42.7032108426994,1239.71649999999 -7.07043523008603,42.7029981100365,1237.84600000001 -7.07059163576017,42.7027458148394,1237.0131 -7.07084560745729,42.7025139716443,1236.4911 -7.07105532275362,42.7023760050115,1235.8103 -7.07115104453536,42.7022460854368,1236.22100000001 -7.07124777153189,42.7020690596763,1236.52770000001 -7.07152068600341,42.7017047826373,1235.2401 -7.07185881187636,42.7012357309721,1231.7458 -7.07253523160718,42.7001475924852,1227.33930000001 -7.07249483077562,42.6999828045372,1226.8688 -7.0724723675036,42.6999526294452,1227.0 -7.07274612010328,42.6996733445961,1223.7196 -7.07300864196531,42.6994153496617,1223.0 -7.07325037591331,42.6993050434927,1223.0 -7.07349596543052,42.6991962463302,1223.68120000001 -7.07358447823209,42.6990304523605,1224.0006 -7.07378782357476,42.6987878802807,1226.3278 -7.07412075269377,42.6985201621925,1228.3398 -7.07432309192333,42.6984636681285,1228.2542 -7.07497956186834,42.6982806072289,1225.23209999999 -7.0750715951675,42.6982727283623,1226.0 -7.07526588818706,42.6981927651378,1225.0 -7.07566570496381,42.6980412203538,1225.6444 -7.0757376213905,42.6980231155265,1226.0 -7.07592101784567,42.6980640192379,1225.7184 -7.07650909186157,42.6982338364293,1225.2596 -7.07721937448534,42.6985104394153,1220.8665 -7.07730822235854,42.6985119479742,1221.91379999999 -7.07739656807348,42.6985298849681,1223.20600000001 -7.07748390767528,42.6985805117736,1224.76519999999 -7.07763645778021,42.6986814298798,1225.83010000001 -7.07787685054347,42.6988081641977,1226.9099 -7.07809645718943,42.6989020415968,1227.8306 -7.07838412379455,42.6989397599425,1230.1382 -7.07891738081518,42.6989486448634,1230.8781 -7.07925450057501,42.698964738464,1233.1167 -7.07936262719251,42.6989233316159,1234.0165 -7.07983670769381,42.6986856208232,1235.95849999999 -7.08029670620471,42.6986866269664,1239.14810000001 -7.08049518986506,42.6987050669813,1241.4382 -7.08057900896926,42.6987313858002,1242.3216 -7.08073021878779,42.698764913972,1243.8345 -7.08093926304261,42.698807494097,1246.95359999999 -7.08105392759872,42.6988492357423,1248.9148 -7.0811434465134,42.6988787399503,1250.0172 -7.08130320559851,42.6988755551602,1252.4938 -7.08175566005765,42.6988103435102,1256.0978 -7.08208121400819,42.6988100081298,1257.53320000001 -7.0824106226296,42.698772122015,1258.52469999999 -7.08302082484591,42.6987800014784,1264.3541 -7.08355491999472,42.6987459709038,1268.1914 -7.08374585960331,42.6987325596331,1270.0 -7.08409488204065,42.6987335651154,1271.2963 -7.08455286922362,42.698750831944,1271.36900000001 -7.08531511938661,42.6988564444356,1272.3303 -7.08562374099236,42.698930037231,1273.4198 -7.08659134782592,42.6990649858478,1270.8731 -7.08763824805128,42.6992574343595,1267.13959999999 -7.08800956577568,42.6992829151598,1264.9425 -7.08866821593189,42.699381318775,1265.0 -7.08915671349517,42.6995642120425,1262.8979 -7.08933290097015,42.699616347197,1260.5999 -7.08946768150046,42.6996453486368,1258.8486 -7.08974931412181,42.6996232204252,1255.9237 -7.09022155038184,42.6996310997807,1251.5662 -7.09046529565777,42.6996515517703,1248.0816 -7.09064047791794,42.6997365437476,1245.9241 -7.09083644629548,42.6998708218428,1242.75260000001 -7.09103492995582,42.6999232927744,1241.42939999999 -7.09134388753152,42.699994036267,1238.6124 -7.09164027138814,42.7001125558798,1234.2436 -7.09184059839143,42.700188999177,1232.1131 -7.09217537175174,42.7004188309015,1229.0 -7.09255171914339,42.7006706232566,1228.6205 -7.09288146373472,42.7009274444652,1225.9553 -7.09308715547691,42.7010162927542,1223.1148 -7.09337733646651,42.701093070967,1218.507 -7.09370758411441,42.7011968389144,1213.0096 -7.09404889451504,42.7012984274633,1209.48729999999 -7.09512948964842,42.702059839839,1210.0 -7.09606625103005,42.7026817770514,1218.93580000001 -7.09656531008615,42.7030832703926,1221.15979999999 -7.09745312136967,42.7038518907776,1225.8829 -7.09769619650237,42.7040518830778,1227.6421 -7.0979473178451,42.7041714089206,1229.0 -7.09821436541951,42.7042503663142,1230.0 -7.0984267630853,42.7042820497168,1230.2718 -7.09857109899524,42.7042904321673,1230.5729 -7.09870554535226,42.7042951257582,1231.0 -7.09908491018493,42.7043757597462,1232.0 -7.09923343763402,42.7045247897914,1232.2093 -7.09947500359706,42.7047524422053,1233.5554 -7.09970416472435,42.7048506780599,1234.97410000001 -7.09992745895454,42.7049016403402,1236.0 -7.10004145246914,42.7049366768837,1236.0989 -7.10009459410641,42.7049529372658,1236.5025 -7.10059130586468,42.7050818510776,1238.0 -7.10078107227349,42.7050716249878,1238.711 -7.10097117375392,42.7050632433028,1239.7221 -7.10133997709382,42.705078330599,1241.0643 -7.10161305955029,42.7050572083833,1242.0 -7.10187373717102,42.7050845331897,1242.00509999999 -7.10215905647829,42.7050619025764,1241.43240000001 -7.10253523678331,42.7050642493428,1240.9874 -7.1028886178464,42.7051371720093,1240.79889999999 -7.10305642314147,42.7051611439796,1241.51270000001 -7.1034399795133,42.7052947515346,1240.23910000001 -7.10371021161535,42.7053832641699,1239.7887 -7.10388774027507,42.7054221562456,1239.0521 -7.10406543691975,42.7054437820141,1239.1367 -7.10424195946632,42.7054365734254,1239.4495 -7.10448117902988,42.7054090804414,1238.9564 -7.10468854792668,42.7053510776516,1238.99249999999 -7.1048828400479,42.7052685998699,1238.6697 -7.10502650581467,42.7051993655026,1238.5515 -7.10519263485342,42.7051549413966,1238.6305 -7.10541643214014,42.7051244314914,1238.4466 -7.10558105290754,42.705129963385,1238.8469 -7.10574114706423,42.7051554444158,1239.1226 -7.1059237044929,42.7052085855339,1239.3242 -7.10604624817238,42.7052563623974,1239.15270000001 -7.10623886403728,42.7053609683503,1239.7179 -7.10644438869281,42.7054888766021,1240.9414 -7.10664303943978,42.7055835921616,1241.6799 -7.1068079952788,42.7056405887037,1241.8711 -7.10702810408297,42.7056699253135,1242.0 -7.10733488234574,42.7057165287813,1240.5278 -7.10762741063318,42.7057829134788,1240.05590000001 -7.10787367119192,42.7058425925772,1239.2739 -7.10804197954354,42.7059168563577,1238.8697 -7.1081804485564,42.7060206241643,1239.2761 -7.10827214678397,42.7061280805472,1239.61960000001 -7.10833182546155,42.7062705725347,1239.4856 -7.10835227740563,42.7064224530361,1240.6563 -7.10833920152835,42.7065366141772,1239.8103 -7.10828103112214,42.7067914241814,1241.8798 -7.1082428096034,42.7070938435615,1243.0 -7.10826577593196,42.7072301329368,1243.0 -7.10839066690929,42.7074566123236,1243.0 -7.10849191961823,42.7075712765428,1242.8925 -7.10860138742043,42.7076673328958,1243.0 -7.10875175911077,42.7077570197712,1242.0 -7.1089229178168,42.7078027846627,1241.568 -7.10915291707225,42.7078280982507,1240.85129999999 -7.10943153135426,42.7077768010605,1240.0419 -7.11016293606535,42.707501539103,1238.8342 -7.11032504244823,42.7074613056752,1238.6202 -7.11044423271678,42.7074611380083,1238.5287 -7.11055705303161,42.7074819253927,1239.6057 -7.11063450218217,42.7075531718539,1238.3325 -7.11088897693583,42.7076973405328,1236.69899999999 -7.11130220466149,42.7078907946856,1232.8746 -7.11139222573442,42.7079846722138,1232.7663 -7.1114066427964,42.7084263984136,1231.0482 -7.11137127163209,42.7092880578804,1228.01149999999 -7.11134796933362,42.7094449667843,1227.4598 -7.11128929587086,42.709648312107,1227.2784 -7.11132483591843,42.7098001922649,1228.6961 -7.1113523279594,42.7098427720826,1229.1004 -7.11139356691915,42.7098962484691,1229.8085 -7.11143530893545,42.7099391642013,1230.3554 -7.11151979908118,42.7099829175439,1231.692 -7.11156221124068,42.7100047107037,1232.0491 -7.11164804167282,42.7100060519835,1232.8046 -7.11184937478926,42.7099777207428,1234.0585 -7.11222387883793,42.7099099952891,1236.42110000001 -7.11255295238776,42.709915359756,1235.8836 -7.11282368754639,42.709962130337,1235.2208 -7.11310716351072,42.7100618754667,1235.626 -7.11333330719699,42.7101606138189,1237.6722 -7.11350178353356,42.7102689079323,1239.41710000001 -7.11390797026399,42.7105711598738,1243.73510000001 -7.11400721254333,42.7106045192741,1243.85799999999 -7.11409270790389,42.7106164216958,1243.679 -7.11422162153702,42.7106186012539,1244.11079999999 -7.11441189010411,42.7105901026345,1243.8548 -7.11480231948616,42.710469905974,1244.2261 -7.11503382791127,42.7103892726409,1243.9688 -7.11522225313538,42.710318529112,1243.499 -7.11555786462385,42.7101128374294,1243.67879999999 -7.11576137705315,42.7100105781424,1243.1526 -7.11612330738282,42.7098793174204,1243.4911 -7.11657006292981,42.7097916428978,1244.86569999999 -7.11719116171051,42.7096119342942,1245.72169999999 -7.11776414852123,42.709610761327,1247.85709999999 -7.11786339080053,42.7096441212435,1247.1936 -7.11789071575484,42.7096867011683,1247.75750000001 -7.11793111658644,42.7097718615904,1247.8964 -7.11812960024678,42.7103134999982,1251.198 -7.11819799617589,42.7104202855753,1252.46309999999 -7.11823957020723,42.7104632009452,1253.018 -7.11829589637217,42.7104957227704,1253.2343 -7.1183810566611,42.7105181857244,1254.5751 -7.11849773344348,42.7105319324066,1255.7591 -7.11892755664567,42.7105285792356,1258.3959 -7.1190707202542,42.7105309264553,1259.7951 -7.11941169558321,42.7106209478102,1262.671 -7.11962509936211,42.7106667132305,1263.9955 -7.11978184100616,42.7106903503895,1265.4227 -7.12039841317612,42.7106687251286,1269.0328 -7.12058315081598,42.7107139875396,1269.5367 -7.12076637928619,42.7108120555433,1270.3299 -7.12130198270633,42.7110953635593,1275.8511 -7.12158612881386,42.7111738184167,1280.08990000001 -7.12179768835149,42.7112829510251,1280.85189999999 -7.12223606171856,42.7114695319878,1281.72440000001 -7.12265783960909,42.7117298741698,1281.9547 -7.12270108989674,42.7118061493689,1281.18489999999 -7.12319545435717,42.7120359809906,1284.7273 -7.12332017734951,42.7121752885097,1285.61900000001 -7.12361723224766,42.7122963227768,1287.7338 -7.12396172807429,42.7122701714216,1291.0252 -7.12406197556841,42.7122718479601,1292.6655 -7.12423313427445,42.7122958198155,1295.44319999999 -7.12441535663154,42.7122430141319,1298.4855 -7.12517593053818,42.712310236719,1310.89780000001 -7.12524902106295,42.7123526491413,1312.0748 -7.12532093748965,42.7124359656784,1314.11010000001 -7.12533652775141,42.712532189417,1316.2971 -7.12529612691981,42.7126413222771,1318.6226 -7.1252944506635,42.7126961394542,1320.0303 -7.12533032488439,42.7127378816624,1321.52860000001 -7.12540442152227,42.712752801421,1324.1027 -7.12551623572402,42.7127408987489,1325.9736 -7.12572243052275,42.7126894340058,1330.7497 -7.12587330526966,42.7126233847397,1333.978 -7.12605083392938,42.7124658053369,1334.0 -7.12738439464675,42.7133024868086,1333.8051 -7.12841771503998,42.7139138623418,1331.9595 -7.12875466771315,42.7141468794057,1329.8236 -7.12904367640131,42.7144536574379,1327.1731 -7.12918700619816,42.7147919509451,1326.0846 -7.12926143790763,42.7148980654901,1326.0 -7.12916169347008,42.7148878396974,1326.2711 -7.12905172261131,42.7147518852698,1327.8121 -7.12893739312678,42.7145413319754,1330.3662 -7.12883748070425,42.7144306909841,1332.45879999999 -7.12865894682974,42.7143450274093,1335.2867 -7.12845208098948,42.7142558444181,1338.39260000001 -7.12829148377625,42.714180910119,1340.1274 -7.12818788376946,42.714195159596,1341.83990000001 -7.12800582849906,42.7142880309394,1345.1715 -7.12757047257301,42.7145270825779,1354.0416 -7.12757047257301,42.7145758654153,1354.504 -7.12758237525052,42.7146496263656,1355.21829999999 -7.1276108734046,42.7147543999769,1355.9212 -7.12783081422382,42.7148757697881,1355.4662 -7.12809484435718,42.7151056019229,1355.0 -7.12823767199579,42.7152997266696,1356.056 -7.12839039008567,42.7154581443632,1356.423 -7.12860161455168,42.7156408701455,1356.3354 -7.12876439107777,42.7158080051323,1356.69409999999 -7.12883580444793,42.7159064082952,1357.87450000001 -7.12891442679823,42.7160564448996,1358.10920000001 -7.12896572419421,42.7161421074321,1358.5591 -7.12904132910346,42.7162663277613,1359.1725 -7.12910000256624,42.7163675807849,1359.7669 -7.12921986387629,42.7164760429307,1360.7479 -7.12939269883865,42.7165860130067,1361.13189999999 -7.12946394422381,42.7166245700391,1361.92539999999 -7.12966108669946,42.7166944754308,1363.36169999999 -7.12994506572033,42.7168430026764,1365.4186 -7.13026927758783,42.7168901085996,1364.39750000001 -7.13052039982886,42.7169343652459,1363.55740000001 -7.13095156511412,42.7170515443903,1362.5993 -7.13124711084259,42.7171657057823,1362.6675 -7.13152991576538,42.7172656181955,1361.43799999999 -7.13169403347624,42.7173740800916,1361.54949999999 -7.13189385832128,42.7175283067789,1361.8263 -7.13200097882566,42.7176424686137,1362.0 -7.13214950627472,42.7178424607027,1362.41409999999 -7.13225930914854,42.7180280359153,1363.32090000001 -7.13241789503383,42.718252167914,1363.96739999999 -7.1325307153487,42.7184120947259,1364.0 -7.13273992758848,42.7188073854251,1365.1069 -7.13329162432696,42.7189859196925,1359.4553 -7.13370418190941,42.7191887618693,1355.55620000001 -7.13377408700817,42.7192529674228,1354.8438 -7.13387550770207,42.7193842281195,1354.3256 -7.13390115640007,42.7194871576789,1354.01760000001 -7.13390685621055,42.7196170774682,1353.7834 -7.13391406429239,42.7197441465532,1353.0765 -7.13395262178101,42.7198226016968,1352.1155 -7.13403107614635,42.7198868065945,1350.6263 -7.13420240193901,42.7199496710209,1348.5592 -7.13434958820337,42.7199882279432,1348.1176 -7.13451789655502,42.7200966897003,1345.57309999999 -7.13469358187176,42.720196602014,1344.2126 -7.13500622703167,42.7201709535856,1342.5312 -7.13512038853124,42.7201924112029,1342.0 -7.13527612406214,42.7202423669728,1341.0 -7.13539749364355,42.7203052316989,1340.5408 -7.13551014687176,42.7204292833221,1339.38800000001 -7.13562162600189,42.7205892104623,1339.0 -7.13573427833176,42.7206706825583,1339.0 -7.13582580947268,42.7207177888756,1339.0 -7.13589705485788,42.7207405873516,1339.0 -7.13595706950537,42.7207362289462,1339.0 -7.13606268173839,42.7207105800809,1338.9632 -7.13617131141243,42.7206577742978,1338.0 -7.13661236714894,42.7208391589027,1339.0 -7.13723916574012,42.7210803895742,1339.0376 -7.13805003092967,42.7213559866249,1337.024 -7.13890666168964,42.721684222417,1336.2182 -7.13926356325036,42.7218071005263,1336.2169 -7.13980888913682,42.7220498407009,1335.0 -7.14033577620379,42.7222582151075,1331.0763 -7.14064691219402,42.7224010422744,1329.38250000001 -7.14114379103892,42.7227250871773,1326.0 -7.14155215798058,42.7230948965422,1325.0 -7.14174343266075,42.7232918709825,1325.0 -7.14191190899735,42.7234018415179,1326.06419999999 -7.14215464905847,42.7235388018728,1326.02710000001 -7.14239453876519,42.7236544724759,1326.0 -7.14261146304169,42.7237315856515,1326.0 -7.14282989469125,42.7237972997281,1326.3126 -7.14325301376647,42.7240115416397,1329.41220000001 -7.14355912098774,42.724158727555,1331.0 -7.14374503092905,42.7242331588193,1332.0 -7.14385634297252,42.7243007168595,1332.3214 -7.14412288749039,42.7244026411154,1333.80009999999 -7.14433796662728,42.7245005416446,1333.0809 -7.14461205519687,42.7246329758017,1334.0629 -7.14474063375842,42.7246919841122,1334.0 -7.14489854860222,42.7247794910823,1334.0 -7.1450043279219,42.7248488936658,1334.0059 -7.14526701687053,42.7249260066767,1332.9292 -7.14549165228541,42.7249679161971,1331.54700000001 -7.1458208929219,42.7250259191325,1329.0104 -7.14595600942209,42.7250592793418,1328.0 -7.14610403381461,42.7251273399996,1327.15180000001 -7.14631525828062,42.7252342934422,1326.0045 -7.14651558528394,42.7253539870278,1325.6746 -7.14678313591489,42.7255647082065,1325.41929999999 -7.14718580214774,42.7259254651674,1326.5135 -7.14742183718358,42.726161499754,1326.9316 -7.14750364406156,42.7262652673688,1326.96219999999 -7.14758830129392,42.7264241882899,1328.0 -7.14767362956782,42.726550922721,1328.1574 -7.14779583727739,42.7266297124064,1328.0554 -7.14796146415789,42.7267116873335,1327.1136 -7.14816413845903,42.7268677589858,1327.38280000001 -7.14844778151002,42.7270799881663,1327.7705 -7.1487000769508,42.7272836690033,1328.0 -7.14879529567597,42.7273445211765,1327.9699 -7.14890761293426,42.7273968243683,1328.1441 -7.14924355949435,42.7274625385218,1326.33869999999 -7.14954229064882,42.7275443460556,1325.9537 -7.14975737068404,42.7276127425112,1326.0 -7.1501087395209,42.7277005845449,1324.9446 -7.15038668365967,42.7277994908201,1324.3927 -7.15059321353001,42.7278670489357,1323.9933 -7.15081399337572,42.7279289075256,1323.6335 -7.15119855496233,42.7280251316562,1321.9703 -7.15154590114335,42.7281449934069,1320.9117 -7.15175813082415,42.7282410495916,1320.3303 -7.15190095846276,42.7283295624972,1320.90979999999 -7.15200740882394,42.7284267929872,1320.6507 -7.15217404091924,42.7285199993664,1319.60769999999 -7.15223120521236,42.7285456483026,1319.2549 -7.15259196234225,42.7288302973973,1318.10309999999 -7.15311164042906,42.7290329721148,1313.73269999999 -7.15327626119645,42.7291206465086,1312.2101 -7.15342378253239,42.7291747938725,1310.8578 -7.15350089571303,42.7291747938725,1309.7424 -7.15359695256636,42.729243357458,1309.0969 -7.15376542890293,42.7293595308057,1308.1462 -7.15389585080746,42.7293890350295,1306.3615 -7.15397765858376,42.7293955730453,1305.0289 -7.15413188584331,42.7294460321457,1303.51360000001 -7.15456975615384,42.7298458491841,1299.95849999999 -7.15466681912028,42.7298867523826,1298.6814 -7.15477142524016,42.7299362061066,1297.92479999999 -7.15511893850784,42.7300570730985,1295.5999 -7.15527685335164,42.7301132315726,1294.1819 -7.15538162745647,42.7301418974101,1292.2188 -7.15550333300779,42.7301569852086,1290.87760000001 -7.15577021259724,42.730175425113,1286.7504 -7.15581044544388,42.7302545506841,1287.1684 -7.1559261161131,42.7304037482222,1288.0693 -7.15616080906592,42.7305844622895,1289.4034 -7.15625854217557,42.7306597317832,1289.63619999999 -7.15641243346523,42.7308684408516,1291.0 -7.15664612120323,42.7310786589647,1292.03350000001 -7.15693982358875,42.731186283115,1291.9077 -7.15698257081986,42.7312020410702,1291.798 -7.15729923953393,42.731402033002,1290.90489999999 -7.15776946356769,42.7317339563176,1290.0 -7.15802678867578,42.7318264926019,1289.95140000001 -7.15824287392579,42.7319626148293,1289.11870000001 -7.15847874097668,42.7320990719585,1290.3413 -7.15879440267935,42.7322516229956,1291.2478 -7.15906765312078,42.7324770958729,1291.26459999999 -7.15973099697435,42.7330479033218,1289.2433 -7.1600852161656,42.7332452136851,1289.0227 -7.16115139423697,42.7337192941502,1288.4918 -7.16140871844673,42.7338118301117,1288.7553 -7.16158742120452,42.7338589363482,1288.2493 -7.16172521917585,42.7339348762082,1288.8412 -7.16197567037539,42.7340535645908,1288.7423 -7.16235587333621,42.7342545621318,1289.3558 -7.163234297225,42.7345080310688,1286.7438 -7.16450432279729,42.7348526946129,1280.38009999999 -7.1649007870614,42.7349769144311,1278.1256 -7.1666452291049,42.7355207325572,1271.3049 -7.16716021259604,42.7356912205676,1269.21550000001 -7.1681856547642,42.7361939671483,1267.84789999999 -7.16915376465434,42.736607530418,1262.5998 -7.16986488540627,42.7369136372342,1260.1156 -7.17050341869,42.7371178202096,1255.88310000001 -7.17094028378571,42.7372279588928,1252.60249999999 -7.17112015974328,42.7372308085216,1250.96000000001 -7.17118151467717,42.737187558017,1250.2978 -7.17138536307639,42.737058141496,1249.0 -7.1717496407039,42.7369166544647,1247.25569999999 -7.17186698673114,42.7368891622306,1247.0 -7.17215264200833,42.7368900001673,1247.0 -7.17261951442782,42.7369297302282,1245.0239 -7.17338578814494,42.7370606559589,1241.14599999999 -7.17366272617063,42.7371682796254,1238.6066 -7.17379918295722,42.7372883084478,1237.8847 -7.17398827922283,42.7376597945976,1235.4094 -7.17414133238434,42.7378981755809,1234.8272 -7.17431450241827,42.7381367245514,1234.40029999999 -7.17430746142309,42.7383724236876,1233.0643 -7.17427594582796,42.7385982319096,1234.5224 -7.17429338033099,42.7387648643246,1234.151 -7.17459177641387,42.7390932672919,1231.4734 -7.17493794849682,42.739384790245,1230.96490000001 -7.17510893921787,42.7396970996365,1230.8009 -7.17522460988712,42.7398462975507,1230.42969999999 -7.17555971831902,42.7401240735413,1227.9985 -7.17579273501552,42.7403480379643,1224.7463 -7.17626547433212,42.7408045167358,1221.2895 -7.17665238321655,42.7410658646639,1220.9785 -7.17694625268872,42.7412769210552,1218.7102 -7.17723928403271,42.741517313545,1215.08199999999 -7.17755360544894,42.7417929108436,1211.92909999999 -7.17789743113234,42.7420574437772,1209.47440000001 -7.1780211480116,42.7421488061599,1208.26949999999 -7.1780189686987,42.7422225673163,1206.5159 -7.17801745952905,42.7428304225636,1194.86410000001 -7.17803405590392,42.743006610315,1193.44010000001 -7.17800555774984,42.7431863185215,1190.6823 -7.17796834144592,42.7432944448215,1189.5488 -7.17801662140089,42.7436932555717,1190.0 -7.17830328279119,42.744154763134,1187.82279999999 -7.17832239355054,42.7441844351437,1187.4489 -7.17836111812582,42.7442293623802,1187.94990000001 -7.17842113187501,42.7442303684449,1188.0 -7.17856161311407,42.744217795604,1187.8029 -7.17868197748069,42.7442048869657,1186.24400000001 -7.17890745012543,42.7441784000703,1184.8398 -7.17965209869873,42.7440132771224,1184.5619 -7.17992518115521,42.743981257757,1184.1413 -7.1802550928332,42.7439457187821,1185.32309999999 -7.1804968267812,42.7439200702773,1185.715 -7.18081634495133,42.7438991156562,1186.38989999999 -7.18176450595396,42.7436342475256,1177.787 -7.1819457221979,42.7435928407906,1176.4319 -7.18212626829864,42.7435809380974,1175.2047 -7.18222618072118,42.7435826144496,1174.6588 -7.18240488347897,42.7436295536114,1173.283 -7.18363869975875,42.7438555293881,1168.9163 -7.18371782426729,42.7438862069516,1169.4048 -7.18375705189914,42.7439163817948,1169.3116 -7.18379611154601,42.7439465566234,1169.21580000001 -7.18395017082059,42.7441552664968,1170.28539999999 -7.18400884428338,42.7442003606623,1170.6793 -7.18406751774617,42.7442456230221,1170.4657 -7.18420749503035,42.7442478027184,1170.943 -7.18446783757949,42.7442372413505,1170.9659 -7.18464922180839,42.7441958350182,1171.4764 -7.1848309411089,42.7441398436698,1171.692 -7.18528373153799,42.7439054858934,1170.2599 -7.18574658040328,42.7437566229888,1166.2116 -7.18590784775971,42.7437148811977,1166.1642 -7.18604782594223,42.7437170602529,1165.5586 -7.18696748879077,42.7438171403553,1168.19100000001 -7.18710914233127,42.7439105149235,1168.1747 -7.18764323748009,42.74458257584,1169.2445 -7.18774029954824,42.7446873496991,1169.3058 -7.18783887078605,42.7447331150615,1168.7781 -7.18789050325362,42.7447629543605,1168.5042 -7.18815771881298,42.7447899443637,1167.6872 -7.18837397204794,42.7447661394348,1166.06819999999 -7.18861972955011,42.7447160153971,1165.5808 -7.18886179856973,42.7446461105741,1164.18150000001 -7.18916069681086,42.7444818253865,1161.861 -7.18941517156453,42.7441978464889,1160.0318 -7.18962455178926,42.7438769873891,1157.4987 -7.18981867682386,42.7433935188682,1155.537 -7.19013970326535,42.7426763630151,1153.5004 -7.19041949164543,42.7420747104288,1149.5255 -7.19073398014832,42.7415785014168,1143.09179999999 -7.19090295954147,42.741271724236,1141.8805 -7.19144359262889,42.7405726732072,1142.3239 -7.19164911638612,42.7403979946568,1140.3621 -7.19195019483844,42.740220297885,1136.13159999999 -7.19235805782519,42.7400995984855,1129.77589999999 -7.19242041887223,42.7401165298653,1129.0092 -7.19248663638678,42.7401175359967,1128.1872 -7.19257582022985,42.7401768799078,1125.83990000001 -7.1931045506398,42.7405684824531,1118.0 -7.19335684518228,42.7406450929823,1115.5692 -7.19368407538913,42.7405922870146,1111.1529 -7.19412630432541,42.7405488686382,1104.864 -7.19460306719615,42.7405756909195,1097.1384 -7.1951847712584,42.7405864198287,1092.3386 -7.19553614009526,42.7408868272146,1089.09540000001 -7.19567310083672,42.7409921034508,1087.0987 -7.19604928024342,42.7410871547349,1083.98699999999 -7.19664724560893,42.7413193334696,1077.3805 -7.19708243355,42.7415489970542,1071.4093 -7.19751728731777,42.7417957602626,1065.88099999999 -7.19779221311723,42.7419370798028,1062.507 -7.1981814692995,42.742148973733,1058.1854 -7.19898629960698,42.7424700007718,1051.39780000001 -7.19955844828951,42.7427875071492,1046.8781 -7.2001354586544,42.7431380384606,1041.6207 -7.20078639677388,42.7434381108789,1033.8556 -7.20130926028669,42.7435180738687,1028.2208 -7.20162408386117,42.7435487515992,1024.8668 -7.20184402557871,42.7435266238668,1022.4728 -7.20219606545707,42.7434121270247,1019.755 -7.20285454762831,42.7431653636524,1012.8502 -7.20339316848954,42.7430367849267,1006.0992 -7.20365099575584,42.7429722444373,1001.85430000001 -7.20383942097996,42.7428895989459,999.467699999994 -7.20402885231718,42.742772587356,996.747900000002 -7.20474483475144,42.7424245708627,986.0 -7.20475807771538,42.7425125812617,984.989700000006 -7.20481105136769,42.743095961112,978.216799999995 -7.20476008994162,42.743249349997,976.115900000004 -7.20474768420753,42.7436776657205,969.289600000004 -7.20473779375626,42.7440201500521,962.963399999993 -7.20492756016507,42.7439509153771,960.430600000007 -7.20533642926497,42.7437614844622,957.925000000003 -7.20591980958351,42.7434404575134,953.141399999993 -7.206016704565,42.7433683735042,952.211500000005 -7.20612499826913,42.7432627615446,951.387100000007 -7.2062416750515,42.7430689716907,952.334300000002 -7.20630470624174,42.7431095402633,951.064400000003 -7.20619875893713,42.7433254578025,948.778999999995 -7.20618350464528,42.7435333292811,944.9755 -7.20631493266293,42.7436191597073,942.662400000001 -7.2066136638174,42.7437899830196,940.990399999995 -7.20695631540272,42.7439582916781,936.742599999998 -7.20716468951435,42.7440223290965,935.818299999999 -7.20734439748696,42.7440848583378,933.764999999999 -7.20762552705173,42.7441901350812,930.629000000001 -7.20785066462489,42.7442439466879,927.245699999999 -7.20825484002739,42.744309995938,919.733099999998 -7.2083405033729,42.7443301125842,918.321299999996 -7.20851954030395,42.7444600324611,913.851599999995 -7.20905883220668,42.7447637921907,905.857000000004 -7.20937030416685,42.7448771155553,902.660300000003 -7.20965830584355,42.7449190254489,899.399000000005 -7.20996793356241,42.744920199068,897.001000000004 -7.21024688291603,42.7449245570936,895.094400000002 -7.2115556339619,42.7453039225069,885.627900000007 -7.2117630019604,42.7453295710987,882.958799999993 -7.21193902234873,42.745388411946,881.593399999998 -7.21203792865815,42.7454796071334,882.182000000001 -7.21215225724434,42.7455637612054,882.047399999996 -7.21242617782898,42.7456827842273,877.926900000006 -7.21260940629919,42.7458427109104,876.833100000003 -7.21301626407115,42.7461706113047,870.031000000003 -7.21338858790864,42.7464606252529,866.056299999997 -7.2136571446527,42.7466517321058,863.2601 -7.21404790910637,42.7468297640367,862.316900000005 -7.21439424917428,42.7469660538753,857.609599999996 -7.21478031993054,42.7471328537905,856.1774 -7.2149987515801,42.7472086263272,851.459300000002 -7.21526412289816,42.7473323431237,851.135500000004 -7.21543092297845,42.7473574888589,848.823000000004 -7.21568321841925,42.7474099592241,847.019199999995 -7.2159395365159,42.7474999811658,846.357999999993 -7.21620138733636,42.7475713947549,844.212299999999 -7.21625419300371,42.7474838876168,841.024699999994 -7.21637606653999,42.7473600029041,839.513300000006 -7.21669340539727,42.7473849810692,837.969200000007 -7.21691016079048,42.7474040920237,836.780400000003 -7.21707528461445,42.7473980572638,834.203099999999 -7.21718709881616,42.7473586617721,831.936300000001 -7.21732942429653,42.7473532979037,830.585699999996 -7.21756143487991,42.7474056007136,828.197400000005 -7.21781641269016,42.7475366936518,826.289699999994 -7.21802730118625,42.7476185010936,824.584300000002 -7.21811682010094,42.7476833771396,822.986399999994 -7.21816459699934,42.747788821267,822.503299999997 -7.21819745377917,42.7478828660205,820.938399999999 -7.21827993169864,42.7480112770331,819.680600000007 -7.21840079912181,42.7481472317989,817.853000000003 -7.21863482103313,42.7484181344392,815.323000000004 -7.21905224029787,42.7486258384372,812.263900000005 -7.21935298278027,42.748726421197,806.694399999993 -7.21962153952434,42.748856507991,802.881299999994 -7.21959941132394,42.7489681549237,802.143100000001 -7.21962925066276,42.7490293426982,801.722599999994 -7.21970787301306,42.7491564128813,800.576799999995 -7.21978666244998,42.7495027529929,797.672300000006 -7.21986930835444,42.7497139765802,796.662700000001 -7.22009327272782,42.7500365126501,795.670199999993 -7.22042771011819,42.7503716212756,792.2399 -7.22049225137642,42.7503920730354,792.018700000001 -7.22055880396255,42.7504158771232,791.047399999996 -7.2207249330013,42.7504832681178,789.633400000006 -7.22086792772653,42.750548478905,788.958599999998 -7.22097923977004,42.7506036319909,787.642000000007 -7.22127562362666,42.7508269259577,786.604800000001 -7.22150964643628,42.7509087336745,784.510699999999 -7.22185682463234,42.750903368794,782.2932 -7.22214533026395,42.7508099948643,776.415200000003 -7.22250960789143,42.7507385810485,773.7981 -7.22286298895453,42.7507503154771,771.122700000007 -7.22317663932925,42.7507467949509,768.643500000006 -7.22345491853964,42.7507255048988,768.040599999993 -7.22368123021084,42.7507033764299,767.577600000004 -7.2238894363375,42.7507067294086,765.746599999999 -7.22400929764755,42.7507597028866,766.430200000003 -7.22423158576462,42.750878223178,766.451199999996 -7.22441950793216,42.7509833320492,765.001600000003 -7.2246414609776,42.7511145928855,763.612200000003 -7.22489828213082,42.7512337833522,761.4421 -7.2251546011258,42.7513782878806,759.763300000006 -7.22539013220677,42.7516376235409,757.8992 -7.22557034323589,42.7518919303936,756.949500000002 -7.22577771213273,42.7521692038656,754.676800000001 -7.22589254377549,42.752315384308,751.585600000006 -7.22597032799763,42.7525256022746,750.611900000004 -7.22600318477747,42.7526793266633,749.598499999993 -7.22616445303219,42.7532637130614,742.726999999999 -7.22620401573563,42.7534303449775,739.988599999997 -7.22624341045411,42.7535367951362,739.268700000001 -7.22628029078811,42.7535917806592,738.8361 -7.22642110620046,42.75372320879,739.553499999995 -7.22662478661471,42.7538434054256,735.608600000007 -7.22693290606221,42.7539996442791,731.101699999999 -7.22711127285009,42.7540854747253,729.0242 -7.22717832759446,42.7540995560705,727.596000000005 -7.22731428222285,42.754113805613,725.016499999998 -7.22750455168824,42.7541431423915,722.243600000002 -7.22759423768955,42.7541962831113,721.042300000001 -7.22769448518368,42.7542754083739,719.187699999995 -7.22782239360205,42.7543793439803,716.553199999995 -7.22797276439409,42.7545119458571,715.305500000002 -7.2281383912746,42.7546660050146,712.699999999997 -7.22823763265561,42.754736245489,711.157800000001 -7.22856536502071,42.7550943203477,704.235000000001 -7.22875731074241,42.7552599467329,702.4611 -7.2289013115808,42.7553700848482,700.996100000004 -7.22929878195803,42.7555980731193,697.829199999993 -7.22944211175485,42.7556039402037,697.290800000002 -7.22962785550786,42.755594887942,696.242400000003 -7.22987428315323,42.7555751067272,694.005499999999 -7.23002951562759,42.7556190277434,692.935299999997 -7.23021106784144,42.7557043553161,693.081999999995 -7.23035573972133,42.7557838157045,692.662200000006 -7.23044810809211,42.7558346101713,692.435299999997 -7.23059596449964,42.7558678027621,691.271099999998 -7.23077718164191,42.7558466800265,690.780299999999 -7.23099393793345,42.7557449235347,689.650200000004 -7.231321167242,42.7555709156681,690.039900000003 -7.23150607196852,42.7555863382893,690.596399999995 -7.23226144912126,42.755682059769,692.027600000001 -7.23268523833968,42.7557585025534,691.078299999994 -7.23295714669809,42.7558248871391,692.098599999998 -7.23328839956081,42.7559997339498,692.912100000001 -7.23336450752659,42.7560397993683,692.682499999995 -7.23346006132338,42.7560719859766,692.0 -7.23362736446021,42.7561140630921,691.029500000004 -7.23381679489911,42.7561348500063,690.3848 -7.23400723145116,42.7561383702265,689.061100000006 -7.23416849970588,42.7561303239144,688.080900000001 -7.23456529904162,42.75609981335,685.518800000005 -7.23527256422437,42.7560731593846,681.247099999993 -7.23565829901076,42.756091263767,679.376199999999</coordinates>
</LineString>
</Placemark>
</Folder>
</Document></kml>
