<?xml version="1.0" encoding="UTF-8"?>

<kml xmlns:xsd="http://www.w3.org/2001/XMLSchema" xmlns:gx="http://www.google.com/kml/ext/2.2" xmlns:atom="http://www.w3.org/2005/Atom" xmlns="http://www.opengis.net/kml/2.2">
<Document>
<name>ES13a_20b_barranco_del_rio_dulce-siguenza</name>
<visibility>1</visibility>
<Schema name="ES13a_20b_barranco_del_rio_dulce-siguenza" id="kml_schema_ft_ES13a_20b_barranco_del_rio_dulce-siguenza">
<SimpleField type="xsd:string" name="id">
<displayName>id</displayName>
</SimpleField>
<SimpleField type="xsd:string" name="nombre">
<displayName>nombre</displayName>
</SimpleField>
<SimpleField type="xsd:double" name="longitud">
<displayName>longitud</displayName>
</SimpleField>
<SimpleField type="xsd:string" name="_formato">
<displayName>_formato</displayName>
</SimpleField>
</Schema>
<Folder id="kml_ft_ES13a_20b_barranco_del_rio_dulce-siguenza">
<name>ES13a_20b_barranco_del_rio_dulce-siguenza</name>
<Placemark id="kml_1">
<name>&lt;img height='20' src='https://nco.ign.es/iconos/icono_todos_caminos_azul.png' /&gt;&lt;img height='20' src='https://nco.ign.es/iconos/Camino Santiago_20.png' /&gt;&lt;img height='20' src='https://nco.ign.es/iconos/icono_todos_caminos_azul.png' /&gt;  Camino de Santiago </name>
<visibility>1</visibility>
<description><![CDATA[<!DOCTYPE html>
<html>
<head>
<style>
#nco {
  border-collapse: collapse;
  overflow:hidden;
}
#nco th, #nco td {
  padding: 4px;
  text-align: left;
}
#nco th {
  color: #364B5F;
  padding-right: 5px;
}
#nco td {
  color: rgb(51, 51, 51);
  font-size: 12px;
  padding-right: 5px;
}
</style>
</head>
<body>
<table id="nco">
<tr>
<td>Caminos del Sureste</td>
</tr>
<tr>
<th><b>Camino: </b></th>
<td>ES13a Camino de la Lana</td>
</tr>
<tr>
<th><b>Etapa: </b></th>
<td>20b Barranco del Río Dulce-Sigüenza</td>
</tr>
<tr>
<th><b>Longitud: </b></th>
<td>48.45 km</td>
</tr>
</table>
</body>
</html>]]></description>
<Style>
<IconStyle>
<scale>0.8</scale>
</IconStyle>
<LabelStyle>
<color>ffffffff</color>
<scale>0.75</scale>
</LabelStyle>
<LineStyle>
<color>ffff0000</color>
<width>3.0</width>
<gx:labelVisibility>1</gx:labelVisibility>
</LineStyle>
<PolyStyle>
<color>66ff0000</color>
</PolyStyle>
</Style>
<ExtendedData>
<SchemaData schemaUrl="#kml_schema_ft_ES13a_20b_barranco_del_rio_dulce-siguenza">
<SimpleData name="id">ES13a_20b</SimpleData>
<SimpleData name="_formato">kml</SimpleData>
</SchemaData>
</ExtendedData>
<LineString>
<extrude>0</extrude>
<tessellate>1</tessellate>
<coordinates>-2.74614583683016,40.9564401582554,864.288499999995 -2.74547595503795,40.9575611542439,865.516499999998 -2.74410484384338,40.9579230842291,866.574299999993 -2.74339992595847,40.9585391545056,867.698199999999 -2.74195488521265,40.9588450936359,868.281799999997 -2.73972999271416,40.9599900620311,872.5389 -2.7388778885649,40.96032500244,870.989199999996 -2.73732388397174,40.9602371602698,871.267900000006 -2.73636097083555,40.9604031220338,872.058399999994 -2.73510385315559,40.9599800037118,874.172399999996 -2.73347692602262,40.959752015862,874.672999999995 -2.73214487357661,40.9598051568144,876.219100000002 -2.73081097778763,40.9599991143136,878.609299999996 -2.72917885300243,40.9609771144067,878.461500000005 -2.72758394452114,40.9620111066054,886.525699999998 -2.72738194126149,40.9622721184822,887.327699999994 -2.72565292239313,40.9621571188811,883.880399999995 -2.72529987640162,40.9624680875106,881.993700000006 -2.7252648394106,40.963778011581,883.626099999994 -2.72493693995884,40.9650881029746,885.563999999998 -2.72411299889204,40.965753123101,886.731199999995 -2.72202992791906,40.9662590551044,885.289699999994 -2.72076895466989,40.9665011239332,884.751999999993 -2.71959599116575,40.9664981068031,886.707399999999 -2.7183978820202,40.9657400471386,887.688899999994 -2.71769598157631,40.9652500416081,884.554699999993 -2.7169018798483,40.9658931009223,887.855299999996 -2.7163719762386,40.9662910735569,888.292000000001 -2.71609989899694,40.9682680294331,892.843699999998 -2.71571584046687,40.9690220656325,893.245200000005 -2.71471587901172,40.9697750954682,894.696599999996 -2.7141569741914,40.9701301526723,899.842300000004 -2.71342489843884,40.9700610859988,903.7111 -2.71222192761093,40.9702590667167,909.472599999994 -2.71191095960566,40.970496107096,910.547699999996 -2.71125683516187,40.9710060621524,909.786200000002 -2.71102298033721,40.97123505565,910.104999999996 -2.7111138404366,40.9717470221335,909.388999999996 -2.71136596789245,40.9725600669877,909.875799999994 -2.71136295045143,40.9733191321322,910.853099999993 -2.71100889924511,40.9743940269855,911.074600000007 -2.71126287094223,40.9748191574286,911.027400000006 -2.71214598763006,40.9750680998479,912.888000000006 -2.71267991479392,40.9752820057792,911.637900000002 -2.71314293164417,40.9759010934854,911.688200000004 -2.71388690917597,40.9761141611575,912.269700000004 -2.71441899209852,40.9768220968865,913.491299999994 -2.71404096845055,40.9781801331395,912.962199999994 -2.71303195467231,40.9798181244185,913.282099999997 -2.71213995274799,40.9814400223444,914.313699999999 -2.71264890225536,40.9822530670919,916.395499999999 -2.71259492248994,40.9838411022369,917.416100000002 -2.71226299948405,40.9852120464165,916.493799999997 -2.71127091715224,40.9854150560166,916.948399999994 -2.71086288618053,40.9860621393517,916.526500000007 -2.70973686144662,40.9861620513985,916.141000000003 -2.70847991085329,40.9852720612981,916.512700000007 -2.70713092785912,40.9847570770191,919.018599999996 -2.70582586529581,40.9845830688363,917.5429 -2.70420597825973,40.9843750297134,919.095000000001 -2.70303385288375,40.9847470184063,917.282099999997 -2.70221795892526,40.9859731237267,918.441500000001 -2.70131187501057,40.9870971367052,918.744000000006 -2.70027084258062,40.9882550125535,920.045499999993 -2.70062690601317,40.9891770219525,919.870599999995 -2.69936090309672,40.9901290386002,922.373900000006 -2.69994093090266,40.9912911058437,921.839900000006 -2.70007185676206,40.9922131148267,923.804600000003 -2.69849589105513,40.9921061622803,924.587899999999 -2.69696585800536,40.9920340775656,924.997399999993 -2.69610788695895,40.9924070726669,929.837599999999 -2.69605591852146,40.9938400426636,933.719700000001 -2.69582491405119,40.995239149874,934.113200000007 -2.69505495185152,40.9960220192493,935.786399999997 -2.69482495259604,40.9971470386051,935.490600000005 -2.69383085893635,40.9978271462635,936.729000000007 -2.69225388801464,40.9978910162334,937.365699999995 -2.69067892842086,40.9975460173176,943.758799999996 -2.68937285974443,40.997576024576,947.050399999993 -2.68797794319485,40.9973681532314,944.267099999997 -2.68608396848747,40.9978410599625,944.426200000002 -2.68576394726076,40.9988291189912,942.127699999997 -2.68634397506666,40.9999571555298,942.0726 -2.68606888128225,41.0010820067084,942.904699999999 -2.6847128572929,41.0020340236432,944.008700000006 -2.68241588038277,41.0020960495925,947.189199999993 -2.68124291687863,41.0024340079925,949.933300000004 -2.68002385273241,41.0031131099564,947.751799999998 -2.68015192823742,41.0043760950659,951.541500000007 -2.67924685043585,41.0053980161212,951.534599999999 -2.67901584506726,41.0065230354308,949.557199999996 -2.67918985322938,41.0077521577657,950.720499999996 -2.67869196827137,41.0081261580322,951.161999999997 -2.67748095123349,41.0076621362904,952.862399999998 -2.67710795635447,41.0074440389165,953.047099999996 -2.67618896454746,41.0077241623657,953.373399999997 -2.67546191846215,41.0079161080202,954.3609 -2.6748619417687,41.0078490528866,954.685800000007 -2.67437696470301,41.0076100005561,957.455900000001 -2.67406197224525,41.007653083769,961.108300000007 -2.67357297252373,41.008150130702,958.877500000002 -2.67279898766818,41.0084730016649,960.487800000003 -2.67236799036791,41.0089271329193,962.065300000002 -2.67227796839665,41.0095551048088,956.702999999994 -2.67256194741755,41.0099891197611,957.2022 -2.67215995132791,41.0102481210682,957.594400000002 -2.6710159890344,41.0102451032277,959.468299999993 -2.67044283423872,41.0100070574061,958.656499999997 -2.67067283349417,41.0097911396778,961.068899999998 -2.67004687303114,41.0091180724949,961.777499999997 -2.66881993065991,41.0084641166913,963.547699999996 -2.66727196094883,41.0092401133111,962.9565 -2.66475487523452,41.0092981160895,965.056200000006 -2.66312392454738,41.0094020513332,964.871799999994 -2.66048597140991,41.0106720774758,962.548800000004 -2.65764685314099,41.0119860244469,963.268200000006 -2.65649987340643,41.0124810600828,966.065600000002 -2.65540687343732,41.013647150006,967.123600000006 -2.65426089981588,41.0140340591606,964.357499999998 -2.65251696082895,41.0138340665694,965.219700000001 -2.65036985255261,41.0141311212771,965.404500000004 -2.64830891067832,41.0144720972839,966.963499999998 -2.64667795999119,41.0144670678721,972.146999999997 -2.64570398230564,41.0147681459482,968.5579 -2.64415685072274,41.0150660389645,971.320699999997 -2.64304390186609,41.0146080518984,971.833499999993 -2.64199297898486,41.0131750812929,972.146900000007 -2.64159483846443,41.0127410663147,970.491099999999 -2.6411938484879,41.012740060406,975.672600000005 -2.64144496983064,41.0138890516969,975.879400000005 -2.64149593215501,41.0149941223776,977.354300000006 -2.6412369307906,41.0153840480047,979.170499999993 -2.64051994314152,41.0156420432511,979.953899999993 -2.64091288690805,41.0158470644051,975.0288 -2.64141093895273,41.0163670777412,971.638600000006 -2.64193195822426,41.0168520545322,972.380900000004 -2.64245096616786,41.0178381015437,983.204800000007 -2.64329083256804,41.0184110885248,996.081300000005 -2.64397395732416,41.0186370646574,1003.25260000001 -2.64449598270877,41.0190531422138,1008.6967 -2.64483394059676,41.0197451523929,1017.7834 -2.645080872197,41.0204540937995,1039.07060000001 -2.6455799303548,41.0208011043238,1048.2227 -2.64591990046902,41.0210790482688,1051.07180000001 -2.64582686105674,41.0214240473369,1052.7041 -2.64548387350147,41.0216131431486,1057.1363 -2.64493787657347,41.0213871670603,1072.52159999999 -2.64434594698835,41.0212131586477,1082.5895 -2.64363784367744,41.0213320146881,1089.0733 -2.64281490782543,41.0217271370125,1091.9348 -2.64187797935714,41.0221380184755,1098.49920000001 -2.64100894376138,41.0226020406007,1104.20299999999 -2.64106091130057,41.0232930443426,1104.3964 -2.64023294667964,41.0244041495537,1104.7856 -2.64018584082274,41.0250270923726,1103.8002 -2.6408709769068,41.0263390282858,1110.6321 -2.6421198803918,41.0273591055789,1110.0742 -2.64380883439852,41.0269390048675,1107.3726 -2.64568487154629,41.0268920660096,1100.5324 -2.64680888495229,41.0275870935481,1093.67080000001 -2.64561597256064,41.0296580943803,1100.6789 -2.64506192852431,41.0327870585587,1092.1084 -2.64569492998252,41.0348630883453,1071.9991 -2.64547096560914,41.0364890100017,1085.1152 -2.64621695536717,41.0376301221043,1081.2292 -2.64717986850337,41.0381620378244,1079.97870000001 -2.64814194261311,41.0391001404376,1088.1327 -2.64921197625366,41.039714030939,1095.774 -2.64898784479365,41.041642036029,1093.5542 -2.64758991080301,41.0422871072432,1099.96520000001 -2.64571487887003,41.0418351552616,1101.2248 -2.64426397122709,41.0423590245154,1102.0632 -2.64313492905214,41.0428431628583,1103.42359999999 -2.64264391710435,41.0444251636284,1107.54519999999 -2.64343684563262,41.0465390793998,1116.6627 -2.64358688135304,41.048366166604,1122.9273 -2.6440649854085,41.0491800496107,1122.9316 -2.64111489016769,41.0492120684437,1119.6154 -2.6400228963117,41.050340104687,1080.9826 -2.64046495816132,41.0509640540169,1064.587 -2.63987688324708,41.0518190075236,1047.1015 -2.63871196685128,41.0517370325559,1045.72530000001 -2.63788986912743,41.0516830531816,1047.992 -2.63781694658761,41.0524350778952,1039.6684 -2.63777889305387,41.0530320371857,1034.7237 -2.63849487548812,41.0536571593333,1032.18520000001 -2.6392789187799,41.0544901529124,1035.14509999999 -2.63968393231059,41.0556071248658,1036.1094 -2.63995198509979,41.0565680268335,1036.1257 -2.63963984299645,41.0572161150869,1039.4651 -2.63874599683086,41.0577061212617,1042.78690000001 -2.63881187927378,41.05820015074,1042.16 -2.63925293501032,41.0589280350124,1040.70389999999 -2.64075597727907,41.059789024538,1039.64810000001 -2.64102185165371,41.0612161269573,1032.0436 -2.64125587446332,41.0623590834045,1031.704 -2.64083493470096,41.0624070278599,1033.3244 -2.64142284163024,41.0630891473179,1039.698 -2.64192189978803,41.0638700054423,1035.50019999999 -2.64209490273534,41.0642020963518,1033.23970000001 -2.64158897066899,41.0645491072433,1045.3529 -2.64101698997138,41.0649621671648,1043.57339999999 -2.64063896632342,41.066121049247,1033.1955 -2.6405439155832,41.0674140416251,1016.0128 -2.64069294519054,41.068161036598,1008.6676 -2.64137187930587,41.0680971670381,1006.3355 -2.64167798652714,41.0681650602326,1005.12820000001 -2.64193497566528,41.0691271352807,998.694799999997 -2.64217386015722,41.06950901423,992.262499999997 -2.64258692079621,41.0701240784596,987.080799999996 -2.64377295927934,41.069316062912,984.156700000007 -2.6447419072976,41.0684401540757,983.202799999999 -2.64586390937566,41.0673671031853,982.133600000001 -2.64705196008502,41.0663760268294,981.665200000003 -2.6486959866494,41.0661490448816,977.185200000007 -2.64996886257608,41.0656560212861,976.019799999995 -2.65119798515853,41.0650461541583,975.042400000006 -2.65245795229455,41.0645201058098,974.603799999997 -2.65389092237791,41.0644981449316,974.270600000003 -2.6550809853135,41.0653291271512,975.550000000003 -2.65569487601235,41.0652530194982,977.277300000002 -2.65651294928371,41.0654111021133,980.493000000002 -2.65787584718162,41.0656471365774,993.642000000007 -2.66042595766072,41.0672821106941,1030.13959999999 -2.66113892175566,41.0678780636007,1039.09110000001 -2.66144284966404,41.0686020928031,1034.683 -2.66160897870279,41.0692741537645,1019.2693 -2.66208087989123,41.070386096711,1009.1443 -2.66213888321079,41.0723751221738,996.138200000001 -2.66226796393061,41.0738471523406,990.221799999999 -2.66372591256873,41.0755820382748,984.722800000003 -2.66504589435227,41.0777551306823,981.305999999997 -2.6652789119471,41.0787891222923,978.668099999995 -2.66790194406769,41.07952002425,969.897400000002 -2.67191587008206,41.0821910013943,965.742599999998 -2.67357883942083,41.0838740880804,966.914600000004 -2.67507098602353,41.0858150015233,962.427500000005 -2.67762092851767,41.0877850837648,957.707599999994 -2.67952697388751,41.0887461526499,958.731199999995 -2.68259692954008,41.0890650007385,959.878700000001 -2.68535993984318,41.0892530904325,961.756999999998 -2.68645394592544,41.088766102028,964.307000000001 -2.68792094688667,41.0888730546941,968.013300000006 -2.68924796966543,41.0897811500745,971.724499999997 -2.68941393161752,41.0899491235075,973.064199999993 -2.68971383597177,41.0900341158062,972.731799999994 -2.68992489245282,41.0902790353256,969.9853 -2.69025698344371,41.0906600764513,967.617499999993 -2.69057784190025,41.091091074057,964.933399999994 -2.6910668425201,41.0912691054474,965.625599999999 -2.69143296438886,41.0914141123896,967.704800000007 -2.69150990958454,41.0916421004987,967.556400000001 -2.69121889046679,41.0919530689107,962.545100000003 -2.69143899927096,41.0923671346631,958.847099999999 -2.69171593729665,41.0930480807745,953.405700000003 -2.69176287606685,41.0945660436957,945.809699999998 -2.69175583507166,41.0961661484802,938.933399999994 -2.69150789825661,41.0968011620465,940.140899999999 -2.69234491520069,41.0976240971018,939.340100000001 -2.69284984115389,41.0998620648839,937.436400000006 -2.69474096640521,41.1012420614826,934.872399999993 -2.69717389704536,41.1028280857298,930.596399999995 -2.69782098049397,41.1036701313211,929.398499999996 -2.69895387823813,41.1048430952637,929.001999999993 -2.70016791271706,41.1061800084337,926.283800000005 -2.7001369001785,41.1068980024671,926.148199999996 -2.70024284748311,41.1074111423654,926.769400000005 -2.70197588990567,41.107970047906,925.705600000001 -2.70441284409999,41.1088380773571,925.134399999995 -2.70639097298319,41.1092531494008,927.138399999996 -2.70876992475626,41.110900025766,934.182700000005 -2.71101392801409,41.1123220992087,938.174599999998 -2.71307084723251,41.1132501440013,939.332800000004 -2.71385287829806,41.1142370294252,938.143100000001 -2.71558390939269,41.1152671652278,933.928799999994 -2.71737193679543,41.1158870908736,934.981400000004 -2.71864296848083,41.1165881529901,932.231400000004 -2.72058991684051,41.117885000782,922.283800000005 -2.72232295926304,41.1186070179733,922.878500000006 -2.72416396031812,41.1192680151797,925.650299999994 -2.72492185275365,41.1195980944176,922.782399999996 -2.72529987640162,41.1200710015591,919.680900000007 -2.72684683999956,41.1197680793227,919.805900000007 -2.72820387010206,41.1194220746061,921.904399999999 -2.72917885300243,41.1198150182341,925.904899999994 -2.73063998706655,41.1206590757906,937.362599999993 -2.73155696664733,41.12183103313,955.462 -2.73244796335683,41.1226950396979,967.991500000004 -2.73290695665295,41.1232291345976,974.925600000002 -2.73507283971873,41.1241370628764,973.321100000001 -2.73740284139362,41.1249430665495,974.160600000003 -2.73778086504162,41.1251490937444,976.7546 -2.73802293495954,41.1258060672121,978.136700000003 -2.74029795075593,41.126468069841,982.224900000001 -2.74268394352418,41.1269250510092,988.560899999997 -2.74300195252467,41.1272390373819,985.659199999995 -2.74444598715734,41.1276760695373,990.926800000001 -2.74542499361188,41.1283491367502,978.094100000002 -2.74684086426379,41.1291460880619,969.7209 -2.74825589768584,41.1301190591779,967.874800000005 -2.74933096009537,41.1308650483741,965.802800000005 -2.74981895460211,41.1313921029189,966.351500000004 -2.75036394631532,41.1316821165713,966.198199999999 -2.75096291689562,41.1320140400502,965.049700000003 -2.75161586724137,41.1322420279466,965.495599999995 -2.75348486339396,41.1324430260382,959.434099999999 -2.75374285864522,41.1325781421698,958.934200000003 -2.75449287105908,41.1327241546689,954.745500000005 -2.75592299168635,41.1332220398068,948.001199999999 -2.75758495581035,41.1339170669749,942.711299999995 -2.75821091627337,41.1341770737467,940.310700000002 -2.75923199981578,41.1348491345019,938.778999999995 -2.76002291611782,41.1349440177612,938.239700000006 -2.76120895549921,41.1349990031696,931.251900000003 -2.76261493569984,41.1348161100346,934.951300000001 -2.7632429074908,41.134529113582,935.318499999994 -2.76391195115485,41.134406067647,934.076000000001 -2.76639383279148,41.134546045032,933.8508 -2.76695391170987,41.1344441213578,929.396800000002 -2.76736194268158,41.1346410958451,927.043300000005 -2.76830289470404,41.1348600314696,920.137199999997 -2.76999386003869,41.1349150162718,914.862299999993 -2.77060791872251,41.1349061314551,913.045800000007 -2.77145398798971,41.1346811615682,913.332899999994 -2.772502899543,41.1344620582309,913.681899999996 -2.7733348868198,41.1339490858092,917.073600000003 -2.77414491388115,41.1334520390746,911.950500000006 -2.77476483946211,41.1326001026252,912.310899999997 -2.77493683629627,41.1319731364108,910.914499999999 -2.77498092471212,41.1314750834671,912.851699999999 -2.77472795912811,41.1307661421204,911.204100000003 -2.7741338502301,41.1300090889307,910.217499999999 -2.77351694209023,41.1297990381891,910.645699999994 -2.77319893219142,41.1295090243323,911.990399999995 -2.7730649897893,41.1291740832362,910.091499999995 -2.77350286009983,41.1283630506049,908.838799999998 -2.77440089690621,41.1281900477874,907.375 -2.77539398535111,41.128131039416,908.767099999997 -2.77603184849165,41.1281840127736,908.755399999995 -2.77624592151542,41.1293980482605,909.607499999998 -2.77701890115615,41.1299861221383,922.607099999994 -2.77776388480106,41.1308000049288,937.706099999996 -2.77831893405218,41.1313671243602,950.911399999997 -2.77901094404479,41.1318311467125,959.387900000002 -2.77951184644386,41.1323260142069,972.0677 -2.78075991180066,41.1331410702813,971.332800000004 -2.78112687179761,41.1331110632496,976.3416 -2.78191694997146,41.1327630469857,991.754400000005 -2.78277492191616,41.1324260940454,999.889999999999 -2.78363188684946,41.1321600524517,1010.06849999999 -2.78444996101914,41.1315760015727,1015.5854 -2.78529485708656,41.1310221253561,1009.58620000001 -2.78619390000607,41.130490042559,1000.3505 -2.78681986046909,41.1302340592772,995.839000000007 -2.78797589252674,41.1302781475232,988.459300000002 -2.78827294742489,41.1315300690767,994.487399999998 -2.78822885811075,41.1321510001401,995.582800000004 -2.78839398193471,41.1330270766411,1001.5818 -2.78807496682112,41.1339821107129,1004.8796 -2.78828283787617,41.134635060748,1007.7553 -2.78859598519432,41.1353520487175,1010.09450000001 -2.78850797544932,41.1364351587594,1013.59359999999 -2.7887589297054,41.1367700993199,1016.7841 -2.78970390528202,41.1375040189956,1023.03449999999 -2.79056791210879,41.1371710895192,1024.963 -2.79164398063144,41.1366321333572,1030.488 -2.79303286229896,41.1365870386001,1038.8786 -2.79454797523021,41.136813014758,1048.89019999999 -2.79705584063644,41.1360541173423,1051.0079 -2.79909783973634,41.1359620840347,1058.12699999999 -2.8000218603123,41.1365370827229,1066.5016 -2.80014792448938,41.136744115413,1066.3897 -2.80063994255028,41.1375970581991,1062.303 -2.80111586639456,41.1379460805511,1060.3296 -2.80124394189953,41.1387361586994,1056.0885 -2.80169690031358,41.1400450764062,1057.765 -2.80228195688843,41.140761058794,1059.5493 -2.80371794441281,41.140887122923,1065.2902 -2.80678790096371,41.1402760820945,1071.90519999999 -2.80992088870478,41.140183042632,1089.0092 -2.81109485742373,41.1406780778146,1082.38679999999 -2.81282287107731,41.1412740313895,1071.93769999999 -2.81513996396159,41.1414500514415,1054.1626 -2.81670989478641,41.1403671094507,1040.97930000001 -2.81827697525685,41.139950025982,1033.25380000001 -2.82033490058842,41.139633022235,1022.9614 -2.82121583796336,41.1393881027683,1018.32919999999 -2.82232895480497,41.1381561309166,1010.323 -2.823407873682,41.1374671381701,1014.5405 -2.82464588060261,41.1375680565296,1017.3265 -2.82495785472099,41.1375841496264,1017.73540000001 -2.82526798549643,41.1383561231362,1017.4991 -2.82566193447774,41.1388930679971,1019.2837 -2.82778490322578,41.1392580158006,1026.5796 -2.82993184441546,41.1385530980543,1037.19349999999 -2.83122483631631,41.1379251258802,1040.6183 -2.83434692749299,41.1382451464694,1058.1813 -2.84029992274366,41.1393560838827,1071.64350000001 -2.84023689065512,41.139797139814,1073.7525 -2.83789699852892,41.1425331609113,1075.5646 -2.83889494865617,41.1431180498242,1076.6073 -2.83951085068293,41.1437570862734,1079.7948 -2.8404829841272,41.144692004004,1085.2638 -2.84142293003654,41.1454311196122,1089.6324 -2.84194193798014,41.1458981596259,1092.78290000001 -2.8434018979462,41.1466131358095,1101.21950000001 -2.84395191842836,41.1474491472801,1107.2925 -2.8446648825233,41.148384064458,1111.83409999999</coordinates>
</LineString>
</Placemark>
</Folder>
</Document></kml>
