<?xml version="1.0" encoding="UTF-8"?>

<kml xmlns:xsd="http://www.w3.org/2001/XMLSchema" xmlns:gx="http://www.google.com/kml/ext/2.2" xmlns:atom="http://www.w3.org/2005/Atom" xmlns="http://www.opengis.net/kml/2.2">
<Document>
<name>ES13a_27a_mecerreyes-burgos</name>
<visibility>1</visibility>
<Schema name="ES13a_27a_mecerreyes-burgos" id="kml_schema_ft_ES13a_27a_mecerreyes-burgos">
<SimpleField type="xsd:string" name="id">
<displayName>id</displayName>
</SimpleField>
<SimpleField type="xsd:string" name="nombre">
<displayName>nombre</displayName>
</SimpleField>
<SimpleField type="xsd:double" name="longitud">
<displayName>longitud</displayName>
</SimpleField>
<SimpleField type="xsd:string" name="_formato">
<displayName>_formato</displayName>
</SimpleField>
</Schema>
<Folder id="kml_ft_ES13a_27a_mecerreyes-burgos">
<name>ES13a_27a_mecerreyes-burgos</name>
<Placemark id="kml_1">
<name>&lt;img height='20' src='https://nco.ign.es/iconos/icono_todos_caminos_azul.png' /&gt;&lt;img height='20' src='https://nco.ign.es/iconos/Camino Santiago_20.png' /&gt;&lt;img height='20' src='https://nco.ign.es/iconos/icono_todos_caminos_azul.png' /&gt;  Camino de Santiago </name>
<visibility>1</visibility>
<description><![CDATA[<!DOCTYPE html>
<html>
<head>
<style>
#nco {
  border-collapse: collapse;
  overflow:hidden;
}
#nco th, #nco td {
  padding: 4px;
  text-align: left;
}
#nco th {
  color: #364B5F;
  padding-right: 5px;
}
#nco td {
  color: rgb(51, 51, 51);
  font-size: 12px;
  padding-right: 5px;
}
</style>
</head>
<body>
<table id="nco">
<tr>
<td>Caminos del Sureste</td>
</tr>
<tr>
<th><b>Camino: </b></th>
<td>ES13a Camino de la Lana</td>
</tr>
<tr>
<th><b>Etapa: </b></th>
<td>27a Mecerreyes-Burgos</td>
</tr>
<tr>
<th><b>Longitud: </b></th>
<td>34.69 km</td>
</tr>
</table>
</body>
</html>]]></description>
<Style>
<IconStyle>
<scale>0.8</scale>
</IconStyle>
<LabelStyle>
<color>ffffffff</color>
<scale>0.75</scale>
</LabelStyle>
<LineStyle>
<color>ffff0000</color>
<width>3.0</width>
<gx:labelVisibility>1</gx:labelVisibility>
</LineStyle>
<PolyStyle>
<color>66ff0000</color>
</PolyStyle>
</Style>
<ExtendedData>
<SchemaData schemaUrl="#kml_schema_ft_ES13a_27a_mecerreyes-burgos">
<SimpleData name="id">ES13a_27a</SimpleData>
<SimpleData name="_formato">kml</SimpleData>
</SchemaData>
</ExtendedData>
<LineString>
<extrude>0</extrude>
<tessellate>1</tessellate>
<coordinates>-3.57360916192799,42.0950789563455,986.029299999995 -3.57403781282875,42.0953869075416,985.040099999998 -3.57419690087228,42.0956638455699,985.177800000005 -3.57483442894123,42.0954628472496,982.263500000001 -3.57501111947276,42.0956246183552,982.063500000004 -3.57539484293121,42.0954682118525,981.073799999998 -3.57633076618472,42.0952244659184,976.0576 -3.57668615857574,42.0952189339837,975.040299999993 -3.57700869418693,42.0953828840844,974.611399999994 -3.57761587986049,42.0960411985497,975.032600000006 -3.5779991002624,42.0967865179136,975.992599999998 -3.57835683995124,42.0970684850174,976.488899999997 -3.57883896666254,42.0975551379137,977.516399999993 -3.57914993556613,42.0979770831487,978.1872 -3.57976198202371,42.098407074774,979.941699999996 -3.58081625741758,42.0991994998231,984.257299999997 -3.58184287368384,42.0999428071436,989.905299999999 -3.58286295111314,42.1005080824006,994.440000000002 -3.58357088643909,42.1009300279828,998.881999999998 -3.5842568615496,42.1012245678059,1002.0616 -3.58522279212685,42.101615164603,1004.72530000001 -3.58627354702312,42.1019375326189,1006.31329999999 -3.58760476134097,42.1028640677685,1008.5938 -3.58906388317887,42.1041220238592,1006.21249999999 -3.58979294059211,42.1047511698282,1000.9834 -3.59035084019761,42.1058490313565,998.357699999993 -3.59042594205032,42.1072580290523,994.684299999994 -3.59045041754854,42.1076777950837,994.014599999995 -3.59085593413577,42.1086271291509,990.711500000005 -3.59094092643975,42.1095270107193,988.759999999995 -3.59091410454202,42.109994385677,988.372499999998 -3.58996544048284,42.1111215838039,986.483099999998 -3.59017364660951,42.1113985217534,986.025099999999 -3.59036274287512,42.1116340533727,986.514999999999 -3.59268184708733,42.1125449984169,997.3177 -3.59285233565016,42.112794611342,998.130300000004 -3.59292626340479,42.1143920349504,1002.0454 -3.59326908387341,42.1151613258057,1003.15210000001 -3.59391666948026,42.1167336029363,1004.81359999999 -3.59415991259795,42.1171040830803,1006.0206 -3.59539004039518,42.1184111573424,1005.9791 -3.59636988497787,42.1194746532143,1002.66469999999 -3.59696147949137,42.1199453810299,1001.37209999999 -3.59752105535323,42.120308988018,1001.5218 -3.59772188631139,42.1204781344498,1000.9835 -3.59786186359561,42.1208120696277,1000.0487 -3.59830090800418,42.1211215296247,1001.38039999999 -3.5988450606909,42.1217149684452,1001.4673 -3.5995841774387,42.122257612784,1001.57090000001 -3.60008340358142,42.1226240695536,1000.3149 -3.60101413008102,42.1238307279268,1000.6409 -3.601486534326,42.1242674254733,1001.31170000001 -3.60191099368763,42.1246110835402,1001.5018 -3.60247710748809,42.1248481237891,1002.13009999999 -3.6036586202588,42.1256625093547,1005.83809999999 -3.60441332726833,42.1262616480713,1006.0187 -3.60547430768747,42.1274761854017,1002.9014 -3.6056528424603,42.1278339249421,1002.38069999999 -3.60579935858146,42.128236423898,1001.44130000001 -3.60615726535696,42.1287225743837,1000.8572 -3.60675690697879,42.1293178573925,1001.6422 -3.60730793357407,42.130172475955,1001.9372 -3.60775317995137,42.1306733787003,1001.3977 -3.60803296833144,42.1310150253961,999.323499999999 -3.6080748774344,42.1314269115193,995.361999999994 -3.60825978216092,42.1316954679408,995.589600000007 -3.60864467881911,42.1317932006668,996.912800000006 -3.60926192292893,42.1320718156867,998.870800000004 -3.60956182728318,42.1323443951489,999.389200000005 -3.61029172282455,42.1331597862087,997.797900000005 -3.61106989921921,42.1342080270814,994.570200000002 -3.61186031246468,42.1354423460988,992.545199999993 -3.61211394909018,42.13572682786,992.920599999998 -3.61238703154666,42.1359045244756,993.580199999997 -3.61360106602559,42.136988304426,995.156900000002 -3.61494904380497,42.1381436658788,996.411200000002 -3.61634463049776,42.1399964021662,993.367199999993 -3.61709196144049,42.1409908311474,990.670400000003 -3.61765086626081,42.141594160466,989.401800000007 -3.6180124615189,42.1419083141105,988.739100000006 -3.61909389478041,42.1427879112449,986.607600000003 -3.62083230194181,42.1442792190052,984.467799999999 -3.62128660064226,42.1446428262003,984.268100000001 -3.62181767835002,42.1455319784564,985.001999999993 -3.62271001534593,42.1466782877632,985.797600000005 -3.62312089667203,42.147324029676,989.087100000004 -3.62399613513481,42.1482874455591,992.600200000001 -3.62428698716594,42.1488099730663,994.342499999999 -3.62485494430938,42.1496691185154,992.816999999995 -3.62557226792837,42.1512598356373,988.149600000004 -3.62569615279258,42.1518728883467,988.372199999998 -3.62607635575341,42.1530371346315,985.839000000007 -3.62635698136334,42.1537331678352,985.562399999995 -3.62652411651521,42.1541782467509,987.511100000003 -3.62698998282155,42.1549111604214,991.784199999995 -3.62754989375499,42.1557387892705,992.494399999996 -3.62811550539724,42.1563327315268,994.316900000005 -3.62815959381306,42.1565166300926,994.898400000005 -3.62805481970822,42.1568049674717,995.898000000001 -3.62887892875998,42.1576852353166,992.972899999993 -3.62969398459028,42.1582030691133,987.333700000003 -3.62995365609789,42.1584092637055,985.369300000006 -3.63056218295621,42.1584644166712,982.798299999995 -3.63084481989405,42.158613615048,981.243000000002 -3.63127816449217,42.1587958375496,978.3894 -3.63191317727828,42.1595465206132,973.960699999996 -3.63226287075715,42.1598556448687,972.405599999998 -3.63238306713879,42.1601030790286,971.815400000007 -3.63228986063985,42.1603191646106,971.164499999999 -3.63286988844579,42.1610497311644,969.057499999995 -3.63341353807593,42.1618092989375,968.163100000005 -3.63379776459096,42.1623180804053,971.814499999993 -3.63387672201284,42.1630229987217,980.731700000004 -3.63419892255244,42.1632110887654,982.159799999994 -3.63442422811052,42.1634967441853,985.0576 -3.63455397987185,42.1636751106211,985.665200000003 -3.63495195240733,42.164528556368,982.4859 -3.63531824226108,42.1650877969259,982.769700000004 -3.63544296435512,42.1652673374162,982.9139 -3.6357038099608,42.1654805728805,983.189700000003 -3.63577304401806,42.1656091510213,983.148199999996 -3.63602634557199,42.165865301773,980.634900000005 -3.63647712377481,42.1660054473326,978.222899999993 -3.63663554167518,42.1661469342343,975.171700000006 -3.63673411291299,42.1662664597114,973.737800000003 -3.63671869063619,42.1663853151377,973.285600000003 -3.63678406912424,42.1665325013474,972.461299999995 -3.63675942653936,42.1666374431474,971.739499999996 -3.63690476856245,42.1667311529494,969.240399999995 -3.63718287978788,42.167062405354,965.315799999997 -3.63823682100845,42.1675783953313,955.339699999997 -3.63860294197891,42.1681191959085,955.530599999998 -3.6388374678451,42.1682409008519,958.207999999999 -3.63892966912922,42.1685460024346,960.988400000002 -3.63921783879089,42.1689518539304,962.327399999995 -3.63955177402304,42.1692428737464,963.017000000007 -3.63982502356614,42.1694183910114,964.6823 -3.64002652466754,42.1696220709633,967.018400000001 -3.64056196100106,42.1705496124313,969.261799999993 -3.6410425785427,42.1711058357097,970.724900000001 -3.64137182007749,42.171349916292,972.0101 -3.64193441338036,42.1720311976578,976.224400000006 -3.64205762720304,42.1724662186405,978.536699999997 -3.6422304621654,42.1727743370531,978.948399999994 -3.64252634386377,42.1730883233002,981.027000000002 -3.64284787336185,42.1738450415929,979.113299999997 -3.64336302483794,42.17486327498,977.061000000002 -3.64354390690859,42.175098471432,976.873000000007 -3.64389225830443,42.1755604821259,978.459400000007 -3.64403106238888,42.1758689356383,979.730899999995 -3.64397658046521,42.176486346763,978.085500000001 -3.6440808515135,42.1772475912087,978.402100000007 -3.64407079307724,42.1780750530499,976.561900000001 -3.64415494725306,42.1784638054069,976.454299999998 -3.64415796469411,42.1787618658351,976.299899999998 -3.64407984540035,42.1790589203223,975.991399999999 -3.64404967098998,42.1795281394829,976.871599999999 -3.64385487491389,42.1800605580893,976.543300000005 -3.64387381858658,42.1804695948795,978.092300000004 -3.64373568464534,42.1810417437489,978.479500000001 -3.64351121721541,42.1813124788084,978.326499999996 -3.64316068560838,42.1824705226461,977.956900000005 -3.64271376297477,42.1831744349206,977.967799999999 -3.64250387969346,42.1838230268263,979.285000000003 -3.64192955169804,42.1846531703453,972.810599999997 -3.6417355946484,42.1853362953107,968.320399999997 -3.6417731460239,42.1855860759914,964.643500000006 -3.642137758723,42.1862036551616,959.290099999998 -3.64243799814883,42.1867823417351,955.237899999993 -3.64279372650977,42.187436968308,951.526100000003 -3.64302171353898,42.187649701049,950.8073 -3.64286597800808,42.1878396348051,946.595499999996 -3.64292448348591,42.1880278920042,944.106700000004 -3.64279758207898,42.1884315644492,941.354900000006 -3.64211847997869,42.1885324829897,939.463099999994 -3.64206450021327,42.1888744643947,940.676200000002 -3.64211244509662,42.1892521528241,939.453500000003 -3.64188026652828,42.1894571746206,937.846300000005 -3.64113092425761,42.189809046918,934.852400000003 -3.64087292900632,42.1902060135933,932.497399999993 -3.6403926465363,42.1913684157285,930.593200000003 -3.64048685914835,42.1917090566541,929.645000000004 -3.64139394827786,42.1929271144619,927.139999999999 -3.64154784046582,42.193287704076,926.335099999997 -3.64148883193145,42.1935705095769,925.676600000006 -3.64129722128133,42.1938477831679,924.575899999996 -3.64088432862729,42.1941098014105,923.7071 -3.64062583031946,42.1943213603178,923.303 -3.63994907551702,42.1955838426763,921.390299999999 -3.6399246009171,42.195771262214,921.587400000004 -3.6400421149293,42.1960433384392,921.519899999999 -3.63983692624369,42.1971717103998,920.630499999999 -3.6397862989909,42.1982796302132,918.8223 -3.63970968886684,42.1985790320212,917.679900000003 -3.63913167238883,42.1995384245956,915.947400000005 -3.63875230755616,42.2004869208236,913.805200000003 -3.63849665960272,42.20101095707,913.005099999995 -3.63820027574607,42.2014037335184,910.715700000001 -3.63734716548369,42.2023022735801,908.908100000001 -3.63803632602021,42.2035867163393,906.6054 -3.63810991870322,42.2038591282319,906.388000000006 -3.63795535637206,42.2051777693009,901.934599999993 -3.63798871620844,42.2058677670982,900.447199999995 -3.63789081601216,42.2062380797124,899.850200000001 -3.63746317122453,42.2067875971776,899.208400000003 -3.63678088369823,42.207524031425,898.539799999999 -3.63665029380875,42.207725197206,898.685299999997 -3.63657083333029,42.2088047862669,896.361300000004 -3.63649589946258,42.2104260139255,894.4516 -3.6364638808109,42.2112130747839,895.961299999995 -3.63609172406004,42.2125754690615,892.136299999998 -3.63568084273391,42.2141930085077,892.630999999994 -3.63559048658939,42.2143760695286,893.943499999994 -3.63577136776175,42.2143195754552,893.505099999995 -3.63610848752155,42.2142515146401,893.205499999996 -3.63645298424651,42.2143120319969,893.0622 -3.63694014062506,42.2145484016888,892.447899999999 -3.63720383478854,42.2147727015835,891.8024 -3.63789081601216,42.2152650541245,889.885399999999 -3.63860763567628,42.2159082816748,888.714000000007 -3.63879773805501,42.2160635145959,888.501399999994 -3.63903678963357,42.2161332520256,888.262499999997 -3.63923208786795,42.2160923483246,888.530899999998 -3.6396171525111,42.2161961161077,888.1921 -3.64001411983179,42.2164051607356,888.039900000003 -3.64031888586833,42.2166467272415,888.142699999997 -3.64055190256482,42.2169496492549,887.845499999996 -3.64079162518492,42.2169915589952,888.282099999997 -3.64118624520777,42.2177098875134,888.036699999997 -3.64141020958115,42.2180270588509,887.608800000002 -3.64160517274387,42.2181465847226,887.482699999993 -3.64196190631963,42.2181975468594,887.355800000005 -3.64241788127636,42.2184434720884,886.9133 -3.64285105878785,42.2187651696224,887.133400000006 -3.64341499327542,42.2188225012955,888.054999999993 -3.64379184282532,42.2189371658161,891.479999999996 -3.64404899994845,42.2191271000085,894.105899999995 -3.64399988186536,42.2196196208436,894.877600000007 -3.64399736748088,42.220252622195,894.189899999998 -3.64423641905945,42.2207201644687,892.525800000003 -3.64431001264079,42.2213060596444,889.244500000001 -3.64437455300069,42.2214562633113,888.675600000002 -3.64492289722653,42.2217479535078,887.757599999997 -3.64506388062384,42.2218879313007,888.641900000002 -3.64522883646285,42.2221142427669,890.570999999996 -3.645463362329,42.2221636955923,890.487200000003 -3.64597683754878,42.222144082241,888.480599999995 -3.64638151600786,42.2220411524604,887.618700000006 -3.64656172703701,42.2220503727404,887.025800000003 -3.64690287035098,42.2222341035017,887.032300000006 -3.64695685011643,42.2223521212924,887.691900000005 -3.64669365811119,42.2225854733066,887.785799999998 -3.64616140720368,42.2229904869719,887.449600000007 -3.64608194672523,42.2231584603066,887.737599999993 -3.64595387122022,42.2245101257036,883.468299999993 -3.64547861751915,42.224813718449,881.547099999996 -3.6447530797052,42.2251758163894,881.669200000004 -3.64451084270066,42.2253721204816,882.617100000003 -3.64480689148569,42.2256698459594,881.831600000005 -3.64512640965583,42.2260423374241,881.212799999994 -3.64585882048001,42.2274939160226,880.482799999998 -3.64601220961142,42.2277141921344,880.733699999997 -3.64620834597392,42.2278317061156,880.554199999999 -3.64637631925395,42.2278474642965,880.365099999995 -3.64663096109427,42.2278283535937,880.247199999998 -3.64682441598564,42.2278672454976,880.5916 -3.64699959734751,42.2279933094336,880.187999999995 -3.64718550818714,42.2282249856329,879.997199999998 -3.64747937765929,42.2285101378091,881.106899999999 -3.64762019397,42.2286834757201,881.986900000004 -3.64787919443607,42.2288485989444,881.361399999994 -3.64881545276116,42.2291132996694,882.670700000002 -3.64966269612643,42.2293808495232,883.521099999998 -3.65042192884838,42.2297100908209,883.334700000007 -3.65086197847177,42.2299481369492,881.223199999993 -3.65106599395764,42.2300601192973,880.963699999993 -3.65130387233643,42.2301109135106,881.449200000003 -3.65144871220127,42.2301295213276,882.418300000005 -3.6518939585786,42.2299707683694,882.151299999998 -3.6522766759239,42.2301248273026,881.247700000007 -3.65261949639255,42.2302254105311,883.200899999996 -3.65285854797111,42.2304585950922,883.998099999997 -3.65297589489665,42.2306160072044,884.952999999994 -3.65335911529856,42.2306966410584,885.359200000006 -3.65396294756119,42.2307821364042,883.882199999993 -3.65445999439105,42.2308988125708,882.388300000006 -3.65566799398788,42.2310451601621,878.521299999993 -3.65603076334403,42.2312035785097,878.482799999998 -3.65671589942806,42.2315836139708,878.713600000003 -3.65706659812171,42.2317467255369,878.636400000003 -3.65737203519978,42.2318367470733,878.221000000005 -3.65763170670739,42.231966164031,878.815499999997 -3.65814803138326,42.2320940715253,878.049700000003 -3.65900466214323,42.2325341219564,877.200800000006 -3.6598049667383,42.2328346969958,877.097899999993 -3.6606786960314,42.2335622461148,877.3465 -3.66138244071656,42.2341377473963,878.296300000002 -3.66187999060296,42.2347541523611,876.974799999996 -3.66219196472137,42.2350401430064,877.3603 -3.66248097251119,42.2352550553197,878.494399999996 -3.66282563632278,42.2353804487093,877.904299999995 -3.66307994309149,42.2354731520766,877.157399999996 -3.66338286578508,42.2359061615013,875.802899999995 -3.66352854287979,42.2359368391304,875.994000000006 -3.66372585334036,42.2360020505752,875.209199999998 -3.66413388431207,42.2365101612021,874.397899999996 -3.66453085073443,42.2370340302764,873.609200000006 -3.66538848760755,42.2378018127684,872.988700000002 -3.66509981488932,42.2379902376831,873.567200000005 -3.66555109614871,42.2384130209921,872.313699999999 -3.66609692599008,42.2388371455688,871.8223 -3.66645097719637,42.2391390612862,872.605100000001 -3.66682598340329,42.2394490241214,877.206900000005 -3.66709487521897,42.2398530317683,875.749599999996 -3.66731984570547,42.2402431259353,876.370500000005 -3.66739494755818,42.2407520749556,874.858800000002 -3.6672615073143,42.2411186995262,873.736999999994 -3.66708414663954,42.2414455938536,873.165500000003 -3.66676144304339,42.2427380827496,873.804099999994 -3.66627629889104,42.2446593828749,875.774000000005 -3.66614252357558,42.2449341419564,877.039999999994 -3.66553215337432,42.2459734973039,881.1152 -3.66493754052144,42.2465860467817,885.902600000001 -3.66480594541717,42.2470742092316,887.270199999999 -3.66508221240132,42.2484530323942,889.360799999995 -3.66527248186671,42.2490501593358,888.648499999996 -3.66497894746615,42.2495817395009,887.380499999999 -3.66498615554799,42.2502653673466,885.784 -3.66516770776185,42.2512110138661,886.873099999997 -3.66510920228405,42.251584846703,888.233399999997 -3.66552846489177,42.2517204655352,888.313099999999 -3.66531237964173,42.2521021773989,888.1734 -3.66489999004427,42.2542740964361,897.364700000006 -3.66534087779582,42.254414241463,898.809500000003 -3.66569073836132,42.2548977096611,897.013099999996 -3.66585737135494,42.2563737631195,893.159199999995 -3.66659749331753,42.2573232654019,890.629400000005 -3.66805443584254,42.2591937707398,882.918399999995 -3.66798754818479,42.2595996225552,879.468699999998 -3.66824101682537,42.2600036301412,874.640599999999 -3.66830488704207,42.2604351302364,871.776199999993 -3.66818904838786,42.2607003340523,871.059200000003 -3.66820698594747,42.2612731532023,869.816900000005 -3.66768546361936,42.2624660657302,870.623699999996 -3.6674811130619,42.2633310782055,873.334700000007 -3.6675436420939,42.2636569665913,875.669899999994 -3.66795502647657,42.2643949094188,883.454299999998 -3.66794530311192,42.2645888664471,887.930600000007 -3.668332547068,42.2653006575811,892.766499999998 -3.66834042619134,42.2660498319078,896.287599999996 -3.66794463207042,42.2667748667634,903.9807 -3.6677972787194,42.267768625186,908.342399999994 -3.6680639903239,42.2686794029209,912.464699999997 -3.66844519939787,42.2691100652216,911.989600000001 -3.66842307119747,42.2692991604172,912.219500000007 -3.66819608938307,42.2694637811692,915.082299999995 -3.66797480737912,42.2701656818194,924.914099999995 -3.66806348816565,42.2704191507066,925.821599999996 -3.66806901999118,42.2709493894746,928.623900000006 -3.66772653549248,42.2718923541215,932.793799999999 -3.66743501241986,42.2722477468199,935.560500000007 -3.66732487447442,42.2726302969323,935.828299999994 -3.66734800878794,42.2730262578361,939.600900000005 -3.66784757000227,42.2737199443463,950.780899999998 -3.66777582066224,42.2745385206877,955.826300000001 -3.66781102473989,42.2749720330112,956.228099999993 -3.66764355451644,42.2755517248929,956.489499999996 -3.66755956742724,42.2760130648465,956.751199999999 -3.66769149939975,42.2763560528125,957.088300000003 -3.66754196583758,42.2766469043473,957.320399999997 -3.66764405757298,42.2769050669608,957.661500000002 -3.66754615647837,42.2770609707212,957.853099999993 -3.6674355154764,42.2772936525112,957.892099999997 -3.66748010694879,42.2777982428604,958.030400000003 -3.66783801462262,42.2783955372554,955.283100000001 -3.66767322676856,42.2794395871568,948.995699999999 -3.66781638947876,42.2800474429553,945.7258 -3.66765143363978,42.2810631619133,942.534299999999 -3.66692338144135,42.2823281589212,941.619000000006 -3.6661522460419,42.2832458095622,939.522700000001 -3.66603925864041,42.2836377474376,935.517500000002 -3.66514893207411,42.2843384740823,929.208400000003 -3.66519503271616,42.2850046680054,926.532900000006 -3.6647858285447,42.2857707740342,922.479999999996 -3.66504315275446,42.2864238921141,922.478700000007 -3.66572242194138,42.2872082701568,922.101200000005 -3.66583289585669,42.2881820796892,921.7117 -3.66610849269768,42.2886410730466,919.558900000004 -3.66584362443616,42.2892008160794,915.571599999996 -3.66587849344223,42.2896616533971,912.900500000003 -3.66637939584126,42.2905955650439,909.649799999999 -3.66678373922875,42.2909279915328,907.410199999998 -3.66762712612652,42.2920536809934,904.900699999998 -3.66796692825578,42.2929367983047,903.885399999999 -3.66797581349224,42.2937697915816,902.935800000007 -3.66780951646853,42.2951992417991,901.672300000006 -3.66768630264585,42.2956999763715,901.640199999994 -3.66764606890091,42.2962766516016,900.844599999997 -3.66779023772422,42.2972720863533,900.286500000002 -3.66774061658455,42.2984175570502,899.491099999999 -3.66779929004734,42.2986309604184,898.058799999999 -3.66828259085671,42.2991015204656,893.827600000004 -3.66787858343917,42.299787160103,891.803400000004 -3.66783818260757,42.3003378510451,892.451199999996 -3.66791680495787,42.3006546867767,893.190199999997 -3.66786399839219,42.3007849418824,893.988500000007 -3.66800850228712,42.3009891251631,895.625599999999 -3.66797648363544,42.3015175200942,899.501300000004 -3.66830471905711,42.3020717318402,900.266600000003 -3.66874443360892,42.3028740475989,897.691000000006 -3.66942135639631,42.3033714297745,895.298200000005 -3.67012627428122,42.3047386854773,895.428100000005 -3.67010297288107,42.3048743048985,896.809099999999 -3.67023574208342,42.3051452080233,898.565300000002 -3.6704067328045,42.3053710162079,900.614499999996 -3.67076614874969,42.3059917800829,904.555099999998 -3.67117082720876,42.3064526167802,904.096699999995 -3.67145413518813,42.3070903121719,905.338099999994 -3.6717805263685,42.3074336351855,910.494300000006 -3.67196023434111,42.3078735173853,915.116099999999 -3.67186568665743,42.3083750905399,918.472599999994 -3.67166418555607,42.3087542876592,914.847099999999 -3.67159059287302,42.3090671003946,911.3321 -3.67162579695071,42.3094104232561,907.856100000005 -3.6715166642201,42.3100347073689,903.345300000001 -3.67162847932014,42.3103272355923,902.853600000002 -3.67196978972077,42.3106284815222,904.041299999997 -3.67216072932936,42.3108650185309,906.844700000001 -3.67260798793292,42.3112274522347,912.287100000001 -3.67271108578143,42.3113578741285,914.389999999999 -3.67261351975841,42.311474382637,915.984500000006 -3.67213692487264,42.3116349798144,919.494099999996 -3.67189619703775,42.3118071446566,922.877500000002 -3.67158170763657,42.3118574359291,928.361900000004 -3.67158321680622,42.3119863492312,930.474700000006 -3.6719101110432,42.3120326173904,929.825500000006 -3.67244001465286,42.3119085655033,929.420800000007 -3.67291074264152,42.3119025303716,932.380900000004 -3.67344500487697,42.3118177056545,937.0674 -3.67457522115002,42.3121846656818,945.051500000001 -3.67522632725447,42.3131524399597,950.808600000004 -3.67550510952143,42.3137614690459,953.137100000007 -3.67637598846013,42.3148472604485,962.307799999995 -3.67717595798358,42.3155429588481,972.184200000003 -3.67820844024866,42.3166433349278,969.916599999997 -3.67895711237609,42.317341547544,967.495999999999 -3.68022780898991,42.3180126026078,966.309200000003 -3.68078034385655,42.3181933165779,965.864600000001 -3.68203209679761,42.3186933807431,963.848899999997 -3.68228824780762,42.3188801298781,962.471000000005 -3.68375625488198,42.3194522780492,961.172500000001 -3.68441926276563,42.3198455574889,960.473599999998 -3.6851598877848,42.320340592431,958.751000000004 -3.68559759100867,42.320540081447,958.236099999995 -3.68707716479062,42.3213708956308,952.370500000005 -3.68732057499497,42.3215086943078,951.472699999998 -3.68869470452888,42.3226633852411,942.009600000005 -3.68872068829846,42.3228248206227,941.335099999997 -3.68779012888556,42.3235037547535,938.447 -3.68609413478195,42.3244567772385,934.016900000002 -3.68541335642535,42.3247301949451,930.735499999995 -3.68407526999557,42.3252143338386,927.062099999996 -3.68306642420226,42.3253749311538,922.701700000005 -3.6833368242893,42.3259316571924,921.317800000004 -3.68451263724953,42.3255776054206,925.684999999998 -3.6858111618742,42.3252830652917,926.881500000003 -3.68702687350778,42.3248681609388,924.746499999994 -3.68822179722733,42.324408329792,926.485000000001 -3.68901271352936,42.324192244229,931.039300000004 -3.68949182369795,42.3239986227674,937.248999999996 -3.68957765413005,42.3244187232983,934.4853 -3.68977462862074,42.3248002678666,933.001199999999 -3.68994394308547,42.3250681536425,930.524699999994 -3.69017209899797,42.3254258930055,928.807199999996 -3.69045607712054,42.3258904182233,927.401700000002 -3.69108522300954,42.3269190452464,920.462899999999 -3.69158495220884,42.327442076161,915.979000000007 -3.69238710014685,42.3282060029554,909.510299999994 -3.69327826394301,42.3291925523984,899.566500000001 -3.69379324833244,42.3297816331867,893.448099999994 -3.69454292567473,42.3305410336231,889.414300000004 -3.69489563659461,42.3309971767197,883.626499999998 -3.69519369670755,42.3314067159728,881.478499999997 -3.69539637100869,42.3320589961449,880.280400000003 -3.69549494224653,42.3323590682134,879.467799999999 -3.69567800273174,42.3326427115706,878.344800000006 -3.69650328498327,42.3327905682228,878.246299999999 -3.69704492418382,42.3329283671221,872.406400000007 -3.69695926083834,42.3330512453279,873.117899999997 -3.69701910750087,42.3332443647804,873.733900000007 -3.69647210445975,42.3334213905903,874.038499999995 -3.69644058886465,42.3336007633798,871.686100000006 -3.69690042028889,42.3340825549431,868.141000000003 -3.69714383049324,42.3346862197494,861.714900000006 -3.6975173275305,42.3351524210458,858.428700000004 -3.69786299745521,42.3354679161345,857.699399999998 -3.69824068603156,42.3357071354845,857.204100000003 -3.69873354222062,42.3360432496014,856.401400000002 -3.69906311882699,42.3363677970365,856.150699999998 -3.69950920333248,42.3368973658038,855.829599999997 -3.69943125202368,42.3372123574369,855.841400000005 -3.69917526810033,42.3376614599742,856.156099999993 -3.69898600474806,42.3382062836375,856.505000000005 -3.69892699621369,42.3387747440902,856.212899999999 -3.69897074955791,42.3391303045782,856.071800000005 -3.69902472932333,42.3394949174287,855.911600000007 -3.69921348961903,42.3396080730774,856.096900000004 -3.69927098988207,42.3399076423349,855.387700000007 -3.6995182556556,42.3404254763862,856.619399999996 -3.69969444313059,42.3405359498165,856.300799999997 -3.69985621444189,42.3408564741854,855.7307 -3.69995143226873,42.3411111160707,855.077699999994 -3.70001681165512,42.3414784112187,854.766000000003 -3.69982637420477,42.3419637232692,854.683900000004 -3.69963593765276,42.342424224843,855.470000000001 -3.69944499804417,42.3428610897193,855.778300000005</coordinates>
</LineString>
</Placemark>
</Folder>
</Document></kml>
