<?xml version="1.0" encoding="UTF-8"?>

<kml xmlns:xsd="http://www.w3.org/2001/XMLSchema" xmlns:gx="http://www.google.com/kml/ext/2.2" xmlns:atom="http://www.w3.org/2005/Atom" xmlns="http://www.opengis.net/kml/2.2">
<Document>
<name>ES44a_04a_molina_de_segura-archena</name>
<visibility>1</visibility>
<Schema name="ES44a_04a_molina_de_segura-archena" id="kml_schema_ft_ES44a_04a_molina_de_segura-archena">
<SimpleField type="xsd:string" name="id">
<displayName>id</displayName>
</SimpleField>
<SimpleField type="xsd:string" name="nombre">
<displayName>nombre</displayName>
</SimpleField>
<SimpleField type="xsd:double" name="longitud">
<displayName>longitud</displayName>
</SimpleField>
<SimpleField type="xsd:string" name="_formato">
<displayName>_formato</displayName>
</SimpleField>
</Schema>
<Folder id="kml_ft_ES44a_04a_molina_de_segura-archena">
<name>ES44a_04a_molina_de_segura-archena</name>
<Placemark id="kml_1">
<name>&lt;img height='20' src='https://nco.ign.es/iconos/icono_todos_caminos_azul.png' /&gt;&lt;img height='20' src='https://nco.ign.es/iconos/Camino Santiago_20.png' /&gt;&lt;img height='20' src='https://nco.ign.es/iconos/icono_todos_caminos_azul.png' /&gt;  Camino de Santiago </name>
<visibility>1</visibility>
<description><![CDATA[<!DOCTYPE html>
<html>
<head>
<style>
#nco {
  border-collapse: collapse;
  overflow:hidden;
}
#nco th, #nco td {
  padding: 4px;
  text-align: left;
}
#nco th {
  color: #364B5F;
  padding-right: 5px;
}
#nco td {
  color: rgb(51, 51, 51);
  font-size: 12px;
  padding-right: 5px;
}
</style>
</head>
<body>
<table id="nco">
<tr>
<td>Caminos del Sureste</td>
</tr>
<tr>
<th><b>Camino: </b></th>
<td>ES44a Camino del Sureste Cartagena-Murcia</td>
</tr>
<tr>
<th><b>Etapa: </b></th>
<td>04a Molina de Segura-Archena</td>
</tr>
<tr>
<th><b>Longitud: </b></th>
<td>17.19 km</td>
</tr>
</table>
</body>
</html>]]></description>
<Style>
<IconStyle>
<scale>0.8</scale>
</IconStyle>
<LabelStyle>
<color>ffffffff</color>
<scale>0.75</scale>
</LabelStyle>
<LineStyle>
<color>ffff0000</color>
<width>3.0</width>
<gx:labelVisibility>1</gx:labelVisibility>
</LineStyle>
<PolyStyle>
<color>66ff0000</color>
</PolyStyle>
</Style>
<ExtendedData>
<SchemaData schemaUrl="#kml_schema_ft_ES44a_04a_molina_de_segura-archena">
<SimpleData name="id">ES44a_04a</SimpleData>
<SimpleData name="_formato">kml</SimpleData>
</SchemaData>
</ExtendedData>
<LineString>
<extrude>0</extrude>
<tessellate>1</tessellate>
<coordinates>-1.211633607366,38.0463510009064,71.8996999999945 -1.2118800359097,38.0464222465963,71.7902999999933 -1.21232377401564,38.0466755477724,71.9228000000003 -1.21249157931071,38.0468156933208,69.9135999999999 -1.21273314617208,38.046751655317,69.2744999999995 -1.21291117699001,38.0469246579707,69.2930000000051 -1.21291033886185,38.0472978201144,69.0276000000013 -1.21307495962925,38.0475621858909,68.9311000000016 -1.21393091934772,38.0478894148748,68.7969000000012 -1.21470088154743,38.0481194143095,69.1646000000037 -1.21532985945147,38.0482468193601,69.1877999999997 -1.21618565208332,38.0483514256176,69.3078999999998 -1.21733112264819,38.0484649168465,69.287599999996 -1.21792288514664,38.0485328101695,69.2574000000022 -1.21837282522131,38.0486444568934,69.4060000000027 -1.21880181119368,38.0488233265822,68.9401999999973 -1.21954545365386,38.0491183699589,68.9309999999969 -1.22061481715124,38.0494073779827,68.8656999999948 -1.22148200850569,38.0496103873523,69.1910000000062 -1.2219101563499,38.0495993235691,69.2290999999968 -1.22277466623325,38.049457501849,69.397100000002 -1.22347338125113,38.0493284202318,69.5112999999983 -1.2241601944898,38.0491205487746,69.5060999999987 -1.22433437063689,38.0491079760165,69.4281000000046 -1.22453436256859,38.0491700022153,69.5139000000054 -1.22497826776116,38.0494167652454,69.5286999999953 -1.22556483350571,38.049816246985,69.5668000000005 -1.22601041585295,38.0502202545933,69.5489999999991 -1.22626723700617,38.0504467337821,69.8619000000035 -1.22644292232291,38.0504842844151,69.5959000000003 -1.22663687937252,38.0504544450933,69.7158999999956 -1.22709117807297,38.0502735640173,69.4184999999998 -1.22748244558317,38.0500742420329,69.5760000000009 -1.22775351671172,38.0498207736437,69.5432000000001 -1.22802408388542,38.0494734269361,69.6147999999957 -1.22829565807054,38.0490868535233,69.6429999999964 -1.22855968730557,38.0487809144765,69.7372000000032 -1.22887484684995,38.0485324748556,69.9631999999983 -1.22923728113449,38.0482650919167,70.2200000000012 -1.22977640505226,38.0480003912397,70.2274999999936 -1.23005820476027,38.0478714782488,70.4192000000039 -1.23021578453245,38.0478585699591,70.1407000000036 -1.23043823973614,38.0479076875207,70.2415000000037 -1.23094031623328,38.0481487516095,70.4030000000057 -1.2315441484959,38.0485157112788,70.1744000000035 -1.23210221518807,38.0489540842353,70.4263000000064 -1.23227270285257,38.0490964091903,70.4492999999929 -1.23253757111409,38.0494430849451,70.5577000000048 -1.23281300086841,38.0498138998285,70.6465000000026 -1.23304048573939,38.0499919319288,70.7906999999977 -1.23340928907928,38.0502680314686,70.7170000000042 -1.23356083396939,38.050394765706,70.8001999999979 -1.23359335567764,38.0505370906896,70.8784000000014 -1.23351842180989,38.0506668429061,70.7369999999937 -1.23312279567394,38.0508202316685,70.8937000000005 -1.23250672566219,38.0510750413431,70.9170000000013 -1.23208830118262,38.0512586049727,70.7158000000054 -1.23178336805943,38.0514285898804,70.7519999999931 -1.23142378412931,38.0515737643189,70.9465999999957 -1.23127844210623,38.0516523864705,70.9198000000033 -1.23098658396198,38.0518532172463,71.3071000000054 -1.23066438342241,38.05204918636,71.5224000000017 -1.23041745272047,38.0522178296584,71.4940000000061 -1.23017655690063,38.0524268743453,71.5697999999975 -1.23009558725248,38.0525686966789,71.7724000000017 -1.23001411544613,38.0529113487325,71.8062999999966 -1.23004043518562,38.0530281921919,72.0907000000007 -1.23010346637586,38.0532065595482,72.0586999999941 -1.23026557275874,38.0534018572849,71.6101999999955 -1.23047193554247,38.0536233071738,69.0642999999982 -1.2307103160795,38.0538507923128,70.2314999999944 -1.23090494417064,38.0540886706887,69.980899999995 -1.23097300502816,38.0542891658587,71.8782999999967 -1.23104223998372,38.0544997190785,71.9005999999936 -1.23111968823594,38.0547169781125,71.8315000000002 -1.23122647366871,38.0549412781856,72.3683000000019 -1.23140098488738,38.0551434495604,72.3650999999954 -1.23167591158516,38.0553082377571,72.0829999999987 -1.23214446026094,38.0554638060304,71.6129999999976 -1.23267855451142,38.0556369762486,71.7819000000018 -1.233237628215,38.0558205397551,71.8573000000033 -1.23378999509671,38.0560493655491,71.4873999999982 -1.2339514304381,38.0561548101716,71.3968000000023 -1.23417271334035,38.0563355239294,71.4321000000054 -1.2343763928563,38.056549094416,71.6820000000007 -1.23449306963864,38.0567103625815,71.8151999999973 -1.23463656742045,38.0569209159093,71.922900000005 -1.23475693178704,38.0571643262374,71.8606 -1.23488685153333,38.0574146102727,71.7986999999994 -1.23501811156601,38.0576670727207,72.1258999999991 -1.23517736759454,38.0579254029537,72.0663000000059 -1.23538037786559,38.0581699869219,72.2014000000054 -1.23558891906384,38.0584190969068,72.0957000000053 -1.23576611265198,38.0586268004943,72.2863999999972 -1.23597180439414,38.0588749052466,72.5507000000071 -1.23618839270072,38.0591385997057,72.4771999999939 -1.23648779489672,38.0595776439351,72.4618999999948 -1.23670388014672,38.0599288455935,74.0022000000026 -1.23696489283907,38.0601430867248,72.8129999999946 -1.23701937476273,38.0603080426109,72.8929000000062 -1.23685844247788,38.0610292215106,72.9882999999973 -1.23679725463062,38.0613564511181,73.0326999999961 -1.23691191918676,38.061682172035,73.0604000000021 -1.23720679387373,38.0620357209667,72.9554000000062 -1.23748993476644,38.0624311787299,72.8135000000038 -1.23781817018811,38.0631639246497,72.9677999999985 -1.23807918288042,38.0635927430974,73.0715000000055 -1.23847598221615,38.0641288494392,73.1199999999953 -1.23866893315264,38.0645145845182,73.2241999999969 -1.2390169503752,38.0653148888697,73.1900000000023 -1.23925248145617,38.0659242532416,73.1953999999969 -1.2394863362808,38.0666050316595,73.597099999999 -1.23973645240875,38.0670462546348,73.5872999999992 -1.24023903196243,38.067394607081,73.7021999999997 -1.24068327222661,38.0677293798025,73.6441999999952 -1.24135097470596,38.0682946556365,70.959400000007 -1.2415992465926,38.0685928836317,70.3687999999966 -1.24185975622837,38.0690512063957,74.614499999996 -1.24194072587648,38.0692290700599,75.4652999999962 -1.24230952921637,38.0696047471869,75.5969000000041 -1.24254254591287,38.0696545354407,75.0994999999966 -1.24285787344222,38.0695961977283,74.6572000000015 -1.24338576572401,38.0693306590642,74.474000000002 -1.24380586645989,38.068899326146,74.3804999999993 -1.24401658786933,38.0685407480994,74.3996999999945 -1.24421641271441,38.0679758079774,74.4741999999969 -1.24443199490784,38.0674152264001,74.1867000000057 -1.2445785101307,38.067295364813,74.0847000000067 -1.24488009163956,38.0671483466844,74.1803999999975 -1.24532500294528,38.0670160797638,74.1684999999998 -1.2457025235367,38.0670259704409,73.6812000000064 -1.24601399549684,38.0671315824206,73.368100000007 -1.24643074372008,38.0672849713303,73.4422999999952 -1.24709324944549,38.0673999714285,73.9939000000013 -1.24768752632842,38.0674718875943,74.647100000002 -1.2484715696202,38.0676182360342,74.8059999999969 -1.2498145177323,38.0679873746489,75.3681999999972 -1.25010989637414,38.0681012010651,75.3791000000056 -1.25020360592962,38.0681866966469,75.6453000000038 -1.25041399136917,38.0687409080576,75.3788000000059 -1.25071590794962,38.0694731509003,75.1227999999974 -1.25099267799035,38.0699190686957,75.275999999998 -1.25144965906023,38.0706199630175,76.0809000000008 -1.25161947658153,38.0710895174882,75.9688000000024 -1.25196145892198,38.0717045810893,75.5899000000063 -1.25233931458499,38.0723749659958,75.9412000000011 -1.25267459100188,38.0728217217878,75.8393999999971 -1.25319695055979,38.0732376314382,75.7326999999932 -1.2539030425428,38.0737613326532,75.5847000000067 -1.2541353890961,38.0738362671262,75.4208999999973 -1.25477543065119,38.074001390147,75.5359000000026 -1.25490082468506,38.0740999614096,74.9915999999939 -1.25511808313485,38.0745869505326,75.9024000000063 -1.25528873878431,38.0747956597703,76.170100000003 -1.25566776854539,38.0751926262265,76.1713000000018 -1.25582451018944,38.0753170140984,76.3105999999971 -1.25609390416337,38.0754010006664,76.039300000004 -1.25657485767489,38.0753198639309,75.8135000000038 -1.25739259677296,38.0749492157635,76.176999999996 -1.25838249889359,38.0745011194575,76.7621999999974 -1.25876856964986,38.074376397124,76.602899999998 -1.2590235474601,38.0743970165966,76.6361999999936 -1.25995092054873,38.0745621397658,76.2559000000037 -1.26066137115746,38.0746736187853,76.321299999996 -1.2611560706895,38.0746809951782,76.3285999999935 -1.26173743968014,38.0746307040184,76.6171000000031 -1.26194950227431,38.0746632256437,77.3145999999979 -1.26206416593212,38.0747658197538,77.531799999997 -1.2621189838257,38.0749264169849,77.3389000000025 -1.26211998993881,38.0753344482829,77.5050999999949 -1.26201270144947,38.0758167429056,77.5338999999949 -1.26157449516906,38.0765675940846,77.6168000000034 -1.26106856400104,38.0774771984118,76.9885000000068 -1.26061711475669,38.0783371816542,77.0996000000014 -1.26016315112786,38.0793022740084,78.1861000000063 -1.25982485726995,38.0798777750275,77.946299999996 -1.25931724894732,38.0806360020228,77.9799000000057 -1.25900242447452,38.0811151115592,78.0636999999988 -1.25894157259717,38.0814381501713,75.3788999999961 -1.25868575665877,38.0816783755029,78.7871000000014 -1.25836841780149,38.0824899114997,78.2476000000024 -1.25809667652975,38.0831716953511,78.2645000000048 -1.25793775557283,38.0840360371766,78.3371999999945 -1.25784136364789,38.0849602257844,77.5167999999976 -1.25785091902758,38.0854567698682,76.1143000000011 -1.25783935231999,38.0857216383834,77.8978000000061 -1.25810271141181,38.0865122193209,78.2654000000039 -1.25832969322624,38.0870414528154,78.2902999999933 -1.2586354653759,38.0873909777495,78.4631999999983 -1.25921951583764,38.0876773034274,78.3417999999947 -1.26033648824845,38.0881649628987,78.8769999999931 -1.2610083822669,38.0883389713175,78.5492999999988 -1.2618631678873,38.088435698416,78.7394000000058 -1.26243883706745,38.0886251292524,78.9257999999973 -1.26276489317623,38.0887897501232,78.850099999996 -1.26365303953134,38.0895012060188,78.9372000000003 -1.26433063336024,38.0901127493984,79.4578000000038 -1.264474299127,38.0903378876406,79.5687999999936 -1.26443775386462,38.0905308386865,79.5290999999997 -1.26393701855221,38.0909988845412,79.4318000000058 -1.26342991328612,38.0915046485765,79.6635999999999 -1.26329144427326,38.0917339771373,79.7516999999934 -1.26318516189707,38.0919577741682,79.7002999999968 -1.26297963813984,38.0922238153581,79.9688000000024 -1.26250622778174,38.092414923254,79.9150999999983 -1.26209149178473,38.0925661325191,79.695000000007 -1.26192318253479,38.0926194414908,79.8015000000014 -1.26178404337876,38.0925260668099,78.7584999999963 -1.26176359143467,38.0925577504728,78.8512000000046 -1.26155924087722,38.0928905118815,79.0083000000013 -1.26112740455046,38.0931862259451,79.023199999996 -1.26110762364791,38.0933454818767,79.5213999999978 -1.26158824208785,38.0939065667268,79.4103999999934 -1.26230925329109,38.0946264041177,79.9211000000068 -1.26274276497583,38.0949350259913,80.1483000000007 -1.26365739815709,38.095330484038,80.0461000000068 -1.26407314116552,38.0954919198019,80.0941000000021 -1.26434991120625,38.095693253069,79.9918999999936 -1.26490831386833,38.095886204117,80.0141000000003 -1.26551164307437,38.0959706937403,79.5014999999985 -1.26612251633222,38.0959671738126,80.1542999999947 -1.2665927412643,38.0958439592687,80.0923000000039 -1.26775732258853,38.0957772395623,81.2491000000009 -1.26813299983697,38.0958372537911,81.5804999999964 -1.26841613983139,38.0959924870307,81.7550999999949 -1.26811338602108,38.0962229891903,80.2970999999961 -1.26828236541423,38.0962632225413,80.867499999993 -1.26876952089448,38.0963207224521,80.5696000000025 -1.26890631365102,38.0963772163266,80.4667000000045 -1.26959128264842,38.0970588324908,80.9375 -1.26979714237556,38.0973387882244,81.122000000003 -1.27004759357506,38.0982069857024,81.1999999999971 -1.27009352713051,38.0985099080302,81.2753999999986 -1.26999529096429,38.0988483691538,80.7768999999971 -1.26976210628283,38.0992813782696,81.0663999999961 -1.26983704015058,38.1001554426782,81.6558999999979 -1.27006586620625,38.10103587787,81.3769000000029 -1.2702770906723,38.101538457137,81.5366000000067 -1.27049971386095,38.1020075083962,81.6760000000068 -1.27106113396404,38.1027501451716,81.8763999999937 -1.27127755428567,38.10303026784,82.0871999999945 -1.27165608099021,38.1034176794615,82.1831999999995 -1.2721397168712,38.1040795144712,82.6193000000058 -1.27237541593713,38.1042215038667,82.3380999999936 -1.27274522539014,38.1043066645726,82.2293000000063 -1.27442277977589,38.1043396890158,82.7563999999984 -1.27530271193605,38.1044156291327,83.1236000000063 -1.27628272360536,38.1042999584578,83.1834999999992 -1.27725133655204,38.1039868111214,84.1039000000019 -1.27768652539144,38.1037707255146,83.9732999999978 -1.2779901173299,38.1035107185955,83.1325999999972 -1.27844575811335,38.1033326873715,83.1064000000042 -1.27909166746388,38.1031952238462,83.2985000000044 -1.27941135361901,38.1031538173478,83.0234000000055 -1.2801005132572,38.1029793062581,82.5831999999937 -1.28099687380727,38.1028036213164,83.6827000000048 -1.28199817644713,38.1026839280073,83.7188000000024 -1.28234820409928,38.1027016978007,83.6486000000004 -1.28373473846895,38.1029107424346,84.6059999999998 -1.28386650245651,38.1029546634685,85.7563999999984 -1.28399809845911,38.1032294222202,84.6345000000001 -1.28410588910669,38.1031596844951,84.6009000000049 -1.2840359840079,38.1029697505599,85.4315000000061 -1.28412315652307,38.1028787232469,84.7437000000064 -1.28504466271455,38.1027620470633,84.7869000000064 -1.28561496715584,38.1026780608218,84.7847000000038 -1.28691567109341,38.1022437103562,85.071299999996 -1.28746116496483,38.1020795927007,84.4435999999987 -1.28800900613413,38.1018189152792,85.0553999999975 -1.28887703651507,38.1014916857326,85.4830999999976 -1.28998395048962,38.1011678089823,85.6983999999939 -1.29109639718802,38.1008357179435,86.0507999999973 -1.29174649717935,38.1007445232623,85.5837000000029 -1.29228377685585,38.1007061338762,85.3800999999949 -1.29335816912218,38.1008643844578,86.4182000000001 -1.2942964396735,38.1009409947997,86.0752999999968 -1.29489943380796,38.1010462715043,86.4092999999993 -1.295229177501,38.1012524663976,86.0673999999999 -1.2960348468349,38.1020070050859,86.7286000000022 -1.29613643551375,38.1019749862092,87.5761000000057 -1.29655720639283,38.1016957014121,86.6008000000002 -1.29696657854928,38.1014455851481,86.3711000000039 -1.2968728689938,38.1013644483313,87.088699999993 -1.29731224847398,38.1011946310533,86.9423999999999 -1.29757359623791,38.1016055123094,87.0837999999931 -1.29763931069588,38.1017092802405,87.0136000000057 -1.29775883603601,38.1017969547777,86.5859000000055 -1.29793720282389,38.1018516050705,86.6131000000023 -1.29796100817891,38.1019179898169,86.4955999999947 -1.29794189741956,38.1020916622358,87.3530000000028 -1.29812495790477,38.1023823469928,88.0430999999953 -1.29842134176142,38.1028066390239,88.5369999999966 -1.29871990493094,38.1032490354353,88.536300000007 -1.29898326492109,38.1036848947686,87.9492999999929 -1.29918862159167,38.1041100246593,88.352899999998 -1.29942448774426,38.104527443638,88.626099999994 -1.29973093003711,38.104957937994,89.4670999999944 -1.29990845959513,38.1051644682126,90.7795999999944 -1.2999808790784,38.105319533197,90.9027999999962 -1.30004290505382,38.1056985634503,90.4328999999998 -1.30004022268439,38.1061406249724,90.1404000000039 -1.29999227780104,38.1064579639063,90.4036999999953 -1.29977753373573,38.1067669203383,90.3871999999974 -1.29958692919876,38.106906227674,90.2446000000054 -1.29920823540759,38.1070787275925,90.2090999999928 -1.29842855074156,38.1072914600375,89.9600999999966 -1.29750117675464,38.107434120347,90.0288 -1.29689063856841,38.1074532305743,90.2339000000065 -1.29626367199227,38.1075261534765,90.153999999995 -1.29578003700961,38.1076411531984,89.895399999994 -1.29495928047049,38.1078773553233,89.8047999999981 -1.29408270082301,38.108124621514,90.6045000000013 -1.29382453848506,38.1082329152469,90.3592000000062 -1.29345070547788,38.1085235996024,90.9294999999984 -1.29295030613539,38.1089203991837,91.4112000000023 -1.29244571525378,38.1092771330162,91.7624999999971 -1.29212234151443,38.1094625403088,92.6215999999986 -1.2919396161008,38.1096999162301,92.571100000001 -1.29179092156508,38.1101037563976,92.3938999999955 -1.29176795523655,38.1103314086913,92.5402000000031 -1.29183065135518,38.1105763277297,92.9247999999934 -1.2920448932622,38.1108314727952,93.0402999999933 -1.29245292423395,38.1111374124509,92.4051999999938 -1.29281166913761,38.1112825871355,92.1686999999947 -1.29312749972349,38.1113072299433,92.4934999999969 -1.29345724341653,38.1114959901114,92.9008000000031 -1.29365790638976,38.1115789710363,92.6913000000059 -1.29373217011431,38.1115441022798,92.8610000000044 -1.29367098226705,38.1113451161677,93.0014999999985 -1.29383141149532,38.1113053858854,93.7951999999932 -1.29391171010193,38.1115566756162,93.5426000000007 -1.29393165898944,38.111896980424,93.2688999999955 -1.29411052883386,38.112149611036,93.5650000000023 -1.29437204458274,38.1125534510889,93.7287000000069 -1.29455879355054,38.1129041502679,94.2583000000013 -1.29465233512106,38.1131306290458,94.1800999999978 -1.29464747343874,38.1136430985383,94.0917999999947 -1.29468603092739,38.1140720846238,94.1113999999943 -1.29469575339371,38.1148842907271,93.7458000000042 -1.2946764755477,38.1151082550397,99.0328000000009 -1.29657011518346,38.1151672639142,100.888600000006 -1.29698149866784,38.1151370891123,101.940000000002 -1.29742054307644,38.1149230154472,102.831900000005 -1.29760695607429,38.1149749829137,103.3704 -1.29812613110455,38.1155670806304,105.893899999995 -1.29844229676205,38.1159814820019,107.345100000006 -1.29857389276465,38.1162064522016,108.0625 -1.29865603561254,38.1171207501342,113.905599999998 -1.29882300277945,38.1175058148413,115.737399999998</coordinates>
</LineString>
</Placemark>
</Folder>
</Document></kml>
