<?xml version="1.0" encoding="UTF-8"?>

<kml xmlns:xsd="http://www.w3.org/2001/XMLSchema" xmlns:gx="http://www.google.com/kml/ext/2.2" xmlns:atom="http://www.w3.org/2005/Atom" xmlns="http://www.opengis.net/kml/2.2">
<Document>
<name>ES44a_02a_corvera-murcia</name>
<visibility>1</visibility>
<Schema name="ES44a_02a_corvera-murcia" id="kml_schema_ft_ES44a_02a_corvera-murcia">
<SimpleField type="xsd:string" name="id">
<displayName>id</displayName>
</SimpleField>
<SimpleField type="xsd:string" name="nombre">
<displayName>nombre</displayName>
</SimpleField>
<SimpleField type="xsd:double" name="longitud">
<displayName>longitud</displayName>
</SimpleField>
<SimpleField type="xsd:string" name="_formato">
<displayName>_formato</displayName>
</SimpleField>
</Schema>
<Folder id="kml_ft_ES44a_02a_corvera-murcia">
<name>ES44a_02a_corvera-murcia</name>
<Placemark id="kml_1">
<name>&lt;img height='20' src='https://nco.ign.es/iconos/icono_todos_caminos_azul.png' /&gt;&lt;img height='20' src='https://nco.ign.es/iconos/Camino Santiago_20.png' /&gt;&lt;img height='20' src='https://nco.ign.es/iconos/icono_todos_caminos_azul.png' /&gt;  Camino de Santiago </name>
<visibility>1</visibility>
<description><![CDATA[<!DOCTYPE html>
<html>
<head>
<style>
#nco {
  border-collapse: collapse;
  overflow:hidden;
}
#nco th, #nco td {
  padding: 4px;
  text-align: left;
}
#nco th {
  color: #364B5F;
  padding-right: 5px;
}
#nco td {
  color: rgb(51, 51, 51);
  font-size: 12px;
  padding-right: 5px;
}
</style>
</head>
<body>
<table id="nco">
<tr>
<td>Caminos del Sureste</td>
</tr>
<tr>
<th><b>Camino: </b></th>
<td>ES44a Camino del Sureste Cartagena-Murcia</td>
</tr>
<tr>
<th><b>Etapa: </b></th>
<td>02a Corvera-Murcia</td>
</tr>
<tr>
<th><b>Longitud: </b></th>
<td>28.25 km</td>
</tr>
</table>
</body>
</html>]]></description>
<Style>
<IconStyle>
<scale>0.8</scale>
</IconStyle>
<LabelStyle>
<color>ffffffff</color>
<scale>0.75</scale>
</LabelStyle>
<LineStyle>
<color>ffff0000</color>
<width>3.0</width>
<gx:labelVisibility>1</gx:labelVisibility>
</LineStyle>
<PolyStyle>
<color>66ff0000</color>
</PolyStyle>
</Style>
<ExtendedData>
<SchemaData schemaUrl="#kml_schema_ft_ES44a_02a_corvera-murcia">
<SimpleData name="id">ES44a_02a</SimpleData>
<SimpleData name="_formato">kml</SimpleData>
</SchemaData>
</ExtendedData>
<LineString>
<extrude>0</extrude>
<tessellate>1</tessellate>
<coordinates>-1.1298450083065,37.9831137319656,42.7785000000003 -1.12985489875778,37.9830263924299,42.5503000000026 -1.12950369700754,37.9829576609648,43.463699999993 -1.12948995098706,37.982908208143,43.5121999999974 -1.12948643048947,37.9828267359554,43.4299000000028 -1.12931091315768,37.982636466969,42.4936000000016 -1.12950269089443,37.9820455426151,42.0862999999954 -1.12987032193288,37.9815992900643,41.9026000000013 -1.13032478861828,37.9814752379028,42.513300000006 -1.1302565597758,37.9813627524329,42.6016999999993 -1.12992681518447,37.9809389633774,43.1349000000046 -1.12933253830151,37.9802925514514,43.0339999999997 -1.12899089193097,37.9798476399589,42.9171999999962 -1.12912885878558,37.9797587918714,42.9342000000033 -1.12905325387631,37.9796578737727,42.9946000000054 -1.12858386707237,37.9791613292717,43.6350999999995 -1.12808765837067,37.9787913520315,43.1432999999961 -1.12703891480234,37.9780770469019,43.0684000000037 -1.12582672366638,37.977381516477,43.2229999999981 -1.12475853426708,37.9767560586616,42.7357000000047 -1.12435804644879,37.976501416073,42.7032000000036 -1.12404858671489,37.9761354623729,42.6970000000001 -1.12363603003077,37.9754595461483,42.6034000000072 -1.12334014833236,37.9746579008765,42.3065000000061 -1.12316781642658,37.9739856717493,42.4397000000026 -1.12314870566723,37.9738101550758,42.5636999999988 -1.12301560139327,37.9732675107643,41.4523000000045 -1.12293546987328,37.9729766586509,41.2446999999956 -1.12277537571663,37.972590755886,41.1575000000012 -1.12228117924116,37.9716632139497,40.9499999999971 -1.12212561079688,37.9712997748783,40.8423000000039 -1.12191271007455,37.9708538578093,41.0124000000069 -1.12186962777182,37.9706246964995,41.0472000000009 -1.12183274743786,37.9704904182719,41.2424000000028 -1.12200675559995,37.9703985526852,41.5265000000072 -1.12186996284344,37.970177270469,41.7234999999928 -1.12169612176797,37.9701871607688,41.6128000000026 -1.12166695257239,37.9701586625949,41.5513000000064 -1.12156787917634,37.9701023361433,41.4244999999937 -1.12148506528692,37.9697499609376,41.1448999999993 -1.12139822874166,37.9692572727185,41.133600000001 -1.12136755127472,37.9677041062701,40.9890000000014 -1.12123981084129,37.9670013672225,41.0118999999977 -1.12107049637657,37.9663876444676,40.8068000000058 -1.12085357299837,37.9656731711821,40.807799999995 -1.12067822365154,37.964977472942,40.7948999999935 -1.12045241503688,37.9643825253354,40.6242999999959 -1.12022660642223,37.9636727458273,40.5957000000053 -1.12000683358797,37.9629911296777,40.5963000000047 -1.11981371376819,37.9623306355858,40.9456999999966 -1.11965328453992,37.961613815338,42.5534999999945 -1.11956125124076,37.961391359273,42.6946000000025 -1.11922262231123,37.9606698454149,42.0837000000029 -1.11914249168958,37.9605082419009,42.1601999999984 -1.11890478039741,37.9599412906528,41.8706999999995 -1.11857503670438,37.9592127350377,41.8674000000028 -1.11823640777489,37.9584841799864,41.9532000000036 -1.11790951353795,37.9577650131699,42.119200000001 -1.11758563674203,37.9570458456863,43.1345000000001 -1.11725287470965,37.9563478005584,43.1484999999957 -1.11694978582773,37.955668363889,43.158500000005 -1.11653974262979,37.9549773597942,45.7930999999953 -1.11615048734581,37.9543542490235,43.5831000000035 -1.11574346158888,37.9538974355588,46.7418999999936 -1.115502733754,37.9535272906191,45.002800000002 -1.11510459323357,37.9528408124902,43.5871000000043 -1.1147064527131,37.9521566817723,43.2914000000019 -1.1145103163506,37.9516529293997,43.1633000000002 -1.1142994278545,37.9510368590988,43.145399999994 -1.11409440625552,37.950373850489,43.2743000000046 -1.11383590884601,37.9496944138158,43.5608999999968 -1.11358931321569,37.9491180739092,42.8046999999933 -1.11318228745876,37.9484081270442,42.303899999999 -1.11277526260013,37.9477075672339,42.4354000000021 -1.11264450472569,37.9474053157718,42.5325000000012 -1.11268021185995,37.9471546970618,42.2697999999946 -1.11261483247357,37.9470656811898,41.9878999999928 -1.1124544032453,37.9469696244856,42.4937999999966 -1.11231777847371,37.9468806090979,42.6364999999932 -1.11224653219022,37.9467399607684,42.7437000000064 -1.11188996570112,37.9461448455883,44.1940000000031 -1.11159961672656,37.9455740374168,47.900999999998 -1.111485455227,37.9453983529442,48.4323000000004 -1.11153591449483,37.9453648253632,48.4600999999966 -1.11193120466087,37.9450783320981,48.6046999999962 -1.11273754413801,37.9446302353979,48.6392000000051 -1.11318061120245,37.9443083700247,48.9676999999938 -1.1135951801128,37.9438369721133,48.8907000000036 -1.11376449457756,37.9435417613683,48.8576999999932 -1.11388636721551,37.9432066527979,48.8303000000014 -1.11409440625552,37.942749839443,48.7560999999987 -1.1143000979977,37.9424340095133,48.9953999999998 -1.11452020680188,37.942216414765,49.4097000000038 -1.11483586940284,37.9420636970095,49.6300999999949 -1.11523183061042,37.9419921153893,50.0727000000043 -1.11534481891021,37.9419765247117,50.2749999999942 -1.11564472326445,37.9418846588777,51.5776000000042 -1.11579928559558,37.9418424144269,51.8986000000004 -1.11591260896699,37.9418172689426,51.835500000001 -1.11623045088084,37.9416789672085,53.1474000000017 -1.11683361210193,37.941451650334,53.661500000002 -1.11685138167658,37.9411540928309,55.6156999999948 -1.11692866284215,37.9407956822684,58.1668000000063 -1.11708322517331,37.9402895828086,63.2740000000049 -1.11708322517331,37.9399779441884,68.0656000000017 -1.11702086412627,37.9397388920249,70.421199999997 -1.11683662954298,37.9395092276708,72.7103999999963 -1.11647721359779,37.9392468745949,74.857799999998 -1.11632265126663,37.9391952421274,76.5733999999939 -1.11611763056597,37.939199935732,78.9793000000063 -1.11563935852555,37.9393591915051,83.3338999999978 -1.11540768301379,37.939420044549,85.5136000000057 -1.11533341928924,37.9393731057967,86.7084000000032 -1.11534230452573,37.9392676617555,88.7700999999943 -1.1154135499109,37.9390872827637,93.1410999999935 -1.11539863069067,37.9390193893749,94.6374000000069 -1.11530357995045,37.938956190252,96.3521000000037 -1.11518472475352,37.938949148759,97.8754999999946 -1.11498858749273,37.939021736537,100.451400000005 -1.1148816349733,37.939031123768,101.599100000007 -1.11480435380774,37.9390006142003,102.380900000004 -1.11483117570547,37.9389186391572,102.957500000004 -1.11492924388674,37.9388343168546,104.2166 -1.11500635706734,37.9387732968346,105.190600000002 -1.11510157579252,37.9387171383075,106.142500000002 -1.11522931622591,37.9386633262026,107.114199999996 -1.1161533368019,37.9384101930509,114.303799999994 -1.11645927693651,37.9381993041797,118.242499999993 -1.11674744659821,37.9378150777168,124.472999999998 -1.11723175262237,37.9371612890932,131.564899999998 -1.11723175262237,37.9369245842079,132.415399999998 -1.1172793615358,37.9367535933639,133.305200000003 -1.11780825993068,37.9363787547066,136.7981 -1.11876782055424,37.9357812926628,143.658500000005 -1.11930560328731,37.9355586690966,147.291800000006 -1.12014647580057,37.9350431819692,149.895600000003 -1.12035149739956,37.9349870234261,148.518599999996 -1.12059222523444,37.9347597064006,147.625599999999 -1.12072885000599,37.9343987813109,146.164300000004 -1.12066950640004,37.9342299696561,145.754400000005 -1.12046213840153,37.9339491762392,144.705600000001 -1.12020598739151,37.9338034988789,141.325899999996 -1.11992971950903,37.9337262176618,142.590800000005 -1.11969804399726,37.9336278138997,143.951799999995 -1.11922865719333,37.9331989958237,145.755600000004 -1.11883940190936,37.9327537493802,145.898100000006 -1.11879481043697,37.9326389170077,146.280499999993 -1.11891668307492,37.9320647567057,149.946500000005 -1.11886907326319,37.9318491739771,151.298699999999 -1.11891668307492,37.9316406321017,152.546199999997 -1.11913058901207,37.9315610040446,152.964699999997 -1.11933561061106,37.9315962086649,153.933799999999 -1.11943652824838,37.9317345095328,154.300300000003 -1.11943367879229,37.9318868930646,155.699999999997 -1.11944541348487,37.9321797564811,156.631999999998 -1.11953459642965,37.9323391805084,157.303700000004 -1.11965948740694,37.9324164610581,157.191500000001 -1.11988227858058,37.9324702734852,156.560800000007 -1.12007707375835,37.9325105061294,155.985199999996 -1.12015502506715,37.9325165414138,155.848700000002 -1.12034713877381,37.9325120153048,155.443599999999 -1.12029198580861,37.9324806669617,155.752399999998 -1.11997246763847,37.9323980214591,158.092099999994 -1.11974816729518,37.9323142025297,160.444300000003 -1.11956560986651,37.9321702011605,161.291100000002 -1.11954281062461,37.9320082628744,161.604000000007 -1.11956192138396,37.9318748231004,161.943599999999 -1.11963568295023,37.9317392036138,162.835900000005 -1.1197463239522,37.9316483438664,164.670599999998 -1.11978622172725,37.9315522868492,162.938599999994 -1.11986417303602,37.9313093797244,164.900099999999 -1.11993072562215,37.9313754288093,168.342699999994 -1.1200182323106,37.9314984751672,179.381500000003 -1.12005997432693,37.9314969666795,180.965700000001 -1.12005997432693,37.9314533806541,181.363400000002 -1.12004488712171,37.9314309169952,180.475699999995 -1.12002963193157,37.931351456636,176.667300000001 -1.1199706233972,37.9311549848501,176.110199999996 -1.11992117024249,37.930890955288,173.418399999995 -1.11992301448376,37.9307454454622,173.542300000001 -1.11992687005297,37.93069448298,173.259000000005 -1.11999526598208,37.9306329602168,175.511799999993 -1.12013792653403,37.9306450296763,181.674599999998 -1.12030522877252,37.930732034025,191.556200000006 -1.12033758339411,37.9308369759044,193.766399999993 -1.12031092858301,37.931060437102,194.394799999995 -1.12035652616851,37.9311819747844,198.736499999999 -1.12053522802797,37.9313603417802,202.367800000007 -1.12063027876819,37.931427900017,204.481299999999 -1.12073119730384,37.9314473459909,207.142300000007 -1.1207804824736,37.9314084540381,208.996499999994 -1.12077679488934,37.9312778636518,211.475999999995 -1.12075583988872,37.9311623608149,213.643200000006 -1.12075583988872,37.9310889355671,216.031300000002 -1.12075198431951,37.9310004224344,217.449399999998 -1.12075969545793,37.9309313560139,218.984899999996 -1.12081283709519,37.930992879236,218.331099999996 -1.12084334747551,37.9310528932012,218.382400000002 -1.12087754544004,37.9311323538831,218.169299999994 -1.12095935231802,37.9311968946333,219.039600000004 -1.12106965824837,37.9311534763553,224.922200000001 -1.12123126157475,37.9309600217464,233.098899999997 -1.12147467177907,37.9306616260657,238.338699999993 -1.1215430686065,37.930477224049,240.112099999998 -1.12151842602163,37.9303602128603,242.486199999999 -1.12135682269525,37.9302028010899,246.543399999995 -1.1212693151085,37.9300963504975,246.744699999996 -1.12125406081665,37.9300723786157,246.913700000005 -1.12127685916025,37.9300168901129,248.665299999993 -1.12140426452206,37.9300063290686,251.460800000001 -1.12159436600249,37.930109761342,251.147200000007 -1.12195562529062,37.9302822612736,255.721300000005 -1.12214002785887,37.9303243380645,262.216799999995 -1.12219132525485,37.9302688504605,264.036900000006 -1.12221227935718,37.9301758107962,265.973599999998 -1.12221043601421,37.9297828675012,272.820699999997 -1.12227514346076,37.9296254552033,274.309099999999 -1.12235879547834,37.9295429772543,275.236300000004 -1.12284746012828,37.9292234591785,284.169899999994 -1.12305851660934,37.9290194439734,286.960099999997 -1.12310411419484,37.9288214630814,283.733500000002 -1.1229101571452,37.9285530745119,288.114100000006 -1.12270295623336,37.9284570177019,289.105200000005 -1.12243490254583,37.9282739571546,291.150699999998 -1.12223524568574,37.9280399346638,298.216899999999 -1.12200709067157,37.9276604018735,319.8704 -1.12199384680933,37.9274248702756,327.545199999993 -1.12210800830889,37.9271474293985,329.2598 -1.12220305904911,37.9270304178706,332.165900000007 -1.12238947294529,37.9268954696912,333.158800000005 -1.12258342999492,37.9268879253631,334.602299999999 -1.12270127997704,37.9269164240284,335.402100000007 -1.12306639573268,37.9271279837046,335.252299999993 -1.12329639498813,37.9271249658412,335.654399999999 -1.12348465222728,37.9270574079019,334.7785 -1.12358909126053,37.926967386295,333.978199999998 -1.12364055574318,37.9268668030826,332.9712 -1.12361775739958,37.9265459440609,330.191699999996 -1.12366721055429,37.9264304415846,330.515599999999 -1.12374700610433,37.9263494721877,332.413700000005 -1.12386871165565,37.9262669941068,334.8413 -1.12422427203163,37.9261484739975,336.7932 -1.12485559633523,37.9259984381959,344.769899999999 -1.1247110924403,37.9259293713282,345.789300000004 -1.12435352073638,37.9257449694887,348.721399999995 -1.12433826554624,37.9253684541255,352.704800000007 -1.12437246351078,37.9250040093457,356.968999999997 -1.12439341851144,37.9249035942217,357.878200000006 -1.12448662501034,37.9247505407537,359.359299999996 -1.12453993373426,37.9246365462115,360.533500000005 -1.12452853501163,37.9245616121939,361.078299999994 -1.12448092519989,37.9245106503858,361.329199999993 -1.12441252927079,37.9244896953631,361.558600000004 -1.12429266796074,37.9245136676478,363.023499999996 -1.12411396610128,37.9246036894243,364.301999999996 -1.12401120332435,37.9246501252835,365.277100000007 -1.1239275522051,37.9246831499902,365.921000000002 -1.12382881388063,37.9246561605046,367.108800000002 -1.12380601463873,37.9245961455697,367.931200000006 -1.12386871165565,37.9245227201417,368.970000000001 -1.12400366017088,37.9244596885424,370.204199999993 -1.12413106463439,37.9243938068544,370.907399999996 -1.12420331703101,37.9242918829702,371.792100000006 -1.12419761722052,37.9242303598097,372.616599999994 -1.1241577194455,37.9240593684921,374.348400000003 -1.12412737705014,37.9239123499663,375.987699999998 -1.12415017539375,37.9238238374058,376.790399999998 -1.12420717260022,37.9237728750864,378.127999999997 -1.12434983225383,37.9237789103795,380.711299999995 -1.12451327982149,37.923840433209,381.283100000001 -1.12467873871704,37.9238494857858,382.183900000004 -1.12532330688284,37.9236934149541,386.574099999998 -1.12584047058517,37.9235329850722,390.012000000002 -1.12604398301446,37.9234099388472,391.649900000004 -1.12610869135932,37.9233365136521,392.055600000007 -1.12614858913437,37.9230724836497,394.782500000001 -1.12626459487521,37.9228235407746,396.958700000003 -1.12640725452883,37.9225430822005,398.561000000002 -1.12650230526904,37.9224305971618,401.811700000006 -1.12664680916397,37.9224275798143,401.695999999996 -1.12676465914609,37.9223435929107,402.253100000002 -1.12680070135193,37.9222881049529,402.370500000005 -1.12678930173096,37.9221726021663,404.377699999997 -1.12670950618092,37.9221410864291,405.332599999994 -1.12659735600926,37.9221710934873,406.465700000001 -1.12626308570552,37.9223263264046,410.223299999998 -1.12606259071727,37.9225313480099,410.604900000006 -1.12565774427321,37.9227335189447,413.044099999999 -1.12537175392444,37.922771572929,415.043600000005 -1.12505240373922,37.922601588015,418.512300000002 -1.12487789252055,37.922583986388,419.828500000003 -1.12465141376269,37.9226396420675,420.474400000006 -1.12451763844724,37.9226542263429,422.442899999995 -1.12396795303666,37.9224959760644,425.8364 -1.12357065064438,37.9222674851883,430.520799999998 -1.12328097181303,37.9219685865307,435.145499999999 -1.12313982132907,37.9218894617592,436.675000000003 -1.12294670150929,37.9219040461834,437.580000000002 -1.12269038341265,37.9219714366592,438.816200000001 -1.12264579194026,37.92208861568,438.467799999999 -1.12257521579997,37.9221940602698,439.450599999996 -1.12219736013696,37.9223422521807,441.330499999996 -1.1219311506907,37.9223685714422,444.078500000003 -1.12153418337001,37.9223742709595,442.668600000005 -1.12121097761562,37.9223367198979,443.9804 -1.12088291017891,37.9222542422764,445.810599999997 -1.12064519888674,37.9219786448904,448.363700000002 -1.12051209461278,37.9216973483194,451.852499999994 -1.12054059276687,37.9215248487974,454.320900000006 -1.1205144410123,37.921427283324,455.409700000004 -1.12017933258041,37.9210241136084,458.863100000002 -1.12016038980601,37.9209585675746,459.398400000005 -1.12020079063761,37.9208085311049,460.689700000003 -1.12017463888304,37.9202873443383,466.710000000006 -1.12007238006098,37.9199872726061,470.446599999996 -1.11978236615804,37.9198241608826,473.057000000001 -1.1197610760858,37.9197735338203,472.666299999997 -1.11965177537023,37.9195971789411,473.005300000004 -1.11958287638458,37.9194885494599,474.348100000003 -1.1194972139374,37.9194379228752,475.355899999995 -1.11938070513998,37.9194116032736,475.292100000006 -1.11923821257299,37.9193854516149,475.132100000003 -1.11927375172226,37.9193740521165,475.346699999995 -1.11939746860152,37.9193572887703,477.214800000002 -1.11961606913433,37.9193197375854,479.661399999997 -1.11964221999057,37.9192897307812,480.3367 -1.11952336479364,37.919012289683,484.814599999998 -1.11948765855774,37.9187648559862,487.8557 -1.11928800079932,37.9185717365806,490.044200000004 -1.11899798779468,37.9184592518458,493.726699999999 -1.11895523966524,37.918316759029,496.275800000003 -1.11893864329036,37.9180860894668,497.675199999998 -1.11908365024183,37.91771862649,500.0098 -1.11922396349597,37.9175104201358,503.865699999995 -1.11937131774528,37.9174616375873,500.989000000001 -1.11950911571661,37.9174034671409,501.886299999998 -1.11961137543697,37.9172665063608,506.244300000006 -1.11981103229709,37.9169984533447,504.354000000007 -1.12013658534929,37.916550356965,506.294999999998 -1.12025074684886,37.9164884984972,506.3318 -1.12027220400773,37.9163421501385,507.200700000001 -1.12020799871945,37.9161884261486,508.062000000005 -1.12018184696488,37.9160665532763,509.735499999995 -1.12026985760821,37.915993463048,508.593800000002 -1.1203102584398,37.9158734345816,510.280899999998 -1.1202794129879,37.9157364737874,512.106499999994 -1.12029600846445,37.9156370644049,512.901400000002 -1.12039106010299,37.915475796986,513.755699999994 -1.12042676633889,37.9153408481552,516.170800000007 -1.12053606615613,37.9152939096199,515.1921 -1.12069766948251,37.9151757247584,516.584499999997 -1.12074997299161,37.9149844498935,517.585999999996 -1.12080227560238,37.9149056599117,518.736699999994 -1.12097812800578,37.9146168197587,517.024900000004 -1.12109228950535,37.9143561425331,518.296799999996 -1.12113738403428,37.9143167475706,516.405400000003 -1.12126814190872,37.9143467542775,513.554000000004 -1.12141314886022,37.9143298232391,516.989199999996 -1.12147500774898,37.9143747503682,517.339900000006 -1.12152261666242,37.9145209304254,514.667000000001 -1.12167717899358,37.91467851042,511.955400000006 -1.12186728047401,37.9147572999364,510.281199999998 -1.12204078557956,37.9147516005375,509.215800000005 -1.12212393454057,37.9148585538448,506.228600000002 -1.12221663798293,37.9149261116518,506.747399999993 -1.12232593780017,37.9149861259736,507.251699999993 -1.12229743964612,37.9150349087466,505.895499999999 -1.12223323435781,37.9150855355271,504.126600000003 -1.12217858444919,37.9151549378725,502.334199999998 -1.12214069800207,37.9152523352004,501.128700000001 -1.12210733816569,37.9153817520962,500.127800000002 -1.12206039939546,37.9154955781401,497.109299999996 -1.12206039939546,37.9156001845819,495.911900000006 -1.1220964416013,37.9157996737368,494.077600000004 -1.12220490329038,37.9158496295669,493.131999999998 -1.12229526033323,37.915813922739,493.709099999993 -1.12254822591724,37.9157284272672,491.741899999994 -1.12272290512087,37.915699929227,489.182499999995 -1.1228102447227,37.9157212191322,487.385800000004 -1.12294586338113,37.915797326542,483.1149 -1.12301509833669,37.9159612770746,477.100300000006 -1.12306622774772,37.9162368736226,470.250700000004 -1.12312942782122,37.9163128139568,467.278099999996 -1.12326504647969,37.9163461740739,467.364300000001 -1.12349387253536,37.9163128139568,472.208199999994 -1.12362043976901,37.9161584187756,478.8649 -1.12380115295641,37.9160016774992,482.097800000003 -1.12393962196923,37.9159374720883,484.068199999994 -1.12410223140872,37.915927916783,484.786699999997 -1.12438838884415,37.9159731788562,482.850999999995 -1.12464135532646,37.9159564154436,482.824800000002 -1.12477680689827,37.9159850813445,480.743900000001 -1.12480999874969,37.9159589298849,480.8606 -1.12479792898556,37.9158496295669,482.762600000002 -1.12479189410345,37.9156144336227,484.292000000001 -1.1248641465001,37.9154124295056,484.527600000001 -1.12489733835152,37.9152841862694,484.475099999996 -1.12490337323359,37.9151344854874,491.474600000001 -1.12502675504123,37.9149847851096,492.626499999998 -1.12514728649448,37.9148540273575,488.211500000005 -1.12529480872875,37.9146402885374,481.792100000006 -1.12544249715136,37.914499975391,485.640499999994 -1.125565878959,37.9143883285001,488.128200000006 -1.1256833929712,37.9142838904251,487.202600000004 -1.12565623600185,37.9141888397699,487.313500000004 -1.12557794872317,37.9141103848647,487.175199999998 -1.12525574818356,37.9139036870677,488.753299999997 -1.12524669586044,37.9138205387599,486.966 -1.12538214743225,37.9137135853608,483.612200000003 -1.12554777431276,37.913388032522,492.649799999999 -1.12562907903249,37.9133120927119,492.678199999995 -1.1256954636337,37.9132051392823,492.282099999997 -1.12570736541287,37.9131172970416,491.849400000006 -1.12555079175381,37.9128249360192,493.039799999999 -1.12549966234278,37.912701387112,493.329500000007 -1.12542439250512,37.9125969487681,492.875100000005 -1.12524066097838,37.9125612417788,494.300700000007 -1.12511409464306,37.9124685376165,494.168399999995 -1.12487923370528,37.9121882465048,493.725699999995 -1.12460212769464,37.9118460976234,495.440100000007 -1.12447271100493,37.911784239452,498.378899999996 -1.12437028419792,37.9117629491161,497.806700000001 -1.1242980326996,37.9117533939773,497.583299999998 -1.12427389227297,37.9117010908748,497.6149 -1.12429501525859,37.9114992546128,500.4139 -1.12409317908561,37.9112426004768,502.629700000005 -1.12397583216003,37.9112306979298,501.970300000001 -1.12378908319224,37.9113138470386,503.517900000006 -1.12368967382627,37.9113210548967,504.274900000004 -1.1235119771816,37.9112923893045,503.159799999994 -1.1233614384046,37.9111760485308,503.337100000004 -1.12328315112592,37.9109763916231,504.887000000002 -1.12316865455474,37.9108481484496,506.238700000002 -1.12292474129385,37.9107649995232,509.227100000004 -1.12271703822376,37.9107815961468,514.209900000002 -1.12260857563634,37.9108173025824,511.241399999999 -1.12247010662352,37.9109385051776,511.577600000004 -1.12240975690441,37.9108955894843,512.636100000003 -1.12240673946336,37.9108338991943,513.035900000003 -1.1223616449344,37.910686545219,513.694799999997 -1.12224111348118,37.9105629955555,514.092900000003 -1.1222501658043,37.9104655983977,513.668000000005 -1.12247295697791,37.9103135503626,518.909499999994 -1.12257840122594,37.9102161528745,516.968699999998 -1.12250011394726,37.9100711457484,519.385599999994 -1.12252123693284,37.9099118896113,518.066000000006 -1.12257538378492,37.9097859933866,521.468500000003 -1.12278023739892,37.9097266495549,517.508199999997 -1.12287964676492,37.9097194408318,516.7549 -1.12293681105801,37.9097645359157,518.185700000002 -1.12292474129385,37.9099095429374,517.977100000004 -1.12294284594008,37.9100592437207,513.472899999993 -1.12312959490788,37.9102589002824,514.691000000006 -1.12331936131669,37.9103301463793,515.833899999998 -1.12368682437018,37.9102993010038,520.747499999998 -1.12412050403992,37.9102042501615,523.178599999999 -1.1246956701635,37.9099214449893,521.308999999994 -1.1250058000406,37.9098501984965,520.043600000005 -1.12540930529994,37.9097051920666,522.422200000001 -1.12571641773599,37.9095435884517,521.281799999997 -1.12608991567158,37.9092203822834,519.363800000006 -1.12655678719271,37.9088116811074,512.563800000004 -1.12684294552647,37.9086524250792,512.383400000006 -1.12712005153711,37.9085835254915,506.461500000005 -1.1272705903141,37.9085550268097,505.740099999995 -1.12732171972513,37.9083649254569,502.718200000003 -1.12725248566787,37.9082960263088,503.414099999995 -1.12723739846268,37.9082485850154,503.549700000003 -1.12710194689087,37.9078398834027,501.295599999998 -1.12701158984803,37.9075523841494,499.535099999994 -1.12702969449426,37.9073788783061,497.658200000005 -1.12716212862502,37.9072077202315,496.093399999998 -1.12734887759282,37.9069559275264,492.653200000001 -1.12736999968007,37.9067207314994,490.827600000004 -1.12729774818179,37.9065805861142,490.108900000007 -1.12727964263722,37.9064498283091,488.183900000004 -1.12728869585867,37.9063001272698,486.888399999996 -1.12718928649271,37.9060600696967,485.175799999997 -1.12685199784959,37.9057249610907,481.727899999998 -1.12678276379232,37.9056394659434,481.006899999993 -1.12667731954429,37.9054351152627,478.175700000007 -1.12657187529622,37.9053876735423,477.616800000003 -1.12627364719833,37.9048862678392,472.515599999999 -1.12599352374663,37.9044775666884,476.821500000005 -1.12577375001408,37.9043444618388,477.479200000002 -1.12558096616422,37.9042613133594,478.049799999993 -1.12554475687175,37.9041590539548,480.051699999996 -1.125511564122,37.9040331578099,481.555500000002 -1.12540913731498,37.9039285519324,481.673699999999 -1.12525256365588,37.9038785958043,481.367100000003 -1.12509900743787,37.9038120435766,484.983300000007 -1.12508693677538,37.9037454912888,485.015799999994 -1.12490320614696,37.9037288952045,485.153000000006 -1.12450875321074,37.9038073498395,486.829100000003 -1.12424975274467,37.9037146459881,489.566999999995 -1.12414732593765,37.9035460020528,488.708499999993 -1.12419845534868,37.9032655429834,491.559999999998 -1.12432200424298,37.9030635396908,492.387000000002 -1.12446952647726,37.9029518924563,491.396900000007 -1.12459659586912,37.9028219731155,490.460300000006 -1.12470958416894,37.9025212304743,493.653399999996 -1.12481787787307,37.9024729504648,491.085099999997 -1.12482257157043,37.9020163043444,491.596099999995 -1.12468477359911,37.9016827048523,488.514899999995 -1.12477663891331,37.9013708976336,483.727899999998 -1.12501552340525,37.9011315108418,482.688500000004 -1.12553587163526,37.9007207977083,481.718800000002 -1.12573334918249,37.900479398527,481.828399999999 -1.12588992373988,37.9003348946298,481.205199999997 -1.12607549860957,37.9002968410887,477.6201 -1.12641999533453,37.9003690927556,477.8318 -1.12719582353302,37.9006503893707,471.0432 -1.12767526877318,37.9007435961048,468.270099999994 -1.12808480891458,37.9007816501238,467.548899999994 -1.12881487244094,37.9005840050543,462.045499999993 -1.12903414311695,37.9005726054777,459.885999999999 -1.12966295303607,37.9004205575559,454.675799999997 -1.12987015394792,37.9003045518871,452.035199999998 -1.13004600635132,37.900023255368,448.962199999994 -1.13016167612225,37.8999206611694,447.670199999993 -1.13078327885782,37.8998237659659,443.060700000002 -1.13119767978322,37.8996583071907,438.623300000007 -1.13145550704955,37.899641208319,438.694900000002 -1.13159280286263,37.899593599119,435.651400000002 -1.13167712502338,37.8994472511773,435.674599999998 -1.13179279479434,37.8993674557074,434.207399999999 -1.13234449153282,37.8991620987582,432.912800000006 -1.1326455699851,37.8990955465185,428.631299999994 -1.13292267509745,37.8991335999719,425.723400000003 -1.13345995567224,37.8995366018694,417.952900000004 -1.13360697395164,37.89953274643,418.471699999995 -1.13399254165137,37.8994187525014,415.665800000002 -1.13417325573706,37.8994226086555,411.208599999998 -1.13435162252494,37.8995101156561,408.417600000001 -1.13454910007217,37.8996774184818,406.394899999999 -1.13483274312313,37.8999389338266,402.867299999998 -1.13507950673841,37.9000229200838,400.340899999996 -1.13533398149211,37.9000386784392,398.4087 -1.135694738622,37.8999924099248,392.511799999993 -1.13593680764162,37.8998755664323,389.794699999999 -1.13606940975733,37.899690661914,386.891600000003 -1.13610025520923,37.8995397874447,384.637000000002 -1.13609556151187,37.8992160779982,380.014200000005 -1.13613881179955,37.8990883381716,380.193799999994 -1.13641641996844,37.8987914513464,384.784199999995 -1.13671096048208,37.8985614513977,383.434699999998 -1.1368435616995,37.8985237329395,383.999599999996 -1.13697767298491,37.8985200447382,383.571500000005 -1.13709334275584,37.8986003437083,379.511400000003 -1.13728914404671,37.8988083824162,380.215700000001 -1.13745108244468,37.8988863340462,379.553799999994 -1.13769935433132,37.8988717493116,376.450200000007 -1.13798920024933,37.8988048622284,376.944199999998 -1.13858900985612,37.8989057801182,370.004799999995 -1.13921664657546,37.8990506192746,360.598700000002 -1.1395743862643,37.8990700653032,356.403699999995 -1.13961143458326,37.8989983163576,355.350900000005 -1.1396067399876,37.8989071212754,353.514299999995 -1.13949727308369,37.8987476977863,350.667600000001 -1.13936618013764,37.8986296805731,349.306299999997 -1.1393400283831,37.8985713421227,349.016799999998 -1.13941093869668,37.8985178657009,348.6296 -1.13948335907825,37.8984972463617,348.326700000005 -1.13966524636372,37.898454665792,347.881999999998 -1.13979784758111,37.8983866051635,347.561799999996 -1.13995509228173,37.8981700163652,345.040699999998 -1.14003840832937,37.8979534283472,342.199699999997 -1.14003220546234,37.8977903166811,339.724900000001 -1.1398934013779,37.8975457328599,335.722299999994 -1.13990111251628,37.8973511045656,335.426600000006 -1.13999817548273,37.8970882480512,332.717199999999 -1.14008752641249,37.8968388025471,330.094299999997 -1.14013228586984,37.8967828118967,329.615000000005 -1.14022633049694,37.8967694006462,329.269199999995 -1.14028651223105,37.8967462664284,329.272800000006 -1.1403713374484,37.8967694006462,329.036399999997 -1.14047929608091,37.8968436640236,329.227199999994 -1.14058105274473,37.8970322568815,328.200599999996 -1.14084776524755,37.8971527889045,325.378400000001 -1.14121170690512,37.8972391225837,323.8315 -1.14143064250952,37.8972330872397,322.989400000006 -1.14165427181131,37.8971698883543,321.646299999993 -1.14196725204281,37.8969898448855,321.589900000006 -1.14175753674649,37.8966515511007,324.969299999997 -1.1415216696956,37.8963120839796,330.017699999997 -1.14129351468142,37.895996924376,333.216700000004 -1.14119326718727,37.8957912326439,335.145999999993 -1.14117164204344,37.8955966046727,336.582200000004 -1.14120550493639,37.8953860516673,336.896999999997 -1.14127641524997,37.8950599952366,338.121499999994 -1.14124556979807,37.8948859871062,336.690199999997 -1.14128110894734,37.89465716094,334.721099999995 -1.14133659788245,37.8944856670325,333.822700000004 -1.1415679383226,37.8941291011133,337.694499999998 -1.14180849907086,37.8937737088336,338.919899999994 -1.14206448209592,37.8934342412013,337.938599999994 -1.14225726594578,37.8931921723035,336.635299999994 -1.14224955480736,37.8929707220849,339.084300000002 -1.14224653646801,37.8926398045449,343.308499999999 -1.14221569191441,37.8923258187873,345.771299999993 -1.14213857783547,37.8921238145353,347.425499999998 -1.14199977375103,37.8918475470577,348.063599999994 -1.14197043746882,37.8918074814525,348.323199999999 -1.14176843331088,37.8914752230628,349.014500000005 -1.14154798943509,37.8911649251619,349.848499999993 -1.14133676496908,37.8908849690467,348.361499999999 -1.1410931867798,37.8905029220658,352.173899999994 -1.14083267714404,37.8901220485273,353.327999999994 -1.14057216750827,37.8897411751453,354.011599999998 -1.14032389562163,37.8893577865696,354.709300000002 -1.14008484404303,37.8889806007494,355.584000000003 -1.13983506298673,37.8886082771441,356.542000000001 -1.13958528282869,37.8882382997302,357.324600000007 -1.13927381086856,37.8878865946884,358.231599999999 -1.1389593223657,37.8875422661788,359.705700000006 -1.13867098471905,37.8872088343385,360.766699999993 -1.13837024223664,37.8869277054292,361.786099999998 -1.13814812120624,37.8868448917607,362.121400000004 -1.13778417954867,37.8867511824893,363.046900000001 -1.13768426712613,37.8866643458999,363.513900000005 -1.13764219003822,37.886493187153,364.046300000002 -1.1376391725972,37.8863520362053,364.195600000006 -1.13757597252368,37.8861500325786,364.2739 -1.1374727075885,37.8859966432506,364.186000000002 -1.13743113355717,37.88593696403,364.068899999998 -1.13731864831392,37.8858541513742,364.006800000003 -1.13727238058521,37.8858041950314,363.888699999996 -1.13719057280891,37.8856910391318,363.651400000002 -1.13718587911157,37.8856107409687,363.385800000004 -1.13719057280891,37.88559364167,363.332399999999 -1.13721370712243,37.8856058794594,363.303499999995 -1.13726617771819,37.8856301862939,363.2166 -1.13743884469558,37.8856935538983,363.1299 -1.13750204476908,37.8856984154018,363.164399999994 -1.13759307195513,37.885796986801,363.087700000004 -1.13770555719838,37.8859223795657,362.999599999996 -1.13787218929367,37.8861133194755,362.785399999993 -1.13796623392077,37.8862715700261,362.518500000006 -1.13800160598341,37.8863190113067,362.396699999998 -1.13803245143531,37.886336110437,362.386400000003 -1.13809732686683,37.8862838077029,362.512300000002 -1.13830385763547,37.8860732542948,360.867899999997 -1.13837946164642,37.8858724239782,356.851899999994 -1.13847199800216,37.8855073078045,357.445099999997 -1.13855363779347,37.8851482268646,360.730899999995 -1.13864617414921,37.8847794231733,363.751399999994 -1.13874491337198,37.8844459915843,362.5769 -1.13886360058395,37.8841722384759,361.3269 -1.13897005094514,37.8841162474088,361.238700000002 -1.13909645019379,37.8840419839545,361.0622 -1.13913802422516,37.8838922827149,360.736199999999 -1.13906711301325,37.8837534785437,360.422099999996 -1.13901162497647,37.8834674882633,360.1967 -1.13904716412574,37.8832886180139,360.248500000002 -1.13907180760892,37.8832022842819,360.210099999997 -1.13913349851275,37.8829260173614,360.343999999997 -1.13984914497709,37.8830076570627,361.066500000001 -1.14068800616245,37.8831013661348,362.214399999997 -1.14151295244406,37.883192561654,363.316200000001 -1.14195400818057,37.8831414322234,364.023499999996 -1.14271122957461,37.8829992751469,364.913700000005 -1.14348119087599,37.8828582912098,365.728600000002 -1.144321561231,37.8827087584361,367.420599999998 -1.14500954766945,37.8825862146896,369.274399999995 -1.14578688503762,37.8824522719016,371.192800000004 -1.14666882942401,37.8823002241302,373.703899999993 -1.14754457004503,37.8821481767539,376.290399999998 -1.14842969895909,37.8819947875984,379.219299999997 -1.14926084900606,37.8818524631067,382.134099999996 -1.1500765758779,37.8817076234374,385.012400000007 -1.15087369414863,37.8815688194028,387.399000000005 -1.15133319050129,37.8814300151066,388.733399999997 -1.15167701618472,37.8811963278601,390.141799999998 -1.15208873563901,37.8808603807154,391.859899999996 -1.15257605910422,37.8804929183141,393.926200000002 -1.15305567143104,37.8801497634319,395.9179 -1.15320520499325,37.8798795303362,396.954700000002 -1.15318978181812,37.8796944578924,397.491399999999 -1.15310965119646,37.8793256545418,398.232499999998 -1.15304645112297,37.8789824991845,398.790599999993 -1.15304343368192,37.878673374588,399.540599999993 -1.15304963654898,37.8785211594782,400.019100000005 -1.15296799675763,37.878252267613,400.803400000004 -1.15286774926351,37.8781305623563,400.866699999999 -1.15258863192493,37.8779833761844,400.193100000004 -1.1520627509711,37.8777862343181,399.277199999997 -1.15172814559575,37.8778202642357,397.364199999996 -1.15112833688729,37.8778348488864,393.340599999996 -1.15070739802325,37.8779407965129,390.842499999999 -1.15022627652674,37.8779833761844,389.630300000004 -1.15008596327264,37.8780028221053,388.816900000005 -1.14995637949627,37.8780442289594,388.471600000004 -1.14988228285835,37.8781013938781,388.5147 -1.14974817247127,37.8782108615849,388.092799999999 -1.14963099353069,37.8782388565323,387.796799999996 -1.14938892451107,37.8782363422203,387.591199999995 -1.14931952246885,37.8782583030948,387.534299999999 -1.14921776580504,37.8783422892694,387.245999999999 -1.14918239374239,37.8784214147826,386.808499999999 -1.14912992314667,37.8785199859952,386.054699999993 -1.14902816738118,37.8785602190764,385.299899999998 -1.14888634495736,37.8785382582919,383.961899999995 -1.14883705978764,37.8784847814994,383.051399999997 -1.14887863381897,37.8784190678136,382.274600000004 -1.14893412185575,37.8782596439191,380.038799999995 -1.14891400588162,37.8780916705768,378.728300000002 -1.14880152063837,37.8779151477283,377.734500000006 -1.14859800820907,37.877719178466,377.544099999999 -1.14852089413013,37.8776108849441,378.145199999999 -1.14850547185333,37.877473421118,378.800700000007 -1.1485718564545,37.8772519718405,380.349400000006 -1.14870596684158,37.876941673564,381.305200000003 -1.14871669542101,37.8768322060983,381.688599999994 -1.14864729337879,37.8767787294853,382.051200000002 -1.14857319763923,37.8767775559747,382.113400000002 -1.14837890461968,37.8767581097303,382.287899999996 -1.14828016629522,37.8767215649583,382.126999999993 -1.14821847539141,37.8766424397462,382.277300000002 -1.14800104895667,37.8764721192303,383.876600000003 -1.14763710640077,37.8762444667909,379.984400000001 -1.14751221632177,37.8761921639803,379.550399999993 -1.14740274851957,37.8761933367912,378.762000000002 -1.14729629815839,37.8762261939252,377.6008 -1.14720376180265,37.8762104361453,376.902700000006 -1.14713285148907,37.8761604803517,375.891699999993 -1.14713285148907,37.8761070032511,374.940300000002 -1.14730551846647,37.8758830390188,370.034400000004 -1.14741029257133,37.8757504376738,368.434699999998 -1.14749360861896,37.8756542133575,366.777100000007 -1.14748287914123,37.8753414003214,361.982199999999 -1.14744884916162,37.8752160072681,360.777499999997 -1.14740107226326,37.8751454313027,360.410999999993 -1.14731322960485,37.8750808910118,360.077499999999 -1.14694844892083,37.8749243168069,357.897400000002 -1.1461975983788,37.8746455348919,352.855899999995 -1.14584606155699,37.8744995223942,352.553799999994 -1.14536041434806,37.8742061556326,354.859500000006 -1.14526486055131,37.8739895673184,354.684299999994 -1.14516310388749,37.8737035767065,353.861099999995 -1.14502580807441,37.8734078631921,353.381999999998 -1.14494567745275,37.8733372876217,353.619999999995 -1.14485632652302,37.8733287379662,354.315499999997 -1.14476999303431,37.8733347731423,354.411399999997 -1.14460352802564,37.8733567333509,354.642300000007 -1.1445988343283,37.8733421492317,354.811400000006 -1.14460201975428,37.8733153266982,354.873900000006 -1.14459732515861,37.873232513323,354.990699999995 -1.14449858683415,37.8728722592374,354.547000000006 -1.14439984761138,37.8725265898009,354.464300000007 -1.14431820782007,37.8722503225471,354.818700000003 -1.14432591985678,37.8721809201609,355.018100000001 -1.14445550363312,37.8720020501568,355.5622 -1.14467293006786,37.8717938435184,354.921300000002 -1.14493343970363,37.8717707099627,353.641399999993 -1.14550542129956,37.8717512638148,349.333899999998 -1.14558555192122,37.8717403675026,348.188299999994 -1.14599727137548,37.8715992159358,347.0095 -1.14650152628718,37.8714421393644,345.255399999995 -1.14672046189161,37.8713995587483,344.342199999999 -1.14685926597605,37.8713581524139,344.424199999994 -1.14730635659463,37.8711890053353,343.372499999998 -1.14760089620997,37.8710745087177,341.457200000004 -1.14777507235706,37.871009968406,339.940700000006 -1.14787062615381,37.8709953838222,338.073499999999 -1.14800171909987,37.8710208648262,336.2215 -1.14808956175824,37.8710743413642,334.927299999996 -1.14814052318432,37.8711558133754,332.720300000001 -1.14818980925237,37.8711874970291,331.699500000002 -1.14829005674649,37.8712094571686,329.852100000004 -1.14842886083093,37.8712045961269,328.548800000004 -1.14854603977155,37.871188837982,328.249100000001 -1.14866020127112,37.871188837982,328.081999999995 -1.14902095840101,37.8712009079753,328.056500000006 -1.14918440596866,37.8711680507273,327.902799999996 -1.14926604575997,37.8711351941738,327.749800000005 -1.14937400439251,37.8709963893623,327.161500000002 -1.1495729911094,37.8707444295358,329.7448 -1.14972101550192,37.8705667331996,331.878800000006 -1.14979812868256,37.870509568816,331.590599999996 -1.14999242170208,37.8704413398198,330.124200000006 -1.15018822209466,37.8703975864314,328.722200000004 -1.15075098338252,37.870437819694,327.722299999994 -1.15088978746697,37.8704135121005,327.814799999993 -1.15117661684223,37.8702929802712,328.196899999995 -1.15140644811272,37.8703063913802,329.8459 -1.15152060961228,37.8702809101291,330.453599999993 -1.15179972695086,37.8701677544901,333.653699999995 -1.1520017311088,37.8701251745559,335.883799999996 -1.1522052435381,37.8700618070302,336.164099999995 -1.15251973293928,37.8700264353911,334.546900000001 -1.15286825232005,37.8700009547524,334.330799999996 -1.15300705640449,37.8699595483411,333.974600000001 -1.15310730389861,37.8697610645875,333.279399999999 -1.15310579562725,37.8696137106463,332.4182 -1.15305952700025,37.8694214302334,330.888500000001 -1.15292541661318,37.8691840542211,327.867299999998 -1.15290228319796,37.8691049294228,327.110199999996 -1.15283288025744,37.8689198568559,324.566800000001 -1.15277739222066,37.8688201119245,323.839500000002 -1.15266792441843,37.8687495369233,323.155599999998 -1.15258779379677,37.8687421603741,323.068299999999 -1.15247212312755,37.8687495369233,323.055500000002 -1.15238880707988,37.8687275760506,322.986999999994 -1.15236114705396,37.8686947191179,322.673699999999 -1.15234253935118,37.868585251453,321.8704 -1.15235041847452,37.8684643840416,321.058099999995 -1.15240238601371,37.8683267535169,319.728600000002 -1.15249156985681,37.8682027008781,319.391699999993 -1.15267043970123,37.8680191372526,319.423299999995 -1.15279566485185,37.8679956684999,320.251600000003 -1.1531277558427,37.8679909746067,320.834099999993 -1.15323320009076,37.8679658286942,321.392300000007 -1.15335842613968,37.8679485621933,321.886199999994 -1.15362279134462,37.8680161198014,323.112299999993 -1.15387123121625,37.8680193053221,324.891900000002 -1.15395873790471,37.8679832632606,325.734700000001 -1.15410190061491,37.8679220752541,326.024999999994 -1.15432066823435,37.8678813392447,326.661600000007 -1.15460498232683,37.8678546849205,327.689199999993 -1.15476809482286,37.8678813392447,331.177299999996 -1.15489734352762,37.8679535908104,333.379100000006 -1.15498887377024,37.8680665789438,334.164699999994 -1.15521149695889,37.8680932339005,336.872799999997 -1.15536455101869,37.8680727819112,338.769499999995 -1.15566881399868,37.8680979270781,339.910900000003 -1.15586964405855,37.8681497278818,342.853499999997 -1.1560565610113,37.8682375698946,343.838699999993 -1.15622352817821,37.8682533279616,343.692200000005 -1.15650583094276,37.8682910463254,344.1296 -1.15665486055007,37.8683208859994,345.147100000002 -1.15674437946479,37.8683051279469,345.948499999999 -1.15683590970738,37.8682313676502,347.116500000004 -1.15693934262751,37.8681292759082,347.594500000007 -1.15704864244475,37.8680774757993,347.747700000007 -1.15744426858074,37.868008408458,349.262199999997 -1.15791348739972,37.8679205661719,349.868400000007 -1.15814214547047,37.8678310473364,349.632899999997 -1.15824356706266,37.8677572865651,350.088900000002 -1.15841858133788,37.8676364199229,350.395199999999 -1.15873474609708,37.867488898626,349.554999999993 -1.15885795991977,37.8674511798517,349.0334 -1.15897128329117,37.8673460709684,349.345199999996 -1.15918803958271,37.8671075216971,348.799700000003 -1.15941870987969,37.8669144028937,350.060899999997 -1.15959573548284,37.8668485207427,351.255099999995 -1.15990184270411,37.8667636959948,353.290699999998 -1.16018615679656,37.8667543080511,354.940199999997 -1.16033518730223,37.8667903507137,355.335699999996 -1.16063341540012,37.8667447527428,355.981199999995 -1.1609058268151,37.8667400587699,356.548200000005 -1.16110062199287,37.8667588346599,357.976899999994 -1.16068907052356,37.8664857519317,360.010999999999 -1.16044063155026,37.8663382304587,361.755499999999 -1.16029746794174,37.8661482966591,362.454400000002 -1.16015028167738,37.8657997774125,362.261499999993 -1.16001516607552,37.8655282038073,361.861900000004 -1.15986999113906,37.8653994573628,361.340899999996 -1.15955382548155,37.865110617244,362.285600000003 -1.15933707008835,37.8649882413736,365.358900000007 -1.15912232512474,37.864894028431,367.841100000005 -1.15908661888881,37.8647998160773,366.903399999996 -1.15913238356098,37.8647196852006,366.235499999995 -1.15924973048652,37.864556405593,364.717300000004 -1.15932533539579,37.8644826450897,364.738700000002 -1.15936707741209,37.8644041903909,364.601200000005 -1.15940881853009,37.8640870191191,362.661099999998 -1.15945843966975,37.863693069691,362.573600000003 -1.15954192370238,37.8635737112274,363.330900000001 -1.15980042111188,37.8634387629756,364.261499999993 -1.16007484475309,37.8631688657308,363.891499999998 -1.1603512797222,37.8628518621881,362.548200000005 -1.16056200113167,37.8625755941191,361.0193 -1.1607668547457,37.8623103908054,359.768299999996 -1.16093382281091,37.8621581752195,359.662400000001 -1.16099936928396,37.8619164418092,359.3177 -1.16092577570261,37.8617375717098,358.614100000006 -1.16067733583101,37.8614048102839,355.108699999997 -1.16058195001918,37.8612901459808,354.430999999997 -1.16046862664777,37.8610123692169,354.114499999996 -1.16038313128725,37.8609072603697,354.068599999999 -1.16015849677067,37.8607518595974,352.837899999999 -1.15948442343933,37.8604521231397,347.448999999993 -1.15885024878138,37.8602118976291,342.007299999997 -1.15879057010378,37.8601662998432,341.801900000006 -1.15875486296955,37.8600861688931,341.693700000003 -1.15875888652371,37.8598209658416,343.762600000002 -1.15873709339493,37.8596152737743,344.158899999995 -1.15871328893821,37.8592778182475,342.669399999999 -1.1586834487011,37.8590972721934,344.211599999995 -1.15862980490559,37.8590282049463,344.649300000005 -1.15821825343625,37.8587408739503,343.359299999996 -1.15792404889253,37.8584692998656,340.7592 -1.15789420865541,37.8583484328841,339.960900000005 -1.15778876440734,37.8582087904779,338.688599999994 -1.15759195790165,37.8580644539908,337.351899999994 -1.15753026699784,37.8579922019497,337.035499999998 -1.15750445031489,37.8578210432479,336.867899999997 -1.15749455986358,37.8576059642923,337.179999999993 -1.15740906450306,37.8575275093657,336.765499999994 -1.15718040643234,37.8574646452174,335.720499999996 -1.15646274774174,37.8572589529579,331.3946 -1.15593988422893,37.8571459652762,328.698900000003 -1.15568138681939,37.8571240044919,326.930600000007 -1.15546261919995,37.857070695854,324.316600000006 -1.15525776558592,37.8569325617528,322.416899999997 -1.15496356014386,37.8566249461559,320.124299999996 -1.15489801367082,37.8565825335846,319.713099999994 -1.15439308771762,37.8563800270152,316.769799999995 -1.15402327826461,37.8562135620508,314.679399999994 -1.15372303883878,37.8561146560085,315.050499999998 -1.15333529182616,37.8560596706374,314.412800000006 -1.15298341993273,37.8559247221037,312.141099999993 -1.15256985623719,37.8556704148272,312.407200000001 -1.15206291895606,37.8555244023192,310.659599999999 -1.15125574135077,37.8552370704322,308.043799999999 -1.15075668319297,37.8551460431594,306.691200000001 -1.15062357891901,37.8551428577916,305.988100000002 -1.15055400889183,37.855100445786,305.367499999993 -1.15052601289603,37.8550297023136,304.1486 -1.15065123894494,37.854718901192,300.898100000006 -1.15077646409556,37.8545760736104,299.953500000003 -1.15081217122979,37.8544583913171,299.168099999995 -1.15076255009012,37.8543281367437,298.067599999995 -1.15054378247064,37.8540738296337,294.022599999997 -1.15022376214226,37.8537127378343,286.149900000004 -1.14990960781269,37.8535400704588,283.154899999994 -1.14981623332879,37.8534599393983,281.665200000003 -1.14979041754414,37.8532731904861,280.983900000007 -1.14969503173234,37.8531695899173,282.790800000002 -1.14941675252192,37.85308476503,285.880499999999 -1.14934114761268,37.8529826735844,288.876000000004 -1.14928549159094,37.852783351817,290.833400000003 -1.1493649520694,37.8526138698701,292.686300000001 -1.14945245875785,37.8523956051304,293.680399999997 -1.14950409122542,37.8523154742445,293.748900000006 -1.1498301473342,37.852061167285,293.910999999993 -1.15015821566925,37.8518335146112,294.3753 -1.15035703440118,37.8515461832343,294.470400000006 -1.15057580202065,37.8512337062093,293.750899999999 -1.15056591067104,37.8511505573375,293.578399999999 -1.15040682262747,37.8509041297303,292.926999999996 -1.15030338970738,37.8508365713318,292.922900000005 -1.1500309782924,37.850857023139,292.372700000007 -1.14985210844798,37.8508224899191,292.653699999995 -1.14955991523215,37.85073464701,292.640700000004 -1.14896144681006,37.8506090865327,290.231 -1.14871686340597,37.8505353255488,289.825400000002 -1.14816617188231,37.850243300473,288.377399999998 -1.1476433092678,37.8500094447922,286.988599999997 -1.14737492050869,37.8499371933682,287.285600000003 -1.14706076707742,37.8498429803387,284.605200000005 -1.14687988500677,37.8497361950228,283.724799999996 -1.14656975512963,37.849477194025,282.274799999999 -1.1464225688653,37.8493940460097,282.014599999995 -1.14637881552107,37.8493343669285,282.993199999997 -1.14617798456288,37.8489984199143,283.945900000006 -1.1458519284541,37.8487944043184,282.838300000003 -1.14583013622361,37.848653085376,282.512100000007 -1.14588378001911,37.8485149518172,282.376099999994 -1.1460049825139,37.8483704480975,282.123800000001 -1.14617194968081,37.8482432102505,281.381899999993 -1.14644234976785,37.8480909954082,280.139800000004 -1.14673856653785,37.8479669427572,279.316500000001 -1.14694526439312,37.8478806094852,278.902300000002 -1.1471759337918,37.8477518634259,278.3223 -1.14726746493272,37.8476578185575,277.785099999994 -1.14742454164836,37.8473250567041,277.240399999995 -1.14753987634767,37.8470063769119,277.361600000004 -1.14759955592357,37.8466938997999,278.865000000005 -1.14765923460117,37.8465525803787,280.070300000007 -1.14780038598343,37.8463767282221,281.679600000003 -1.147959474027,37.8462119403069,281.317999999999 -1.14802904405418,37.8461051546981,281.181100000002 -1.14804295805963,37.8460030628098,281.262100000007 -1.14800943023826,37.8457762490574,281.636599999998 -1.14798361445364,37.8456349300058,281.395199999999 -1.14796232438139,37.8453742525434,281.889999999999 -1.14790013042102,37.8452267313785,281.842399999994 -1.1479272882887,37.8450393118249,282.482000000004 -1.1479896493357,37.8447474536771,283.583299999998 -1.14821193745277,37.8444306177774,283.904399999999 -1.14847060284726,37.8439018878601,283.903399999996 -1.14864561712247,37.8432650307749,282.710399999996 -1.14891182656872,37.8425381518513,281.711500000005 -1.14903353122172,37.8422558493833,281.1149 -1.14936059344365,37.8413846346448,283.8269 -1.14926923028765,37.8410542196011,285.779800000004 -1.14907141766884,37.8408559041726,286.097500000003 -1.14907141766884,37.8406636232248,287.235000000001 -1.14892674578895,37.8405915385793,287.000700000004 -1.14906018603283,37.840326670478,286.962700000004 -1.14926604575997,37.8400277718069,286.128700000001 -1.14945195659961,37.8398494047866,285.177500000005 -1.14973744389184,37.8397863730383,285.061700000006 -1.15008512514448,37.8396101855051,285.171799999996 -1.15068711316579,37.8392356820227,287.574699999997 -1.15083044386098,37.8390769289024,288.045700000002 -1.15229761190888,37.8383963180706,287.7601 -1.15537159111557,37.8366674668539,286.425000000003 -1.15304276353872,37.8334855285947,277.175499999998</coordinates>
</LineString>
</Placemark>
</Folder>
</Document></kml>
