<?xml version="1.0" encoding="UTF-8"?>

<kml xmlns:xsd="http://www.w3.org/2001/XMLSchema" xmlns:gx="http://www.google.com/kml/ext/2.2" xmlns:atom="http://www.w3.org/2005/Atom" xmlns="http://www.opengis.net/kml/2.2">
<Document>
<name>ES44a_03a_murcia-molina_de_segura</name>
<visibility>1</visibility>
<Schema name="ES44a_03a_murcia-molina_de_segura" id="kml_schema_ft_ES44a_03a_murcia-molina_de_segura">
<SimpleField type="xsd:string" name="id">
<displayName>id</displayName>
</SimpleField>
<SimpleField type="xsd:string" name="nombre">
<displayName>nombre</displayName>
</SimpleField>
<SimpleField type="xsd:double" name="longitud">
<displayName>longitud</displayName>
</SimpleField>
<SimpleField type="xsd:string" name="_formato">
<displayName>_formato</displayName>
</SimpleField>
</Schema>
<Folder id="kml_ft_ES44a_03a_murcia-molina_de_segura">
<name>ES44a_03a_murcia-molina_de_segura</name>
<Placemark id="kml_1">
<name>&lt;img height='20' src='https://nco.ign.es/iconos/icono_todos_caminos_azul.png' /&gt;&lt;img height='20' src='https://nco.ign.es/iconos/Camino Santiago_20.png' /&gt;&lt;img height='20' src='https://nco.ign.es/iconos/icono_todos_caminos_azul.png' /&gt;  Camino de Santiago </name>
<visibility>1</visibility>
<description><![CDATA[<!DOCTYPE html>
<html>
<head>
<style>
#nco {
  border-collapse: collapse;
  overflow:hidden;
}
#nco th, #nco td {
  padding: 4px;
  text-align: left;
}
#nco th {
  color: #364B5F;
  padding-right: 5px;
}
#nco td {
  color: rgb(51, 51, 51);
  font-size: 12px;
  padding-right: 5px;
}
</style>
</head>
<body>
<table id="nco">
<tr>
<td>Caminos del Sureste</td>
</tr>
<tr>
<th><b>Camino: </b></th>
<td>ES44a Camino del Sureste Cartagena-Murcia</td>
</tr>
<tr>
<th><b>Etapa: </b></th>
<td>03a Murcia-Molina de Segura</td>
</tr>
<tr>
<th><b>Longitud: </b></th>
<td>20.95 km</td>
</tr>
</table>
</body>
</html>]]></description>
<Style>
<IconStyle>
<scale>0.8</scale>
</IconStyle>
<LabelStyle>
<color>ffffffff</color>
<scale>0.75</scale>
</LabelStyle>
<LineStyle>
<color>ffff0000</color>
<width>3.0</width>
<gx:labelVisibility>1</gx:labelVisibility>
</LineStyle>
<PolyStyle>
<color>66ff0000</color>
</PolyStyle>
</Style>
<ExtendedData>
<SchemaData schemaUrl="#kml_schema_ft_ES44a_03a_murcia-molina_de_segura">
<SimpleData name="id">ES44a_03a</SimpleData>
<SimpleData name="_formato">kml</SimpleData>
</SchemaData>
</ExtendedData>
<LineString>
<extrude>0</extrude>
<tessellate>1</tessellate>
<coordinates>-1.1298450083065,37.9831137319656,42.7785000000003 -1.13112643349972,37.9832025802395,44.0384000000049 -1.13114571224403,37.9829885062994,44.1784999999945 -1.13163890350468,37.9829908534728,46.0255000000034 -1.13299962119143,37.9830180105819,43.4603999999963 -1.13319156691313,37.9829797895411,43.502999999997 -1.13348543638528,37.9827563276444,43.8040999999939 -1.13365039222426,37.9828277413834,44.4416000000056 -1.13452127206129,37.9825886898854,45.1720000000059 -1.13574922054566,37.9822343028555,44.8417000000045 -1.13662697339292,37.9819925687248,45.096000000005 -1.13822674355654,37.9817677663001,44.6919999999955 -1.13883879001412,37.9817334006942,45.5920000000042 -1.1396369152963,37.9814849609942,45.6152000000002 -1.13981226464312,37.9814162295014,45.5062999999936 -1.14021576900413,37.9813924244716,45.417100000006 -1.1408784427145,37.9814194143617,45.1971000000049 -1.1414350011353,37.9813815281096,45.2482000000018 -1.1417370848024,37.981386221851,45.3629999999976 -1.14203246344424,37.9815146329835,45.4603000000061 -1.14242708346708,37.9818396830138,45.6021000000037 -1.14259421861895,37.9818204047334,44.7372000000032 -1.14263411639397,37.9817550255023,44.6543999999994 -1.14329947157547,37.9818150397811,44.2891999999993 -1.14450445373129,37.9820980130401,44.5841999999975 -1.14460989797932,37.9819127729069,44.1796999999933 -1.14532521027041,37.9820587860816,44.2562999999936 -1.1458014700846,37.9820415194443,44.1337000000058 -1.14638602360288,37.9818582907589,44.1126999999979 -1.14673772840969,37.9816824381739,44.1659000000072 -1.14704869731325,37.9814673586009,44.3151000000071 -1.14738866652917,37.9810713978086,44.1971999999951 -1.14773249221257,37.9806561584179,44.2225000000035 -1.14807983839359,37.980241086615,44.2888999999996 -1.1484999400278,37.9798325522615,44.4750000000058 -1.14898927482095,37.9794307239897,44.5611999999965 -1.14948213101001,37.9790288956421,44.4081000000006 -1.15003382774849,37.9786307549427,44.1993999999977 -1.15048443886466,37.978253066739,44.2666999999929 -1.15091241872391,37.9778063110373,44.2709000000032 -1.15135766599954,37.9773597232684,44.3398000000016 -1.15191875013272,37.9770029898224,44.3935000000056 -1.15264328183355,37.9766377063685,44.4673999999941 -1.15337720182741,37.9763111469733,44.898199999996 -1.15394029728856,37.9761495438947,44.7258000000002 -1.15428043538774,37.976157590882,44.9602000000014 -1.15471545624215,37.9762578382558,44.7976999999955 -1.15503631559702,37.9764772766377,45.1404000000039 -1.15531342070936,37.9767840543514,45.2571000000025 -1.15547200659465,37.9769706351259,45.3312000000005 -1.15595161892148,37.9773739723752,45.1821000000054 -1.15636467956047,37.9776581190821,45.1612000000023 -1.15716984493953,37.978096828204,45.2424000000028 -1.15818070206075,37.9786431606491,45.172900000005 -1.15854581781643,37.9788989761859,45.3277999999991 -1.15881320046242,37.9791752438135,45.4440999999933 -1.15907136369867,37.979544885613,45.5660000000062 -1.1591883746543,37.9798655769527,45.5540999999939 -1.15925777669652,37.9802818220312,45.4542999999976 -1.15912601360729,37.9808294962836,45.6539000000048 -1.15893976769607,37.9814752379028,45.7155999999959 -1.15896005165516,37.9821902137634,45.6428000000014 -1.15905778476481,37.9825848338443,45.8065000000061 -1.1593347227905,37.9831801168253,45.4250000000029 -1.15962322842211,37.9838635768944,45.5650000000023 -1.15995246905856,37.9844459519882,45.5543999999936 -1.160270646044,37.9847780431272,45.6285000000062 -1.16070147625761,37.9850514607652,45.5424999999959 -1.16124445574459,37.9852797833388,45.7345999999961 -1.16205783531861,37.9853914308773,45.9324000000051 -1.16333406375792,37.9853262190894,45.8882000000012 -1.1647559701902,37.9852687197523,46.2231000000029 -1.16622682672068,37.9852009936588,47.1388000000006 -1.16777429337519,37.9851262268961,47.0454999999929 -1.16938814552918,37.9850331880183,47.360400000005 -1.171036697806,37.9849433337299,47.4057999999932 -1.17143701763933,37.9849082976928,47.6217000000033 -1.17167556616132,37.9848186110543,47.5326000000059 -1.17202760693801,37.984628844978,47.6388000000006 -1.17225090026989,37.9843051355737,47.5095000000001 -1.17238333440065,37.9838674328684,47.5804999999964 -1.17244686954573,37.9834065958156,47.9649999999965 -1.17239758347768,37.9830099643468,47.9781999999977 -1.17225978550635,37.982545942054,48.1407000000036 -1.17204252615827,37.9820614681949,48.0190000000002 -1.17190204581751,37.9817047342366,48.0883000000031 -1.17188746077054,37.9814542828381,47.9919999999984 -1.17206716874315,37.9810695532999,48.1003999999957 -1.17243664312454,37.9807371274547,47.7011000000057 -1.17310468067548,37.9804093946157,47.8481999999931 -1.17383223071566,37.980063389869,47.7456999999995 -1.17456313237017,37.9797173849071,48.0893000000069 -1.17516227093543,37.9795068312862,48.1392000000051 -1.17597498036625,37.9793628303574,48.9404000000068 -1.17681970844871,37.9793319849149,49.3564999999944 -1.17789192140215,37.9795080052826,48.3280999999988 -1.17827279450621,37.9795551116965,48.7546000000002 -1.17910042405559,37.9795130340656,48.3494999999966 -1.18017783376294,37.9794830270532,48.9541000000027 -1.18045795721463,37.9795341567915,48.9924000000028 -1.1807640644359,37.9796516710055,48.5163999999932 -1.18134576849812,37.9801445266653,48.4976000000024 -1.18203559917785,37.9807572436639,48.7495999999956 -1.18274252839069,37.9813811924883,48.7486000000063 -1.18345247594287,37.982024419904,48.7740999999951 -1.1838695592377,37.9824322835676,49.3503999999957 -1.18460414937477,37.9829219541672,50.3583999999973 -1.18484118962543,37.9830245486783,50.4958999999944 -1.1855999192908,37.9832396286436,49.5997000000061 -1.18675963983103,37.9833921793661,50.3304000000062 -1.18834180750665,37.9834523608199,51.3573000000033 -1.18997326125036,37.9834912528379,50.8859999999986 -1.19122803253077,37.9834528642377,50.6520000000019 -1.19239009947051,37.9832288996543,50.7529000000068 -1.19337648109351,37.9829417355795,50.5458000000071 -1.19405876861981,37.9828807153788,50.5476999999955 -1.19526458890378,37.9828552341675,50.7942999999941 -1.19554588555522,37.9828540609326,50.5380000000005 -1.19641508913593,37.9830983093262,50.8693999999959 -1.19754195199799,37.9834563846214,50.7905000000028 -1.1984381454614,37.9837368429687,51.1713000000018 -1.1987221244823,37.9837713761495,51.3269 -1.19894139425999,37.9837527681815,51.0822000000044 -1.1991586536081,37.9836763254293,51.1604999999981 -1.19941044599233,37.9834657718385,51.4150999999983 -1.19959803308829,37.9831772669464,51.3197999999975 -1.19977891426064,37.9828803797644,51.4014000000025 -1.1999944973524,37.9825868454148,51.5871000000043 -1.20029356357849,37.9822835883229,51.3818000000028 -1.20058927729191,37.9819774814683,51.5218000000023 -1.20088180557935,37.9816576277865,51.6117999999988 -1.20115438497926,37.9813044144762,51.7388999999966 -1.20130257645844,37.9810648595382,51.3650999999954 -1.20143936921494,37.9807233810213,51.2293999999965 -1.20157314453044,37.9803653058433,51.6149000000005 -1.20165528737832,37.9799899646305,51.726800000004 -1.2017444703231,37.9796092585087,51.3723999999929 -1.20186500267468,37.9792208408088,51.3059999999969 -1.20204605183196,37.9789157401139,51.671199999997 -1.20230823772404,37.9785625263523,51.9285999999993 -1.20272163343465,37.9781290145858,51.7881000000052 -1.20335027536878,37.9776960051322,52.3439999999973 -1.20405402005394,37.9773164724718,55.7048000000068 -1.20432240881309,37.9772792567978,52.1946999999927 -1.20477402604237,37.9774153792455,52.829700000002 -1.20570408150043,37.9780150207028,53.7109999999957 -1.20651846718757,37.9785140788881,53.6067999999941 -1.20723914331919,37.9787229557737,53.8221000000049 -1.20856532796975,37.9790290634581,53.0127999999968 -1.20989788347233,37.9795029757912,53.2200000000012 -1.21085526388471,37.9796934129279,53.6573999999964 -1.21239384620106,37.979692071828,53.6153999999951 -1.21277153477744,37.9797307959002,53.6692000000039 -1.21307110406007,37.9798370782878,54.1061999999947 -1.21333010452615,37.9800389145617,54.0586999999941 -1.21350981339706,37.9803604449317,53.8993999999948 -1.21350344254504,37.9807644525019,54.428700000004 -1.21332272845935,37.9810531247787,54.2238999999972 -1.21304260590598,37.9814336633884,54.2681000000011 -1.2127274463616,37.9819731226753,53.9517000000051 -1.21243307383288,37.9826530629435,53.8221000000049 -1.21218664528921,37.9833613334931,54.2727000000014 -1.21205840269754,37.9840685988759,54.3595000000059 -1.21196754259816,37.9846637140534,54.4906000000046 -1.21182119446195,37.9849693176235,54.7087999999931 -1.21153051041578,37.9852095430594,54.6588999999949 -1.21114460764444,37.9853713138144,54.7418999999936 -1.21023919477129,37.9856103661595,54.9814999999944 -1.20986117022499,37.9857310652288,54.8402999999962 -1.20926152950149,37.9861067424132,54.972299999994 -1.20855828787287,37.9866017771674,55.3956999999937 -1.20827481190857,37.9868337886007,55.5929000000033 -1.20804397362664,37.9873251354105,54.8647000000055 -1.20770651879522,37.9879192450131,55.3236999999936 -1.20737023626522,37.9886068961478,56.0212000000029 -1.20701970555652,37.9893108082166,56.007500000007 -1.20706547022868,37.9895726589338,54.9940999999963 -1.20717292670298,37.9897226951915,53.2888999999996 -1.20732480666467,37.9899008945753,55.0050000000047 -1.20780056342232,37.9906200616599,54.3506999999954 -1.20832007352416,37.9913977350359,55.1870000000054 -1.20855610856001,37.9916872454775,55.2379999999976 -1.2094782848947,37.9924738037001,55.4400000000023 -1.21050255386312,37.9933470302395,55.5433000000048 -1.21085794625414,37.9935860820833,55.4698999999964 -1.21136857201782,37.9938687196899,55.585500000001 -1.21274068932551,37.994439359913,55.9428999999946 -1.21312994550781,37.994571794047,55.8536000000022 -1.21414666952614,37.9947603868468,56.0469000000012 -1.21454011634924,37.9948680102331,56.3472000000038 -1.21559808022566,37.9953623749287,56.5647000000026 -1.21629092834639,37.9957248085198,57.0077000000019 -1.21662603677833,37.9960899240441,57.4069000000018 -1.21696064215365,37.9966173132295,56.9795000000013 -1.21708855057203,37.9969326404368,57.1901000000071 -1.21731553238643,37.9971696807507,58.0305999999982 -1.21727714288277,37.9973202196588,58.9483999999939 -1.21697405310252,37.9974997604743,61.8764999999985 -1.21652679539728,37.9978970625711,63.2400000000052 -1.21585691360511,37.9984449033627,64.4796999999962 -1.21554343031704,37.9987672719212,66.3000000000029 -1.21613184030286,37.9989960975928,65.0620000000054 -1.21698075902612,37.999231629096,59.7798000000039 -1.21711755178266,37.9993189684531,60.0200999999943 -1.21718594771176,37.9995097406642,60.5850000000064 -1.21709290919778,37.9996237344244,60.8540000000066 -1.21662905421934,37.9999878444592,60.8690000000061 -1.21621549142211,38.0004268886878,61.236699999994 -1.21603259802352,38.0008034037733,61.5105999999942 -1.21609143947126,38.0011011287492,60.6907000000065 -1.2162780204541,38.0012882125706,59.2912000000069 -1.21644565866251,38.0018239844243,60.608699999997 -1.2165829535773,38.0024665406514,61.0954999999958 -1.21675176588378,38.0029583907986,61.2428999999975 -1.21712442479288,38.0036374924366,61.5522000000055 -1.21721746420516,38.0038148539034,61.4321999999956 -1.21721377572261,38.0041117406007,61.1968000000052 -1.21704798175548,38.0045023376213,61.344299999997 -1.21704982599675,38.0051428827851,61.1181999999972 -1.2169945050466,38.0054169705731,60.8178000000044 -1.21659753862424,38.0058865249636,61.2958999999973 -1.21609563011206,38.0065248906929,61.7437999999966 -1.21552465462927,38.0071485042875,61.5629000000044 -1.21527554461447,38.0075377601118,61.602899999998 -1.21490271772041,38.0081588587596,61.6137000000017 -1.21452486115907,38.0088376255741,61.8840000000055 -1.21433274835074,38.0091673696615,61.7286000000022 -1.21377719604305,38.0097279513782,62.2026000000042 -1.21364895255308,38.0101465431984,62.3583999999973 -1.21354032287904,38.0104719285453,62.864499999996 -1.21336480644556,38.0108348650087,63.8380000000034 -1.21314922335379,38.0109882543893,62.9314000000013 -1.21311066676347,38.0112873202918,62.4829000000027 -1.21328484291056,38.0114137192641,62.0200999999943 -1.21346052732897,38.0114740695351,62.2155999999959 -1.21356982714625,38.0115526915639,62.2936000000045 -1.21406855023242,38.0123300290339,62.4360000000015 -1.21438974555721,38.0129809678709,62.1739999999991 -1.21460432163752,38.0131601730852,62.2067999999999 -1.21514830723762,38.0132233727533,62.3564999999944 -1.2159705720481,38.0131286567458,62.4274000000005 -1.21657289603936,38.0127942189278,62.3920000000071 -1.21711503739818,38.0126430096883,62.3873000000021 -1.21784560398108,38.0123187975409,62.5481 -1.21811332169869,38.0123090742897,62.5227000000014 -1.21860852428724,38.0125228128241,62.4746000000014 -1.21906550625545,38.0128788760069,62.6349000000046 -1.21907908429095,38.0130331033403,62.4253999999928 -1.21877113372673,38.013556301811,62.6775999999954 -1.21838724228333,38.0142020434031,62.8557000000001 -1.21800016631224,38.0149795488211,62.8562999999995 -1.21756078683205,38.0157617481494,62.7502999999997 -1.21735710641777,38.0161407775974,63.0473999999958 -1.21716616680918,38.0168525691334,63.3347999999969 -1.2170952555973,38.0176267216044,63.5124000000069 -1.21702367424218,38.0184283665801,63.3295000000071 -1.21702752981139,38.0192722564988,63.3993000000046 -1.21705317850939,38.019932415033,63.4107999999978 -1.21697053350326,38.0200438944696,63.4847000000009 -1.21683424380329,38.0200775896384,63.2676000000065 -1.21667431673326,38.020080607221,63.489499999996 -1.21651187527876,38.0200452355394,63.6760999999969 -1.21623678149435,38.0199255419507,63.5862999999954 -1.21600393188448,38.0197818765493,63.4619999999995 -1.21545860509968,38.0196306668638,63.6699999999983 -1.21462259426872,38.0194310102399,63.9557999999961 -1.214089673218,38.0193404854417,63.5363999999972 -1.21394366015342,38.0193409879055,63.7382000000071 -1.21342834069237,38.0193825621659,63.588699999993 -1.21269157124241,38.0195307547582,63.8315000000002 -1.21173452590166,38.0198762562985,64.2280000000028 -1.21123395857421,38.0200281363662,64.1812000000064 -1.21087119011638,38.0200886543434,64.5507999999973 -1.21063951370628,38.0201813578941,66.8010000000068 -1.2103422917215,38.020256627472,66.7145000000019 -1.21008597272653,38.0203681064154,66.3418999999994 -1.20992286112883,38.0205057376606,65.7798999999941 -1.20984725621955,38.0207546799895,65.8068999999959 -1.20980886761422,38.0210482144558,65.772100000002 -1.21010843689685,38.0211600290496,64.5804999999964 -1.21084554141839,38.0215725863564,64.1964000000007 -1.21179319936444,38.0221834591748,64.2972000000009 -1.21278947233702,38.0229379984264,64.6763999999966 -1.21380569419714,38.0237341116071,64.6888999999937 -1.21402613807289,38.023960087489,64.9508999999962 -1.21449284250742,38.0244894883117,64.7670000000071 -1.21503481677958,38.024923838509,64.8289999999979 -1.21546665220801,38.0251722782651,64.9521999999997 -1.2162102946682,38.02560143179,64.5690000000031 -1.21691035087078,38.0262552198434,65.1543999999994 -1.21715342600351,38.0265502628697,65.0063999999984 -1.21741829426503,38.0270903930264,65.2437999999966 -1.2175275940823,38.0271690152861,65.1716000000015 -1.21771953980401,38.0274248307084,65.2658999999985 -1.21784141244196,38.0277042838146,65.3435999999929 -1.21788466362794,38.028067722971,65.4835000000021 -1.21784627412428,38.0286470800907,65.4453999999969 -1.21789321289452,38.0288594774784,65.4046999999991 -1.21795574192648,38.0290033111814,65.5636999999988 -1.21810812494475,38.0291677640825,65.7213000000047 -1.21833795711357,38.0292894691386,65.7859000000026 -1.21858941352789,38.0293840170794,65.5907000000007 -1.21864272315011,38.0294782294971,65.7885999999999 -1.21857449430766,38.0295705985045,65.6708000000071 -1.21825899969169,38.0296840891235,65.6603000000032 -1.21765131096153,38.0298041177385,65.601999999999 -1.21706273388908,38.0299985778434,65.5899999999965 -1.21669745104678,38.0301606842617,65.9287999999942 -1.21610501750679,38.0305117185458,65.679999999993 -1.2153084013943,38.0309697052357,65.6941999999981 -1.21503297253828,38.0311524312572,65.9704000000056 -1.21476475176412,38.0314644053085,65.8319999999949 -1.2146671857411,38.0317571015555,66.2837 -1.21472217161967,38.0320714228796,66.126099999994 -1.21493590957183,38.032575007514,66.2121999999945 -1.21518636166969,38.0331396124051,66.1312999999936 -1.21534176212901,38.0334636567332,66.0304999999935 -1.21557863439469,38.0337312069327,66.2544000000053 -1.21607065245559,38.0342225543724,66.1398999999947 -1.21672980477004,38.0346998197466,66.2798000000039 -1.21725937330812,38.0350761672891,66.2906999999977 -1.21748400872303,38.0351262910609,66.4373000000051 -1.21772104897366,38.0350969542035,66.5417000000016 -1.21885880840015,38.0347568168829,66.5222000000067 -1.21930321664929,38.0346289093492,66.7216000000044 -1.21992180104551,38.0343469418448,66.4409000000014 -1.22064348329025,38.0339675770825,66.4560999999958 -1.22125452363472,38.0337074026094,66.5145000000048 -1.22162165161662,38.0336140284261,66.6100000000006 -1.22247425882246,38.033566418988,67.1410000000033 -1.22283199761301,38.03357731538,67.3136999999988 -1.22297616643632,38.0336537584774,67.4458000000013 -1.22306300298157,38.0337980950374,67.5271999999968 -1.22315051056833,38.0343464387764,67.1478999999963 -1.22325142820568,38.0349197611175,67.258799999996 -1.22328344775566,38.0351759117358,67.3557000000001 -1.2231510136249,38.0356246790519,67.8206000000064 -1.22314648701419,38.0358087455632,67.7237000000023 -1.22320499249199,38.0361202172451,67.8021000000008 -1.22338671269083,38.0366563238822,68.0097999999998 -1.22356977317605,38.0372775903752,67.9413000000059 -1.22359642798716,38.0374703743351,68.1447000000044 -1.22346634025592,38.0379659120681,68.1042000000016 -1.22323617301551,38.0382840895765,67.9375 -1.22258288759817,38.0387085490916,67.7724000000017 -1.22183203705615,38.0391452459682,68.0368000000017 -1.22149307305507,38.0393628406479,67.9351000000024 -1.22093517344954,38.03972544159,67.8833000000013 -1.22026177115973,38.0401193912471,67.7915000000066 -1.21975885743277,38.0403619631756,67.7945000000036 -1.21847927558249,38.0405267513956,68.1073000000033 -1.21807090953916,38.040597494775,67.7029000000039 -1.21726842563124,38.0408657157896,68.2237000000023 -1.21670298287227,38.041107282032,67.7587000000058 -1.21634624929655,38.0413409696562,68.1536000000051 -1.21580863365014,38.0417231841559,67.9043999999994 -1.21514227235555,38.0422572794621,68.0522999999957 -1.2144651824815,38.0428022708445,67.7958000000071 -1.21421087571275,38.0431090484608,68.3050999999978 -1.21388750107511,38.0435439016267,68.2887999999948 -1.21355423688449,38.0440969392374,68.3353999999963 -1.21344007538492,38.0442161299529,68.5142000000051 -1.21325768504288,38.0442820116785,68.4581999999937 -1.21268754858658,38.0445730316859,68.1396999999997 -1.21165540049478,38.0449944735642,69.5915999999997 -1.21144535012685,38.0450544877318,70.1472000000067 -1.21156990513426,38.0456737431747,70.5997000000061 -1.21154308323649,38.0461047404341,71.5216999999975 -1.21163478146407,38.0463365840982,71.8579000000027</coordinates>
</LineString>
</Placemark>
</Folder>
</Document></kml>
