<?xml version="1.0" encoding="UTF-8"?>

<kml xmlns:xsd="http://www.w3.org/2001/XMLSchema" xmlns:gx="http://www.google.com/kml/ext/2.2" xmlns:atom="http://www.w3.org/2005/Atom" xmlns="http://www.opengis.net/kml/2.2">
<Document>
<name>ES04b_01a_zamora-granja_de_moreruela</name>
<visibility>1</visibility>
<Schema name="ES04b_01a_zamora-granja_de_moreruela" id="kml_schema_ft_ES04b_01a_zamora-granja_de_moreruela">
<SimpleField type="xsd:string" name="id">
<displayName>id</displayName>
</SimpleField>
<SimpleField type="xsd:string" name="nombre">
<displayName>nombre</displayName>
</SimpleField>
<SimpleField type="xsd:double" name="longitud">
<displayName>longitud</displayName>
</SimpleField>
<SimpleField type="xsd:string" name="_formato">
<displayName>_formato</displayName>
</SimpleField>
</Schema>
<Folder id="kml_ft_ES04b_01a_zamora-granja_de_moreruela">
<name>ES04b_01a_zamora-granja_de_moreruela</name>
<Placemark id="kml_1">
<name>&lt;img height='20' src='https://nco.ign.es/iconos/icono_todos_caminos_azul.png' /&gt;&lt;img height='20' src='https://nco.ign.es/iconos/Camino Santiago_20.png' /&gt;&lt;img height='20' src='https://nco.ign.es/iconos/icono_todos_caminos_azul.png' /&gt;  Camino de Santiago </name>
<visibility>1</visibility>
<description><![CDATA[<!DOCTYPE html>
<html>
<head>
<style>
#nco {
  border-collapse: collapse;
  overflow:hidden;
}
#nco th, #nco td {
  padding: 4px;
  text-align: left;
}
#nco th {
  color: #364B5F;
  padding-right: 5px;
}
#nco td {
  color: rgb(51, 51, 51);
  font-size: 12px;
  padding-right: 5px;
}
</style>
</head>
<body>
<table id="nco">
<tr>
<td>Caminos del Centro</td>
</tr>
<tr>
<th><b>Camino: </b></th>
<td>ES04b Vía de la Plata de Zamora a Astorga</td>
</tr>
<tr>
<th><b>Etapa: </b></th>
<td>01a Zamora-Granja de Moreruela</td>
</tr>
<tr>
<th><b>Longitud: </b></th>
<td>42.38 km</td>
</tr>
</table>
</body>
</html>]]></description>
<Style>
<IconStyle>
<scale>0.8</scale>
</IconStyle>
<LabelStyle>
<color>ffffffff</color>
<scale>0.75</scale>
</LabelStyle>
<LineStyle>
<color>ffff0000</color>
<width>3.0</width>
<gx:labelVisibility>1</gx:labelVisibility>
</LineStyle>
<PolyStyle>
<color>66ff0000</color>
</PolyStyle>
</Style>
<ExtendedData>
<SchemaData schemaUrl="#kml_schema_ft_ES04b_01a_zamora-granja_de_moreruela">
<SimpleData name="id">ES04b_01a</SimpleData>
<SimpleData name="_formato">kml</SimpleData>
</SchemaData>
</ExtendedData>
<LineString>
<extrude>0</extrude>
<tessellate>1</tessellate>
<coordinates>-5.74818380177738,41.5012266487265,643.717099999994 -5.74823543424495,41.5013183466514,645.312900000004 -5.74839334908875,41.501532420326,647.862099999998 -5.74820760623407,41.5016155687829,648.0 -5.74794609138351,41.5017288913415,648.0 -5.74811121430915,41.5019030672275,648.069300000003 -5.74837390325778,41.5022364994798,649.0 -5.74826309516918,41.5023012083056,649.0 -5.74796000538896,41.5024616372327,649.0 -5.74784835827387,41.5025147795341,649.0 -5.74818313073585,41.5028113301327,650.0 -5.74837926799668,41.5029715922952,651.0 -5.74851052802936,41.503120120351,650.234299999996 -5.74874036019815,41.5033705717944,649.0 -5.749151072641,41.5032538956865,648.0 -5.7494799791042,41.503201592257,647.0 -5.74952607974625,41.5033279912423,647.0 -5.74961593373255,41.5034553964335,647.569399999993 -5.74975607900173,41.5035787775895,648.0 -5.74988398742008,41.5036887483858,645.0573 -5.74973512400107,41.5038309057916,643.885699999999 -5.74964711425607,41.5039209275534,645.665399999998 -5.74947712874981,41.5040644252524,648.873500000002 -5.74935223867078,41.5041836153306,649.0 -5.74920320906348,41.5043113565606,647.674299999999 -5.74905518377262,41.5043792494707,647.093200000003 -5.74891939802756,41.5044347374312,645.951400000005 -5.74895041056609,41.5045443737619,643.984899999996 -5.74891286008892,41.5046607131879,640.953200000004 -5.7488508341135,41.5048246634884,638.183499999999 -5.74874287458266,41.50498727259,637.0 -5.74871286725889,41.5050786355443,637.0 -5.7487462270953,41.5050742774981,637.0 -5.74877841373193,41.5051076362554,637.0 -5.74879501010681,41.5051545756966,637.0 -5.74879165669584,41.5051865943056,637.0 -5.74876835619399,41.5052228047673,637.0 -5.74866509125882,41.5053049467709,637.0 -5.74874304166929,41.5053708284845,637.0 -5.74893565843253,41.5052518054139,636.776500000007 -5.74905015500368,41.5052888534048,635.923899999994 -5.7492437769817,41.5053730081704,635.959000000003 -5.74954334626432,41.5055481894202,634.910399999993 -5.75004391359178,41.5057946172437,634.897700000001 -5.75025379687309,41.5058886626076,635.0 -5.75026905206323,41.5059138081734,635.0 -5.75040768816272,41.5060185821562,635.0 -5.75050022541678,41.5060226057892,635.0 -5.75056962656068,41.5061081003617,635.903900000005 -5.75061924770035,41.5061961101739,636.0 -5.7506551219212,41.5063013875768,637.0 -5.75066685661378,41.5064120284991,637.268800000005 -5.7507060842456,41.5070629671982,642.362999999998 -5.75073408024144,41.507467980684,645.372099999993 -5.75130421669774,41.5082081025115,651.0 -5.75384611298189,41.5117442602033,664.0 -5.75491396730957,41.5132987683229,665.0 -5.75851365858687,41.5182616923162,679.0 -5.75872102838197,41.5185867437391,681.593399999998 -5.75906082961294,41.5188023254662,684.0 -5.75940046465555,41.5188713923409,685.835099999997 -5.75974965507785,41.5188623404588,687.0 -5.75979508467839,41.5190246136495,687.0 -5.75956441527974,41.5190760783434,686.0 -5.75941840221516,41.5191691177105,686.0 -5.75937280373132,41.5197930661356,689.0 -5.75993221340485,41.5205336913873,690.0 -5.76127650180335,41.5224367184639,690.0 -5.76198812561186,41.5234997111788,691.0 -5.76285280258183,41.5247450953396,694.0 -5.76298389642619,41.5248859105247,695.0 -5.76304105982098,41.5250763472782,694.016199999998 -5.76279697857514,41.5251561431653,694.1921 -5.76285380869495,41.5253165732957,694.0 -5.7630965487561,41.5253045033037,695.0 -5.76332822426786,41.5253266317328,695.0 -5.76359141627306,41.5256536935115,696.0 -5.76401604272135,41.5261048074322,696.0 -5.76481299480375,41.5268777866332,697.0 -5.76555781136201,41.5276405391385,698.0 -5.76570533179966,41.5277513487037,697.0 -5.76557926762258,41.5278648393718,697.0 -5.76540777474326,41.5279630753485,697.328500000003 -5.76514005702565,41.528031136463,698.0 -5.76487300855294,41.5280537676672,697.947 -5.76472179963275,41.5281595475269,698.0 -5.76472213470433,41.5283726151529,698.0 -5.76477158785904,41.5289202882751,698.0 -5.76478131122369,41.5294453314314,698.0 -5.76487686502045,41.5301433754251,697.0 -5.76495263701635,41.5308927185652,697.0 -5.76501315472041,41.5313766892754,697.0 -5.76507132512663,41.5317186707972,697.0 -5.76529595964321,41.5323111036342,697.0 -5.7655834591617,41.5328710144068,697.0 -5.76615560784423,41.5337977184203,697.0 -5.76646339132182,41.5342818563527,697.137100000007 -5.76669925837271,41.5347499026028,697.777199999997 -5.76689036596626,41.5350950697656,698.0 -5.76700352135271,41.5354648782983,698.0 -5.7676945252322,41.5360417216474,699.0 -5.76846431944692,41.5366908151394,699.0 -5.76918616877832,41.5373503036314,699.342600000004 -5.76990298934077,41.5379393847306,700.0 -5.77036583820606,41.538332160309,700.0 -5.7714110612768,41.5391981788025,700.0 -5.77122682669348,41.5393401674512,699.0 -5.77097486722262,41.5394684101582,699.388900000005 -5.77047547309491,41.5397555744081,700.0 -5.77007280686207,41.5400288244487,700.0 -5.76952060706702,41.5402801147611,701.0 -5.76911861097737,41.5404848002769,701.0 -5.76888073170025,41.5405959442002,700.284400000004 -5.76888190579832,41.5407424602426,700.0 -5.76904384419628,41.5409813445286,697.799700000003 -5.77113362019457,41.5434913892359,686.0 -5.77128818342403,41.5436539986852,685.999899999995 -5.77020725232076,41.5441517153663,688.0 -5.76894728518471,41.5441106441514,689.0 -5.76825879479139,41.5441659642554,689.672699999996 -5.76772838812516,41.5443312553078,691.0 -5.76755639218926,41.5445232013611,691.0 -5.76756527562912,41.5447357666412,691.0 -5.76834076965432,41.5456505672617,692.127399999998 -5.76863229272695,41.5460171911666,692.024300000005 -5.76886983603419,41.5463866663029,693.0 -5.76938046089954,41.5469614974968,693.0 -5.76976653165584,41.5474687697376,694.0 -5.7700526899896,41.5479542494332,694.0 -5.77015712902285,41.5481232284413,694.0 -5.7709296047087,41.5490710543667,694.1826 -5.7717320877183,41.5500158626559,695.0 -5.7722276262768,41.5505544832264,695.0 -5.77271545279858,41.5511893282514,695.0 -5.77304570044648,41.5516840283056,696.0 -5.77329782790234,41.5521919727217,696.172300000006 -5.77361047306225,41.5527691502147,697.0 -5.77410768697873,41.5538165527408,698.305099999998 -5.77471436869745,41.5554337573143,701.841199999995 -5.77498141717016,41.5562394253394,708.0 -5.7751416793118,41.5565296072769,710.0 -5.77535608830549,41.5567865963012,711.0 -5.77639158801159,41.5579729701741,710.0 -5.77461613342956,41.5590569184068,707.0 -5.77636024040144,41.5632168576039,721.052100000001 -5.77777728425313,41.5666386856002,726.858500000002 -5.77811390185468,41.5674874364991,720.140299999999 -5.77849058431795,41.56832881218,712.253400000001 -5.77854892181082,41.5702920213825,720.0 -5.77865118242951,41.5722646185642,715.0 -5.77943472176641,41.5744435782194,718.953999999998 -5.77956279727139,41.5749350936619,718.6878 -5.77977251256774,41.5754391807645,721.0 -5.78014634467659,41.5764269041756,722.0 -5.78138586076689,41.579881421262,719.537400000001 -5.78239722184298,41.582954730777,718.070300000007 -5.7833891361898,41.5858649275664,720.0 -5.78396011077429,41.5875280645998,719.049499999994 -5.78423604358516,41.5883935792125,721.983600000007 -5.78447794461982,41.5891080536757,722.0 -5.78455908225292,41.5892208736214,722.0 -5.78527204724616,41.58962035525,723.0 -5.78564638330987,41.5898243705464,724.0 -5.78581687097438,41.5899517753885,723.274799999999 -5.78590370662134,41.5900825332409,723.0 -5.78701917076076,41.5925670964307,717.220400000006 -5.78818090262889,41.5950727837791,722.815100000007 -5.78879211095831,41.5964125466044,719.0 -5.78938840006751,41.5977435927923,718.9758 -5.7896800902268,41.5984744947955,721.0 -5.78949853801291,41.599169019732,722.0 -5.78942528040151,41.5992845212493,722.0 -5.78887660110405,41.5994541714742,722.0 -5.78827746164046,41.5995986751674,721.0 -5.7878107581043,41.5997309417352,721.0 -5.78758662574596,41.5997622901383,720.307000000001 -5.78733818587436,41.5997022756608,720.2264 -5.78715814283016,41.5997897826202,721.0 -5.78708522029035,41.5999284197609,721.112200000003 -5.78698765516566,41.600073929357,721.841 -5.78782919782212,41.5998974066465,725.106799999994 -5.7888890059398,41.5996786383827,732.431599999996 -5.78921657121827,41.5996962405548,733.895199999999 -5.78979559201276,41.5997803954363,728.033800000005 -5.79003397434643,41.5998078872388,733.975000000006 -5.79025844087805,41.5997907882459,732.821500000005 -5.7903628799113,41.5997589373795,731.891300000003 -5.79048307629297,41.5996771302775,730.998300000007 -5.79085053934646,41.5994037125631,727.329899999997 -5.7912411349168,41.5993096674573,725.0 -5.79161228555455,41.599288042646,723.0 -5.79161094526814,41.5994293612046,723.0 -5.79152276663986,41.5995559275382,723.232799999998 -5.79129394058415,41.599584258468,723.0 -5.79099051663064,41.5995686681954,723.0 -5.79088306105468,41.5996591922192,723.123900000006 -5.79077577166704,41.599749884728,724.0 -5.79063042964395,41.5998720933992,724.0 -5.79051341868829,41.5999227192121,724.0 -5.79029616023851,41.6000482803,723.812999999995 -5.79025709969335,41.6001532222419,723.895699999994 -5.79028576583236,41.6002511226688,723.698000000004 -5.79038182268569,41.6005714795467,724.0 -5.79080862934517,41.6018461986175,724.962799999994 -5.79132797236039,41.6033204082461,724.144899999999 -5.79184127959521,41.6048206014764,723.0 -5.79253530091572,41.6067926954056,721.4421 -5.79345194632322,41.609355378408,722.0 -5.79427840177449,41.6118867131611,720.0 -5.79513033883713,41.6143890465849,714.0 -5.79588387174859,41.6162805065632,711.075100000002 -5.79641277014346,41.6180252831603,716.0 -5.79698173340002,41.6197767663604,711.851699999999 -5.79733142598056,41.6207349854866,712.305200000003 -5.79759646222707,41.6214523084976,710.087 -5.80082885933413,41.6230470496647,705.0 -5.80007012877044,41.6238835635559,704.385399999999 -5.79782897586699,41.6264879885054,707.0 -5.79786686231411,41.6267303932893,707.411200000002 -5.79794397639305,41.6269577104011,707.290200000003 -5.7997968792273,41.6323848245569,700.750700000004 -5.8007812504207,41.6352754087933,704.0 -5.80448973935696,41.6377619834293,694.977799999993 -5.80610862027996,41.6388682274031,697.0 -5.80454003063983,41.6407109045097,694.0 -5.80505233265986,41.6427463666473,696.737399999998 -5.80569421935453,41.6447945673715,696.0 -5.80551266714068,41.6453958857542,696.0 -5.80542717088183,41.6459386971671,695.327000000005 -5.80533798793705,41.6466709407172,694.0 -5.80525701918724,41.6475525496396,692.0 -5.8055284253874,41.6488604612157,686.0 -5.80580552960141,41.6492017726102,686.0 -5.80623770099975,41.6495164291654,686.0 -5.80685276489839,41.6498077847857,686.0 -5.80755885688137,41.6500947807482,686.0 -5.80734076030343,41.6504957702878,684.0 -5.80689333371494,41.6504305593401,684.0 -5.80638522323403,41.6504890653454,684.0 -5.80592019505585,41.6504345827121,684.0 -5.80521326494468,41.6502743202164,684.942299999995 -5.80451656125473,41.6504364265896,683.9522 -5.80385958825314,41.6506754784599,685.0 -5.80385707297037,41.6508592101472,685.249400000001 -5.80393502517747,41.6510405947013,684.7399 -5.80405220411805,41.651409565721,684.369900000005 -5.80427901794752,41.652147173196,685.824200000003 -5.80451941071082,41.6528904801747,685.310299999997 -5.80483909686592,41.6536049532202,686.909499999994 -5.80494672132517,41.6536502162586,686.679399999994 -5.80512290790183,41.6536671472686,684.988200000007 -5.80552758636091,41.6538012581619,685.0 -5.80627676064662,41.6539258136189,691.668699999995 -5.80691579698692,41.6544128013161,699.068799999994 -5.80723011930145,41.6546679462988,703.142500000002 -5.80740882116095,41.6548074212538,705.045499999993 -5.80750487711595,41.6549437117994,706.0 -5.8077938849058,41.6567865567245,711.0 -5.80786697632887,41.6574207312559,711.0 -5.80872897092944,41.659208759625,709.0 -5.80871270962615,41.6644875142009,698.0 -5.80860827059291,41.6666379757851,695.3272 -5.80861028281914,41.6678816822056,694.805500000002 -5.80943908466996,41.6710334454529,701.0 -5.80936096627454,41.6745141143188,703.0 -5.80933883807414,41.6768270163066,704.0 -5.80931955932983,41.6785922453559,703.0 -5.80899752677518,41.6787225007911,703.0 -5.80848572781175,41.678896508421,703.0 -5.80843258617449,41.6791236582863,703.388800000001 -5.80936331267406,41.6800922706263,710.0 -5.80936348065901,41.681163813347,715.201499999996 -5.80931587084728,41.6812865245437,716.0 -5.80929441368838,41.6815914585261,718.0 -5.80898646312416,41.6816273326621,716.369000000006 -5.80779606511699,41.6815639653626,712.0 -5.80720212330564,41.6815002632171,710.0 -5.8067067527321,41.6814910422375,709.769400000005 -5.80640852463417,41.6813725226104,709.087499999994 -5.80639461062873,41.6814265027238,709.106599999999 -5.80661203706347,41.6815299341787,711.0 -5.80670792593185,41.6818628645763,714.281900000002 -5.80652436239006,41.6820516242679,716.0 -5.80513598377911,41.682140975155,711.614100000006 -5.80494655334022,41.6821589124077,712.479200000002 -5.80484714397422,41.6823555522994,713.0 -5.80497421336611,41.6828594724045,709.0 -5.80497890706348,41.6834728602717,705.942999999999 -5.80476114465882,41.6846340886003,703.136100000003 -5.80459954223078,41.6854704356665,701.924299999999 -5.80445235596642,41.6858776284509,700.649399999995 -5.80418731971994,41.6862950465816,699.893400000001 -5.80370066729623,41.6867610801937,699.0 -5.8034354630648,41.6869164814506,698.905400000003 -5.80228311859138,41.6867719775542,700.282800000001 -5.80111149717027,41.6866417223117,703.0 -5.80092592230058,41.6876488917045,708.278600000005 -5.80091435469466,41.687886937363,709.984500000006 -5.80100588493728,41.6880059601974,710.0 -5.80150611719311,41.6880865946329,708.706999999995 -5.80168632822226,41.6885442465897,710.542199999996 -5.80180484834758,41.6890228533953,713.0 -5.80179797533736,41.6893527652073,715.0 -5.80161692618004,41.6897091634818,719.323499999999 -5.80134686116462,41.6900828287012,724.0 -5.80076750440021,41.6907882496651,714.725099999996 -5.80023072688196,41.6914639985388,707.993100000007 -5.79992562487551,41.6918830943213,704.0 -5.79898718723753,41.6928330993617,698.477899999998 -5.79821471065334,41.693428717632,697.861000000004 -5.79703269482609,41.6944316957529,694.856899999999 -5.79529948531693,41.6958584637097,692.100000000006 -5.79418787674668,41.6972129781998,695.0 -5.79350123239127,41.6981898057092,695.0 -5.79277083289503,41.6994179225194,694.8027 -5.79190481474029,41.7010654696809,686.0 -5.78851115027679,41.7030657261441,686.563299999994 -5.78812541369381,41.7034318477543,685.843399999998 -5.78792894315803,41.7042455633975,686.0 -5.78820805959824,41.7048894604886,687.3508 -5.78930659229121,41.7062473291584,686.335600000006 -5.79002156861238,41.7070620506785,685.9908 -5.79050587463654,41.7077547304531,689.0 -5.79048089698007,41.708397455685,694.581900000005 -5.79024871841173,41.7092205575254,699.0 -5.79168504100773,41.7094572625885,700.946200000006 -5.79149661578362,41.7098949653177,698.090400000001 -5.79116184332163,41.7104934332451,697.0 -5.7908584175715,41.7112166245448,698.0 -5.79050939513416,41.711930259149,700.0 -5.79036857882349,41.7125297334539,701.0 -5.79050704783631,41.7129464817253,701.0 -5.7906818950249,41.7134641477274,700.0 -5.79051006617566,41.7137109111907,700.588900000002 -5.79074894976927,41.7140324403062,702.0 -5.79109512275055,41.7145925194838,704.0 -5.79129930622135,41.7148091086963,704.149099999995 -5.79163156429885,41.7150609002151,703.900099999999 -5.79207932595896,41.7157170352005,704.0 -5.79236799867719,41.7163168443302,705.365900000004 -5.79227345099355,41.7174368346143,710.0 -5.79197840832163,41.7187025024684,710.0 -5.7914573890501,41.7195313044763,708.461899999995 -5.79110400798701,41.7205114847137,704.658500000005 -5.79082019605277,41.7214517664248,707.0 -5.79096201757826,41.7217796666932,708.0 -5.79084483863764,41.7220426903845,709.0 -5.79083411005821,41.7226870917661,709.0 -5.79041216508105,41.7236216734887,710.0 -5.78990355064527,41.7243545862831,711.346699999995 -5.78956173718811,41.7252336805314,712.0 -5.78964756762025,41.7261471404327,717.0 -5.79016053978345,41.7272203596582,721.0 -5.79088021070029,41.7285219013559,719.093099999998 -5.79185586374385,41.7300386901852,715.881800000003 -5.79259414236347,41.731357164464,714.0 -5.78659873495327,41.7316486866292,714.0 -5.78473845515388,41.7323417027704,715.0 -5.78416395917351,41.732518560591,716.0 -5.78356867707575,41.7326992745942,717.0 -5.78295780291962,41.7328362341398,715.5527 -5.78249277474144,41.7329242447878,714.847599999994 -5.78196002167568,41.7330385734468,716.0 -5.78144637936924,41.733202356463,718.0 -5.78123565795981,41.7332368892278,718.0 -5.78108696342409,41.7333287552881,718.0 -5.78073190520635,41.7334226323204,717.0 -5.7804415562318,41.7335042723386,716.0 -5.78030962515758,41.7335188575103,716.0 -5.78019965429881,41.7336206137439,715.0 -5.78014584341667,41.7337336017751,714.0 -5.77992774504211,41.7339230324365,711.038100000005 -5.77957905767635,41.7340713922147,708.939299999998 -5.7792456263991,41.7341040816908,708.0 -5.77890582426983,41.7340799413281,708.0 -5.77911067788387,41.7341778427739,707.0 -5.77942617160151,41.7341547086495,708.0 -5.77968031218192,41.7341069313939,708.6103 -5.77984442899444,41.7340256266521,710.0 -5.78006487287023,41.7340118802179,711.0 -5.78037366335923,41.7340725653464,711.0 -5.78071313041691,41.7342814427909,710.0 -5.78095050484083,41.7345493283426,708.7448 -5.7814574430203,41.7350606242767,706.0 -5.78189145776162,41.7354228901518,705.0 -5.78347832003291,41.7363323266033,704.0 -5.78126214388763,41.7395167793905,697.104300000006 -5.78087272061869,41.7400036007006,697.0 -5.78066283823571,41.7402736656492,697.0 -5.78059461029156,41.7404072723156,696.920599999998 -5.78055605280295,41.7405306547167,697.0 -5.78054649832158,41.7406590654133,697.0 -5.78056996680839,41.7408691152236,697.0 -5.78080935435687,41.7441689032638,697.0 -5.78084807803382,41.7445358624734,698.0 -5.78075520660649,41.7448195063703,698.0 -5.77944310394633,41.7477488143126,698.0 -5.77820308479949,41.7505131657872,699.0 -5.77759204355669,41.7519070762151,696.0 -5.77702190710036,41.7531315047839,687.0 -5.77652368707076,41.7542573617904,686.0 -5.77637968623241,41.7549626153731,689.0 -5.77626535674788,41.7553632704659,689.934599999993 -5.77619662484886,41.7555153173959,690.339900000006 -5.77606720815912,41.7556200912448,691.0 -5.77462082712692,41.7561216646856,690.946400000001 -5.77387148485626,41.7563813365057,691.5576 -5.77339924859623,41.7565437773661,692.0 -5.77325960638363,41.7566044626459,692.0 -5.77314762419693,41.7566939813367,692.276800000007 -5.77306900184663,41.7568207152237,692.747600000002 -5.7730259186456,41.7569989142252,693.369000000006 -5.77195789723129,41.7573958816821,696.0 -5.77094636906854,41.7583524244311,698.390100000004 -5.76966511096194,41.7589285963866,699.0 -5.76828695787386,41.7587705132125,699.0 -5.76807556721952,41.758797000375,699.0 -5.76789904377462,41.7588452806003,699.0 -5.76767591842772,41.759034376515,699.0 -5.76763082300047,41.7602940081911,699.0 -5.76756846195343,41.7608470462475,700.0 -5.76743636289429,41.7614109803284,699.0 -5.76772587374068,41.7614580872958,699.0 -5.76864184810664,41.7620666137882,700.0 -5.76981816412341,41.7626488204839,700.484299999996 -5.76764574311902,41.7643538674474,705.0 -5.76734248535381,41.7645858787736,705.380900000004 -5.76715087470373,41.76481185421,706.0 -5.76563022994695,41.7724665431754,712.0 -5.76518800101067,41.7746262244891,715.989600000001 -5.76497007241772,41.7756972641862,716.058499999999 -5.76480545075199,41.7766033486424,716.0 -5.76483998378815,41.7767776916068,717.0 -5.76501013727937,41.7769429822283,717.3122 -5.76514139821038,41.7771267144191,718.0 -5.76531071177681,41.7776242637716,720.0 -5.76542621535941,41.7780869442535,721.0 -5.76555160759665,41.7786825622398,726.0 -5.76561832816777,41.779281198573,726.3799 -5.76565152001919,41.7798680996709,723.186700000006 -5.76561112008593,41.7805842493154,721.0 -5.76555496100762,41.7814977082764,722.167799999996 -5.76392736283312,41.7814056753476,717.0 -5.76385041673914,41.7815843774651,717.0 -5.76378386505134,41.7817944286667,717.0 -5.76323501776892,41.7843748814679,724.0 -5.76293628661445,41.785569805727,725.0 -5.76274517902091,41.7859925887385,724.827699999994 -5.76252121464752,41.7863858676486,724.0 -5.7616300508514,41.788003574414,720.0 -5.76040310758184,41.7895299196827,721.0 -5.7591785116101,41.7910381583226,720.0 -5.75904658143421,41.7912411681337,720.0 -5.75888531317946,41.7914989952797,721.0 -5.75863804740593,41.7920228643652,725.0 -5.75827829459253,41.7925380163862,729.0 -5.75811384181009,41.7927834386046,730.0 -5.75794184587423,41.7930467983397,730.0 -5.75767647455613,41.7934798072041,729.0 -5.75747313011179,41.793877109502,728.0 -5.7572997920929,41.7942717297383,727.0 -5.75668456020931,41.795691791696,724.0 -5.75640561085569,41.7962295746051,723.0 -5.75607620223427,41.7967388583331,721.939799999993 -5.74438026210087,41.8075302233562,702.116099999999 -5.74327569542414,41.8085519771586,700.0 -5.74311425918445,41.8085982453345,700.0 -5.74284151179956,41.808554660178,700.4473 -5.74257496728173,41.8086302647675,700.908899999995 -5.7423820163452,41.8087652135789,700.0 -5.74226718380414,41.8089266486556,700.0 -5.7420356762773,41.8092144833634,700.0 -5.74189133857073,41.8094528647626,700.0 -5.741569641986,41.8093812832777,700.164699999994 -5.74096446943697,41.809258404198,701.0 -5.74043640917025,41.809150110277,701.0 -5.73996819556607,41.8090902634697,701.0 -5.73958933378994,41.8090034272466,702.0 -5.73933150562531,41.8092101244223,702.0</coordinates>
</LineString>
</Placemark>
</Folder>
</Document></kml>
