<?xml version="1.0" encoding="UTF-8"?>

<kml xmlns:xsd="http://www.w3.org/2001/XMLSchema" xmlns:gx="http://www.google.com/kml/ext/2.2" xmlns:atom="http://www.w3.org/2005/Atom" xmlns="http://www.opengis.net/kml/2.2">
<Document>
<name>ES04b_03b_camino_natural_barcial_del_barco-maire_de_castroponce</name>
<visibility>1</visibility>
<Schema name="ES04b_03b_camino_natural_barcial_del_barco-maire_de_castroponce" id="kml_schema_ft_ES04b_03b_camino_natural_barcial_del_barco-maire_de_castroponce">
<SimpleField type="xsd:string" name="id">
<displayName>id</displayName>
</SimpleField>
<SimpleField type="xsd:string" name="nombre">
<displayName>nombre</displayName>
</SimpleField>
<SimpleField type="xsd:double" name="longitud">
<displayName>longitud</displayName>
</SimpleField>
<SimpleField type="xsd:string" name="_formato">
<displayName>_formato</displayName>
</SimpleField>
</Schema>
<Folder id="kml_ft_ES04b_03b_camino_natural_barcial_del_barco-maire_de_castroponce">
<name>ES04b_03b_camino_natural_barcial_del_barco-maire_de_castroponce</name>
<Placemark id="kml_1">
<name>&lt;img height='20' src='https://nco.ign.es/iconos/icono_todos_caminos_azul.png' /&gt;&lt;img height='20' src='https://nco.ign.es/iconos/Camino Santiago_20.png' /&gt;&lt;img height='20' src='https://nco.ign.es/iconos/icono_todos_caminos_azul.png' /&gt;  Camino de Santiago </name>
<visibility>1</visibility>
<description><![CDATA[<!DOCTYPE html>
<html>
<head>
<style>
#nco {
  border-collapse: collapse;
  overflow:hidden;
}
#nco th, #nco td {
  padding: 4px;
  text-align: left;
}
#nco th {
  color: #364B5F;
  padding-right: 5px;
}
#nco td {
  color: rgb(51, 51, 51);
  font-size: 12px;
  padding-right: 5px;
}
</style>
</head>
<body>
<table id="nco">
<tr>
<td>Caminos del Centro</td>
</tr>
<tr>
<th><b>Camino: </b></th>
<td>ES04b Vía de la Plata de Zamora a Astorga</td>
</tr>
<tr>
<th><b>Etapa: </b></th>
<td>03b Camino Natural Barcial del Barco-Maire de Castroponce</td>
</tr>
<tr>
<th><b>Longitud: </b></th>
<td>24.88 km</td>
</tr>
</table>
</body>
</html>]]></description>
<Style>
<IconStyle>
<scale>0.8</scale>
</IconStyle>
<LabelStyle>
<color>ffffffff</color>
<scale>0.75</scale>
</LabelStyle>
<LineStyle>
<color>ffff0000</color>
<width>3.0</width>
<gx:labelVisibility>1</gx:labelVisibility>
</LineStyle>
<PolyStyle>
<color>66ff0000</color>
</PolyStyle>
</Style>
<ExtendedData>
<SchemaData schemaUrl="#kml_schema_ft_ES04b_03b_camino_natural_barcial_del_barco-maire_de_castroponce">
<SimpleData name="id">ES04b_03b</SimpleData>
<SimpleData name="_formato">kml</SimpleData>
</SchemaData>
</ExtendedData>
<LineString>
<extrude>0</extrude>
<tessellate>1</tessellate>
<coordinates>-5.65968465100155,41.9346848686753,714.0 -5.65931987031749,41.9353632998428,713.9755 -5.65920503777643,41.9356576719606,713.060800000007 -5.65899029371112,41.9360777731398,713.017999999996 -5.65814791202818,41.9375690813098,713.0 -5.65771775285606,41.9383715645268,713.0 -5.6576505301267,41.9385713894039,713.0 -5.65744953208188,41.939096263926,713.9997 -5.6572155092723,41.9399716701929,713.290200000003 -5.65717074981492,41.9403129811094,713.0 -5.6571006776295,41.9414170453005,712.642099999997 -5.65711962040392,41.9416896245343,712.0 -5.65713454052245,41.941981147703,712.0 -5.6571684034154,41.9422233842949,712.426000000007 -5.65737895683992,41.9433755605653,710.271299999993 -5.65761448792089,41.9447552220859,708.412200000006 -5.65769813993847,41.9451999656217,708.306299999997 -5.65772160932357,41.9455545206706,707.902100000007 -5.65776268029837,41.9461256634423,709.0 -5.65778849608299,41.9463484540853,709.038799999995 -5.65776552975442,41.9465650429553,709.0 -5.65769746889694,41.9468289050616,709.0 -5.65761415284927,41.9471259595887,709.0 -5.6575028408058,41.9474711260665,708.0 -5.65739722947111,41.947738174058,708.0 -5.65726077178618,41.9480234941074,707.890499999994 -5.65713873116327,41.9482766275089,707.024799999999 -5.65695650880619,41.9485927928043,707.115699999995 -5.65678602114168,41.9489144898524,707.111499999999 -5.65635200550206,41.9497766524375,706.061400000006 -5.65625008175159,41.9500131898943,706.002900000007 -5.65614597868826,41.9502953249524,705.0 -5.65604673730725,41.9505940556153,705.0 -5.65558589976986,41.9518583821555,694.325500000006 -5.65541993781777,41.9524491386446,702.086500000005 -5.65538842222263,41.9526246555875,702.080000000002 -5.65537299994586,41.9527916233805,701.529299999995 -5.65536176741152,41.9529755223416,702.0 -5.65537467620218,41.9536941868145,701.927599999995 -5.65538724902289,41.9539805123598,701.893800000005 -5.65541390293567,41.9542542651035,701.533100000001 -5.65557366202077,41.9548210497228,702.0 -5.65583249540019,41.9556262151225,702.0 -5.6560061684907,41.9559685324778,701.844400000002 -5.65618637951985,41.9563118547254,701.721799999999 -5.65645359418089,41.9567324591344,701.686400000006 -5.65722305332402,41.9578908376183,701.181500000006 -5.65787298622872,41.9588170378653,701.461299999995 -5.65882919344132,41.960217654225,698.123500000002 -5.65946973895132,41.9610932280537,701.677500000005 -5.65995639227333,41.961845922676,702.251999999993 -5.66072266509216,41.9629503220071,701.795299999998 -5.66112130866913,41.9636279153868,696.0 -5.66159991578117,41.9642615869952,695.169800000003 -5.6621251256935,41.9651103387312,695.0 -5.66271085330989,41.9658880114662,699.242499999993 -5.66373679763632,41.967414356095,701.880000000005 -5.66465361013044,41.9687784273706,700.664499999999 -5.66561635618001,41.9701698229285,702.0 -5.66640777553856,41.9713258553208,702.241699999999 -5.6672873717288,41.972554474517,702.0 -5.66862596211344,41.9745143311493,701.868000000002 -5.67040057856734,41.9771791058035,702.331600000005 -5.67218307414459,41.9797484946531,702.801099999997 -5.67413220181713,41.9826387423796,702.1014 -5.67698959271727,41.9868306997162,703.245699999999 -5.67910602352664,41.9898637750508,704.926800000001 -5.68055944555409,41.9920316702412,704.879100000006 -5.68079933526081,41.9924847961014,704.742199999993 -5.68094115678627,41.9928053201528,705.552200000006 -5.68099714787963,41.993078570249,705.294299999994 -5.68109923961502,41.9934156903627,706.0 -5.68112656456937,41.9938497051103,707.0 -5.6814268048935,41.9959426663453,707.0 -5.68158287549601,41.996951679907,706.691999999995 -5.68166971204127,41.9972554405488,706.464900000006 -5.68174615507868,41.9975171233196,706.987200000003 -5.68184807882915,41.9976907963623,706.812999999995 -5.68206936083306,41.998070832002,706.1829 -5.68258350709437,41.9989844594876,707.0 -5.68291325078741,41.9995968412797,707.0 -5.68309597709933,41.9998548360575,707.0 -5.68326344732282,42.0001019342613,707.0 -5.68353669686592,42.0004226262324,707.0 -5.68371405843902,42.0006668750397,707.0 -5.68439852437984,42.0013085934645,707.0 -5.6854139081118,42.0022270823291,707.0 -5.68691762142208,42.0036679313919,707.0 -5.68714728560591,42.0039157003492,707.326700000005 -5.68735515666099,42.0043067998904,707.1973 -5.68805387257717,42.0054348368392,707.370500000005 -5.68842619641469,42.0059047260675,707.0 -5.68882534304824,42.0063077278079,707.699099999998 -5.6891666543472,42.006602268209,707.314499999993 -5.68958239645729,42.0068662982101,707.062600000005 -5.68989118604803,42.0070453358347,707.083599999998 -5.69029402026583,42.0072475072549,707.520399999994 -5.69105727564361,42.0075685336738,707.0 -5.69257758532877,42.0081847717251,708.947700000004 -5.69282954569796,42.008319719872,708.976599999995 -5.69311872147277,42.0084942311668,708.0 -5.69334888871317,42.0086714246148,709.008799999996 -5.69360386562508,42.0088811401251,709.410199999998 -5.69387627793839,42.0091349441817,709.338300000003 -5.69414265447127,42.0094117145357,709.397800000006 -5.69547705331679,42.0111227961884,708.567200000005 -5.69715326651781,42.0132387238984,710.023300000001 -5.69892788297172,42.0155056936483,710.875599999999 -5.70013772680985,42.0170880290627,712.578200000004 -5.70040041575848,42.0174704115319,715.1685 -5.70058448235684,42.0177949589061,716.037500000006 -5.70075212056525,42.0181221881919,715.474199999997 -5.70101497660054,42.0188279446294,715.962599999999 -5.70111354783838,42.0192844227788,716.391399999993 -5.70123223594865,42.0199120601183,717.276299999998 -5.70144496868603,42.0212506495997,717.307700000005 -5.70169206737292,42.0224432271514,719.849100000007 -5.70181276681113,42.0228178976836,720.229300000006 -5.70195358222348,42.0231382542595,721.206300000005 -5.70213865493495,42.0234317884674,720.096399999995 -5.70233328302609,42.0237261608205,719.446100000001 -5.70260385019976,42.0240855767389,721.929600000003 -5.70291515417498,42.0243838051911,721.657699999996 -5.70330474542883,42.0246838773824,720.638399999996 -5.70452263547697,42.0255980075434,720.379799999995 -5.70696495441019,42.0273860355099,722.283100000001 -5.70736410104375,42.0277244966011,722.3802 -5.70764975632096,42.028025574637,722.295100000003 -5.70796139536773,42.0284041011824,722.506699999998 -5.70814881447872,42.0287174165301,723.616899999994 -5.70826934683027,42.0290045805388,722.8658 -5.70837412003681,42.029272130819,723.352299999999 -5.7090403142448,42.0312993784185,725.526199999993 -5.70960994854285,42.0331967058664,726.0 -5.70985939362927,42.0341482193995,724.975200000001 -5.70998679809275,42.0344109080363,725.777499999997 -5.71014303757856,42.0346868404603,727.593699999998 -5.71030229360705,42.0349196898294,727.657800000001 -5.71051569648762,42.0352073569169,727.988299999997 -5.71072189128639,42.0354561319287,729.0 -5.7109418321056,42.0356648410424,729.577999999994 -5.71122229062888,42.0358856204859,729.522899999996 -5.71156779346693,42.0361357365818,730.0 -5.71192100654506,42.0363808230331,731.0 -5.71224790078203,42.0365618725636,730.359800000006 -5.71262676255816,42.0367363837562,729.987599999993 -5.71314225000417,42.0369286644318,732.0 -5.71344064518872,42.0370336061186,732.277000000002 -5.71383811556595,42.0371318417191,732.819699999993 -5.71424849293722,42.0372143195283,733.0 -5.71616945752729,42.0374937725249,734.853499999997 -5.71778096238345,42.0377242744699,736.0 -5.7181794379755,42.0377966944143,736.856799999994 -5.71852946652596,42.0378769930152,737.0 -5.71894185612345,42.0380065774164,737.0 -5.71937251835211,42.0381564457665,738.0 -5.71973428159511,42.03832592741,738.244000000006 -5.7200333478212,42.0384585291943,739.006200000003 -5.72043450578269,42.0386747821751,739.139599999995 -5.72074798907076,42.038897405895,740.186300000001 -5.72098871690564,42.039093374809,740.0 -5.72119725900222,42.0392698972278,740.0 -5.72143262209824,42.0395049261083,740.0 -5.72172498329902,42.0398182414449,740.0 -5.72200778912015,42.0402108501526,740.116999999998 -5.72229025897136,42.0406701782929,740.124400000001 -5.72242386630186,42.0411085520345,740.115999999995 -5.72249259820088,42.0414267289452,739.820699999997 -5.72256987936648,42.0418946070186,739.0 -5.72257909967455,42.0422072514425,738.0 -5.72256166517152,42.0425551008804,738.065000000002 -5.72249528057032,42.0430256605004,738.510299999994 -5.72241934058948,42.0438883262958,737.364000000001 -5.72235295508998,42.0452864275582,736.211299999995 -5.72225119932447,42.045962176669,736.228099999993 -5.72224315221617,42.046294937934,734.544500000004 -5.72220593681058,42.0467155423382,734.816399999996 -5.72211105405532,42.0480060197171,732.0 -5.72210652744462,42.0484977024107,731.198000000004 -5.72214256965043,42.0488666740603,730.067299999995 -5.72221364794897,42.0492334656107,729.450800000006 -5.72233418030055,42.049512415484,729.522700000001 -5.72255043353551,42.050017341537,728.135999999999 -5.72278596461649,42.0504044174193,728.193799999994 -5.72378475197357,42.0519817239649,730.758499999996 -5.72521152008817,42.0542904357354,729.095199999996 -5.72648992784038,42.0563066183329,725.241500000004 -5.72781074775207,42.0584901045216,721.852899999998 -5.72907054780146,42.0604943849125,720.952099999995 -5.7304088022162,42.0626647948562,720.045400000003 -5.7317489008722,42.0648358755359,719.122300000003 -5.73310391964677,42.0670091353455,723.929600000003 -5.73429046208476,42.0689197065336,726.825599999996 -5.73466647440479,42.0695897560684,727.927200000006 -5.73475817263237,42.0698107030311,727.473199999993 -5.73489982617291,42.0701084281654,729.392500000002 -5.73522889972271,42.0710254084574,729.721900000004 -5.73588151499684,42.0728317085484,732.0 -5.73658525968201,42.0748145315779,734.0 -5.73729671550556,42.0768712829825,737.0 -5.73807522697181,42.0790299583491,739.0 -5.73882993308304,42.0811599670699,741.0 -5.73951221971101,42.0830879727067,742.684999999998 -5.74013097209219,42.0848014012659,743.0 -5.74085416260828,42.0868958716276,743.827499999999 -5.74152521760027,42.0887563183822,743.9476 -5.74222326247495,42.0907515470468,744.0 -5.74303513377758,42.0930463442908,744.865399999995 -5.74361935222428,42.0946754510126,745.0 -5.74407096945359,42.0959862133114,745.0 -5.74447045115876,42.0971005033057,745.285900000003 -5.74534552163659,42.0995812110168,746.0 -5.74604021399863,42.1014517166347,746.0 -5.7467786597049,42.103532775947,746.702499999999 -5.74729615847881,42.104953340497,747.0 -5.74760310382824,42.1050539236678,746.0 -5.75177293246017,42.1064702974226,745.0 -5.75229713715768,42.1066339125297,746.0 -5.75266024068712,42.1067413682088,746.0 -5.75309693779788,42.1068033940333,746.0 -5.75353782644772,42.1068427889443,746.0 -5.75441507623844,42.1068397718965,746.0 -5.75693953801955,42.106811944006,746.0 -5.75537564207682,42.1108842077783,746.0 -5.77044680695587,42.1105962057295,741.0 -5.77107578485995,42.1106508552195,740.0 -5.77156377936669,42.1106993029975,739.958299999998 -5.77218873461489,42.1107950242198,739.0 -5.77260531485318,42.1109603155228,739.0 -5.7733301816256,42.1113658318788,739.0 -5.77543320148613,42.112640551718,737.0 -5.7772514041976,42.1137293610687,740.0 -5.77747570364256,42.1138336320717,740.0 -5.77765608175834,42.1138904611722,740.0 -5.77799219630336,42.1139675748749,740.0 -5.7784216853323,42.1140212185549,740.0 -5.77868806186518,42.1140451909346,740.0 -5.7788448035092,42.1140326183309,740.0 -5.78001173213127,42.1137048854495,738.0 -5.78080968942849,42.1134012934255,738.0 -5.78168258059342,42.1126836348293,739.0</coordinates>
</LineString>
</Placemark>
</Folder>
</Document></kml>
