<?xml version="1.0" encoding="UTF-8"?>

<kml xmlns:xsd="http://www.w3.org/2001/XMLSchema" xmlns:gx="http://www.google.com/kml/ext/2.2" xmlns:atom="http://www.w3.org/2005/Atom" xmlns="http://www.opengis.net/kml/2.2">
<Document>
<name>ES04b_03a_benavente-alija_del_infantado</name>
<visibility>1</visibility>
<Schema name="ES04b_03a_benavente-alija_del_infantado" id="kml_schema_ft_ES04b_03a_benavente-alija_del_infantado">
<SimpleField type="xsd:string" name="id">
<displayName>id</displayName>
</SimpleField>
<SimpleField type="xsd:string" name="nombre">
<displayName>nombre</displayName>
</SimpleField>
<SimpleField type="xsd:double" name="longitud">
<displayName>longitud</displayName>
</SimpleField>
<SimpleField type="xsd:string" name="_formato">
<displayName>_formato</displayName>
</SimpleField>
</Schema>
<Folder id="kml_ft_ES04b_03a_benavente-alija_del_infantado">
<name>ES04b_03a_benavente-alija_del_infantado</name>
<Placemark id="kml_1">
<name>&lt;img height='20' src='https://nco.ign.es/iconos/icono_todos_caminos_azul.png' /&gt;&lt;img height='20' src='https://nco.ign.es/iconos/Camino Santiago_20.png' /&gt;&lt;img height='20' src='https://nco.ign.es/iconos/icono_todos_caminos_azul.png' /&gt;  Camino de Santiago </name>
<visibility>1</visibility>
<description><![CDATA[<!DOCTYPE html>
<html>
<head>
<style>
#nco {
  border-collapse: collapse;
  overflow:hidden;
}
#nco th, #nco td {
  padding: 4px;
  text-align: left;
}
#nco th {
  color: #364B5F;
  padding-right: 5px;
}
#nco td {
  color: rgb(51, 51, 51);
  font-size: 12px;
  padding-right: 5px;
}
</style>
</head>
<body>
<table id="nco">
<tr>
<td>Caminos del Centro</td>
</tr>
<tr>
<th><b>Camino: </b></th>
<td>ES04b Vía de la Plata de Zamora a Astorga</td>
</tr>
<tr>
<th><b>Etapa: </b></th>
<td>03a Benavente-Alija del Infantado</td>
</tr>
<tr>
<th><b>Longitud: </b></th>
<td>22.03 km</td>
</tr>
</table>
</body>
</html>]]></description>
<Style>
<IconStyle>
<scale>0.8</scale>
</IconStyle>
<LabelStyle>
<color>ffffffff</color>
<scale>0.75</scale>
</LabelStyle>
<LineStyle>
<color>ffff0000</color>
<width>3.0</width>
<gx:labelVisibility>1</gx:labelVisibility>
</LineStyle>
<PolyStyle>
<color>66ff0000</color>
</PolyStyle>
</Style>
<ExtendedData>
<SchemaData schemaUrl="#kml_schema_ft_ES04b_03a_benavente-alija_del_infantado">
<SimpleData name="id">ES04b_03a</SimpleData>
<SimpleData name="_formato">kml</SimpleData>
</SchemaData>
</ExtendedData>
<LineString>
<extrude>0</extrude>
<tessellate>1</tessellate>
<coordinates>-5.67733995633931,42.0028361117278,732.451199999996 -5.67741153769443,42.0029413887278,732.955700000006 -5.67749870931127,42.0030443184605,733.836899999995 -5.67757464929213,42.0031807754824,735.280599999998 -5.67759644242095,42.003397196536,737.264899999995 -5.67762628175973,42.0035774074469,739.316900000005 -5.67768830773516,42.0036094260344,739.689100000003 -5.67775184288023,42.0036796666083,740.564599999998 -5.67792618611395,42.0037282815072,741.400299999994 -5.67803666002929,42.0037784056739,741.824099999998 -5.67801268758762,42.0038959197482,742.304799999998 -5.67794613500149,42.0040593667581,743.338600000003 -5.67774211951562,42.0042977480065,743.110000000001 -5.67768042951011,42.0044280029717,742.696400000001 -5.67753542255864,42.0045480317692,742.475300000006 -5.67746149390568,42.0046878419029,742.914099999995 -5.67743131859698,42.0047314282053,743.005499999999 -5.67756090327168,42.0047760197753,743.195600000006 -5.67779140558367,42.0048685558114,742.652100000007 -5.67775770977738,42.0049791970262,742.526299999998 -5.67770171868402,42.0050926877126,742.146599999993 -5.67765494789874,42.0051225274048,741.988700000002 -5.67776877432673,42.0051699690288,742.170299999998 -5.67789852608805,42.005219590082,742.570099999997 -5.67804168879825,42.0052854719565,742.818299999999 -5.67822642643811,42.0053528623629,742.861399999994 -5.67837126540462,42.0053830370291,742.839099999997 -5.67841954535959,42.0054676941,742.590800000005 -5.67878415805869,42.0056380145228,742.348100000003 -5.67911021416747,42.0058021319175,742.049400000004 -5.67931205034045,42.0058953386502,741.849499999997 -5.67956970962179,42.006024923497,741.088900000002 -5.68001294467119,42.0061672475792,739.049499999994 -5.68041527673074,42.0062462057174,736.046100000007 -5.68076312507001,42.0063189605684,733.647700000001 -5.68157063774689,42.0064669845327,729.010299999994 -5.68202191990462,42.0065709205061,726.513399999996 -5.6824426907837,42.0066572541128,725.2264 -5.68297293036331,42.0068267363,724.134600000005 -5.68340443072012,42.0070211960662,723.512799999997 -5.68370349694621,42.0071480979264,723.085600000006 -5.68400356928541,42.0072934406093,722.8992 -5.68430129432676,42.0073869822451,722.727899999998 -5.68449307206351,42.0074531996302,722.502299999993 -5.68461159218883,42.0074319097091,722.207899999994 -5.6847906300182,42.0075470767831,723.155199999994 -5.68496648242161,42.0077029803689,724.417700000005 -5.6851433400398,42.0078808441839,725.974300000002 -5.6854588355541,42.0082271847174,728.896599999993 -5.68574147339027,42.0084836706854,731.572799999994 -5.68624321391746,42.0089290847663,735.463900000002 -5.68631781271362,42.0090425757488,735.7601 -5.68701032576278,42.0096395347966,737.020399999994 -5.68713169534419,42.009747997082,737.291500000007 -5.68727804348035,42.0099032298019,737.817500000005 -5.68748624960702,42.010090313938,738.017699999997 -5.68783275765988,42.0103952473454,738.384099999996 -5.68807683890573,42.0106012747567,738.4764 -5.68815764056892,42.0107172804374,738.478099999993 -5.6885138710881,42.0110290870397,738.425700000007 -5.68884294463793,42.0113341881513,738.353600000002 -5.68920152245493,42.0116649381374,738.232199999999 -5.68956848245188,42.0120049079267,738.097599999994 -5.68981004841492,42.0122340692849,737.784100000004 -5.69011179701044,42.0125328005113,737.121199999994 -5.69039795534417,42.012841757574,735.820699999997 -5.6906733850985,42.0131931269552,733.911600000007 -5.69086013406629,42.0134804585278,732.243499999997 -5.69107772758766,42.0137408004396,730.636799999993 -5.69134477516207,42.0140475778119,728.652000000002 -5.69182187310442,42.0145432835297,725.211500000005 -5.69236502057635,42.0152574217463,721.665099999998 -5.69288084309394,42.0157762619133,721.227199999994 -5.69351987943425,42.0164783296068,725.184200000003 -5.69411097089118,42.0168072355074,729.814599999998 -5.6946489216092,42.0171332919171,733.786300000007 -5.69500515212839,42.0173921252446,736.278300000005 -5.69538217056154,42.0177183488407,738.256899999993 -5.69581585023124,42.0181372763693,739.207999999999 -5.69679033007507,42.0190700143951,739.584799999997 -5.69772189470279,42.0199972202699,739.649699999994 -5.69805784126284,42.020740192635,739.367800000007 -5.69827593873911,42.0214871877979,739.568799999994 -5.69905294103567,42.0226742326654,739.814599999998 -5.69946499556155,42.0232363230147,739.377299999993 -5.69991895919038,42.0237072185398,737.561300000001 -5.70081498466883,42.024312224004,733.941800000001 -5.70184679679071,42.0253336427648,736.190600000002 -5.70268364664813,42.0258689112314,727.554399999994 -5.7034396939441,42.0261461846498,723.693799999994 -5.70414042118821,42.0262164250285,723.037800000006 -5.70500593628635,42.0262601787529,716.827999999994 -5.70552896688582,42.0262263157965,715.778099999996 -5.70629574365952,42.026026826543,710.111699999994 -5.70674233122155,42.0261376351505,710.508799999996 -5.70737868519239,42.0263307539913,709.657500000001 -5.70800565176853,42.0268536170286,712.262100000007 -5.7087233104591,42.027322501237,712.622700000007 -5.7094714786317,42.027940582451,712.934999999998 -5.70994321273348,42.0284134896822,713.480200000005 -5.71055090056531,42.0289886559101,713.418099999995 -5.71086689823785,42.0293881370081,713.519 -5.71233691664014,42.0308182572633,713.6446 -5.71372898283534,42.0321612057502,714.1633 -5.71456834707727,42.0329559780432,714.315499999997 -5.71518089659139,42.0335023103395,714.625700000004 -5.71663197132099,42.034821286542,716.218099999998 -5.71714695571042,42.0351682976974,716.892999999996 -5.71741584662781,42.0352951994411,717.101999999999 -5.71738332491956,42.0356400309213,718.855899999995 -5.71734258901638,42.0360130257349,722.038100000005 -5.71753453473808,42.0363243293415,724.604800000001 -5.71784215023071,42.0364788920435,725.907300000006 -5.71828505020849,42.0367139205715,726.459700000007 -5.71844816180623,42.0372294078455,730.074399999998 -5.718529298541,42.0373680439484,730.917700000005 -5.71894135306688,42.0375407114985,732.512600000002 -5.71929138161733,42.0378062503238,734.780499999993 -5.71947779551351,42.0382089164855,738.345400000006 -5.71957703689452,42.0385505630808,739.161200000002 -5.71982296148335,42.0390217935061,742.237599999993 -5.72020685292676,42.0394197664685,745.925300000003 -5.72024155394787,42.039573322899,746.626399999994 -5.72014667119261,42.0397795179726,744.957800000004 -5.72031564968746,42.0399932566073,745.370200000005 -5.7206720481916,42.0401885549852,745.517000000007 -5.72098184389541,42.0403918993131,745.193499999994 -5.72122860661237,42.0406596178176,744.443499999994 -5.72162054516411,42.0410223864834,742.206600000005 -5.72196805843176,42.0414491928666,740.755600000004 -5.72224013477512,42.0418709701585,738.785999999993 -5.72238212428557,42.042113039716,738.087899999999 -5.72273617639019,42.0424697732082,736.239300000001 -5.72311252378184,42.0429101586008,734.3266 -5.72331553315456,42.0432559961462,732.840700000001 -5.72382800315955,42.0440157315114,729.651400000002 -5.7242849842294,42.0445803369544,728.909899999999 -5.72444692262736,42.0447452924767,729.420100000003 -5.72467742493939,42.0451746135181,738.013699999996 -5.72503013496094,42.0457207787354,726.136400000003 -5.7254458779694,42.0462022352301,724.178599999999 -5.72562960949615,42.0465346610256,723.512199999997 -5.72601936783667,42.0470659065513,720.876199999999 -5.7264290750647,42.0476243084084,718.830000000002 -5.72672545892135,42.0480554737993,717.882100000003 -5.72706509396395,42.0485253629684,716.621599999999 -5.72730196622966,42.0487442986511,716.470499999996 -5.72745954600184,42.0487501661699,716.342900000003 -5.72763456027708,42.0486829431572,716.251600000003 -5.72782516481406,42.048719655867,716.042600000001 -5.72784326946029,42.0488648301584,716.487500000003 -5.72783606137845,42.0491020381971,716.426999999996 -5.72783052955295,42.0493893695895,716.522299999997 -5.72791887436957,42.0497792956259,716.495599999995 -5.72805097342871,42.0501125605329,716.404699999999 -5.72838591387565,42.0514412595893,715.982900000003 -5.72867123408125,42.05202313121,715.324099999998 -5.72881489984802,42.0524745804049,715.243799999997 -5.72892939641917,42.0527987929941,715.204500000007 -5.72905395142659,42.0532193963586,715.107300000003 -5.72933407487828,42.0536763779443,715.168799999999 -5.72945678564439,42.0538632945997,714.882899999997 -5.72960749240634,42.0539687385921,714.776700000002 -5.72973690909608,42.0540951378832,714.669899999994 -5.72983950388806,42.0542017554273,714.669599999994 -5.72992684348985,42.0543821345301,714.602899999998 -5.73001669747616,42.0545993931856,714.804399999994 -5.73024988215762,42.0549737287686,714.946800000005 -5.7304421629509,42.0553879625834,714.825500000006 -5.73060276016413,42.0557255855462,714.677200000006 -5.73061868549751,42.0558801477438,714.680999999997 -5.73068976379605,42.0561106503533,714.813899999994 -5.73082404216808,42.0564875009017,714.761299999998 -5.73081079830584,42.0567307433487,715.056700000001 -5.7307397200073,42.0570559613602,715.048800000004 -5.73062589357935,42.057549320141,714.943700000003 -5.73056101814784,42.0578446983464,714.983800000002 -5.73047401361763,42.0582374744504,715.079599999997 -5.73047904328491,42.0585750976046,715.026700000002 -5.73054090127537,42.0588096228792,715.154800000004 -5.73069613464803,42.0591261237792,715.434899999993 -5.7309579845702,42.0596230033263,716.997000000003 -5.73118999605188,42.0599730310327,718.021800000002 -5.73135025819352,42.060299757744,717.594400000002 -5.731569025813,42.0606710764981,716.698699999994 -5.73165686757304,42.0608521255081,716.191200000001 -5.73175158324163,42.0612965338057,715.944600000003 -5.73185551921834,42.0617409423276,716.063099999999 -5.73195459351272,42.0620730333714,716.321200000006 -5.73204495055557,42.062496319701,716.358900000007 -5.73217067876273,42.062933351719,716.370699999999 -5.73228500824725,42.0633987151937,716.472500000003 -5.73243839648034,42.0640037209588,716.631200000003 -5.73257066352444,42.0645565913557,716.944600000003 -5.73268717142352,42.065074592999,716.984700000001 -5.732843410011,42.0656373540433,716.916700000002 -5.73290023923251,42.0658646708622,717.125599999999 -5.73304440805582,42.0661427827754,717.333899999998 -5.73329385404057,42.0665662360349,718.608699999997 -5.73361689181,42.0670582538649,720.953399999999 -5.7339365779651,42.0675819554985,721.852899999998 -5.73420580485237,42.0680260286067,722.995699999999 -5.73437830474313,42.0683068225037,723.885699999999 -5.73463110234219,42.0686984249089,725.333899999998 -5.73500191790831,42.0692273231237,726.477199999994 -5.7352471723539,42.0695280658161,727.063299999994 -5.73561664673533,42.0699977874545,729.188299999994 -5.73602903633282,42.0704805849876,729.603600000002 -5.73651066088588,42.0710356348705,729.8416 -5.73684023659395,42.0714570770137,730.122499999998 -5.73706319575251,42.0718104576228,730.458299999998 -5.73741523563087,42.0723155511412,730.594400000002 -5.73766468071729,42.0727391726054,730.6535 -5.73802024109327,42.0732162707362,730.758000000002 -5.738372113885,42.0737180117107,730.747199999998 -5.73861233866334,42.074036020614,730.643800000005 -5.7389241456951,42.0744822730046,730.357300000003 -5.73934877304168,42.0750317908726,730.755499999999 -5.73976015652606,42.0757043550069,731.386199999994 -5.74016684631304,42.076365184081,731.363200000007 -5.74051100796639,42.0769177187864,731.541500000007 -5.74080906807936,42.0773750359006,731.654999999999 -5.74102263894489,42.0777324401421,731.665500000003 -5.7413299193659,42.0781825484042,731.688999999998 -5.74160903670448,42.0786368473485,731.365099999995 -5.74182562501106,42.0789555276914,731.383499999996 -5.74195956831147,42.0792160368147,731.689799999993 -5.74229769418442,42.0797251538553,731.425900000002 -5.74259692839547,42.0802071133167,732.141900000002 -5.74290119137546,42.0806959457824,732.391000000003 -5.74311090667178,42.0809619876065,732.444199999998 -5.74341299033892,42.0812888816578,732.577099999995 -5.74389528503518,42.08185432451,732.549799999993 -5.7442439724009,42.0822787843697,732.733500000002 -5.74454639113962,42.082616407684,732.694499999998 -5.74476029707677,42.0828680318914,732.614000000001 -5.74521794918815,42.0834095033844,732.541400000002 -5.74567493025803,42.0839368922828,733.101699999999 -5.74612721763051,42.0844644494705,733.226999999999 -5.74657799673167,42.085001226538,733.2791 -5.74727922703235,42.0857770554778,733.258900000001 -5.74772179104022,42.0862977393071,733.373200000002 -5.74811473480675,42.0867634381635,733.481499999994 -5.74847901243423,42.0872192456629,733.337899999999 -5.7487339902445,42.0874613150448,733.674599999998 -5.74898997326953,42.0876819264619,733.595700000005 -5.74945919208853,42.0880582742849,733.895300000004 -5.74963135600936,42.088215853702,734.191999999995 -5.74988750701937,42.0885720849133,734.121400000004 -5.75009185847513,42.0888280680292,733.951799999995 -5.75023686542663,42.0890781843204,734.032699999996 -5.75056476487835,42.0894989560053,734.321200000006 -5.75095871475799,42.089985608988,734.215500000006 -5.75130170231327,42.0904945582857,734.292400000006 -5.75150236528647,42.0907678085733,734.409799999994 -5.75170336333129,42.0910514516595,734.423999999999 -5.75213285146191,42.0915935932535,734.672999999995 -5.75221935293554,42.0917394387973,734.653099999996 -5.7522711533881,42.0919565296198,734.604099999997 -5.752523112859,42.0922141896011,734.584000000003 -5.75289342536858,42.0925888606848,733.865999999995 -5.75339114323994,42.0929605138469,734.074399999998 -5.75391853246516,42.0933667012808,734.524699999994 -5.75447073226018,42.0937968601511,735.178499999995 -5.75464507549389,42.0939064960122,735.377099999998 -5.75485428773367,42.0940491559331,735.517699999997 -5.75498370442341,42.0940950886878,735.502399999998 -5.75516089801151,42.0941507442876,735.382899999997 -5.75544051840663,42.0942846873509,735.436600000001 -5.75589314085073,42.0945939795734,735.4709 -5.75652932773495,42.095001004437,735.429699999993 -5.75701212548778,42.0953553917862,735.656099999993 -5.75723994543034,42.0954943636183,735.691600000006 -5.75780387991794,42.0958641733484,735.925099999993 -5.75844207813006,42.096316795921,735.773000000001 -5.75874248554088,42.0966053007728,735.657099999997 -5.75903417570013,42.0970131645913,735.802200000006 -5.75927171900734,42.0973734183864,735.679699999993 -5.75964622215771,42.0978429725807,734.531199999998 -5.75988192122365,42.0981593055228,734.956900000005 -5.760213341173,42.0985083282083,735.527799999996 -5.76063210162247,42.0990189534499,735.628800000006 -5.76100040190582,42.0993443394054,735.091899999999 -5.7612419687672,42.0994725826344,734.297600000005 -5.76164798841097,42.099687829356,733.0383 -5.76233195129529,42.0999986309089,730.693100000004 -5.76304273697563,42.1003826893239,731.242899999997 -5.76345395337335,42.1006086652918,731.620299999995 -5.7636987047624,42.1008103338178,731.943199999994 -5.76416742052483,42.1012740212273,732.906799999997 -5.76464535659531,42.1017304996062,734.064100000003 -5.76513653652806,42.1021690403731,735.153699999995 -5.7656339184295,42.1026390975897,736.027499999997 -5.76607212381161,42.1030508169376,736.864000000001 -5.76646825300415,42.1033651384179,737.029399999999 -5.76680369650766,42.1036945469954,737.192899999995 -5.76743250732508,42.1042564697183,737.411900000006 -5.76776174796153,42.1045308930372,737.273799999995 -5.76805461221889,42.1048140340292,737.5818 -5.76835351046002,42.1050946598143,737.5239 -5.76870270088232,42.1054235662172,737.435200000007 -5.76902758289303,42.1056788788335,737.179699999993 -5.76917225477288,42.1058124863079,737.165399999998 -5.76962923674109,42.1061883306723,737.210699999996 -5.76994758081315,42.1064998021441,737.070699999997 -5.77014053264797,42.1066370980691,736.676900000006 -5.77033499275415,42.1067782491505,736.484100000001 -5.77051604191147,42.106875479152,736.485199999996 -5.77097570535078,42.1071051434596,736.731199999995 -5.7714668843852,42.1073676643005,737.125599999999 -5.77195521486185,42.1076347119021,737.359899999996 -5.7723431289611,42.1078120727889,737.385999999999 -5.77277731168738,42.1080108920143,736.945900000006 -5.77324032763932,42.1082494405398,735.891199999998 -5.77358951806162,42.1084390395362,735.048200000005 -5.77397156526372,42.1086185800895,731.668300000005 -5.77464479956857,42.1089013849361,728.040299999993 -5.77530931662191,42.1091912313709,727.017900000006 -5.77575137847153,42.1093650718193,727.755900000004 -5.77621590359317,42.1095612084674,729.852400000003 -5.77642662410431,42.1096951516357,731.145099999994 -5.77682627379444,42.1099328621262,733.4758 -5.77718803703744,42.1101333574149,735.503800000006 -5.77757125743932,42.1103424022324,736.781900000002 -5.77803829694543,42.1105336770066,737.434800000003 -5.77832462236582,42.1106662786236,737.356599999999 -5.77862368859191,42.1108096092393,737.587 -5.77897304699916,42.1110013870781,737.756200000003 -5.77934620896481,42.1111857891704,738.087899999999 -5.77988482982604,42.1114944105207,738.511299999998 -5.78045748156514,42.1118244899116,738.734899999996 -5.7809619044618,42.1121093069807,739.036500000002 -5.78141167744984,42.1123885923331,738.957999999999 -5.78176774088236,42.1125937812771,739.096900000004 -5.78196655961429,42.1127240362079,739.1247 -5.78222857752142,42.1128502671893,739.184899999993 -5.78264348240172,42.113089989676,739.574500000002 -5.7828620820362,42.1131905725984,739.684500000003 -5.78305067524527,42.113296352525,739.726500000004 -5.7831804270066,42.1133675987406,739.662800000006 -5.78340791187757,42.1135491504808,739.6158 -5.78367512653861,42.113757357051,739.552299999996 -5.78417887929206,42.1140792221834,739.575100000002 -5.78459529244369,42.1143095567568,739.621199999994 -5.78496594002486,42.1145107225693,739.724100000007 -5.78551327813759,42.1147962099332,739.818100000004 -5.78598417321291,42.1149816178669,739.864600000001 -5.78643143181644,42.1152689496145,740.084799999997 -5.78682504572616,42.1155105161146,740.743199999997 -5.78769659660473,42.1159579421021,742.869500000001 -5.78830495457976,42.1163022702805,744.694600000003 -5.78924926001315,42.1168013289506,744.894100000005 -5.78976575267398,42.1172313208511,742.303199999995 -5.79010756702947,42.117470707588,740.466899999999 -5.7903923841785,42.11770640655,738.532000000007 -5.79077962813454,42.1179313772331,736.1345 -5.79113166801293,42.118135895888,735.037299999996 -5.79143190743876,42.1184520609498,734.110799999995 -5.79171421020332,42.118900995396,733.017999999996 -5.79230580471681,42.1198704468019,732.321100000001 -5.79255089207578,42.1202642283107,732.082699999999 -5.79306336118244,42.120844256363,731.895499999999 -5.79360198204367,42.1214962004764,731.891499999998 -5.79435752718136,42.1221840192108,731.918600000005 -5.79479439227707,42.1224971677612,731.669399999999 -5.79488843690417,42.1226867661145,731.566900000005 -5.79539990079601,42.1231340241688,731.268700000001 -5.79604497201839,42.1237571348483,731.1967 -5.79669741930757,42.124290727038,731.280400000003 -5.79695541455882,42.1245656532731,731.509000000005 -5.79732472095529,42.1249016003539,731.880499999999 -5.79804405590221,42.1255230346626,732.122499999998 -5.79871209345312,42.1261498328775,732.706399999995 -5.79899724567376,42.1263942494277,732.961800000005 -5.79935247097816,42.1266666614427,732.838300000003 -5.79972948851301,42.1269174479686,732.372000000003 -5.80000089471317,42.1270832422102,732.153300000005 -5.80066658586455,42.1275462584191,732.847500000003 -5.80126672964463,42.1279278027969,733.388800000001 -5.80166436710852,42.1281267887713,733.461200000005 -5.8024403641903,42.1284743026893,733.178100000005 -5.80316757826056,42.1287547610978,732.785600000003 -5.80384030950883,42.1290917132796,732.724199999997 -5.80416888000212,42.1292402407184,732.550799999997 -5.80458059945638,42.1295379660987,732.883100000006 -5.80511922031761,42.1299508584818,733.2111 -5.80543052429279,42.1301392839822,733.714900000006 -5.80593058856367,42.1303273738189,730.692200000005 -5.80623451647208,42.1304732188726,731.436600000001 -5.80670574661899,42.130653261949,732.304300000003 -5.80699509037872,42.1307315490927,733.0576 -5.80745492090469,42.130652255978,732.404999999999 -5.80815816253328,42.1305161339678,731.910999999993 -5.80893047113251,42.13039107606,731.650599999994 -5.80973597248145,42.1302395313884,731.862500000003 -5.81063736269881,42.1300601586779,730.939400000003 -5.81163615005585,42.1298826302061,731.271299999993 -5.81270886606587,42.1296947076015,731.602400000003 -5.81314120455087,42.1296417340789,731.596999999994 -5.81411132576891,42.1294647080955,731.424100000004 -5.81552367682153,42.1292003427409,731.458700000003 -5.81695916128937,42.1289396658314,731.2022 -5.81847460929221,42.128676977177,732.014200000005 -5.81941707048435,42.1285219120515,731.574999999997 -5.8203298594243,42.1283378448823,731.411399999997 -5.82161815852608,42.1281147186358,731.6014 -5.82231016851869,42.1279873141746,731.581699999995 -5.82301625960338,42.1279190851165,732.064700000003 -5.82412451476266,42.1278875695428,733.994300000006 -5.82588924076525,42.1278315784603,739.223800000007 -5.82665467635425,42.1278205142845,741.284199999995 -5.82720704413423,42.1278035825675,742.957699999999 -5.82771565767168,42.1278287283043,745.100999999995 -5.82816392149003,42.1280072632154,746.184500000003 -5.8284378420747,42.1283232604334,747.678100000005 -5.82856893502072,42.1288187986992,746.803199999995 -5.82864386978677,42.1290653941598,745.621100000004 -5.82900345281858,42.12954349837,743.619600000005 -5.82936538404658,42.1299738248496,740.295100000003 -5.82959756261489,42.130260989352,738.252099999998 -5.82990903367673,42.1306856162321,735.953399999999 -5.83016719691298,42.1310436914011,734.081900000005 -5.83046324569801,42.1314314383332,733.6927 -5.83074454234945,42.1317957155489,733.4378 -5.83091871849653,42.1320092863008,733.315400000007 -5.83125332387186,42.1324402842001,733.305200000003 -5.83158792924722,42.1328711139533,733.469200000007 -5.83185262952377,42.1332734450022,733.610700000005 -5.83205379555355,42.1335818988299,733.679199999999 -5.83229385324524,42.133940141489,733.438200000004 -5.83257716122461,42.134348675757,733.433000000005 -5.83286331955837,42.1348217505354,733.399699999994 -5.83308627871693,42.1352078209348,733.491699999999 -5.83346312826682,42.1359677241597,733.7791 -5.8337261531854,42.136434596358,733.983699999997 -5.83395363805637,42.1368206662515,733.741599999994 -5.83422990504052,42.1373673338908,733.688899999994 -5.83451405204635,42.1378008459435,733.872799999997 -5.8347998744102,42.1383242120581,733.968599999993 -5.83489174062273,42.138479277167,734.040200000003 -5.83491085138208,42.1386016532835,734.025500000003 -5.8348743061197,42.1388066747477,734.019700000004 -5.83497270937255,42.139270697025,734.443299999999 -5.83505921084619,42.1395221537173,734.300499999998 -5.83511302262668,42.1397563445035,734.434399999998 -5.83517890417128,42.1399315259113,734.526599999997 -5.83521997514608,42.1400061246729,734.541500000007 -5.83523372206486,42.1401204539389,734.324500000002 -5.8352925626143,42.1403350310785,734.430900000007 -5.83539247503684,42.140561342206,734.593200000003 -5.83548903494672,42.140777260042,734.781199999998</coordinates>
</LineString>
</Placemark>
</Folder>
</Document></kml>
