<?xml version="1.0" encoding="UTF-8"?>

<kml xmlns:xsd="http://www.w3.org/2001/XMLSchema" xmlns:gx="http://www.google.com/kml/ext/2.2" xmlns:atom="http://www.w3.org/2005/Atom" xmlns="http://www.opengis.net/kml/2.2">
<Document>
<name>PT07a_05a_quintanilha-braganza</name>
<visibility>1</visibility>
<Schema name="PT07a_05a_quintanilha-braganza" id="kml_schema_ft_PT07a_05a_quintanilha-braganza">
<SimpleField type="xsd:string" name="id">
<displayName>id</displayName>
</SimpleField>
<SimpleField type="xsd:string" name="nombre">
<displayName>nombre</displayName>
</SimpleField>
<SimpleField type="xsd:double" name="longitud">
<displayName>longitud</displayName>
</SimpleField>
<SimpleField type="xsd:string" name="_formato">
<displayName>_formato</displayName>
</SimpleField>
</Schema>
<Folder id="kml_ft_PT07a_05a_quintanilha-braganza">
<name>PT07a_05a_quintanilha-braganza</name>
<Placemark id="kml_1">
<name>&lt;img height='20' src='https://nco.ign.es/iconos/icono_todos_caminos_azul.png' /&gt;&lt;img height='20' src='https://nco.ign.es/iconos/Camino Santiago_20.png' /&gt;&lt;img height='20' src='https://nco.ign.es/iconos/icono_todos_caminos_azul.png' /&gt;  Camino de Santiago </name>
<visibility>1</visibility>
<description><![CDATA[<!DOCTYPE html>
<html>
<head>
<style>
#nco {
  border-collapse: collapse;
  overflow:hidden;
}
#nco th, #nco td {
  padding: 4px;
  text-align: left;
}
#nco th {
  color: #364B5F;
  padding-right: 5px;
}
#nco td {
  color: rgb(51, 51, 51);
  font-size: 12px;
  padding-right: 5px;
}
</style>
</head>
<body>
<table id="nco">
<tr>
<td>Caminos Portugueses</td>
</tr>
<tr>
<th><b>Camino: </b></th>
<td>PT07a Caminho Português de la Vía de la Plata</td>
</tr>
<tr>
<th><b>Etapa: </b></th>
<td>05a Quintanilha-Braganza</td>
</tr>
<tr>
<th><b>Longitud: </b></th>
<td>24.57 km</td>
</tr>
</table>
</body>
</html>]]></description>
<Style>
<IconStyle>
<scale>0.8</scale>
</IconStyle>
<LabelStyle>
<color>ffffffff</color>
<scale>0.75</scale>
</LabelStyle>
<LineStyle>
<color>ffff0000</color>
<width>3.0</width>
<gx:labelVisibility>1</gx:labelVisibility>
</LineStyle>
<PolyStyle>
<color>66ff0000</color>
</PolyStyle>
</Style>
<ExtendedData>
<SchemaData schemaUrl="#kml_schema_ft_PT07a_05a_quintanilha-braganza">
<SimpleData name="id">PT07a_05a</SimpleData>
<SimpleData name="_formato">kml</SimpleData>
</SchemaData>
</ExtendedData>
<LineString>
<extrude>0</extrude>
<tessellate>1</tessellate>
<coordinates>-6.57015999793088,41.7514053356662,626.2546 -6.57032595988298,41.7516113634333,630.752500000002 -6.57026695045028,41.75171244897,630.281000000003 -6.57016787705423,41.7520153708787,628.604300000006 -6.57015698048983,41.7521804940945,629.477799999993 -6.57019285471069,41.7524183725376,629.644499999995 -6.57021699513732,41.752787344015,633.254199999996 -6.57009294228818,41.7530034298504,636.385399999999 -6.56928794489408,41.7537103591979,634.1636 -6.56916288683012,41.7538934200915,634.532300000006 -6.56881185216655,41.7546933887704,632.045299999998 -6.56879492072005,41.7548100650588,632.876000000004 -6.56885795280862,41.754908468335,634.922099999996 -6.56941987596829,41.755138467872,646.232399999994 -6.56948290805683,41.7552234604705,648.250400000004 -6.56959690157144,41.7553183435418,650.096399999995 -6.56970486020398,41.7554834669725,653.402000000002 -6.56986193691962,41.755460333152,658.5717 -6.57003292853899,41.7554320024029,661.332800000004 -6.57110380030773,41.7553346044678,677.110700000005 -6.57176731124793,41.7554744147546,689.178599999999 -6.57204190287409,41.7556262945575,692.243799999997 -6.5720310063097,41.7557821981581,692.711599999995 -6.57177820781232,41.7561399376739,689.792600000001 -6.5717671441613,41.7564076556455,690.988299999997 -6.5718221291415,41.7565809933597,691.702399999995 -6.57192103545093,41.7567236536516,691.587299999999 -6.57218523356924,41.7571578359262,700.631699999998 -6.57221540797965,41.7574679667172,705.165299999993 -6.57239042225486,41.7578124627728,711.254300000001 -6.57267658058862,41.7584062365876,711.504799999995 -6.572937425296,41.7587772194682,713.853499999997 -6.57320648419831,41.7592987418394,719.593200000003 -6.57342608994591,41.7595106364194,721.211899999995 -6.57360797723138,41.7600122096088,721.277300000002 -6.57389178916562,41.7604147080792,721.153399999996 -6.5744677934174,41.7615536411384,718.668300000005 -6.57484346976752,41.7623537776733,713.897100000002 -6.5754519966258,41.7634915372246,709.999100000001 -6.57594049329079,41.7639867399677,709.191500000001 -6.57950632257344,41.7676328678487,708.700700000001 -6.58170254893287,41.7702279051966,697.060500000007 -6.58192936366065,41.7705708929632,699.036300000007 -6.58195400624552,41.7711289597049,700.496799999994 -6.58194746830691,41.7715958321441,701.433099999995 -6.58193489548617,41.7719510568877,702.268899999995 -6.5820264257288,41.772079467711,702.699800000002 -6.58219657832171,41.7726866527054,703.104000000007 -6.58242808674685,41.7733451354775,702.607900000003 -6.58269228396684,41.7741244846974,697.175700000007 -6.58284215260063,41.7748342637522,696.715500000006 -6.58331891547136,41.7754659239803,700.0291 -6.58350298206973,41.7756204864196,701.664600000004 -6.58613104385759,41.7767535524148,691.815799999997 -6.58644318596096,41.7769966273934,686.053700000004 -6.58699488269944,41.7775722963056,681.587299999999 -6.58722018825752,41.7783526519312,679.525999999998 -6.58766191413723,41.7787033502883,675.027700000006 -6.58813683276672,41.7795343322271,667.320900000006 -6.58816298452126,41.7797153814756,666.069099999993 -6.58829793303649,41.7800774797788,665.451199999996 -6.58832291159128,41.7802174578845,665.119000000006 -6.58859968163201,41.7803802342988,665.040999999997 -6.58892322335631,41.7807103135664,664.792400000006 -6.58994799448297,41.7819662581317,673.939199999993 -6.59029902914655,41.7823198063954,673.755699999994 -6.59035485225494,41.7824374881427,673.394199999995 -6.59030791348471,41.7825374004344,672.693299999999 -6.59027874428912,41.782772596791,672.006599999993 -6.59034295047573,41.7828834057029,671.734599999996 -6.59052986653019,41.7833454159056,670.432700000005 -6.59072985846186,41.7837983745574,671.656000000003 -6.59090889629127,41.7840555309857,672.517800000001 -6.59108256938178,41.7850707471379,675.725600000005 -6.59135112522755,41.7854610087852,677.699699999997 -6.59170199190617,41.7859263716167,677.418999999994 -6.59198597092703,41.7865930683381,679.289999999994 -6.59210164069796,41.7871533145407,683.107999999993 -6.59201865972191,41.7875253033492,678.438699999999 -6.59200491370143,41.7876434886105,679.126199999999 -6.59214053325819,41.787963844537,680.178899999999 -6.5923344903078,41.7882979477413,685.281400000007 -6.59245116619184,41.7891059629539,689.523499999996 -6.59245636294578,41.7894315157858,691.419399999999 -6.59244881979232,41.7896455901046,692.652199999997 -6.59224161888048,41.7903520166211,694.922500000001 -6.59215997908913,41.7910884509054,698.547500000001 -6.59216785821251,41.7911784720278,699.169399999999 -6.59222183707959,41.7912753668085,699.457500000004 -6.5925299565271,41.7915333619269,700.676099999997 -6.59292290029362,41.7918520421044,699.553199999995 -6.59339228619926,41.792114395676,699.636499999993 -6.59413509053128,41.7926209976084,703.314100000003 -6.5941890702967,41.7927748898058,705.006999999998 -6.59407356761243,41.7930312085441,707.162599999996 -6.59361558042943,41.7936677299822,712.452000000005 -6.59343805176971,41.7939795367701,715.012400000007 -6.59343319008742,41.7944705487161,716.784799999994 -6.5936363674451,41.7948530988416,716.697700000004 -6.59371834230804,41.7950398477211,719.522599999997 -6.59356998284393,41.7951154521849,717.374200000006 -6.59347694343165,41.7952004447322,716.525899999993 -6.59342497589247,41.7952824200702,716.900299999994 -6.5934129061283,41.7953724413301,716.984700000001 -6.59341491745623,41.7954884469207,717.5141 -6.5934129061283,41.7955853418834,717.959099999993 -6.59339697989662,41.7956753633875,717.990399999995 -6.59337485169622,41.795808468298,718.311700000006 -6.59335691503494,41.7960574107338,718.642300000007 -6.59330192915641,41.7963504419469,718.2065 -6.59329287683329,41.7964604123549,718.083899999998 -6.59322783341682,41.7966684512376,717.856100000005 -6.59312792099431,41.7969453893409,717.872900000002 -6.59309288490158,41.7970674301282,717.920299999998 -6.59300286293035,41.7974623849925,720.180200000003 -6.59304795745928,41.7975753731601,720.217600000004 -6.59310696689198,41.7977153512369,720.330700000006 -6.59312792099431,41.7978633753916,720.680800000002 -6.59311199566094,41.7979753576421,720.666599999997 -6.59305684269577,41.7980854960335,720.505799999999 -6.59295693027323,41.7982554805047,722.057100000005 -6.59295793638635,41.798365451662,724.107999999993 -6.59300286293035,41.7984702251785,725.542799999996 -6.59309187878847,41.7985584029989,726.052200000006 -6.59335289148081,41.7987773382179,724.665299999993 -6.59357987329521,41.7989124544435,726.153600000005 -6.5937929411042,41.7990004642345,725.278699999995 -6.5939069355171,41.799093335796,724.615300000005 -6.5940199229186,41.7991873805038,724.917199999996 -6.59423785240991,41.7993003689786,725.172000000006 -6.59435989303282,41.7993553543539,724.768200000006 -6.59452686109806,41.7994220737904,724.476699999999 -6.59477295367181,41.7995234951832,725.524300000005 -6.59493690339771,41.7995804920765,724.804199999999 -6.5950478803696,41.7996453683296,724.689799999993 -6.59544685811986,41.7999073859699,726.5677 -6.59576185057762,41.8000904469737,727.322899999999 -6.59596787739139,41.8001653811661,728.468399999998 -6.59610299389159,41.8001923709009,728.228600000002 -6.59623995463309,41.8002004176608,727.833100000003 -6.59638294935832,41.8002134936435,727.543600000005 -6.59651488043251,41.8002674730613,727.745200000005 -6.59664295593751,41.8003150818708,728.543999999994 -6.59678997511525,41.8003551474963,728.934200000003 -6.59694487251799,41.8003923629882,728.850600000005 -6.5971448644497,41.800413485665,729.293999999994 -6.59728299839094,41.800448354607,729.394799999995 -6.59741291813722,41.800512392228,729.721699999995 -6.59750696276432,41.8006034193466,731.199699999997 -6.59760788040165,41.8006884119823,730.724600000001 -6.59808497834399,41.8009182440461,733.358399999997 -6.59873189380765,41.8011484107855,734.443299999999 -6.59885292831744,41.8011924998772,733.588300000003 -6.59909985991768,41.8012880535946,736.209000000003 -6.59919993942688,41.8013634906392,737.308399999994 -6.59929683440837,41.8014184755836,739.388500000001 -6.5995399095411,41.8015284466704,738.769899999999 -6.59965490916882,41.8015773965337,740.744500000001 -6.59977795590485,41.8015574474783,742.265100000004 -6.59992296285631,41.8015054801265,739.937999999995 -6.60009797623323,41.801498439355,738.954299999998 -6.600332837171,41.8015234175497,738.422200000001 -6.60056199919662,41.801555435831,738.735400000005 -6.60078696878479,41.8015854431197,738.741399999999 -6.60094488452692,41.8016303703193,739.022200000007 -6.60113699733525,41.801703460491,739.536200000002 -6.6012379158709,41.8017574399929,739.539199999999 -6.60132693083072,41.8018224834644,739.922500000001 -6.60150194510596,41.8019433504388,740.695200000002 -6.60161996217474,41.8019934745542,740.977899999998 -6.6019899396127,41.8021032772415,741.167400000006 -6.60199496927995,41.8021783791712,741.6584 -6.6019818934027,41.8022704124142,742.3024 -6.60194484508374,41.802365462958,742.977400000003 -6.60184795010225,41.802453473364,743.951499999996 -6.60175289936204,41.8025284074717,744.283800000005 -6.60174787059309,41.8026323431525,744.384999999995 -6.60173496270076,41.8027253822185,744.656499999997 -6.60174988192099,41.8028063515023,744.4611 -6.60177385436266,41.8028574807458,744.007599999997 -6.60175893424411,41.8029714745777,743.834499999997 -6.60175088803414,41.8030443971487,744.181899999996 -6.60174384703892,41.8031124587205,744.430500000002 -6.60179095379411,41.8031813579387,744.152000000002 -6.60188097486705,41.8032334933499,744.378599999996 -6.60195892707414,41.8033072540094,744.885800000004 -6.60210393402561,41.8033734711211,745.074500000002 -6.60222496853544,41.803434491115,745.297900000005 -6.6023029198442,41.8034854531179,745.697199999995 -6.60239998281065,41.8035364150803,745.9617 -6.60254096620798,41.8035154601723,746.217399999994 -6.60268697927257,41.8035122753847,746.370299999995 -6.60281488679262,41.8035553583969,746.570500000002 -6.60290490876388,41.8036024645464,746.408500000005 -6.603001970832,41.8036534264158,746.8416 -6.60319592788164,41.8037023766647,747.076000000001 -6.60341486348603,41.8037501536786,746.855800000005 -6.60354796775999,41.8037843518418,747.602100000004 -6.60372985504546,41.8038274346711,750.602499999994 -6.60388894398733,41.8038433605385,751.341899999999 -6.60394292285445,41.8039234913702,750.526400000002 -6.6038869317611,41.8040384910991,752.375799999994 -6.60379992812922,41.8041534906216,752.785199999998 -6.6035679166475,41.804528497209,756.448699999994 -6.60336490727478,41.8048904279153,755.394499999995 -6.60334998715622,41.80498715465,756.055600000007 -6.60335199938245,41.8050904200713,757.075299999997 -6.60336490727478,41.8052174895794,757.624100000001 -6.60340195559371,41.8053683637023,758.758900000001 -6.60344688213771,41.805528458065,757.057000000001 -6.60366699094188,41.8063654749995,760.755999999994 -6.60366196217293,41.8064853363629,760.160300000003 -6.60366497961398,41.8066154236852,760.234899999996 -6.60368794594251,41.8067654595227,762.036399999997 -6.60368191106044,41.8068774416175,763.144700000004 -6.60362491385397,41.8070251305663,763.158599999995 -6.60327287397561,41.8076723811713,762.544599999994 -6.60323297620056,41.8078824319314,762.729800000001 -6.60325493641601,41.8080123516981,762.686199999996 -6.6033248415148,41.8081283571738,763.185100000002 -6.60347286590732,41.8083704260019,766.174499999994 -6.60355199131416,41.8085383998845,768.557000000001 -6.60360999373541,41.8086753596437,768.706200000001 -6.60367285873732,41.8089683914119,768.377999999997 -6.60372985504546,41.8093484264461,770.354000000007 -6.60379489846193,41.8094324131647,768.616999999998 -6.60387787943798,41.8095524422094,769.700500000006 -6.6039318592034,41.8096803498754,771.493000000002 -6.60398198250131,41.8098122814014,773.168399999995 -6.60406295214946,41.8098823538653,775.013300000006 -6.60419790066469,41.8100124409855,774.8897 -6.60432999972387,41.8101183886262,776.735700000005 -6.60466695239704,41.8103105017646,784.462899999999 -6.60483492567707,41.8104124255044,785.388000000006 -6.60494791307856,41.8104853483107,785.456699999995 -6.60527497530046,41.8106873517709,789.900399999999 -6.60538192871818,41.8107854202556,788.145000000004 -6.60575693492513,41.8112004923986,792.198799999998 -6.60579783881326,41.8113454991916,790.092199999999 -6.60585198566535,41.8114450758409,789.662599999996 -6.60596799140619,41.8116335011316,791.785000000003 -6.60613998734205,41.8118024801556,793.776700000002 -6.60639194771127,41.8120383471502,795.736399999994 -6.6065149944473,41.8122334775245,798.420899999997 -6.60655489222232,41.8123603795395,799.702300000004 -6.60655287999608,41.8124723618976,801.160699999993 -6.60650996478001,41.8125633894331,800.616699999999 -6.60648783657965,41.812673360138,799.843299999993 -6.60645799724083,41.8127031995215,799.195800000001 -6.6063798779471,41.812773440225,796.547300000006 -6.60633998017209,41.8128803929623,795.758400000006 -6.60623285876937,41.8132922799497,795.104900000006 -6.60616496589684,41.8134924393724,797.723199999993 -6.60605985672039,41.8138530292583,793.855899999995 -6.60609187537207,41.8139774166711,793.837799999994 -6.60616697722477,41.8140954339804,793.354800000001 -6.60627191841627,41.8141953458035,792.686499999996 -6.60673292393861,41.8146454545746,794.800499999998 -6.60693190975717,41.8148731068391,796.690600000002 -6.60730289330828,41.8152373839957,795.1253 -6.60740699637161,41.8153054453351,795.156400000007 -6.6075369161179,41.8153453429124,796.922000000006 -6.60779994013814,41.8153854085123,798.055999999997 -6.60811292036964,41.8154150805935,800.286500000002 -6.60854291155679,41.8154403941439,800.829899999997 -6.60913199168581,41.8155324270826,800.892300000007 -6.60928186031961,41.8155334333564,800.981199999995 -6.60947984092341,41.8155223690309,801.373200000002 -6.60960992775632,41.8155354445647,801.918600000005 -6.60983188080177,41.8155773545449,802.633799999996 -6.60995190919848,41.8156224486835,802.225999999995 -6.6103718428477,41.8157724848502,803.147100000002 -6.61061693020666,41.8159184976033,802.5337 -6.61096192908987,41.8161324037774,803.844899999996 -6.61181487136729,41.8165233359365,805.106400000004 -6.61199189697044,41.8166001141256,805.074200000003 -6.61206498749521,41.8166824242859,805.336800000005 -6.61217294612775,41.8167704344398,806.171199999997 -6.6123278435305,41.8168104998177,806.580799999996 -6.61245793126174,41.8168133498655,806.619000000006 -6.61260193210009,41.8168452011655,806.911300000007 -6.61274492772365,41.8168874457061,807.169699999999 -6.61307483940164,41.8170101568367,808.509900000005 -6.61343693771627,41.8171454408172,809.686199999996 -6.61450294780268,41.8174374664252,815.108200000002 -6.61456983546039,41.8175224588226,816.974700000006 -6.61467695596478,41.8177073634772,817.887799999997 -6.6147899442646,41.8177970499557,819.252999999997 -6.61496495853981,41.8178104611073,819.524099999995 -6.61515288070735,41.8177874943747,820.757899999997 -6.61527793877131,41.8178074437323,822.694600000003 -6.61565294497826,41.8179024939877,822.162800000006 -6.61603197473934,41.8180184996289,823.404899999994 -6.61698684076724,41.8183973615989,824.273300000001 -6.6174119711704,41.8185753935412,823.871599999999 -6.61756485724521,41.8186454657913,823.688500000004 -6.6176919266371,41.8186934104116,824.024000000005 -6.61786191124507,41.8187804149266,824.759399999995 -6.6180779973934,41.8188501522148,825.597299999994 -6.61820188135929,41.8188984320888,826.330300000001 -6.61834688831076,41.8189884536447,826.602299999999 -6.61857789367932,41.8191254138224,827.694499999998 -6.61874000006224,41.8191503918396,828.426699999996 -6.61888483902875,41.8191304429003,828.921100000007 -6.61900788576481,41.8191282637671,828.916400000002 -6.61912187927942,41.8191730233473,829.175099999993 -6.61924693734337,41.8192883578857,830.166400000002 -6.61948984449115,41.8195203692928,831.751600000003 -6.61964289855095,41.8195381389915,832.406300000002 -6.61975186329657,41.8194653838168,832.447499999995 -6.62005495307683,41.8191153556656,833.590500000006 -6.62048796170503,41.8185733817587,838.000499999995 -6.62060296133276,41.8185153787975,839.252900000007 -6.62072785231006,41.8184754811865,840.198399999994 -6.62118198392384,41.818385459579,843.147800000006 -6.62144483995913,41.8184054080809,844.110199999996 -6.6216629374354,41.8184674347134,845.2209 -6.62192495534253,41.8185554444227,845.758900000001 -6.62222787713779,41.8186273611061,847.955700000006 -6.6225619803549,41.8186273611061,850.610799999995 -6.62272291263971,41.8185924926849,851.942200000005 -6.62303186931708,41.8184920775781,854.001600000003 -6.62422997846267,41.8180734850082,861.571899999995 -6.62457196080312,41.8179703878016,862.458400000003 -6.62469785699524,41.8179484273622,862.707399999999 -6.62481185050985,41.8179133905305,862.715200000006 -6.62493187890652,41.8179133905305,862.7264 -6.62507990419737,41.8178884127004,862.876300000004 -6.62519289159886,41.8178074437323,862.907999999996 -6.62534795698656,41.8177373705652,862.657000000007 -6.62565791977704,41.8175673855584,861.522700000001 -6.62659686047157,41.8168433567029,857.347399999999 -6.62675796074137,41.8167333864626,856.626099999994 -6.627489868509,41.8161984529781,853.339300000007 -6.62780988973568,41.8160133806078,852.216100000005 -6.62788499158838,41.8159381114511,851.909499999994 -6.62802295754467,41.8157533744214,851.352400000003 -6.62827290568763,41.8153725003259,849.933499999999 -6.62893692058273,41.814717370962,847.963600000003 -6.62901286056359,41.8146333844774,847.793999999994 -6.62919491493569,41.8145032973683,846.541800000006 -6.62971694032034,41.8142223356541,843.914399999994 -6.62995984746812,41.8141433779898,841.870699999999 -6.63028188092106,41.8140523506912,841.955000000002 -6.63041297386709,41.8139873075839,840.966700000004 -6.63110196552035,41.8136523661369,836.491500000004 -6.63121495382014,41.8135653620201,835.562300000005 -6.63122786171247,41.8134253844219,835.175900000002 -6.63123289137975,41.8132553993526,834.995299999995 -6.63131285491475,41.8131784537874,834.367899999997 -6.63147496039937,41.8131284977717,833.513699999996 -6.63169288989065,41.813095472936,832.671499999997 -6.63226285926032,41.8129930459565,831.044399999999 -6.63247492185449,41.8129134179089,830.910900000003 -6.63274984765394,41.812768410648,831.347599999994 -6.63292787937021,41.8126820775486,831.389200000005 -6.63318285718045,41.812552493319,832.250899999999 -6.63340698953879,41.8123754670265,832.965599999996 -6.63374796486783,41.8120753951651,834.111399999994 -6.63388693693723,41.8118484132182,834.638099999996 -6.63431290546851,41.8111624382048,833.778900000005 -6.63446294118897,41.811023298328,834.993000000002 -6.63503492278487,41.8105974979894,834.299100000004 -6.63523189727556,41.8105203845189,833.712799999994 -6.6354419476435,41.8104724398063,833.378100000002 -6.63574788687981,41.8104303631124,833.251399999994 -6.6359468735967,41.8104320390297,834.734500000006 -6.63690995381956,41.8104484674365,834.553100000005 -6.63711698764474,41.8104504794742,834.959700000007 -6.63728194348375,41.81047344549,836.078899999993 -6.63746785342506,41.8105173668005,836.182100000005 -6.63805291089825,41.8106555007564,837.060599999997 -6.63857493538457,41.8107404934494,837.259999999995 -6.63906494121924,41.8108653837195,839.727100000004 -6.63947984609951,41.8109334443481,841.836899999995 -6.63977187133038,41.8109433350613,844.203699999998 -6.64003690667856,41.8108984083658,843.780299999999 -6.64020990962587,41.8108254860297,843.037100000001 -6.64048299208234,41.8107383140308,843.243000000002 -6.640671920363,41.8107374757414,844.090599999996 -6.64099998779971,41.8107534012302,844.812099999996 -6.64111783688353,41.8107723444217,845.015199999994 -6.64123987750644,41.8107634593612,845.596399999995 -6.64140684557168,41.810723394218,846.330300000001 -6.64151698351708,41.8106824907594,846.767800000001 -6.64182694630756,41.8105624618233,849.181700000001 -6.64199693091552,41.8104824979814,848.668900000004 -6.64215987542656,41.8103654870659,850.122300000003 -6.64229297970056,41.8102270177019,851.253899999996 -6.64252985286456,41.8099701965973,853.677500000005 -6.64257997616244,41.809853352808,855.129400000005 -6.64259992504999,41.8097153865239,855.336500000005 -6.64261199571245,41.8096223475646,855.104099999997 -6.64260797215828,41.8095174061414,856.787500000006 -6.64264686382019,41.8093824575753,858.497199999998 -6.6427749393252,41.8088284138117,860.757400000002 -6.64281684932648,41.8087023498115,861.365999999995 -6.64288792762502,41.8085801416906,862.335800000001 -6.64298297836523,41.8084634654402,863.013500000001 -6.64321197240587,41.8082403388952,864.549799999993 -6.64330484383319,41.8081674168812,865.175900000002 -6.6434329193382,41.8081134374227,865.427500000005 -6.64359183939681,41.8080824241221,865.610700000005 -6.6437718833393,41.8080703541274,865.488899999997 -6.64405485624706,41.8080804126797,867.066800000001 -6.64424998649644,41.8081204781369,867.8606 -6.64446691077293,41.8081524971391,872.543799999999 -6.64598185571923,41.8081954123128,881.630799999999 -6.64653690497034,41.8081353978864,880.361699999994 -6.64717694742377,41.808028444592,880.524000000005 -6.64732195437523,41.8080504050848,880.236199999999 -6.64744298888506,41.8080534229195,879.568700000003 -6.64756989119029,41.8080224095899,878.134600000005 -6.64774691679344,41.8079924026374,876.358399999997 -6.64810499155389,41.8079484816045,877.337899999999 -6.64828989628042,41.8079722861733,875.731599999999 -6.64859784774296,41.8080153688649,874.644 -6.6490328685974,41.8080133574204,872.048599999995 -6.64942497423576,41.8079774828546,869.636700000003 -6.6497149881387,41.8079504930511,867.162700000001 -6.65014296799795,41.8079333937444,862.758300000001 -6.65054194664655,41.8079684300092,861.645900000003 -6.6512498819725,41.808028444592,859.840299999996 -6.65170485171445,41.808043364363,856.843699999998 -6.6518798659897,41.80802743887,855.400899999993 -6.65264295428081,41.8078753911911,853.624899999995 -6.6530669105859,41.8078655006738,854.045899999997 -6.6536578349562,41.8079104274876,854.468099999998 -6.65387492631935,41.8079204860649,853.960000000006 -6.65400199571121,41.8079251798886,852.662899999996 -6.6541379503396,41.8079283644569,850.924700000003 -6.65440298658607,41.8079273587333,848.080499999996 -6.65553286688918,41.8079504930511,841.705499999996 -6.65594190397401,41.8079583721089,838.030400000003 -6.65612999322821,41.8079774828546,836.891300000003 -6.65635295238677,41.8080054783693,836.901800000007 -6.65669694515686,41.808043364363,834.378400000001 -6.65732491784612,41.8080904705608,832.206600000005 -6.65776295614157,41.8081253393427,829.334499999997 -6.65790997442097,41.8081182986291,829.448600000003 -6.65805984305477,41.8080971764835,828.2114 -6.65819797699601,41.8080983496015,826.796199999997 -6.65885696222383,41.8081283571738,822.841 -6.65901185962657,41.8081603755026,821.499299999996 -6.65931193196577,41.8082674966427,817.661600000007 -6.65944185081373,41.808320470254,817.578200000004 -6.65957696731392,41.8083623795984,815.834799999997 -6.6599479499667,41.8084503898019,810.098700000002 -6.66022187055134,41.8084824086392,807.964699999997 -6.6603648661749,41.8084733558652,805.4427 -6.66048187802886,41.8084384872726,803.820200000002 -6.66058698630701,41.8083821611476,803.163400000005 -6.66128184665398,41.8080004490874,799.032000000007 -6.66200285785722,41.807643379783,786.895699999994 -6.66295185698801,41.8073334172517,770.468500000003 -6.66304791384134,41.8072784320262,769.0095 -6.66317783268929,41.807263344678,767.357799999998 -6.66337195772389,41.8072423896498,765.618799999997 -6.66362291197996,41.8072174116757,765.478099999993 -6.66381686902957,41.8071900867532,764.411699999997 -6.6639799815256,41.8071334247315,763.126900000003 -6.66425691955129,41.8070304953938,763.214300000007 -6.66449798245779,41.8069584110112,763.015400000004 -6.66462488476302,41.8069223684546,763.014200000005 -6.66495999319492,41.8068531344412,761.459300000002 -6.66522989022542,41.8068224566704,759.652000000002 -6.66603488851782,41.8067223766602,753.666200000007 -6.66727691899257,41.8064323625734,748.563999999998 -6.66778787982787,41.8063954820443,747.204800000007 -6.66793188066622,41.8063523996026,746.4473 -6.66805190996123,41.8062954020367,745.931500000006 -6.66814696070144,41.8062254970688,745.463900000002 -6.66841786384506,41.8060303664727,742.537599999996 -6.6686299255409,41.8059153669709,740.230500000005 -6.6711049341673,41.8047774399224,720.951100000006 -6.67176190806722,41.8045253118021,722.471600000004 -6.67225996011186,41.8044284169636,723.284199999995 -6.67255483569712,41.8043623676793,724.868900000001 -6.67302690487052,41.8042004295939,725.449999999997 -6.67347198326286,41.8040503931066,724.865000000005 -6.67366292287144,41.8040353056678,723.774099999995 -6.67384296681397,41.804062463189,722.957200000004 -6.67398696765232,41.804142427009,722.985499999995 -6.67406693118732,41.8042374774544,723.180300000007 -6.67422786347217,41.8044324407474,722.285399999993 -6.67436197385924,41.8045182713625,721.342900000003 -6.67457487458157,41.8046704863792,720.918399999995 -6.67473698006619,41.8048404714627,719.430300000007 -6.67488483737205,41.8049724029117,717.292799999996 -6.67524492346044,41.8052184953456,712.778300000005 -6.6756499369911,41.8054023942673,708.677500000005 -6.67647287284311,41.8056734649747,699.832699999999 -6.67661989112252,41.8056883846245,698.189299999998 -6.67729496966864,41.8057183919864,690.293399999995 -6.67742690074285,41.8057054838607,687.088600000003 -6.67775496817953,41.8056404403131,685.051300000006 -6.6778979638031,41.805617473904,685.643599999996 -6.67814791194606,41.8055604770235,683.868600000002 -6.67856985692325,41.8054104410426,679.374400000001 -6.67894285180223,41.8052754925303,675.804999999993 -6.67910294595892,41.8051933498475,673.251900000003 -6.67931785800918,41.8050304054148,670.611000000004 -6.67961692423523,41.8048134816768,664.1302 -6.67982194583422,41.8047073672317,660.316500000001 -6.68049987383643,41.8044334465259,652.697499999995 -6.68107789031444,41.804212499648,648.819099999993 -6.68175699151639,41.8038624711724,643.858200000002 -6.68185288128306,41.8037633970149,641.446500000005 -6.68249292283816,41.8031674435034,624.911999999997 -6.68274488320738,41.8029553817528,622.468900000007 -6.68350294272955,41.8022103977949,625.143599999996 -6.68365985146023,41.8019874396533,624.113700000002 -6.68381290552003,41.8019123374998,624.0573 -6.68398289012799,41.8018724395914,621.966700000004 -6.68425798391237,41.8018724395914,618.325700000001 -6.68457984938036,41.8018724395914,611.241699999999 -6.68469283768018,41.8018283509675,608.080499999996 -6.68477497962977,41.8017483876079,605.414499999999 -6.68488796792956,41.8016424401879,602.465100000001 -6.68499492134728,41.801575384887,601.300499999998 -6.68514495706774,41.8015204000772,599.021800000002 -6.6852819178092,41.8014883811087,597.835999999996 -6.68537294499525,41.801487375284,597.186799999996 -6.68547989841297,41.8015123528134,595.481700000004 -6.68563798034343,41.8015604649491,592.767999999996 -6.68581299461864,41.8016384168986,591.386799999993 -6.68593184981557,41.8017374909936,591.655599999998 -6.68624784838645,41.8020974097635,585.793399999995 -6.68634289912666,41.802307460721,587.209499999997 -6.68640492510209,41.8025384655547,585.478700000007 -6.6864079425431,41.8026554773733,584.678899999999 -6.68641699486625,41.8027483483251,583.364700000006 -6.68652193605771,41.8028224443647,581.248000000007 -6.68666191424026,41.8028333407944,581.041100000002 -6.68708687665843,41.8028534575328,574.449200000003 -6.68745685409643,41.8028831293924,570.247300000003 -6.68772993565458,41.8028683771697,569.252399999998 -6.68790193248877,41.8028325030712,568.981899999999 -6.6880618595588,41.8027753383113,568.944300000003 -6.68818691762276,41.802737117059,568.551300000006 -6.68834684379448,41.8027124741594,567.950899999996 -6.68848196029468,41.8027124741594,567.4807 -6.68911797919393,41.8027334286604,564.606899999999 -6.68923985183189,41.802750359935,564.265700000004 -6.68940296432792,41.802763436067,562.716499999995 -6.68954495383837,41.8027533780193,559.875799999994 -6.68987486551636,41.802737117059,555.685700000002 -6.69002791867783,41.8027803673337,556.927899999995 -6.69107699731778,41.803153362325,539.404399999999 -6.69142484655535,41.8033033982342,538.4899 -6.69155996305554,41.8033484929779,535.481199999995 -6.69192491082626,41.8034703655461,530.884000000005 -6.69233797146525,41.8035934117524,525.274300000005 -6.69244190654362,41.8036624792013,524.997799999997 -6.69274298499591,41.8038604595975,525.059699999998 -6.69295186216411,41.8039833383167,522.850099999996 -6.69339191178749,41.8042674848262,522.799599999998 -6.69350791752833,41.8043434246012,521.9948 -6.69363196947918,41.8043484541702,521.2068 -6.69373489934277,41.8042634617017,519.502800000002 -6.69386196873463,41.8041984180295,518.168799999999 -6.69399792336301,41.8041923826666,517.702600000004 -6.69417796640721,41.8042133373532,516.859100000001 -6.69490283317962,41.8043184468362,514.407399999996 -6.6950429793471,41.8043073825825,513.376099999994 -6.69515294930754,41.8042584321262,512.725999999995 -6.69523492417047,41.8041784691206,512.228799999997 -6.69537490235302,41.80400848362,511.293099999995 -6.69544799287779,41.8039434403586,510.836800000005 -6.69560490160847,41.8039684182698,510.287200000006 -6.69583791830493,41.8041083964444,510.973899999997 -6.69599197847785,41.8041134253621,511.043300000005 -6.69620186086083,41.8041033668566,511.138500000001 -6.69646790232213,41.8040723542934,511.248500000002 -6.69670695479902,41.8040405026685,511.397700000001 -6.69691499294073,41.8040470409379,511.525099999999 -6.69710794477555,41.8040654805419,511.581900000005 -6.69722696795741,41.804027426797,511.580499999996 -6.69729787827102,41.8039323760401,511.573099999994 -6.69733693791788,41.8038203941548,511.4666 -6.69744992621767,41.8034224209143,512.402900000001 -6.69748194486935,41.8033354169653,512.999100000001 -6.69757984596396,41.8032733910805,513.199999999997 -6.69773189391064,41.8032653440368,513.006500000003 -6.69799793537194,41.8032834490466,513.222399999999 -6.6982498948428,41.8032973634566,513.876499999998 -6.69838484335806,41.8032671882208,514.909400000004 -6.69853789741783,41.803205497759,516.434800000003 -6.69866295548182,41.8031454833458,516.642300000007 -6.69886697096766,41.8030923420634,517.487299999993 -6.69906998034042,41.8030423855481,520.757500000007 -6.69929495082691,41.8029674513718,523.797999999995 -6.69947683811239,41.8029434795419,524.180200000003 -6.69978294533365,41.8029273860404,523.635999999999 -6.69992493484407,41.8029134722196,523.669399999999 -6.7000379231439,41.8028854764889,523.588199999998 -6.70007195312347,41.8027803673337,523.820699999997 -6.69999986871182,41.8024402297569,524.020600000003 -6.69990984763889,41.8022682333772,524.470300000001 -6.6998129526574,41.8021534012318,524.794999999998 -6.69962989127385,41.8019884454701,525.119300000006 -6.69939989201841,41.80183002711,525.326700000005 -6.6992798636217,41.8017133512898,524.973899999997 -6.69920492885565,41.8016234969754,524.982999999993 -6.69916285176774,41.8015234175497,525.088000000003 -6.69925689729317,41.801448315522,525.088000000003 -6.69941497922359,41.801378410623,526.288700000005 -6.69957691762155,41.8013655022925,527.173800000004 -6.69977489822532,41.8013884688865,528.285099999994 -6.70000288615287,41.8014082499104,529.221699999995 -6.70015694542746,41.8013874630602,529.481799999994 -6.70029290005581,41.8013433741027,529.889200000005 -6.700384933355,41.8012823534567,530.486999999994 -6.70041494067875,41.8011554515954,531.5147 -6.70049188677273,41.8010404520494,533.089500000002 -6.70059297239501,41.8009904959434,533.865600000005 -6.70077184223943,41.8009284697976,535.964900000006 -6.7016829549231,41.8006483465652,545.825400000002 -6.70182796187457,41.8006384556018,547.511799999993 -6.70196190517502,41.8006503582409,548.878400000001 -6.70207992224379,41.8006783536089,549.998500000002 -6.70225292429277,41.8007254598645,550.865999999995 -6.70261988428972,41.8008134698442,552.141300000003 -6.7028728498737,41.8008104523383,553.938399999999 -6.70353485254256,41.8007325007208,557.335500000001 -6.70376284047008,41.80067248667,560.1394 -6.70400189204868,41.8006175010855,559.7016 -6.70417288276972,41.8006034193466,561.540500000003 -6.70512288801363,41.8005923551211,567.590400000001 -6.70555187398597,41.8006454964678,570.122700000007 -6.70628294362544,41.8008334191312,572.445999999996 -6.70640699557628,41.8008833753597,573.015299999999 -6.70650489667089,41.8009574708771,573.988400000002 -6.70659491774382,41.8010533597757,575.433600000004 -6.70679993934281,41.8012432942394,577.704800000007 -6.707067992132,41.8014354072057,580.301200000002 -6.70717695687766,41.801483351985,582.353000000003 -6.70741986492377,41.801555435831,584.9755 -6.70808488503365,41.8017121773854,589.261100000003 -6.70817188956387,41.8016504867658,588.930099999998 -6.70829694762782,41.8015304583185,588.846300000005 -6.70849190989225,41.8013774047965,588.847399999999 -6.70865284307539,41.8013234249744,590.684500000003 -6.70882299566831,41.801325436629,592.605899999995 -6.70897990439899,41.8013534323717,594.121899999998 -6.70911284158629,41.8014053998468,594.389800000004 -6.70934284084177,41.8015483950651,596.996199999994 -6.70949790622947,41.8016273528518,599.251199999999 -6.70989990231911,41.8017483876079,601.493000000002 -6.71027792596708,41.8018053845312,603.772899999996 -6.71055285266483,41.8018603697661,603.829299999998 -6.71079995135173,41.8018873594567,604.8796 -6.71093188242595,41.8018903769119,605.924199999994 -6.7109818386372,41.8018204718255,606.038799999995 -6.71097194818593,41.8018384091605,606.020099999994 -6.71104487072574,41.8018623814039,606.067899999995 -6.71107487715119,41.8018873594567,606.053700000004 -6.71124687398538,41.8018623814039,606.160300000003 -6.71226996885572,41.8017834239067,606.955100000006 -6.71314788968794,41.8017934821067,609.028300000005 -6.71388784456387,41.8019554202485,609.979900000006 -6.71449687358044,41.8021374756139,609.732399999994 -6.7146829515067,41.8022281676085,609.077999999994 -6.71480197468856,41.8023183572384,608.792199999996 -6.71487791466942,41.8024001640958,608.476999999999 -6.71495284853717,41.8024704047125,608.429000000004 -6.71506499870883,41.8025483562248,608.724499999997 -6.71518284869095,41.8026522918733,608.858999999997 -6.71536691528928,41.8027753383113,608.341100000005 -6.7163469269586,41.8034133687645,609.878299999997 -6.71650299845945,41.8035104312077,609.981799999994 -6.71734185874647,41.8038904664763,610.989199999996 -6.71750295901627,41.8039504808614,612.129400000005 -6.71762986132151,41.803992390386,613.166299999997 -6.71776195948235,41.8040384910991,613.673800000004 -6.71796295752717,41.8041254954326,613.775599999994 -6.71861691398604,41.8044381399354,616.829299999998 -6.71900684031151,41.8046284092226,620.168300000005 -6.71944286638074,41.804850362447,620.328899999993 -6.72012783627646,41.8051754121124,619.0 -6.72025792310941,41.8052424676636,618.582200000004 -6.72063192320321,41.8054454773479,617.081300000005 -6.72104699517014,41.8056404403131,616.050000000003 -6.72156197955957,41.8058654106479,615.517500000002 -6.72204494439903,41.8060253377054,615.520399999994 -6.72251785170058,41.8061721882605,615.102499999994 -6.72268498685245,41.8062083979713,614.6204 -6.72278992804394,41.8062603661962,614.160199999998 -6.72282496503497,41.8063503874362,614.080900000001 -6.72297986243771,41.8067654595227,611.794299999994 -6.72314699758958,41.8070605027967,610.313200000004 -6.72331295864338,41.8074073459468,608.031700000007 -6.72355989024365,41.8078884669468,606.247900000002 -6.72406699550974,41.8089623564983,596.764500000005 -6.72402190008245,41.8090753444762,596.720100000006 -6.72392299377306,41.8091323415776,597.626699999993 -6.72380983838661,41.8091874939451,599.665099999998 -6.72328194610485,41.8093973770309,605.932000000001 -6.72307994194691,41.8094884042492,606.775399999999 -6.72307189573691,41.8095754085472,606.879000000001 -6.72313492782545,41.8096803498754,606.556200000006 -6.72322796633943,41.8098033962078,605.902199999997 -6.72335185120361,41.8099631554169,605.515799999994 -6.72366298719384,41.8103423529507,605.572199999995 -6.72394998365575,41.8106853404103,607.943100000004 -6.72433286898605,41.8110353684358,608.437999999995 -6.72677686417558,41.8127484617294,606.696800000005 -6.72711985173086,41.8128453567058,607.592600000004 -6.72764791199758,41.8128874338221,607.350900000005 -6.72783684027823,41.8128203789077,606.111399999994 -6.72892698989298,41.8124524128868,597.266699999993 -6.72908993440402,41.8124524128868,597.266699999993 -6.72924298756553,41.8124770560573,595.8318 -6.72940291463555,41.8125234914619,594.411399999997 -6.72973483764144,41.8126374855037,595.152799999996 -6.73049490938987,41.8128084765208,594.212499999994 -6.73112489250873,41.8128054589102,592.1247 -6.73214195339531,41.8127903715246,582.050000000003 -6.73252685005354,41.8128681558176,578.823499999999 -6.73269499131852,41.8129303491714,576.016300000003 -6.73284988872126,41.813018359125,576.960699999996 -6.73297695811316,41.8131254801762,575.567999999999 -6.73317493871693,41.8133603406779,571.725000000006 -6.73336789055175,41.8137053399819,575.615600000005 -6.73341684064992,41.8137953614727,574.962199999994 -6.73347484307117,41.813918407935,573.816099999996 -6.73353184027764,41.813993342024,573.427100000001 -6.73356687637034,41.8139024825635,571.384600000005 -6.7335529623649,41.8137534523351,570.332299999995 -6.7335648650424,41.8136223591436,568.9179 -6.73360794824343,41.8134424836017,566.747000000003 -6.7336899231064,41.8133254720673,564.792199999996 -6.73381296894412,41.8131953849799,561.480599999995 -6.73399485622959,41.8130071276505,557.663400000005 -6.73403693331747,41.8129223026711,556.962100000004 -6.73399787367061,41.8128274197741,557.349100000007 -6.73395998812182,41.8127633817401,557.580700000006 -6.73401195566101,41.8127974123943,557.070800000001 -6.73412695528873,41.8128534032158,555.918000000005 -6.73422988515232,41.8129073826974,555.354000000007 -6.73433985601106,41.8128705025482,554.755000000005 -6.73428285880463,41.8128173612977,554.449600000007 -6.7341698705048,41.8127804810966,555.368100000007 -6.73405788831813,41.8127283454197,556.116200000004 -6.73409996540604,41.8126820775486,555.615399999995 -6.73422787382439,41.8126974997296,554.982300000003 -6.734429877084,41.8127474560815,554.968299999993 -6.73452291649631,41.8128074708738,555.054199999999 -6.7346278576878,41.8128554151779,555.110100000005 -6.73484293772302,41.8128822368695,556.105500000005 -6.73507494830637,41.8128974922875,559.2641 -6.73530293623392,41.8128884394678,561.582299999995 -6.73541994808788,41.8128351308476,561.543799999999 -6.73553193027458,41.8127804810966,563.550099999993 -6.73567291367189,41.8127303567161,565.326199999996 -6.73581792062335,41.8126904595185,567.617700000003 -6.73593694380524,41.8126230689581,569.968099999998 -6.73610994585426,41.8125134336073,573.333799999993 -6.73619996782549,41.8124374934731,574.212499999994 -6.73658285315578,41.8120874650747,578.686199999996 -6.73667689778288,41.8119681069796,579.803700000004 -6.73679491485165,41.8118604831706,580.958199999994 -6.73692684592584,41.8118254470258,581.080400000006 -6.73709297586292,41.8118083474143,582.078999999998 -6.73719288738713,41.8117523563489,582.970000000001 -6.73729296779463,41.8116933482411,583.347200000004 -6.73747284375216,41.8116784279811,583.980500000005 -6.73773486165929,41.8116824513095,584.368900000001 -6.73787483984181,41.8116824513095,584.3652 -6.73797693067891,41.8117434720939,584.494200000001 -6.73813283419477,41.8118423779063,584.879199999996 -6.73826694458184,41.8118524365359,585.983300000007 -6.73839988176918,41.811832487332,587.263500000001 -6.73851186395585,41.8117883988663,588.885500000004 -6.73862485225568,41.8117533626821,589.334700000007 -6.73897789824718,41.811605337806,590.150800000003 -6.739274952247,41.8113574011808,591.0576 -6.73953797626725,41.8111874166494,591.755999999994 -6.73967795444976,41.8111270669001,592.726599999995 -6.74033291612342,41.8108633716948,596.392200000002 -6.74117697406268,41.8104454503843,598.8073 -6.74193788304094,41.8101683443112,604.064799999993 -6.74212697930658,41.8100934104343,605.938299999994 -6.74225689815454,41.8100173027174,606.660699999993 -6.74228791159143,41.8098924121331,607.282999999996 -6.74224298414909,41.8097284625736,607.3796 -6.74218196428679,41.8095204232373,606.921900000001 -6.74214692819409,41.8092783540677,607.740999999995 -6.7421668770816,41.8087834863026,611.727599999998 -6.74226695659077,41.8083984220143,614.023300000001 -6.74239184666977,41.8081524971391,616.247900000002 -6.74255194172479,41.8079404344784,619.420299999998 -6.74299987047152,41.8073654359777,627.520999999993 -6.74305988511904,41.8071533740597,628.736300000004 -6.74314789486404,41.8066683973233,635.709799999997 -6.74324193949113,41.8063153509562,641.548200000005 -6.74326993548698,41.8062234855681,644.050499999998 -6.74333296757551,41.8060803226671,646.210999999996 -6.74343287909972,41.8059783987309,646.669699999999 -6.7436119169291,41.8058504910393,650.425000000003 -6.7437649700906,41.8057574518238,652.108399999997 -6.74406789278416,41.8055774082207,653.801399999997 -6.74440484455904,41.8053774162455,657.775200000004 -6.74451297117654,41.805308349306,656.958199999994 -6.74520984285144,41.8049304933585,659.579299999998 -6.7455268466371,41.8047680518135,663.159400000004 -6.74566498057835,41.8046502021357,662.672699999996 -6.74586983419238,41.8045023456628,663.308999999994 -6.74606999410904,41.8044554069117,663.8655 -6.74630686637471,41.8044334465259,663.731899999999 -6.74654189529745,41.8044483664644,663.135299999994 -6.74685487552897,41.8044922872184,663.824200000003 -6.74713499808234,41.8045724185778,665.232399999994 -6.74805197856141,41.8048334310577,673.979999999996 -6.74959558964675,41.8050516953068,673.746799999994 -6.75033068284036,41.8052981235839,670.977100000004 -6.75110232129638,41.8054354190516,667.4234 -6.75216799631118,41.8055177294973,657.295700000002 -6.75345428318672,41.8058468028199,657.552599999995 -6.75474057006227,41.8059564381974,662.965800000005 -6.75616700220699,41.8059879540649,668.923899999994 -6.75667947131365,41.8060794843167,670.860400000005</coordinates>
</LineString>
</Placemark>
</Folder>
</Document></kml>
