<?xml version="1.0" encoding="UTF-8"?>

<kml xmlns:xsd="http://www.w3.org/2001/XMLSchema" xmlns:gx="http://www.google.com/kml/ext/2.2" xmlns:atom="http://www.w3.org/2005/Atom" xmlns="http://www.opengis.net/kml/2.2">
<Document>
<name>PT07a_02a_campillo-fonfria</name>
<visibility>1</visibility>
<Schema name="PT07a_02a_campillo-fonfria" id="kml_schema_ft_PT07a_02a_campillo-fonfria">
<SimpleField type="xsd:string" name="id">
<displayName>id</displayName>
</SimpleField>
<SimpleField type="xsd:string" name="nombre">
<displayName>nombre</displayName>
</SimpleField>
<SimpleField type="xsd:double" name="longitud">
<displayName>longitud</displayName>
</SimpleField>
<SimpleField type="xsd:string" name="_formato">
<displayName>_formato</displayName>
</SimpleField>
</Schema>
<Folder id="kml_ft_PT07a_02a_campillo-fonfria">
<name>PT07a_02a_campillo-fonfria</name>
<Placemark id="kml_1">
<name>&lt;img height='20' src='https://nco.ign.es/iconos/icono_todos_caminos_azul.png' /&gt;&lt;img height='20' src='https://nco.ign.es/iconos/Camino Santiago_20.png' /&gt;&lt;img height='20' src='https://nco.ign.es/iconos/icono_todos_caminos_azul.png' /&gt;  Camino de Santiago </name>
<visibility>1</visibility>
<description><![CDATA[<!DOCTYPE html>
<html>
<head>
<style>
#nco {
  border-collapse: collapse;
  overflow:hidden;
}
#nco th, #nco td {
  padding: 4px;
  text-align: left;
}
#nco th {
  color: #364B5F;
  padding-right: 5px;
}
#nco td {
  color: rgb(51, 51, 51);
  font-size: 12px;
  padding-right: 5px;
}
</style>
</head>
<body>
<table id="nco">
<tr>
<td>Caminos Portugueses</td>
</tr>
<tr>
<th><b>Camino: </b></th>
<td>PT07a Caminho Português de la Vía de la Plata</td>
</tr>
<tr>
<th><b>Etapa: </b></th>
<td>02a Campillo-Fonfría</td>
</tr>
<tr>
<th><b>Longitud: </b></th>
<td>32.72 km</td>
</tr>
</table>
</body>
</html>]]></description>
<Style>
<IconStyle>
<scale>0.8</scale>
</IconStyle>
<LabelStyle>
<color>ffffffff</color>
<scale>0.75</scale>
</LabelStyle>
<LineStyle>
<color>ffff0000</color>
<width>3.0</width>
<gx:labelVisibility>1</gx:labelVisibility>
</LineStyle>
<PolyStyle>
<color>66ff0000</color>
</PolyStyle>
</Style>
<ExtendedData>
<SchemaData schemaUrl="#kml_schema_ft_PT07a_02a_campillo-fonfria">
<SimpleData name="id">PT07a_02a</SimpleData>
<SimpleData name="_formato">kml</SimpleData>
</SchemaData>
</ExtendedData>
<LineString>
<extrude>0</extrude>
<tessellate>1</tessellate>
<coordinates>-5.96439113823291,41.5834063478984,749.902100000007 -5.96381614009428,41.5831802043684,747.257299999997 -5.96325639624747,41.5827708316118,743.278600000005 -5.96275934941761,41.5827010945128,740.902799999996 -5.96249515219759,41.5824135949086,738.520300000004 -5.96261031891198,41.5819373351375,736.0576 -5.96276789868419,41.5813469139297,732.722299999994 -5.96275934941761,41.5808170099462,729.265599999999 -5.96245676269393,41.5800301173545,721.6538 -5.96245257205314,41.5795949290171,714.301900000006 -5.96242189368787,41.5789245439324,713.439400000003 -5.9622720259524,41.5789384579031,713.109700000001 -5.96214814108819,41.5788318404977,712.533299999996 -5.96222139869962,41.5777993577169,702.692999999999 -5.96252163902375,41.5768203509711,700.113800000006 -5.96285389710125,41.5756872857226,709.403399999996 -5.96283260702904,41.5753934157802,707.516300000003 -5.96260394895829,41.5752013026682,710.2745 -5.95881901698459,41.5746190958346,711.479500000001 -5.95858583230313,41.5747211874095,713.413100000005 -5.95809381424226,41.5751595610199,718.406700000007 -5.95682110630054,41.5751236860562,711.392900000006 -5.9564566615864,41.5751536936395,708.198699999994 -5.95595106459167,41.5754963454761,709.2647 -5.95535444130918,41.5756488963837,705.477899999998 -5.95453184142712,41.5754572860258,703.121400000004 -5.95401383959664,41.5752438829656,706.172999999995 -5.95303332397245,41.5752829425448,706.887400000007 -5.95237936841191,41.5755811703195,706.723899999997 -5.95171736574304,41.575502045494,706.707899999994 -5.95086693785009,41.5753042326701,707.989700000006 -5.94865864172649,41.5755756383117,711.651899999997 -5.94834616365323,41.5754306319343,708.991599999994 -5.94820937179502,41.5753516742561,707.0527 -5.94797920455462,41.5754636560449,706.949999999997 -5.94746287898045,41.5754886341211,702.340899999996 -5.94716951256485,41.5752430449615,699.031400000007 -5.94716766832357,41.5750311498744,698.367400000003 -5.94713782898479,41.5743725000351,688.916200000007 -5.94723941766364,41.5741932948709,679.119000000006 -5.94743404575478,41.5739938060305,669.149600000004 -5.94750093251419,41.5737391636244,669.803100000005 -5.94715995718519,41.5736538356977,663.642399999997 -5.94694806257594,41.5734766426269,680.646800000002 -5.94690900292908,41.5733069926773,686.311199999996 -5.9466660957813,41.5731366722602,687.091899999999 -5.94664530786734,41.5730251931546,689.198399999994 -5.94722852109922,41.5718859248317,713.3076 -5.94747612284269,41.5716440229729,716.8946 -5.94835639007442,41.5710033101598,731.098499999993 -5.94885645434533,41.5704489313653,746.267099999997 -5.94889366975092,41.5697178619272,754.017900000006 -5.94870993912247,41.5692987662369,754.297999999995 -5.94796076393847,41.5686821936165,763.000599999999 -5.94722298927372,41.5681477633698,767.441699999996 -5.94687145245191,41.5676560813531,769.559200000003 -5.94674739960274,41.5673415918659,770.266399999993 -5.94673717407984,41.5671182982456,771.817899999995 -5.94759833055226,41.566372141268,774.208499999993 -5.94859778895084,41.5656281634111,779.821800000005 -5.94901436918913,41.5651348047687,788.235100000005 -5.94991827379092,41.5643284652767,793.184999999998 -5.95078848258646,41.5632995032226,787.543000000005 -5.9510582125303,41.5626800805794,781.731499999994 -5.95120824914905,41.5621875597815,780.634300000005 -5.95121780452871,41.5618812849707,780.813299999994 -5.9506310707992,41.5607014484215,791.707299999995 -5.95032244919346,41.5599499273229,793.512900000002 -5.95012078100543,41.5593075377304,794.873399999997 -5.95000611644929,41.5566142646334,801.103799999997 -5.94993168473982,41.5541199783803,794.411500000002 -5.9499563273247,41.5538014655405,793.512600000002 -5.94969632074547,41.5530035087285,791.438500000004 -5.949631277329,41.5519966745616,789.039499999999 -5.9494446963462,41.5503060448311,784.855800000005 -5.94943329672523,41.5498824231634,783.1636 -5.94957964486143,41.5496549380381,781.863100000002 -5.9504988046534,41.5488423964614,778.164099999995 -5.9516880285625,41.5474226696288,774.150200000004 -5.95211315896566,41.5471229329694,772.5965 -5.95270341229446,41.5464899318392,771.127800000002 -5.95325712125917,41.5455690955336,765.268299999996 -5.95349650790935,41.5446326694702,762.149900000004 -5.95506912110362,41.5438917095968,763.870699999999 -5.95738286147525,41.5425606627612,764.065400000007 -5.95904029898854,41.5414465404027,761.951499999996 -5.96180649471765,41.5402507780148,742.730100000001 -5.96283445127032,41.5399416539133,739.318899999998 -5.96135621867307,41.5393145196813,729.691300000006 -5.95854476132834,41.5383155646634,742.855200000005 -5.95845691866997,41.5381058494365,746.565600000002 -5.95943525408297,41.5353373066688,762.334099999993 -5.95970733132466,41.5346003697333,762.952999999994 -5.95977539218215,41.5343748965802,762.728900000002 -5.95979131751552,41.5331794694505,757.800399999993 -5.96008183447503,41.5325067380321,756.437999999995 -5.96138304057081,41.5313191900389,756.589999999997 -5.96322689198027,41.5289757772532,751.3554 -5.9634773431798,41.5286279284564,751.963099999994 -5.96448669202966,41.5275716408689,754.828899999993 -5.96553560358296,41.5263554267214,760.577499999999 -5.96567256342612,41.5260927381203,761.813899999994 -5.96571531155557,41.5254853853475,763.605100000001 -5.96606550719265,41.5249571578642,765.286099999998 -5.96748674258343,41.5243092365723,770.444699999993 -5.96757508829838,41.5233297274554,772.430399999997 -5.96927057934541,41.5234036554352,771.508900000001 -5.96970979084064,41.523415893248,771.301699999996 -5.9703489951659,41.5233463234438,769.836599999995 -5.97102222947075,41.5231641009264,767.161699999997 -5.97172010725877,41.5228398889834,765.1198 -5.97255142439237,41.5223475361139,763.348800000007 -5.97257522884908,41.5220112541813,761.038 -5.97251638740134,41.5217537617244,759.919699999999 -5.97276801269895,41.5214293819696,755.986600000004 -5.9736110645251,41.5215370060978,750.615099999995 -5.97385112221681,41.5216486527087,748.967399999994 -5.97377333799467,41.5221745337088,751.905400000003 -5.97421875235693,41.5230048444556,747.556200000006 -5.97463030382626,41.5229235400533,742.904399999999 -5.9753687495325,41.5226278267786,737.561000000002 -5.97634809105862,41.5226316825835,736.124800000005 -5.97663274022272,41.5228600052808,736.8802 -5.97690096099688,41.5235830283423,735.654500000004 -5.97765533293482,41.5239754694077,735.1967 -5.97898570822618,41.5246295928656,734.942200000005 -5.98033586531845,41.5250300805575,731.205499999996 -5.98103458033633,41.5252361076211,726.933199999999 -5.98119618366268,41.5250022522629,723.733900000007 -5.98143020647229,41.5242956578719,715.079500000007 -5.98186070071599,41.5239486467937,710.395099999994 -5.98209975319289,41.5238661693043,708.636100000003 -5.98236277721313,41.5239652432958,705.035499999998 -5.98250694603644,41.5243736092581,703.082899999994 -5.98269151479305,41.524468995586,699.957200000004 -5.98340213338677,41.5244210512442,689.522500000006 -5.98369415861764,41.5244664809435,681.288799999995 -5.98384352419485,41.5246510503284,671.228199999998 -5.98370119961282,41.5249608453955,684.947100000005 -5.98346885305952,41.5255319885423,669.718800000002 -5.98393941306323,41.5257140436565,646.904899999994 -5.98470501573886,41.5260062369382,646.169399999999 -5.98486829532152,41.5263198871547,658.658599999995 -5.98498832461652,41.5267170219564,661.765700000004 -5.98548134789225,41.5273870710725,659.648199999996 -5.98630880945664,41.5280011297233,674.315100000007 -5.98648650610131,41.5281204882422,666.038400000005 -5.98669923883869,41.5284857710306,694.956200000001 -5.98649639655259,41.5291856599444,694.902199999997 -5.98605131726192,41.5300686096918,696.840299999996 -5.98597856270703,41.5305296146168,700.665099999998 -5.98593983813179,41.5310487894665,708.935400000002 -5.98564194510547,41.5315569007018,713.356599999999 -5.98558159538637,41.5326299515169,722.853000000003 -5.98558394268419,41.5333598481417,722.345400000006 -5.98610864953997,41.5342057498443,721.513000000006 -5.98621711122906,41.5343500861874,721.494699999996 -5.98767908252305,41.5344533509119,726.385299999994 -5.98809113704892,41.5345544367683,728.022800000006 -5.98841886941402,41.534693073423,728.991599999994 -5.98870217829169,41.5350622124927,731.849600000001 -5.98933501176497,41.535193137947,734.734400000001 -5.9899918176799,41.5353480353065,738.602299999999 -5.99037604419489,41.5358519551634,741.027600000001 -5.99023606601238,41.5361126325938,741.905199999994 -5.99087359408132,41.5367528420816,746.175199999998 -5.99110761689091,41.5371625494819,746.376300000004 -5.99142009406586,41.5376963093893,745.065600000002 -5.99176073432329,41.5382470006548,743.864199999996 -5.99177263700079,41.5389212403945,745.150299999994 -5.99190775260269,41.5395708381907,746.786099999998 -5.99198285445539,41.5399562379045,749.283500000005 -5.99242173177734,41.5407773294578,751.881800000003 -5.99259557195451,41.54102392505,752.647700000001 -5.9939192422206,41.5423886664651,757.537500000006 -5.99455425500674,41.5429031479114,757.862500000003 -5.99392812655876,41.543407402898,755.924899999998 -5.99330719576301,41.5438182837373,754.794200000004 -5.99342236337569,41.5440377219845,755.2785 -5.9921270232787,41.5461883507204,729.587 -5.99205292753911,41.5468575621409,728.713699999993 -5.99216876529503,41.5470912490748,727.140599999999 -5.99267218297687,41.5476523341478,723.011899999998 -5.99465517354236,41.5492222644693,696.016099999993 -5.99498357605069,41.5492998806011,696.866800000003 -5.99532622853435,41.5492764117666,702.471600000004 -5.99559880793425,41.5493843707548,701.358900000007 -5.99570810775152,41.5496827664839,695.092699999994 -5.99570877879302,41.5499052221874,691.5239 -5.99561087769842,41.5502666494756,666.613500000007 -5.99622812090991,41.5506020934367,685.246700000003 -5.99674008785833,41.5507251400106,692.313500000004 -5.9969191256877,41.5508783611754,685.916200000007 -5.99692063395906,41.5511150655005,676.362299999993 -5.9979908355846,41.551948226933,678.0717 -5.99819317481415,41.5521941520361,693.752099999998 -5.99817356099823,41.5523882770499,692.495299999995 -5.99809091509377,41.5524622054338,693.571800000005 -5.99822988716317,41.5527815557735,696.033299999996 -5.99855544021541,41.553002670436,695.283800000005 -5.99897352962335,41.5531639383628,698.484800000006 -5.99966051084701,41.5531460008265,699.275399999999 -6.00022846799045,41.5532388722103,700.883000000002 -6.00180510473885,41.554073039497,707.455700000006 -6.00166646774106,41.5543781406211,708.243600000002 -6.0014575905729,41.5546128342615,710.719500000007 -6.00145440514689,41.5547496263412,711.585200000001 -6.00099390357942,41.5551204417341,717.004799999995 -6.00078620050933,41.5560013804183,730.696299999996 -6.00065795701936,41.5565354748653,737.249400000001 -6.00067052984007,41.5572170915771,742.209000000003 -6.00075334283116,41.5577674472021,745.164799999999 -6.00013274710703,41.5592186900143,760.909700000004 -6.00013442336335,41.5602878853686,772.299299999999 -6.00041940849734,41.5608759596394,777.081099999996 -6.00037230174214,41.5619178300331,786.449500000002 -6.00051512938075,41.562323011693,788.907000000007 -6.00107168780156,41.563198249905,790.063200000004 -6.00127251786142,41.5634083004725,788.576100000006 -6.00155699993886,41.5637740863358,789.446500000005 -6.00211992831332,41.5643764102827,785.390599999999 -6.00238043794909,41.5646350753057,784.456600000005 -6.0029569452574,41.5655314364189,780.243700000006 -6.00301461260707,41.5661612528039,775.900899999993 -6.00315056723542,41.5664088538338,774.560700000002 -6.00321711982158,41.5668162145216,772.537500000006 -6.00336497622914,41.5669127742531,770.6149 -6.00402614076982,41.5669528396304,765.831999999995 -6.00492551965924,41.5671877006628,760.232699999993 -6.00548911817693,41.5673881958173,757.279200000004 -6.00623594606308,41.5678351184833,754.1584 -6.00644566135944,41.5680305843871,752.797099999996 -6.00702485103719,41.5685678645738,749.101200000005 -6.00737487868935,41.5689031409699,746.151899999997 -6.0077188723577,41.5693175420755,744.109800000006 -6.00796630611618,41.5697057914846,742.349499999997 -6.00831331722562,41.5699765270724,740.302100000001 -6.00849570666934,41.5700003318188,740.311100000006 -6.00878974412644,41.5703584067035,739.492299999998 -6.00921470654464,41.5706633402172,738.520399999994 -6.00937429854308,41.5712188926011,732.286800000002 -6.00948175411905,41.5716824120038,728.6829 -6.00972449418017,41.5717622081843,727.843500000003 -6.01213496154834,41.5720218792667,730.995999999999 -6.01262530335293,41.5720877609284,732.798699999999 -6.01408794479012,41.5727169065458,734.767999999996 -6.01449212019262,41.5727780946312,734.575700000001 -6.01466596126809,41.5728166509986,734.524999999994 -6.01494139102242,41.572780441401,734.846399999995 -6.01517658703177,41.5727028252402,736.297300000006 -6.01546140418083,41.5726666155788,737.913400000005 -6.01590899785598,41.572834253103,740.671300000002 -6.01758269577423,41.5736871960609,749.047399999996 -6.01917961648175,41.5745279009609,756.733399999997 -6.02071601858691,41.5753055733409,759.152100000007 -6.0210466013064,41.5754259379154,759.161600000007 -6.02130493162931,41.5754334812742,759.701400000005 -6.02156342903881,41.5754410253043,760.6682 -6.02230858066868,41.5760529039547,762.445500000002 -6.02271091182994,41.5762792155814,764.032000000007 -6.02290302553661,41.576503683111,763.558099999995 -6.02546235542545,41.5772828645226,770.091499999995 -6.02611497069959,41.5773448909636,771.228499999997 -6.02658905120088,41.5774686076704,772.367299999998 -6.02696925416175,41.5776308809939,775.007299999997 -6.02760745237386,41.5779943203921,776.757199999993 -6.02812143065021,41.5781530738769,779.680099999998 -6.02870732535323,41.5782166087609,781.819699999993 -6.02909775473528,41.5783926283133,782.287899999996 -6.02977987337828,41.5784680657894,783.515700000004 -6.02996494608976,41.5785421619018,784.389599999995 -6.03044874995568,41.5788737497831,785.827699999994 -6.03217877403886,41.5796963494928,793.458899999998 -6.03309944300052,41.5801744535359,798.988700000002 -6.0335731875319,41.5807001664063,801.179099999994 -6.03379094993656,41.5808594225837,801.447400000005 -6.0344737396211,41.5809489413928,800.429799999998 -6.03494815519398,41.5810800346416,799.165999999997 -6.03543564664418,41.5810813751926,797.398100000006 -6.03592632352035,41.5811546330671,796.063800000004 -6.03703793119227,41.5814193335791,793.949699999997 -6.0384231243772,41.5820209870398,787.933999999994 -6.03933809352838,41.5825783836444,782.390400000004 -6.03972466644292,41.5826685726814,781.385699999999 -6.04044567764616,41.5827572530919,781.012199999997 -6.04072513095462,41.5828072096404,781.465899999996 -6.04141680497732,41.5832908448452,778.897400000002 -6.04240939036568,41.5836666897878,778.249400000001 -6.0427292436074,41.583966761584,774.2065 -6.04327557650534,41.5842034670034,774.066699999996 -6.04374697463721,41.5844708494174,772.126000000004 -6.04464735874141,41.5849206224166,768.916299999997 -6.04505622784128,41.5850820579522,767.962700000004 -6.04549778663436,41.5851204470591,767.298999999999 -6.0460172967362,41.585192866508,765.106 -6.0465128343964,41.5853662042631,760.256599999993 -6.04720015069165,41.5855489301361,757.619999999995 -6.04768881534159,41.5857799353484,756.907600000006 -6.04819944110527,41.5860677693539,756.508600000001 -6.04869212930935,41.5863844380221,756.614600000001 -6.04892950463163,41.5869597721477,753.906099999993 -6.04911541547123,41.5874571540067,749.656400000007 -6.04952177018663,41.588171124172,751.483699999997 -6.04911893596883,41.5885473041927,750.575100000002 -6.04928389180784,41.5892106482826,752.609299999996 -6.04976870088857,41.5895566527306,756.532800000001 -6.05015980041382,41.5895390511526,758.925099999993 -6.05114718904824,41.5891970691014,762.5046 -6.05157634210723,41.5889776309912,763.167000000001 -6.05217028391858,41.5887967497127,767.198999999993 -6.05268074169734,41.5886827559299,769.475699999995 -6.05360861874081,41.5886939876842,775.305099999998 -6.05406476168253,41.5888396650461,777.662599999996 -6.05640012809633,41.5905284508616,781.773499999996 -6.05760460719557,41.5909339677153,786.087799999994 -6.05826962730545,41.5914616918376,791.145000000004 -6.05935273682332,41.5923298894395,798.520099999994 -6.05999596380442,41.5929944066457,804.161099999998 -6.06158399927548,41.5942364369009,800.095799999996 -6.06067422777655,41.5950070691936,807.743600000002 -6.05879869278699,41.596585381826,790.988599999997 -6.05752866721474,41.5976238998107,770.0622 -6.05795228844821,41.5978924560014,772.309800000003 -6.05849644203323,41.5982796999595,776.365300000005 -6.05863859863034,41.5984553846896,777.950599999996 -6.06123380363837,41.6005748321249,771.791100000002 -6.06181098108988,41.6010544448127,771.839699999997 -6.0643788611436,41.6029951908235,773.3321 -6.0651940849589,41.6034541837967,772.655100000004 -6.06573622631772,41.6037985125319,771.512300000002 -6.06723776121344,41.6050214317232,765.317599999995 -6.06748821241294,41.6051892378149,764.348299999998 -6.06788417362052,41.605692319637,763.504400000005 -6.06921924260924,41.6065286656944,765.934800000003 -6.06979072114861,41.6072733142669,766.152000000002 -6.07177320865756,41.6079467163566,768.049499999994 -6.07249539306054,41.6081061397368,769.353099999993 -6.07295321315691,41.6083398274833,769.040500000003 -6.07408393158818,41.6098852830875,764.897500000006 -6.07468189695366,41.6105620376491,765.101899999994 -6.0766216363332,41.6112701406847,767.515400000004 -6.07730928770003,41.6119556126323,763.594599999997 -6.07840983172092,41.6128648817801,764.301200000002 -6.07993433294517,41.6136063449456,758.427500000005 -6.08088768980338,41.613927204373,757.027199999997 -6.08439719292109,41.6156991387949,757.740000000005 -6.08463456824334,41.6159945170211,758.223800000007 -6.08470330014236,41.6164955871307,754.697799999994 -6.08528450114804,41.617128085071,754.511499999993 -6.08708141378727,41.6176497751372,756.968999999997 -6.08769765088568,41.6177671219639,757.698199999999 -6.08810836422682,41.6182591396643,757.885599999994 -6.08913732689261,41.6189132633985,759.176399999997 -6.08952105035106,41.6194616071835,756.554199999999 -6.09019562584064,41.6198681295386,757.560299999997 -6.09062310264328,41.620091255529,758.084900000002 -6.0907992910166,41.6203435507256,757.282000000007 -6.09256301090608,41.6211007722064,757.560500000007 -6.09348149965655,41.621310655261,757.533800000005 -6.09401995343112,41.6213632936341,758.363700000002 -6.09498370469547,41.6212702542649,761.216499999995 -6.09852589660806,41.621532272695,763.460300000006 -6.0991092769266,41.6218965501308,764.568799999994 -6.101159993278,41.622422263007,768.044200000004 -6.10258793459241,41.6223837060445,771.3462 -6.10350424402995,41.6222360172938,777.461299999995 -6.10427906701365,41.6219357775715,779.790299999993 -6.10497560361697,41.6221739910066,781.641399999993 -6.10621713103517,41.6222856377433,787.128700000001 -6.10774632505849,41.6218754278078,800.774399999995 -6.10807774590617,41.6219558939231,801.634999999995 -6.10965270549995,41.6228073277229,796.545899999997 -6.11045585955108,41.6230983474753,795.452300000004 -6.11408840850648,41.6227541862159,805.730200000005 -6.11771039686744,41.6237410715705,817.416400000002 -6.12468648698846,41.6273474690256,827.047099999996 -6.12666042523086,41.6298033668749,832.712299999999 -6.13109277572476,41.6330991314183,831.459000000003 -6.13284559904988,41.6339384952579,830.764299999995 -6.13340668408139,41.6341639681239,828.818199999994 -6.13371279130266,41.6343773717786,828.311000000002 -6.13618679381594,41.6349636017749,821.866800000003 -6.13671166865665,41.635350007552,820.281000000003 -6.13832334059948,41.6353077629857,811.507700000002 -6.13933553890543,41.6354844533301,808.271999999997 -6.14064395398138,41.635857447755,808.969899999996 -6.14229535661256,41.6365005079071,812.271500000003</coordinates>
</LineString>
</Placemark>
</Folder>
</Document></kml>
