<?xml version="1.0" encoding="UTF-8"?>

<kml xmlns:xsd="http://www.w3.org/2001/XMLSchema" xmlns:gx="http://www.google.com/kml/ext/2.2" xmlns:atom="http://www.w3.org/2005/Atom" xmlns="http://www.opengis.net/kml/2.2">
<Document>
<name>ES48a_08a_espejo-boveda</name>
<visibility>1</visibility>
<Schema name="ES48a_08a_espejo-boveda" id="kml_schema_ft_ES48a_08a_espejo-boveda">
<SimpleField type="xsd:string" name="id">
<displayName>id</displayName>
</SimpleField>
<SimpleField type="xsd:string" name="nombre">
<displayName>nombre</displayName>
</SimpleField>
<SimpleField type="xsd:double" name="longitud">
<displayName>longitud</displayName>
</SimpleField>
<SimpleField type="xsd:string" name="_formato">
<displayName>_formato</displayName>
</SimpleField>
</Schema>
<Folder id="kml_ft_ES48a_08a_espejo-boveda">
<name>ES48a_08a_espejo-boveda</name>
<Placemark id="kml_1">
<name>&lt;img height='20' src='https://nco.ign.es/iconos/icono_todos_caminos_azul.png' /&gt;&lt;img height='20' src='https://nco.ign.es/iconos/Camino Santiago_20.png' /&gt;&lt;img height='20' src='https://nco.ign.es/iconos/icono_todos_caminos_azul.png' /&gt;  Camino de Santiago </name>
<visibility>1</visibility>
<description><![CDATA[<!DOCTYPE html>
<html>
<head>
<style>
#nco {
  border-collapse: collapse;
  overflow:hidden;
}
#nco th, #nco td {
  padding: 4px;
  text-align: left;
}
#nco th {
  color: #364B5F;
  padding-right: 5px;
}
#nco td {
  color: rgb(51, 51, 51);
  font-size: 12px;
  padding-right: 5px;
}
</style>
</head>
<body>
<table id="nco">
<tr>
<td>Caminos del Norte</td>
</tr>
<tr>
<th><b>Camino: </b></th>
<td>ES48a Camino de las Asturias</td>
</tr>
<tr>
<th><b>Etapa: </b></th>
<td>08a Espejo-Boveda</td>
</tr>
<tr>
<th><b>Longitud: </b></th>
<td>28.31 km</td>
</tr>
</table>
</body>
</html>]]></description>
<Style>
<IconStyle>
<scale>0.8</scale>
</IconStyle>
<LabelStyle>
<color>ffffffff</color>
<scale>0.75</scale>
</LabelStyle>
<LineStyle>
<color>ffff0000</color>
<width>3.0</width>
<gx:labelVisibility>1</gx:labelVisibility>
</LineStyle>
<PolyStyle>
<color>66ff0000</color>
</PolyStyle>
</Style>
<ExtendedData>
<SchemaData schemaUrl="#kml_schema_ft_ES48a_08a_espejo-boveda">
<SimpleData name="id">ES48a_08a</SimpleData>
<SimpleData name="_formato">kml</SimpleData>
</SchemaData>
</ExtendedData>
<LineString>
<extrude>0</extrude>
<tessellate>1</tessellate>
<coordinates>-3.04601423689309,42.8083721996442,500.545700000002 -3.04342374175208,42.8084601895211,501.491599999994 -3.04218953111187,42.8087379406478,504.654999999999 -3.04240674644249,42.8104383411068,507.172699999996 -3.04264293149702,42.8124243333357,511.726200000005 -3.04284433198708,42.8139151322679,519.136700000003 -3.04305276808246,42.8155337795008,523.212299999999 -3.04314479329679,42.8161342113393,525.391600000003 -3.04329276109546,42.8172782222886,522.920100000003 -3.04338681111244,42.8179525493528,522.951100000006 -3.04355657742977,42.8191513195638,531.214900000006 -3.04315607793339,42.8193756750227,534.820999999996 -3.04292402423088,42.8195279413667,536.8698 -3.04250900706118,42.819964406227,539.8992 -3.04230085483344,42.8201974595839,541.646599999993 -3.04206205747808,42.8206242094947,543.400299999994 -3.04177659983026,42.8213106592948,545.375799999994 -3.04168881735903,42.8215347815775,546.388900000005 -3.04179199875087,42.8216332982677,546.897299999997 -3.04179091807756,42.8219561846162,548.576300000001 -3.04133504373214,42.8222328874668,549.572199999995 -3.04143873716369,42.8224975750432,551.303599999999 -3.04168600383555,42.8227031409744,552.374599999996 -3.04182131527015,42.8228453071007,552.752900000007 -3.04187028423292,42.8232199983053,554.044999999998 -3.04199798244552,42.8235591010364,554.5101 -3.04189552060421,42.8240336626557,558.824699999997 -3.0419737845267,42.8245788529778,561.348299999998 -3.04194450394001,42.825139162462,563.180900000007 -3.04197139590635,42.8253724321816,564.113599999997 -3.04203839136195,42.8257380331188,564.215500000006 -3.04199233833059,42.8258931708523,562.667700000005 -3.04170613508107,42.8263356982263,561.406499999997 -3.04159245328186,42.8265419227512,562.801000000007 -3.0413191372634,42.8269456507333,565.613800000006 -3.04123417640045,42.8271518198581,568.050199999998 -3.04104796642185,42.8278166292523,568.175600000002 -3.04088367533616,42.8280644732064,565.604999999996 -3.04083682639746,42.8282864489482,564.828500000003 -3.04081028567238,42.828574343767,564.565300000002 -3.04082931199011,42.8287355512881,564.8514 -3.04096256718105,42.8288944018151,564.382599999997 -3.04108223894658,42.8292066704189,563.825200000007 -3.04126459874589,42.8294712115284,562.861499999999 -3.04176596018404,42.8299744205448,562.971900000004 -3.04221367782668,42.8302741138246,564.418900000004 -3.04228434290022,42.8304185439529,566.756699999998 -3.04245336271754,42.8308292601181,571.064799999993 -3.04307630394288,42.8312750190821,574.505699999994 -3.04345018456077,42.8314805413329,575.378599999996 -3.04366917047084,42.8315331011782,572.651299999998 -3.04391198599044,42.8314946683233,573.930399999997 -3.04405351556348,42.8314543803043,578.014899999995 -3.04417655241804,42.8314949140501,584.212400000004 -3.04432973942851,42.8314621065411,588.447499999995 -3.04453328868872,42.8314957355552,592.493100000007 -3.0456091002932,42.8320666789403,593.437099999996 -3.04570675884269,42.8321290191707,591.281600000002 -3.0458426523856,42.8322349842424,590.7071 -3.04633137722268,42.8324501326154,594.671600000001 -3.04693191356652,42.8326109472806,585.831699999995 -3.04766240828422,42.8326312480338,575.301099999997 -3.04876734686345,42.8328578536846,575.913499999995 -3.04918349680873,42.8329255489164,577.067800000004 -3.04954170002827,42.8329959845538,577.748000000007 -3.05047475226612,42.8330107482274,577.705900000001 -3.05065068282294,42.832968471713,577.670400000003 -3.05079423091039,42.8328894661022,576.408200000005 -3.05112343202097,42.8327529463507,579.372900000002 -3.05168756054468,42.8325618884171,583.753400000001 -3.05168284079616,42.8325618969812,583.736900000004 -3.05300379006528,42.8327014119336,575.513600000006 -3.05319386549456,42.8330567072289,579.935800000007 -3.0533654769515,42.8336114036271,585.971000000005 -3.05324461401988,42.8337942363252,582.578800000003 -3.05315196447644,42.8340090031191,580.714000000007 -3.05307355862011,42.8342745223477,578.065700000006 -3.05296739931309,42.8344126750832,577.684500000003 -3.05272906908169,42.8346096079741,574.670899999997 -3.05260203202916,42.8348514735481,572.047500000001 -3.05254483719337,42.8351275712606,568.191800000001 -3.05254673802849,42.8352520847495,567.036699999997 -3.05258226280471,42.8353576452677,565.380300000004 -3.05256341704837,42.8355470094963,563.756599999993 -3.0526278002031,42.8356658497243,562.256599999993 -3.0530836314294,42.8357832826565,561.097299999994 -3.05354290320325,42.8358228636615,564.914900000003 -3.05375720170416,42.835881179164,567.862200000003 -3.05403714728943,42.8360967904511,572.007100000003 -3.05403464188809,42.8364846036411,572.518700000001 -3.0545035094658,42.8373677230391,578.832800000004 -3.05454467117044,42.8375161567644,577.840500000006 -3.0545025096409,42.8377362040867,573.999800000005 -3.05465780589562,42.83828341437,569.770300000004 -3.05466068679274,42.8384169471639,569.2644 -3.05458668268133,42.8385741471129,567.924599999998 -3.0545790874256,42.8387985829278,569.468999999997 -3.05455826717227,42.8390204707158,570.482799999998 -3.05439580415817,42.8397661472006,577.259399999995 -3.05440175459861,42.8399467385936,578.729300000006 -3.05419511513382,42.8403367348946,577.532900000006 -3.05397422928692,42.8409240182706,575.016399999993 -3.05405246715826,42.8410887537605,574.862800000003 -3.05449229040622,42.8415044794015,578.277000000002 -3.0546510146321,42.841672237987,578.695099999997 -3.05502216706643,42.8416009269763,576.942500000005 -3.05526617734538,42.842580950842,583.461299999995 -3.05534707153503,42.8430699834432,588.092699999994 -3.05574807947787,42.8430088391835,589.314199999993 -3.05576306427512,42.8429092901844,589.638600000006 -3.05573599713731,42.8423718513894,587.938399999999 -3.05576685875889,42.8420753013378,588.157800000001 -3.0558474385382,42.8418287874458,588.290800000002 -3.05579755059889,42.8415484303638,586.648700000005 -3.05586040392267,42.841472030258,586.8557 -3.05596242918275,42.8414626230068,587.784 -3.05623296401709,42.8415125034218,591.110400000005 -3.05634761869176,42.8415169284228,592.602400000003 -3.05644654476409,42.8414918564864,593.935200000007 -3.05665347887633,42.8414407489356,597.072799999994 -3.05689867762637,42.8413967135857,598.506800000003 -3.05710252243233,42.8413391047828,599.172600000005 -3.05727850598977,42.8412713436778,599.382899999997 -3.05757767372546,42.8411872735387,601.028200000001 -3.05782932327756,42.8411328301683,602.704100000003 -3.05807019124966,42.8411023904706,605.135999999999 -3.05825313944547,42.841116838016,606.448799999998 -3.05843859663587,42.8412300489804,607.2641 -3.05884578408954,42.8413551897514,603.515199999994 -3.05913367437517,42.8415143490385,599.741099999999 -3.05951362131616,42.8416816155659,596.684200000003 -3.05985217209223,42.8417129613166,593.089699999997 -3.06066444943338,42.8417004346109,583.8894 -3.0613443878652,42.8416355411235,575.719599999997 -3.06149661457661,42.8416139351952,574.466899999999 -3.06170207545177,42.8414452510072,571.746199999994 -3.06192815805258,42.8411710660115,570.454299999998 -3.06210756868282,42.8409299009827,569.623399999997 -3.06219724390437,42.8407890707675,567.715700000001 -3.06232571826135,42.8407183265254,566.666200000007 -3.06271606230345,42.8405155033449,561.816200000001 -3.06326256857623,42.8402898980021,554.481199999995 -3.06339045004513,42.8401767301061,553.135899999994 -3.06366396189632,42.8399873800649,550.557100000005 -3.06428057628711,42.8397296665751,548.459799999997 -3.06457272818044,42.83949945471,545.178499999995 -3.06496871993072,42.8393643229528,539.974400000006 -3.06569410503109,42.8392265027341,533.147200000007 -3.06586938430931,42.8396479228365,540.202999999994 -3.06585205401084,42.8397830256496,539.628500000006 -3.06594069706813,42.8404364329506,532.115900000004 -3.06610677490291,42.8407351849538,530.778399999996 -3.0664782929516,42.8410658783586,530.032800000001 -3.06685207744977,42.8414191976095,529.463000000003 -3.06684675942328,42.8414185870138,529.521299999993 -3.06703103802403,42.841681403472,529.536699999997 -3.06730367940769,42.8421050726626,529.736399999994 -3.06757103330761,42.8421808047517,528.5101 -3.06753925809938,42.8423167312916,529.230899999995 -3.06768284481441,42.8424639504001,529.286099999998 -3.06826487406678,42.8430204230781,529.201799999995 -3.06827089547412,42.843409459414,530.049700000003 -3.06846871258452,42.8436956582258,530.031900000002 -3.06911305976477,42.8447972187365,530.189599999998 -3.06916870231178,42.8454760688182,531.706000000006 -3.06932269061947,42.8457394048022,531.801200000002 -3.06943134814128,42.8462453700967,533.881299999994 -3.07078069495314,42.8463203877691,532.811000000002 -3.07097629951302,42.8461839938494,535.080499999996 -3.07123080840268,42.8460798586594,538.019499999995 -3.07152983869615,42.8458832824194,542.234200000006 -3.07173512439982,42.8456359946779,546.047500000001 -3.07199638772211,42.8451470390317,550.161500000002 -3.07250887749001,42.8441249951232,560.070600000006 -3.07251794777944,42.8439040155067,563.252900000007 -3.07237033122207,42.8435390640982,568.311799999996 -3.07236327046391,42.8433388143365,570.409599999999 -3.07251885507787,42.8431134965994,575.977400000003 -3.07263820165325,42.8430545450683,577.594599999997 -3.07279074546996,42.8431103020921,578.652600000001 -3.07324500194958,42.8433641937756,581.536600000007 -3.07331354520238,42.8435453951066,584.472699999998 -3.07364839132622,42.8438647222404,587.863500000007 -3.07377495496662,42.8444995145223,594.316300000006 -3.07376668058452,42.8449757503424,599.461899999995 -3.073855646137,42.8454828975569,604.674499999994 -3.07414756446835,42.8460876937174,616.241399999999 -3.07449624195263,42.8462892992448,622.115000000005 -3.07524055635265,42.8466305740098,629.815799999997 -3.07548622581993,42.8467557341384,631.432100000005 -3.07561693698196,42.8468582308563,632.219899999996 -3.07624454585352,42.8475059848671,633.571100000001 -3.07644422606983,42.8477589186465,633.8704 -3.07685896925336,42.8480733239541,634.300499999998 -3.07726361447477,42.8482510893531,635.263999999996 -3.07747086659059,42.8483771109468,635.702000000005 -3.07766914633336,42.8485124192553,635.033599999995 -3.07801397004507,42.8486561935993,634.742599999998 -3.07853143019143,42.8489071350156,635.345400000006 -3.07868899828555,42.8490189328416,636.176900000006 -3.07899996269756,42.8492412370385,637.764999999999 -3.07923083331883,42.849386341364,638.796400000007 -3.07963683050474,42.8497508834908,644.097800000003 -3.07969958501388,42.8499254736162,645.240399999995 -3.07979547567888,42.850326702308,647.913400000005 -3.07980968163678,42.85050357938,649.907800000001 -3.07984349602072,42.8506931369138,652.817599999995 -3.07973051311078,42.8510476412057,656.337100000004 -3.07957696228265,42.8513404325154,658.419699999999 -3.07941139289432,42.8518153491687,661.574299999993 -3.07965059089828,42.851821146547,660.495599999995 -3.07997811754918,42.8518120135191,656.931299999997 -3.08023550643766,42.8518823709911,653.5576 -3.08068113819221,42.8520403651547,647.796499999997 -3.08083481747946,42.851988891606,646.388000000006 -3.08095965365953,42.851868906571,644.381699999998 -3.08100237214457,42.8516999395393,640.231100000005 -3.0811418814065,42.8515403053205,636.822100000005 -3.08143098531608,42.8512993559507,631.934299999994 -3.08149864283001,42.8511015417333,628.4905 -3.08160337471404,42.8509668976741,626.393700000001 -3.08192061116335,42.8507761324869,623.828500000003 -3.08218916431419,42.8505567440879,621.959499999997 -3.08247395361544,42.8502192232188,618.931700000001 -3.08266778579925,42.8500878003606,616.621100000004 -3.08278016863453,42.8500583009277,615.976899999994 -3.08294785894528,42.8500825843519,614.188299999994 -3.08311374723551,42.8501392761524,612.666800000006 -3.083236008844,42.850120741553,611.229399999997 -3.08345062894181,42.8500361309013,607.091799999995 -3.08364295285422,42.8499973848704,604.004100000006 -3.08390977764645,42.8500072564436,599.587499999994 -3.08399244600878,42.8498470508043,595.215299999996 -3.08406208071468,42.8497952948682,592.988599999997 -3.08430880660072,42.849878123049,588.939700000003 -3.08442879996311,42.8498967486064,587.659299999999 -3.08459176872867,42.8498869408987,587.251900000003 -3.08476415004182,42.849762730216,584.410999999993 -3.0850078809447,42.8499252299384,582.515299999999 -3.08515981390703,42.8499094824228,582.587799999994 -3.08537877017269,42.8498398425418,582.611499999999 -3.08588862787682,42.8494536714097,582.644400000005 -3.08624754795195,42.8493163195665,583.678899999999 -3.08666622485809,42.8491921103707,585.825700000001 -3.08679702315674,42.849113401455,585.391600000003 -3.08721236910981,42.8487694533152,580.024399999995 -3.08740682382611,42.8486819350608,577.969200000007 -3.08765524662973,42.8487100000581,575.099000000002 -3.0878749449038,42.8488405670332,571.727100000004 -3.08811740738551,42.8490159625631,570.238500000007 -3.0884053605532,42.8490811769383,568.142800000001 -3.08883965107733,42.8489994811369,565.473100000003 -3.08919699460912,42.8488908340167,563.195200000002 -3.08947124487549,42.848874051577,561.726599999995 -3.09013074663458,42.8488856442509,559.464800000002 -3.09069129267693,42.8487137125954,556.784100000004 -3.0912386694172,42.8486915427449,555.294999999998 -3.09208255847321,42.8488605166895,554.953299999994 -3.09269822424306,42.8489171549478,553.574500000002 -3.09345952219183,42.848895732681,551.861199999999 -3.0938986178044,42.8488637069479,551.017699999997 -3.09521325640864,42.8486319129074,548.737299999993 -3.09606873103685,42.8484691081418,549.132100000003 -3.0982740726015,42.8480729959671,549.895999999993 -3.09865485767065,42.8481984732561,551.472599999994 -3.09929244862166,42.8484902868731,555.938599999994 -3.09965582344229,42.8491938036222,560.733399999997 -3.09991392469477,42.8494317916062,561.760399999999 -3.10065923173318,42.8499490339625,566.063500000004 -3.1009456595615,42.8502423283706,569.998600000006 -3.1011905600709,42.8504947609597,572.247000000003 -3.1017201232191,42.8509040113883,574.697799999994 -3.10183583970244,42.8508124287733,572.448000000004 -3.10184016509053,42.8503403613467,573.767099999997 -3.1017906050363,42.8500681856629,574.990399999995 -3.10171992199648,42.849903902858,574.833599999998 -3.10160825781341,42.849703896332,575.974900000001 -3.10149370015679,42.849453659555,578.440900000001 -3.10151635926151,42.8493178758268,579.982199999999 -3.10174177980396,42.8495287260186,582.851699999999 -3.10191341371879,42.8496961552526,584.603600000002 -3.10208167086644,42.849839792489,587.854000000007 -3.10236189313281,42.8500768632065,593.236799999999 -3.10253159027987,42.8502486514476,596.224499999997 -3.10270816582707,42.8503634394512,598.407500000001 -3.10295997617761,42.85063798275,603.103199999998 -3.10312414778735,42.8507476904036,604.992299999998 -3.10346194308027,42.8509057658406,607.686600000001 -3.10357405372606,42.8510164510054,609.678199999995 -3.10384982753511,42.8513317360507,615.188299999994 -3.10404003950832,42.851509004729,619.194300000003 -3.1043982615925,42.8516796173909,623.330400000006 -3.10449914509383,42.8517001259145,624.1875 -3.10466004593765,42.8517701575224,626.241399999999 -3.10485257107271,42.8519198922213,629.326100000006 -3.10508466789435,42.8521454913151,633.487899999993 -3.1052779206648,42.8522808381265,636.0432 -3.1055102564383,42.8523383695527,638.138300000006 -3.1057266929296,42.852494461942,641.137900000002 -3.10640022727174,42.8529169650891,648.007299999997 -3.10671882736368,42.8531020739227,649.743300000002 -3.10701981508613,42.8532759400452,651.247099999993 -3.10726628135907,42.8533933164577,653.242299999998 -3.10810463319967,42.8538585715922,664.043999999994 -3.10846682404073,42.8541182465561,669.093500000003 -3.10918347571989,42.8547048760415,679.174100000004 -3.10968712696374,42.8551085517462,687.462499999994 -3.1100426217627,42.8553554492513,693.097599999994 -3.11024765863304,42.8555434463269,697.354099999997 -3.11052059915571,42.8558121274507,703.286099999998 -3.11124221492509,42.8560481169967,701.138900000005 -3.11212794750704,42.8560001488184,702.060400000002 -3.11225348437305,42.8560410161388,701.552299999996 -3.1122757401342,42.85645721802,700.351200000005 -3.11234381446645,42.8567533974303,701.236600000004 -3.11250279740713,42.8571213400919,701.345000000001 -3.11258440036753,42.8572514494004,700.758000000002 -3.11289753780421,42.8575072881183,701.922500000001 -3.11339858662867,42.8576208760022,703.150999999998 -3.11364650637572,42.8580976224062,703.841400000005 -3.11377639378264,42.8582332215485,703.247900000002 -3.11411908399554,42.8582566898281,705.094400000002 -3.11445276769941,42.8582148592712,707.626199999999 -3.11482593864822,42.8580690348731,708.737699999998 -3.11528525174457,42.8578982765536,711.931599999996 -3.11555864950969,42.8578324472262,714.2598 -3.11580449325015,42.8578679643064,716.8315 -3.11595305842845,42.8580662527028,719.752299999993 -3.11599761756151,42.8583046048906,721.119000000006 -3.1161263991423,42.8585858868403,720.446299999996 -3.11611238183063,42.8587799895175,720.6299 -3.11635391635264,42.8589977479113,721.140299999999 -3.11640624231964,42.8590938297095,721.852499999994 -3.11648540186246,42.8593641896751,722.868300000002 -3.11682234016262,42.8597509810291,724.034499999994 -3.11711276010407,42.8600721965352,721.830400000006 -3.11736824995403,42.8603444868241,720.967900000003 -3.11818943229457,42.8609084926638,720.167400000006 -3.11833902334896,42.8610621040063,720.318499999994 -3.11849642525471,42.8611833308304,720.807000000001 -3.11933503491181,42.8615112302077,723.623399999997 -3.11944002730727,42.8615581866541,724.121199999994 -3.119810397309,42.8618387222312,726.808000000005 -3.11957964346872,42.8621724520664,719.624500000005 -3.11945225607323,42.8622516981017,716.588699999993 -3.11928276733533,42.8624807611148,711.345799999996 -3.11882998139782,42.8627802723697,703.385800000004 -3.11832892898011,42.8630912655102,701.075800000006 -3.11812702543348,42.8631846320863,698.150899999993 -3.11804727479919,42.863307582505,696.532000000007 -3.11811664450205,42.8635037121733,694.800199999998 -3.11844575757776,42.8637924858816,691.155199999994 -3.11925129755428,42.8641019094758,687.180500000002 -3.12030255371046,42.8641617074222,673.699200000003 -3.12140199639682,42.8642361179837,660.242899999997 -3.12244737307947,42.8643360803473,650.437399999995 -3.12290443859098,42.8643831551387,646.634999999995 -3.123250257636,42.864460448056,642.317500000005 -3.12390690185418,42.8644491611851,634.417600000001 -3.1239677106124,42.864644397027,631.823399999994 -3.12399261281038,42.8649287414176,630.473599999998 -3.12426258889262,42.8650426382783,629.8508 -3.12427947003344,42.8652621878874,630.641099999993 -3.12428426883367,42.8654530518627,631.005099999995 -3.12422710454058,42.8658416321845,632.669699999999 -3.12434495003111,42.8660466141169,633.690400000007 -3.12488013303974,42.8661710810923,631.995299999995 -3.12545842170727,42.8662229279923,633.270099999994 -3.12550906962128,42.8664655909214,636.010200000004 -3.12557874295473,42.866619065973,638.991099999999 -3.12580378171317,42.8668550537205,642.105599999995 -3.12601164558171,42.8672595250126,644.813899999994 -3.12651441288332,42.8676244093475,651.044699999999 -3.12703740844847,42.8676949127451,654.434899999993 -3.12760324646615,42.8679263442252,658.632100000003 -3.1280372225799,42.8681878232841,663.201700000005 -3.12866894483714,42.8687408591759,673.029699999999 -3.1294163000344,42.8693696882813,683.856100000005 -3.13069422179804,42.8701360801727,694.204199999993 -3.13086143420502,42.8703299595603,695.169200000004 -3.13086378150284,42.8706452092006,699.125199999995 -3.1313609397238,42.8710134410523,710.156499999997 -3.13174312346986,42.8711030765553,714.244300000006 -3.132154683024,42.8712850214325,720.175000000003 -3.13273229076856,42.8714939058148,726.590299999996 -3.13302523497596,42.871562510697,730.158100000001 -3.13350214517042,42.8718910955951,740.110400000005 -3.13391071692792,42.8719582937923,743.928799999994 -3.1342661641162,42.8719744603233,747.088499999998 -3.13465397221422,42.8721529666948,753.637499999997 -3.13471872996644,42.8723786525052,756.404500000004 -3.13472781373059,42.8725673225891,759.007400000002 -3.13472311284668,42.8727338144184,762.344100000002 -3.13487273085052,42.8729771851454,767.703699999998 -3.13504399376112,42.8731218465929,770.811199999996 -3.13523826072952,42.8733077559633,771.146099999998 -3.13555519624324,42.8735650331048,768.4326 -3.1357246346755,42.8736141561832,768.020399999994 -3.13581404489404,42.8736760397382,765.983699999997 -3.13584995504751,42.8737464243065,763.773000000001 -3.13594949377089,42.8737271377327,763.347500000003 -3.13612828007201,42.8737332279878,762.819000000003 -3.13656191123271,42.873847053303,763.452999999994 -3.1366298481227,42.8738796717461,763.624800000005 -3.13672844900491,42.8739089827077,765.088600000003 -3.13694346885299,42.8738661271976,768.676099999997 -3.13702014096082,42.8738975237646,769.640599999999 -3.13718929013555,42.8739615117239,771.583899999998 -3.13732909045164,42.8739608737999,772.4617 -3.1374638045066,42.8739377320977,773.703200000004 -3.13764209493766,42.8740330763551,773.699299999993 -3.13786981426891,42.8741428760854,776.349199999997 -3.1379889191975,42.8742108644597,778.715599999996 -3.13811913628612,42.8742183602007,780.561799999996 -3.13831530858124,42.8743173189066,784.200500000006 -3.13853788595583,42.8743404367666,788.116099999999 -3.13907636128997,42.874404802805,786.158599999995 -3.13925869773305,42.8744261036487,785.241099999999 -3.1395261756005,42.8745003115807,781.653900000005 -3.13970205585165,42.8745365438894,779.324299999993 -3.13990383992233,42.874677106244,776.069199999998 -3.13994505822085,42.8748120856976,774.945399999997 -3.13985603068461,42.8748663756166,774.252299999993 -3.13951096712274,42.8751520738246,775.694199999998 -3.13936726542336,42.8753157976958,777.431700000001 -3.13901093968275,42.8755472657742,783.664799999999 -3.13864626410159,42.8758057040594,788.337 -3.13833525926541,42.8759727506664,791.129400000005 -3.13805332121684,42.8761107943495,792.313200000004 -3.13791609816729,42.8762285282631,791.469100000002 -3.13776282042701,42.8763914935426,792.290200000003 -3.13776551447454,42.876530201177,793.800199999998 -3.13764715694427,42.8770325259382,795.349100000007 -3.1375821952745,42.8773065109213,797.079299999998 -3.13759083077933,42.8773569864532,797.647599999997 -3.13769903105869,42.8773917220951,797.761100000003 -3.13804986360132,42.8776409859254,798.496599999999 -3.13825387729056,42.8776841863925,799.007400000002 -3.13899075813159,42.8777232237899,797.263200000001 -3.13915182965529,42.8776463727373,795.279699999999 -3.13943814699087,42.8773913152683,790.218800000002 -3.13964494006756,42.8772586362801,787.332399999999 -3.14002104850735,42.8771114145315,783.811900000001 -3.14050180079626,42.8769739945221,779.369099999996 -3.14070143879174,42.8769602004986,778.005499999999 -3.14110839807335,42.8769534680608,776.191500000001 -3.1413552542151,42.8769156611991,774.422999999995 -3.14163958807052,42.8768489120949,771.695000000007 -3.14185168390235,42.8767799668222,769.741800000003 -3.14221448469954,42.8766577640798,767.015100000004 -3.14231483639823,42.8765824909725,765.816000000006 -3.14270180097824,42.8763644404354,760.632800000007 -3.14308349065086,42.8761814335397,754.730500000005 -3.1432259787263,42.8761328016285,752.895999999993 -3.14335523551589,42.8761093552852,751.952300000004 -3.14376997959775,42.8760657988865,748.675499999998 -3.14386450931508,42.8760439291705,747.657500000001 -3.14398342559745,42.8760012252378,745.926800000001 -3.14411712814941,42.8758808866089,742.902300000002 -3.14461220497383,42.875725092307,737.662100000001 -3.14484747284842,42.8759464017686,737.931299999997 -3.14511419433439,42.8761266517041,737.773400000005 -3.14566908099042,42.8762446963087,737.997900000002 -3.14598645847525,42.8762629268283,737.366899999994 -3.14710022030724,42.8761657361683,733.628700000001 -3.14726528304573,42.8761164228946,732.876000000004 -3.14809671965528,42.8758196912265,724.119900000005 -3.14858039416381,42.8756639171779,718.608200000002 -3.14913718704489,42.8755592490883,713.503800000006 -3.14944871829387,42.875508716129,713.000499999995 -3.14998707864364,42.8754957446729,712.879499999995 -3.15031548025361,42.8753466695045,708.375400000004 -3.15077918611169,42.8751191150442,701.765199999994 -3.15111247815009,42.8749595663858,696.631399999998 -3.15149770898161,42.8748195688575,691.816699999996 -3.15194108506648,42.8747919995939,688.1397 -3.15219505227205,42.8746511373049,683.519100000005 -3.15250469705889,42.8745231620917,678.979999999996 -3.15269107681911,42.8742392595279,672.876699999993 -3.1529249343387,42.8740374378015,667.959400000007 -3.15314193317535,42.8738275712356,662.636499999993 -3.15330529001316,42.8735450618041,657.662700000001 -3.15340991948923,42.87336566346,654.199099999998 -3.15366185021405,42.873173456577,649.167199999996 -3.15428114427935,42.8728646847891,640.340100000001 -3.15433439640938,42.8727943650496,638.329800000007 -3.15429292837924,42.87266839065,636.8505 -3.15403551703289,42.8724733006639,633.921900000001 -3.15410425522009,42.8724193088467,632.104999999996 -3.15449298409134,42.8724678646826,628.494900000005 -3.15468334967645,42.8724049496001,626.478000000003 -3.15521817246061,42.8729708433287,626.561300000001 -3.15531166192887,42.8727946764467,627.218500000003 -3.15522615758518,42.8722523737575,626.370800000004 -3.15576300157875,42.8719123907229,628.024000000005 -3.15606104462371,42.8715599417844,627.660000000003 -3.1562047642894,42.8712096272168,626.578500000003 -3.15659563833752,42.8704958708181,624.861600000004 -3.1564710006851,42.869588680655,623.015499999994 -3.1564296826736,42.8688396337573,622.293600000005 -3.15638920548522,42.8686011504001,621.633499999996 -3.1564585697982,42.8679691011499,620.925000000003 -3.15618616107818,42.8671531136979,618.017000000007 -3.15611143741622,42.8665793572148,619.152300000002 -3.15634604502908,42.8659935766503,624.179399999994 -3.15792230807835,42.8663341960531,618.729999999996 -3.16023226564434,42.8668611940343,610.532000000007 -3.16104227923097,42.8681056866148,612.763900000005 -3.16105545482123,42.8683436807257,612.287500000006 -3.16093616573804,42.8687969478829,614.006099999999 -3.16117107787978,42.8694364276989,614.2353 -3.16147478300598,42.869781356274,613.553 -3.16221557331514,42.8701725244061,613.285300000003 -3.16336335524524,42.8705969975741,613.502500000002 -3.1654447032495,42.8713826233539,616.608099999998 -3.16577692539439,42.8709337519926,615.498200000002 -3.16678546845545,42.8713741568459,617.3652 -3.17009159299283,42.8728954478806,620.144700000004 -3.17022669781492,42.8723939255465,619.633000000002 -3.17028477749133,42.871911898274,618.572199999995 -3.17055682598691,42.8713737888227,620.0141 -3.17092407434303,42.8710502949281,628.044800000003 -3.17127315247592,42.8705652615849,635.777600000001 -3.17185434090518,42.8701277807206,638.565400000007 -3.1719821532038,42.8699071818481,642.743100000007 -3.17223217500863,42.8696229110844,646.523000000001 -3.17232466465198,42.8694056984359,649.770499999999 -3.17244674390247,42.8691638733361,654.538400000005 -3.17300234831242,42.8686302867619,666.412200000006 -3.17318794204675,42.8682340655626,674.894700000004 -3.17324289109437,42.8679417105436,679.240099999995 -3.17315730500397,42.8675088119914,688.632100000003 -3.1730985965069,42.8671633104144,696.076100000006 -3.17303374083835,42.8669788060112,700.8989 -3.17314580926328,42.8668465220675,704.524099999995 -3.17335926604278,42.8667811592162,707.313999999998 -3.17363815520926,42.866746940379,708.587700000004 -3.17398110144203,42.8670338909331,702.838199999998 -3.17384479826734,42.8674753487441,692.624500000005 -3.17396203559844,42.8678041311933,685.9182 -3.17367731007755,42.8681451560525,676.493600000002 -3.17377465960657,42.8684467262677,672.991200000004 -3.17418663867399,42.8688879079864,675.435200000007 -3.17478340568691,42.8691136551147,676.733699999997 -3.17526457928569,42.8697357353462,680.249599999996 -3.17702374830994,42.870709274269,684.216700000004 -3.17804765076574,42.8714037981773,671.941200000001 -3.17836236115248,42.8717672392573,668.047699999996 -3.17904726996277,42.8728861138831,660.607099999994 -3.17922367213509,42.8733045505092,660.180900000007 -3.17839164623072,42.8735134030396,650.026199999993 -3.18088220020312,42.8748941357604,665.642000000007 -3.18205755951412,42.8756712014236,670.048999999999 -3.1835468315079,42.8766684779692,670.790200000003 -3.18450941945398,42.8773354272523,674.661699999997 -3.1852889927289,42.8776719441238,675.523400000005 -3.18624155906966,42.8778257566624,669.334099999993 -3.18664733167674,42.8781402880031,665.233399999997 -3.18663112067915,42.8784970808999,660.131699999998 -3.18686751863436,42.8789273350934,655.895600000003 -3.1868131364237,42.8791679495471,652.157500000001 -3.1861459540689,42.8794522322995,644.464000000007 -3.18613071594674,42.879544046936,643.520199999999 -3.1866785607093,42.879992830658,642.415399999998 -3.18703681333618,42.8802835671887,641.019400000005 -3.18728877640033,42.880622972889,639.911900000006 -3.18775592909415,42.880547368905,642.352299999999 -3.18817736113329,42.8807261164163,643.697499999995 -3.18874143935133,42.8811662321906,649.769799999995 -3.18935437334441,42.8811865551661,653.591100000005 -3.1898070299245,42.881280526954,655.516399999993 -3.1901646492391,42.8813158416253,657.957999999999 -3.19089436691407,42.8812575637508,658.331600000005 -3.19175319405495,42.8810965196073,663.186600000001 -3.19224918356769,42.8809559968889,667.260800000004 -3.19244448449698,42.8809244874014,668.957699999999 -3.19292436362345,42.8809041189197,672.263600000006 -3.19307084111706,42.8808371424228,673.216199999995 -3.1936787238833,42.8803647042051,679.073799999998 -3.19401564960703,42.8801442090668,682.467999999993 -3.1941341311048,42.8801269447126,683.458700000003 -3.1947276956237,42.8807254245849,689.001699999993 -3.19528893336882,42.8810475617831,694.499500000005 -3.19559148236325,42.8812030681548,697.188099999999 -3.19588196698343,42.8813940941361,699.986199999999 -3.19620973258619,42.8816231137612,703.045199999993 -3.19656345950066,42.8818504428131,705.179799999998 -3.19688585407637,42.8820446217636,706.523300000001 -3.19728639848851,42.8822607117257,708.965899999996 -3.19774094692058,42.8826932606262,712.411999999997 -3.19793177154481,42.8828428795228,714.003800000006 -3.19812226199575,42.8829393698339,714.993300000002 -3.19845835767615,42.883032888719,715.695699999997 -3.19886905844091,42.8831563617342,714.583700000003 -3.19916121213086,42.8831804629755,713.700100000002 -3.19972933725926,42.883085683136,712.563299999994 -3.20003513096851,42.8829724132992,713.683900000004 -3.20022736145616,42.8829563859043,713.953099999999 -3.20046321772725,42.8830230836416,715.256800000003 -3.20057273942837,42.8830927466551,716.398100000006 -3.20074989977882,42.8832637617692,717.809500000003 -3.20104362102894,42.8834420880416,719.248200000002 -3.2017332657574,42.8836810893428,721.614000000001 -3.20252726417918,42.8838107345743,725.700100000002 -3.20324073312729,42.8839485987992,729.228199999998 -3.20377033400469,42.8839717354306,731.858500000002 -3.20406806802922,42.8839651742382,733.228799999997 -3.20452716103831,42.8840150012372,733.167499999996 -3.20496528826701,42.8839270748127,732.419099999999 -3.20525897448284,42.8838896487294,731.1878 -3.20549100033758,42.8839609569867,731.486399999994 -3.20568629138541,42.8840935847024,732.676699999996 -3.20575224479524,42.8843436369952,733.548999999999 -3.20611135890647,42.8845834490206,735.848199999993 -3.20631799387971,42.8847508101881,736.496799999994 -3.20685542806644,42.8851681448159,737.556899999996 -3.20703659130978,42.8852792622187,738.074999999997 -3.2072589665634,42.8853841448523,739.051500000001 -3.2075643335729,42.885642540621,740.017600000006 -3.20815638353226,42.8858752106785,743.305699999997 -3.20836485556023,42.885976271424,743.926399999997 -3.20887125295387,42.8863118348265,744.344700000001 -3.20923360549171,42.8865021545393,745.483099999998 -3.20955227565226,42.8867237439142,744.866099999999 -3.21107486077003,42.8872030220653,746.680900000007 -3.21122292648505,42.8873123244643,745.632700000002 -3.2112190511529,42.8874895582891,744.850399999996 -3.21127836511449,42.8879031155025,745.914799999999 -3.21127670053627,42.8883353424832,746.861600000004 -3.21117963487486,42.8889279310653,751.971300000005 -3.2112238813942,42.8892190289477,755.419399999999 -3.21099445885715,42.8894476522675,756.243199999997 -3.21099462055389,42.88968555157,752.748600000006 -3.21090302114099,42.8897960605905,748.566699999996 -3.21073756134714,42.8898677154538,745.155100000004 -3.21032134312992,42.8902169816177,735.6057 -3.21023689700164,42.8903166109964,733.670299999998 -3.21012975853095,42.890911804594,722.603600000002 -3.20977948563875,42.8913061255724,712.221999999994 -3.20961072992608,42.8915272389628,707.467300000004 -3.20947752414252,42.8920521099217,698.698499999999 -3.20969372258026,42.8925846397223,696.789900000003 -3.2096754822884,42.8928795315804,698.795100000003 -3.20933381884988,42.8933392728311,698.473599999998 -3.20900203148958,42.8938366841023,696.638699999996 -3.20865049017618,42.8944319391565,689.275200000004 -3.20849038613803,42.8952480055297,685.380300000004 -3.20819641515624,42.8956561340398,686.866299999994 -3.20813819444436,42.8958726297516,689.314400000003 -3.20814139065017,42.8967847778417,698.290800000002 -3.20820202603351,42.8971587547508,702.246899999998 -3.20815677609602,42.8974704907093,706.047300000006 -3.20762923146227,42.8983957529068,716.557499999995 -3.20736073580364,42.898933105514,718.934800000003 -3.20721242664518,42.8995878308548,721.223100000003 -3.20697827088489,42.9001512688234,722.366500000004 -3.20684444077218,42.9004324304828,722.723800000007 -3.20653594223563,42.9014910262161,719.517300000007 -3.20603693438351,42.9019565248906,718.038400000005 -3.20451183937285,42.9034592980487,709.822799999994 -3.20385895819737,42.9038388229852,700.052100000001 -3.20381630439106,42.9040622550157,696.426500000001 -3.20395663291654,42.9045215253301,691.590500000006 -3.20383172576953,42.9047537306829,687.9663 -3.20346121832554,42.9049927020457,685.910300000003 -3.20324413414893,42.9053549766986,684.911099999998</coordinates>
</LineString>
</Placemark>
</Folder>
</Document></kml>
