<?xml version="1.0" encoding="UTF-8"?>

<kml xmlns:xsd="http://www.w3.org/2001/XMLSchema" xmlns:gx="http://www.google.com/kml/ext/2.2" xmlns:atom="http://www.w3.org/2005/Atom" xmlns="http://www.opengis.net/kml/2.2">
<Document>
<name>ES48a_21a_rioseco-riano</name>
<visibility>1</visibility>
<Schema name="ES48a_21a_rioseco-riano" id="kml_schema_ft_ES48a_21a_rioseco-riano">
<SimpleField type="xsd:string" name="id">
<displayName>id</displayName>
</SimpleField>
<SimpleField type="xsd:string" name="nombre">
<displayName>nombre</displayName>
</SimpleField>
<SimpleField type="xsd:double" name="longitud">
<displayName>longitud</displayName>
</SimpleField>
<SimpleField type="xsd:string" name="_formato">
<displayName>_formato</displayName>
</SimpleField>
</Schema>
<Folder id="kml_ft_ES48a_21a_rioseco-riano">
<name>ES48a_21a_rioseco-riano</name>
<Placemark id="kml_1">
<name>&lt;img height='20' src='https://nco.ign.es/iconos/icono_todos_caminos_azul.png' /&gt;&lt;img height='20' src='https://nco.ign.es/iconos/Camino Santiago_20.png' /&gt;&lt;img height='20' src='https://nco.ign.es/iconos/icono_todos_caminos_azul.png' /&gt;  Camino de Santiago </name>
<visibility>1</visibility>
<description><![CDATA[<!DOCTYPE html>
<html>
<head>
<style>
#nco {
  border-collapse: collapse;
  overflow:hidden;
}
#nco th, #nco td {
  padding: 4px;
  text-align: left;
}
#nco th {
  color: #364B5F;
  padding-right: 5px;
}
#nco td {
  color: rgb(51, 51, 51);
  font-size: 12px;
  padding-right: 5px;
}
</style>
</head>
<body>
<table id="nco">
<tr>
<td>Caminos del Norte</td>
</tr>
<tr>
<th><b>Camino: </b></th>
<td>ES48a Camino de las Asturias</td>
</tr>
<tr>
<th><b>Etapa: </b></th>
<td>21a Rioseco-Riaño</td>
</tr>
<tr>
<th><b>Longitud: </b></th>
<td>31.43 km</td>
</tr>
</table>
</body>
</html>]]></description>
<Style>
<IconStyle>
<scale>0.8</scale>
</IconStyle>
<LabelStyle>
<color>ffffffff</color>
<scale>0.75</scale>
</LabelStyle>
<LineStyle>
<color>ffff0000</color>
<width>3.0</width>
<gx:labelVisibility>1</gx:labelVisibility>
</LineStyle>
<PolyStyle>
<color>66ff0000</color>
</PolyStyle>
</Style>
<ExtendedData>
<SchemaData schemaUrl="#kml_schema_ft_ES48a_21a_rioseco-riano">
<SimpleData name="id">ES48a_21a</SimpleData>
<SimpleData name="_formato">kml</SimpleData>
</SchemaData>
</ExtendedData>
<LineString>
<extrude>0</extrude>
<tessellate>1</tessellate>
<coordinates>-5.45272429899292,43.2193522208738,383.187399999995 -5.45297716666055,43.2193380198551,382.667100000006 -5.45310128868,43.2192807836871,382.443299999999 -5.45336958760756,43.2192471314243,382.0337 -5.45369141983789,43.2192546826622,381.5671 -5.45381381439705,43.2193025405335,381.388399999996 -5.45398695658322,43.2194187043524,381.6149 -5.45400985643646,43.2195365942196,382.194900000002 -5.45410176846305,43.2196225731262,382.226299999995 -5.45416389415148,43.2196858826524,382.226200000005 -5.45429363872626,43.2197337153093,381.9231 -5.45439261061271,43.2198124838327,382.015899999999 -5.4545057103036,43.2199058393759,382.204500000007 -5.45464141789525,43.2200478369626,382.121199999994 -5.45471071752954,43.2201607255708,382.051800000001 -5.45467508315884,43.2202991731832,382.221699999995 -5.45478468211508,43.2205298517337,382.361000000004 -5.45485087986669,43.2205846043999,382.3704 -5.45487519007491,43.2208517664625,382.536099999998 -5.45484746986188,43.2210381017457,382.649399999995 -5.45491776932107,43.2211090269267,382.660199999998 -5.45492882129399,43.2212554580406,383.198799999998 -5.45514352313847,43.2213259725254,383.266199999998 -5.45535469729884,43.221380433828,383.276599999997 -5.45560540272159,43.2214136927998,383.414000000004 -5.45602883620716,43.22145062348,383.746799999994 -5.45654150563814,43.2214925442525,383.973800000007 -5.45684441934857,43.221528602941,383.965200000006 -5.45700919282957,43.2215658988252,383.991200000004 -5.45720036779676,43.2216278113566,384.097899999993 -5.45736917920495,43.2217018884568,383.922600000005 -5.45751502428457,43.2217822150273,383.898000000001 -5.45765896942741,43.2218863987112,384.449099999998 -5.45775543770914,43.2220038890787,384.3122 -5.45782141896675,43.2221158621986,384.399600000004 -5.45773993458397,43.2221427547266,384.307199999996 -5.45781756160091,43.2223065991049,384.509699999995 -5.45794122188629,43.2226217188609,384.484500000006 -5.45805877362773,43.2229800338573,384.649699999994 -5.45815591115437,43.2232630200523,385.501799999998 -5.45819629491795,43.2233661204729,385.966 -5.45834407137547,43.2233841054081,385.731 -5.45844792560544,43.2237023799514,387.224499999997 -5.45857856939385,43.224086796728,389.0432 -5.45867564673335,43.2243831240575,390.588000000003 -5.4588127691716,43.2246398485757,391.727199999994 -5.45891937044972,43.2247960080498,392.435400000002 -5.45910643921775,43.2249906686053,393.316699999996 -5.45930499923488,43.2251438619618,394.111300000004 -5.4595633780668,43.225326563036,395.128899999996 -5.45994302317386,43.2255766514875,396.617899999997 -5.46044923551454,43.2259353196001,398.854999999996 -5.46075934473041,43.226146647584,400.022100000002 -5.4611290886064,43.226404838745,400.623000000007 -5.46152677368101,43.2266714405292,400.428199999995 -5.46174234150142,43.226815024711,400.304799999998 -5.46194421630197,43.2269236029833,400.260399999999 -5.46217936739558,43.2270291570252,400.066800000001 -5.46242069261013,43.2271041766637,399.990399999995 -5.46267970116105,43.2271678312245,399.908100000001 -5.46305341559061,43.2272186741845,399.752299999993 -5.46352274490236,43.2272940686473,399.599900000001 -5.46408225339056,43.2273785337678,399.303799999994 -5.46440319808539,43.2274291795328,399.179300000003 -5.46463497780172,43.2274738780265,399.023799999995 -5.46488709178285,43.227484687243,398.960800000001 -5.4650965914835,43.2274579017993,399.059500000003 -5.46535398127031,43.2274068004917,399.440700000006 -5.46553941061294,43.2273545261878,399.973100000003 -5.46571404939236,43.2272596229098,400.512400000007 -5.46595093423447,43.2271089555526,401.731299999999 -5.46615057043332,43.2269582570589,402.757800000007 -5.4663268854691,43.226842539612,403.907600000006 -5.46647037696269,43.2267560073142,404.951499999996 -5.46662367716087,43.2266758116629,405.873500000002 -5.4667471227489,43.2266456640561,406.525699999998 -5.46691515441941,43.2266054951515,406.752999999997 -5.46712284850636,43.226574395782,407.731599999999 -5.46748946534685,43.2265320608954,409.001000000004 -5.46791283595036,43.2264835037384,409.835000000006 -5.46830257362965,43.2264337611349,410.2785 -5.46857327914391,43.226418763857,410.116999999998 -5.46885020189821,43.2264408231811,409.539000000004 -5.46911691709596,43.2265127887167,408.580400000006 -5.46932367424007,43.2266127915096,407.330100000006 -5.46948947808867,43.2267300744377,406.0965 -5.46964800738015,43.2268642931054,404.836899999995 -5.46989346574332,43.2271703767772,402.296199999997 -5.4701463765301,43.2274820441757,399.8649 -5.47041960271701,43.2278039968133,397.852599999998 -5.47061989648265,43.2280473666945,397.390199999994 -5.47074272402978,43.2282088526021,397.203399999999 -5.47088248841325,43.2283385111103,397.363299999997 -5.4710193422552,43.228438767487,397.607799999998 -5.47123386982654,43.2285449387518,398.080799999996 -5.4716764347327,43.2287297679991,398.373300000007 -5.47197174240763,43.2288679703379,403.588399999993 -5.47375229403062,43.2294913869785,413.5095 -5.47398789787513,43.2299052999708,388.612200000003 -5.47407973444323,43.2302644649198,386.817500000005 -5.47414430714249,43.2309202420525,384.821899999995 -5.47420062612091,43.2312801537045,383.459099999993 -5.47426111148561,43.2317663057908,380.643800000005 -5.4743353949731,43.2322069899749,377.582599999994 -5.47441697278068,43.2324039424701,376.030299999999 -5.47455042829593,43.2325742014536,374.620800000004 -5.47481808492808,43.2327721803142,372.611699999994 -5.47497083715395,43.2328399201798,371.670400000003 -5.47527308072117,43.2329194309781,369.925799999997 -5.47548712320225,43.2329602763911,369.065700000006 -5.4758177158032,43.232978582468,367.575100000002 -5.47609681248051,43.232979777566,366.188999999998 -5.47669198857707,43.2329764010541,363.645699999994 -5.47718839131488,43.2329665686557,361.974000000002 -5.47800422508624,43.2329456262897,360.304000000004 -5.47832274612639,43.2329286265652,360.233600000007 -5.47879935718185,43.2328502087789,360.291500000007 -5.47938412449921,43.2327078548609,360.753700000001 -5.48022903763464,43.2324785058554,361.428899999999 -5.48056030127713,43.2323951172485,361.704199999993 -5.48084944471258,43.2323366956104,362.011799999993 -5.4811573296998,43.2322914063995,362.219899999996 -5.48150084905769,43.2322784840098,362.230599999995 -5.48193001199816,43.2323018443165,361.467999999993 -5.48232931673523,43.2323573495527,360.867599999998 -5.48368521496045,43.2325499328133,357.132700000002 -5.48434980926888,43.2326400003123,355.474900000001 -5.48484186685566,43.2327125763697,354.519899999999 -5.48501639514231,43.2327193084788,354.166400000002 -5.48525358361499,43.2327078411166,353.696500000005 -5.48548861702931,43.2326831294379,353.518899999995 -5.48571825695865,43.2326080126014,353.217000000004 -5.48602060383214,43.2324746312451,352.856 -5.48630446427539,43.2323217089478,352.568700000003 -5.48649029606329,43.2322235068814,352.377399999998 -5.48673535108289,43.232109870265,351.776400000002 -5.48688589974135,43.2320480658996,351.994999999995 -5.48703945506106,43.2319999739049,351.955900000001 -5.48721904894761,43.2319530416474,351.515199999994 -5.48740980170664,43.2319367812319,351.403000000006 -5.48770445720464,43.2319339786595,350.945099999997 -5.48807040390193,43.231952624076,350.500400000004 -5.48843187339585,43.2319748934555,350.111799999999 -5.48878047631995,43.2319851278771,349.571899999995 -5.48914158019955,43.2320031331769,349.506099999999 -5.48949632849853,43.2320193713216,349.176399999997 -5.48971994073231,43.2320257749484,349.140199999994 -5.49007171291273,43.2320174850529,348.846799999999 -5.49043417504502,43.2320028347248,348.478099999993 -5.49060231181845,43.2319822919274,348.322199999995 -5.49091930482431,43.2319230105338,348.019400000005 -5.49120852641321,43.2318765016794,347.843200000003 -5.49161197777362,43.2317913444379,347.578699999998 -5.49203123139817,43.2317007874253,347.374200000006 -5.49230443063563,43.2316578389021,347.259600000005 -5.49256808886649,43.2316337832652,347.135699999999 -5.49282539690657,43.2316308995203,347.032200000001 -5.49314045583965,43.2316461115021,346.976899999994 -5.49345514197187,43.231703483979,346.848499999993 -5.49369819195178,43.2317757980416,346.733800000002 -5.49394690580956,43.2318689952019,346.670100000003 -5.49417469970097,43.2319954519635,346.471099999995 -5.49440254479638,43.2321578934506,346.332500000004 -5.49456315997592,43.2322905791154,346.2503 -5.49475209274816,43.2324957380511,346.023000000001 -5.4950209755807,43.2327631718882,345.458700000003 -5.49526200614784,43.2329607548231,339.956600000005 -5.49549425747971,43.2331362337559,345.243900000001 -5.49574658166659,43.2332898444923,345.166299999997 -5.49601122984089,43.2334281431722,345.131800000003 -5.49628495369446,43.233561574146,345.062600000005 -5.49655248276588,43.2336712602193,344.828800000003 -5.49699189997531,43.2338201036799,344.356499999994 -5.497292079214,43.2339042220453,344.048699999999 -5.49749312846279,43.2339462959102,343.776299999998 -5.4977956343381,43.23400137751,343.429399999994 -5.49825349755356,43.2340623179471,342.955499999996 -5.49893197801969,43.2341225665407,342.193499999994 -5.49954234911926,43.2341683275774,341.404599999994 -5.50016491035726,43.2342054966139,340.595600000001 -5.50064215203005,43.2342308418626,340.244399999996 -5.5010740530355,43.2342547420181,339.887900000002 -5.5013954091587,43.2342764104022,339.452799999999 -5.50171460034209,43.234292107999,339.217300000004 -5.50201987752004,43.2343047158136,338.938500000004 -5.50237208718002,43.2343249927659,338.720600000001 -5.50273552757764,43.2343503523634,338.647899999996 -5.50303676682841,43.2343679747512,338.565400000007 -5.50335869697508,43.2343703243152,338.902199999997 -5.50363578232446,43.2343045908088,338.708700000003 -5.50376541371154,43.2341559317851,338.380900000004 -5.50398473648985,43.2340833738085,338.575400000002 -5.50417486941131,43.2342122632453,337.640799999994 -5.50429428785193,43.2343205213915,337.073399999994 -5.50440407994595,43.2343979267776,336.592799999999 -5.50452681137332,43.2344504974077,336.399000000005 -5.50466348824717,43.2344868082575,335.809899999993 -5.50485420417525,43.2345377897509,334.820099999997 -5.50502332729883,43.2345522208757,334.25 -5.50516124294948,43.2345624214864,333.746400000004 -5.5052418595597,43.2345327876147,333.706300000005 -5.50531458896173,43.234449029423,334.848299999998 -5.50544733570622,43.2344014301787,335.155199999994 -5.50572355777461,43.2343679413729,334.911500000002 -5.50586926631031,43.2343608776273,335.088000000003 -5.50594032843921,43.2343517058174,335.472299999994 -5.50617361193531,43.2342731858005,335.160300000003 -5.50641371723774,43.234162596978,335.526800000007 -5.50659544911464,43.2340965942573,336.272100000002 -5.5067543673766,43.2340289218909,336.242800000007 -5.50689405091173,43.233977918374,336.647400000002 -5.50711928190966,43.2339496710594,336.154899999994 -5.50736414109652,43.2339319084921,335.994399999996 -5.50762645005781,43.233926051556,336.153000000006 -5.50781871468145,43.233945089705,337.984200000006 -5.50791426937654,43.2340086926171,338.229300000006 -5.50797161602764,43.2340357605345,337.3802 -5.50804553210415,43.2340314141443,338.315400000007 -5.50812979317949,43.2340167741176,338.669299999994 -5.50821263491669,43.2340146392088,337.331999999995 -5.50830101027601,43.2340198154788,337.375400000004 -5.50842860338571,43.2340184122771,338.712799999994 -5.50851400711809,43.2339901525463,339.933300000004 -5.50865951173622,43.2339525062631,337.813299999994 -5.50880356288024,43.2338731146191,336.299799999993 -5.50892440694721,43.2338143239618,335.757400000002 -5.50905217163513,43.233759411049,335.495500000005 -5.50916466496322,43.233708553256,336.034799999994 -5.50928409957348,43.2336521670081,335.339200000002 -5.5094170825749,43.2336028013466,334.717600000004 -5.50957025611061,43.2335427243683,333.357099999994 -5.50971667790867,43.2334814947842,332.590200000006 -5.50985223638,43.2334379453899,332.892600000006 -5.51005201002108,43.2334559181907,332.160900000003 -5.51016314868972,43.2334609040533,331.683799999999 -5.51027906729397,43.2334435052369,331.803499999995 -5.51046185289474,43.2333898256947,332.523799999995 -5.51068908803405,43.23335846472,331.688999999998 -5.51090923097421,43.2333103809587,329.995299999995 -5.51103402313687,43.2332642907255,330.261700000003 -5.51119891339882,43.2331770770601,330.785199999998 -5.51136586349776,43.2330830349919,331.193899999998 -5.51149059906652,43.2330253038448,330.581999999995 -5.51160604066539,43.2329542406859,330.500799999994 -5.51176314343214,43.232898551427,329.725000000006 -5.51191971888786,43.2328171955904,331.480599999995 -5.51201204503781,43.2327199217381,332.436400000006 -5.51210861393085,43.2325509047372,332.525200000004 -5.51220342931246,43.2324239373127,332.114499999996 -5.51231817112372,43.2323130126501,331.755799999999 -5.51246860300119,43.2322618401458,331.1109 -5.5126728754052,43.2322144250705,330.155199999994 -5.51276007576815,43.2322081628351,328.080300000001 -5.51285903867142,43.2321684217112,326.870699999999 -5.51303917154716,43.2321678287358,328.547200000001 -5.51319691032116,43.2321503209035,328.409400000004 -5.51334906067578,43.2321261561597,330.1443 -5.51347653880112,43.2320802803611,330.837400000004 -5.51368814774605,43.23207056301,330.2889 -5.51388079056044,43.2320769103444,330.030499999993 -5.51404149916477,43.2321025699835,329.271399999998 -5.51416161290141,43.2321510336524,328.5193 -5.51427566211157,43.2322315198963,326.9234 -5.51439265510089,43.2323177623328,328.301600000006 -5.51455781126418,43.2323816398681,328.251999999993 -5.51469742113746,43.232409722322,329.683199999999 -5.51485192148485,43.2324466096891,329.886199999994 -5.51500921199953,43.2324985314348,329.672999999995 -5.51510297545394,43.2325665916521,328.575800000006 -5.51518306924468,43.2326738415303,328.460800000001 -5.51527958064554,43.2327837052596,328.120800000004 -5.51573686085439,43.233108800889,328.198999999993 -5.51604198352211,43.2332725300559,327.380000000005 -5.51624997764636,43.2333614072868,327.426699999996 -5.51653736667208,43.2334600951106,327.155299999999 -5.51668219216386,43.233474255534,326.856 -5.51685870752392,43.2334451250863,326.4035 -5.51700133393988,43.2333862469695,325.806299999997 -5.51714297220907,43.2332759818173,325.619900000005 -5.51740773985928,43.2330452513603,325.154800000004 -5.51772020355948,43.2328145867879,324.5726 -5.5180768769481,43.232590200556,323.945300000007 -5.5183110048606,43.2324595673859,324.177100000001 -5.51854384548731,43.232362708568,324.199399999998 -5.51884074048534,43.2322725143412,324.202999999994 -5.51910367467404,43.2322283475463,324.723199999993 -5.51921278854002,43.2322067550102,325.227299999999 -5.51932536271648,43.2321615259167,326.380699999994 -5.51937159990248,43.2320760306974,326.505999999994 -5.51944967607708,43.2318167247248,324.364700000006 -5.51958066212361,43.2315634044047,324.539300000004 -5.51972886887414,43.2313118803093,324.800900000002 -5.51986235223715,43.2310727417802,324.805900000007 -5.52003022490586,43.2308024173958,324.843299999993 -5.52014423548845,43.2306201607867,325.159199999995 -5.52018463272679,43.2304564271122,325.412100000001 -5.52021958258123,43.2303411423974,325.570099999997 -5.52033107338946,43.230178310556,325.753299999997 -5.52050063668755,43.2299998744868,326.193599999999 -5.52063324329485,43.2298655651996,326.061400000006 -5.52068446523235,43.2297345144936,326.324099999998 -5.52071885723299,43.2296041173772,326.660699999993 -5.52071923632203,43.2295094807216,326.931100000002 -5.52076593703871,43.2294397205548,327.100000000006 -5.52088746741856,43.2294079504311,326.943899999998 -5.52103844098015,43.2294047674616,326.846399999995 -5.52127859658822,43.2294029053295,326.782000000007 -5.52144385965104,43.2294416592656,327.513699999996 -5.52154458055733,43.2295427398402,329.7552 -5.52162454678728,43.2295991004364,329.308300000004 -5.52187854992544,43.2296680605911,329.875700000004 -5.52213916017252,43.2296708383957,328.926200000002 -5.52241642159169,43.2296324099046,330.190400000007 -5.5226223325228,43.2296033090378,331.476500000004 -5.52294068108645,43.2296991335103,331.296700000006 -5.52322895046113,43.229824772038,330.323699999994 -5.52347842788691,43.229928214803,330.0478 -5.52373856472181,43.2300929133508,329.859200000006 -5.52389417269196,43.2301659028253,329.899999999994 -5.52409615618863,43.2302494345494,328.714300000007 -5.52443464228601,43.2303546621182,329.092199999999 -5.52465483732848,43.2304803195847,327.648700000005 -5.52484599612599,43.2305425542477,327.735199999996 -5.52506235176889,43.2306137543942,327.992100000003 -5.52524941514704,43.2307761648748,326.087100000004 -5.52540505006663,43.2309772362507,324.113899999997 -5.52561538250556,43.2311482813585,323.516199999998 -5.52574485219589,43.2311887012188,323.126099999994 -5.52602254390811,43.2312153312134,323.914699999994 -5.5262550270053,43.2312068618724,324.982600000003 -5.52649210857847,43.2312071472381,325.086200000005 -5.52683042040268,43.2312082265229,325.459099999993 -5.52706712737836,43.231215222565,325.254400000005 -5.52725508727514,43.2312344284606,325.460099999997 -5.52745954293549,43.2312743940353,325.260500000004 -5.52782465150462,43.2313468591437,325.599499999997 -5.52800482929611,43.2313892410833,325.366299999994 -5.52835436377317,43.2314537348274,323.975699999995 -5.52860606722419,43.2315012512883,323.144 -5.52887884155853,43.2315325425321,321.893899999995 -5.52916907015884,43.2315573201278,320.828899999993 -5.52936832996357,43.2315467878346,320.553 -5.5296943932589,43.2315206318466,319.850900000005 -5.52998720361733,43.2314873135928,321.057499999995 -5.53013740552608,43.2314699829361,321.641600000003 -5.53030497636087,43.2314715367328,321.751099999994 -5.53060212109057,43.2314846962248,322.061700000006 -5.53077071959804,43.2314991666884,322.115699999995 -5.53114256014189,43.2315190073645,323.179499999998 -5.53155006919245,43.2315494811225,325.973100000003 -5.53168023867036,43.2315579157272,325.886599999998 -5.53181697303639,43.2315196088549,326.0625 -5.53193442057328,43.2315389383559,325.483099999998 -5.53213451760788,43.2315633356817,323.519799999995 -5.53234509079529,43.2315816428328,322.838799999998 -5.53255368319754,43.2316570888407,321.2399 -5.5327327264168,43.2317511422722,319.796400000007 -5.5328997384995,43.2318141983468,318.303799999994 -5.53303444087633,43.2318204652041,317.525099999999 -5.53318898703781,43.2318378042697,317.154999999999 -5.53333087863191,43.231870938417,318.498699999996 -5.53343175225178,43.2319273060233,319.918799999999 -5.53354929321346,43.2321107760915,321.889299999995 -5.53369141657288,43.2322504512372,322.907099999997 -5.53370681998504,43.2324687938037,322.373999999996 -5.53366470247296,43.2326177508106,321.825200000007 -5.53360885960163,43.2327052800874,320.3747 -5.53346309986193,43.232797150481,317.176300000006 -5.53345998809778,43.2329232093501,316.305099999998 -5.53367367125275,43.2330169702345,318.836599999995 -5.53379458269334,43.2331310181415,319.214699999997 -5.53397502728447,43.2332900441107,318.409899999999 -5.53413386379975,43.2334090649381,317.676999999996 -5.53434301405577,43.2335504400743,316.895900000003 -5.53463718446354,43.2337283794687,316.2546 -5.53486984183394,43.2338310976434,315.862800000003 -5.53509678951238,43.2339392190261,315.486799999999 -5.53546038172531,43.2341266099014,314.640700000004 -5.53570166471903,43.2342565994207,313.551200000002 -5.53607344148252,43.2344567594127,312.256200000003 -5.53636037236741,43.2345797872596,312.194900000002 -5.53660893530822,43.2346877103182,311.950700000001 -5.53693807174011,43.2347714334949,312.046300000002 -5.53723795004321,43.2348678480268,311.9807 -5.53752496896302,43.2349508543131,311.956200000001 -5.53800455703532,43.2350845594468,311.499899999995 -5.53827710679082,43.2351598466643,311.041700000002 -5.53854194181468,43.2352318621164,310.807100000005 -5.53877805949556,43.2352836964087,310.741699999999 -5.53910821192203,43.235375153221,310.532200000001 -5.53943304632203,43.2354597557059,310.388900000005 -5.5397210578802,43.2355438403939,310.087700000004 -5.54002595507078,43.2356270676217,309.825899999996 -5.54049628780072,43.2357487933487,309.713000000003 -5.54084264134335,43.2358607831066,309.794899999994 -5.54138288096872,43.2359671220727,309.683900000004 -5.54188377438461,43.2359997794935,309.111099999995 -5.5424620962898,43.2360395429884,308.842399999994 -5.54283034447085,43.2360806526739,308.614300000001 -5.54324625905752,43.2361613582063,308.372700000007 -5.5438614747714,43.2362939081906,308.266900000002 -5.5442373011402,43.2363684262404,308.367499999993 -5.54437293327336,43.236418440842,308.313599999994 -5.54451296804976,43.2365134856186,308.362999999998 -5.54453715518877,43.2366172985758,308.212299999999 -5.54436097849358,43.2371191488037,307.002600000007 -5.54419017911365,43.2375847245283,307.838199999998 -5.54429354106688,43.2377462119982,307.304499999998 -5.54477794680405,43.2378502748135,306.921499999997 -5.54567029637638,43.2379106426961,306.112699999998 -5.54626913490434,43.2380189086697,305.787200000006 -5.546875121327,43.2381535717075,305.004000000001 -5.54735924499318,43.238335680791,304.0766 -5.54792379482677,43.2385533248749,303.311499999996 -5.54857856066768,43.238652368153,302.683799999999 -5.54930803310255,43.2387204319684,302.585399999996 -5.55018558472719,43.2387032159303,301.746400000004 -5.55096413032943,43.2386385080067,301.139800000004 -5.551592120985,43.2385612932108,300.748000000007 -5.55197830133575,43.2385110860022,300.640400000004 -5.55270387687894,43.2383356978062,299.842099999994 -5.55352958044034,43.2381039230501,299.483699999997 -5.55397404797829,43.2378926646647,299.911200000002 -5.5545696911988,43.2376629222207,299.539900000003 -5.55493785853145,43.2375295205148,299.666500000007 -5.55522320119495,43.237462076434,299.604600000006 -5.55562210618168,43.2374672439035,299.481199999995 -5.5557349597342,43.2374263046539,300.407500000001 -5.55574076285095,43.2371870579196,301.689400000003 -5.55579808704417,43.2369635863425,300.970799999996 -5.55587084070073,43.2367618030432,301.917799999996 -5.55597406251674,43.2367494319931,303.106499999994 -5.55600884438622,43.2369227128537,302.408599999995 -5.55586023159721,43.2375237568551,297.991399999999 -5.55570520393875,43.2381750292865,302.335500000001 -5.55569825187674,43.23833238049,303.728300000002 -5.55577119777278,43.238364319386,303.797699999996 -5.55599998969247,43.2381745502409,300.503500000006 -5.5564487520758,43.2380920804012,299.133499999996 -5.55709770312191,43.2379944596101,298.758700000006 -5.55781791572283,43.2378197466156,298.255399999995 -5.55874677103167,43.2374945864589,297.638699999996 -5.55956325967488,43.2371862077963,297.214900000006 -5.56011952614323,43.2370082771895,296.813200000004 -5.5606089750224,43.2369806248627,296.383300000001 -5.56102044743996,43.237040744263,295.977899999998 -5.56141576365715,43.2372025577788,295.801399999997 -5.56181376224378,43.2374532545627,295.434999999998 -5.56225365286538,43.2378290900206,295.118600000002 -5.56321332488002,43.2388466768761,294.187900000004 -5.56411278731277,43.2399075055598,293.132500000007 -5.56507283212826,43.240934796548,292.637199999997 -5.56584942299645,43.2418573960198,292.351599999995 -5.56652880357447,43.2428452766086,291.630399999995 -5.5668864660082,43.2434173897516,290.303499999995 -5.56726681000457,43.2443510673697,289.582899999994 -5.56748221792486,43.2448544485799,289.154699999999 -5.56753182469148,43.2454061583561,288.796700000006 -5.56747467836466,43.2457868288411,288.691300000006 -5.56719552868675,43.246436863918,288.277600000001 -5.56697695690005,43.2468907355849,287.863599999997 -5.5667279861241,43.2474233386771,289.606400000004 -5.56675236011271,43.2481240450556,287.1927 -5.56682899269463,43.2488025769911,286.886100000003 -5.56694667738675,43.2492014044431,286.592699999994 -5.56710730604104,43.2496899705978,286.388399999996 -5.5671343471277,43.2497676495897,286.547000000006 -5.56711275791649,43.2498817531679,286.212 -5.56715450262774,43.2499650655,286.260200000004 -5.56731575291619,43.250222783455,286.4274 -5.56744653774008,43.2503944811886,286.170599999998 -5.56775587350649,43.2507138342965,286.134699999995 -5.56813235654373,43.2510721987514,285.695000000007 -5.56852195318751,43.251402929711,285.303 -5.5691016845494,43.2519022981405,284.8125 -5.56941180364671,43.2521782035216,284.566600000006 -5.56989142495671,43.2526226906187,284.035099999994 -5.57053669919833,43.253180414117,283.495899999994 -5.57108706912513,43.2536862955961,282.849100000007 -5.57151654647594,43.25407013658,282.386599999998 -5.57195224286346,43.2544476177102,282.077999999994 -5.57221786840477,43.2546690133171,281.932100000005 -5.57245674481187,43.2548749716426,281.702999999994 -5.57260505576696,43.2550133881637,281.594700000001 -5.57311249879959,43.2554838916756,281.155100000004 -5.57358047614688,43.2558954265824,280.734100000001 -5.57396947451265,43.2562460634184,280.390499999994 -5.57426277984282,43.2565236592952,280.214900000006 -5.57460822698531,43.2569025128442,280.091899999999 -5.57480995895373,43.2571952943218,280.229500000001 -5.57503522947752,43.2575575636555,279.765100000004 -5.57516670959746,43.2577680793447,278.788799999995 -5.57544044962072,43.2577071377578,279.777199999997 -5.57560768179064,43.2578419110183,279.103400000007 -5.57577908663508,43.2580323365795,278.418999999994 -5.5759758949374,43.2583181491349,278.420700000002 -5.57613956438891,43.2585435998872,278.213600000003 -5.57657641062001,43.2591433792699,277.421100000007 -5.57703768384029,43.2597459298324,276.550600000002 -5.57724507609332,43.259991036611,276.178100000005 -5.57754127938859,43.2602593611513,276.106700000004 -5.57798727046925,43.2606286507135,276.587100000004 -5.57822665981439,43.2608580416023,276.922500000001 -5.57890510704283,43.2615429388236,275.074099999998 -5.578915749384,43.261584652773,273.163 -5.57888962368059,43.2617291882954,275.867800000007 -5.57908778484574,43.2618450030383,276.099100000007 -5.57956291278265,43.2622822288881,276.1302 -5.58000918144275,43.262682513871,275.1976 -5.5802924238451,43.2629248665558,274.812999999995 -5.58045573756375,43.2630577723968,274.498399999997 -5.58051640528649,43.2631723757149,274.673299999995 -5.58132577837433,43.263978864544,273.902300000002 -5.58167680495306,43.2643627472756,273.7647 -5.58204143292351,43.2647696791152,273.189100000003 -5.58222138883112,43.2649351351826,272.835000000006 -5.58272144232223,43.2652424274855,271.837100000004 -5.58332655019256,43.2655782413382,271.9804 -5.58351776648226,43.2656484036355,271.854600000006 -5.58415074997416,43.2658333087253,271.019400000005 -5.58499109607468,43.2659886718704,270.623200000002 -5.58549558005678,43.2660358461051,270.118700000006 -5.58612861115939,43.2660696223297,269.802500000005 -5.58660170351388,43.2660696059763,269.392600000006 -5.58723725798414,43.266035758451,268.963699999993 -5.58767594665986,43.2659925103344,269.016900000002 -5.58811977100408,43.2659474718184,268.864700000006 -5.58846396769172,43.2659316456637,268.716499999995 -5.58880769456047,43.2659458410587,268.420299999998 -5.58918586193887,43.2659696862536,268.147400000002 -5.58949364721309,43.266013189499,267.9807 -5.58977444440124,43.2660764344819,267.935400000002 -5.59008061899615,43.2661650682723,267.825700000001 -5.59035769446406,43.2662689203158,267.6829 -5.59066520844709,43.266415023134,267.735100000005 -5.59087802472779,43.2665374317422,267.760299999994 -5.59120068071322,43.2667721857918,267.320000000007 -5.59149850367093,43.267067904575,266.385899999994 -5.59169306079516,43.2673588612344,265.535999999993 -5.59178765608955,43.2675893950189,265.591400000005 -5.59181155307273,43.2679858957275,265.070200000002 -5.59177946974236,43.2684544406755,264.831999999995 -5.59170555097087,43.2690318482822,264.828899999993 -5.59161727712119,43.2695797873005,264.036500000002 -5.59155422886297,43.2699553310096,264.372099999993 -5.5914799408839,43.2702146401411,265.212100000004 -5.59143390851381,43.2704552170817,263.608600000007 -5.5913399393452,43.2707764370462,263.032999999996 -5.59119471050985,43.2711996001521,263.150299999994 -5.59098832436993,43.2717313221867,262.165699999998 -5.59083065476621,43.2722869849846,261.528399999996 -5.59076608655854,43.2725313211463,261.5003 -5.5907752170351,43.2726998936561,261.654599999994 -5.59090311557198,43.2730345492337,261.266600000003 -5.59100097893734,43.273260852666,261.618400000007 -5.59115289842494,43.2734586881862,261.617800000007 -5.59145798246509,43.273729175835,261.212100000004 -5.5918699741089,43.2739692143357,260.569300000003 -5.59239652790092,43.2740667107592,260.243600000002 -5.59341076178929,43.2741601656692,259.636599999998 -5.59472895323045,43.2743125839771,259.555500000002 -5.59595545093565,43.274405840334,259.587199999994 -5.59693703645334,43.2743996949313,259.578800000003 -5.59818470205988,43.2742884948213,258.704500000007 -5.59936378129449,43.2741952899543,257.813099999999 -5.60041363248555,43.2740479951678,256.982600000003 -5.60121607417268,43.2739111615529,256.586800000005 -5.60187106818566,43.2738597865698,256.663700000005 -5.60259554149601,43.2738686901572,256.310200000007 -5.60319485523274,43.2739546924791,255.864300000001 -5.60387298715252,43.2740984628277,255.853199999998 -5.60434638673085,43.2742516674537,255.8986 -5.60487699012812,43.2744600069699,256.2552 -5.60537873784189,43.2747275803395,256.683199999999 -5.60590228048104,43.2750201132413,256.314199999993 -5.60646598679655,43.2752626293682,253.821299999996 -5.60732449683212,43.2755566299622,254.496299999999 -5.60789053697075,43.2757499968801,254.556200000006 -5.60784916416203,43.2756257689709,249.591799999995 -5.6077220040403,43.275116701486,254.425300000003 -5.60839965086982,43.2753125983004,253.428700000004 -5.60909402612655,43.2751741978419,253.237699999998 -5.60988722953927,43.2750024967271,252.535000000003 -5.61009589201009,43.2745780487074,252.153399999996 -5.61027602937738,43.2742363810843,251.979000000007 -5.61049953920323,43.2739790008734,252.225999999995 -5.61069672030642,43.2738424856261,252.116699999999 -5.61087369111234,43.2737749398225,251.779299999995 -5.61134157862805,43.2735277183893,251.608999999997 -5.61156564451107,43.2734524635472,251.521500000003 -5.61199969428668,43.2733604608623,250.551800000001 -5.61241705066936,43.2733318550726,250.4228 -5.61292010004196,43.2733699322431,249.660900000003 -5.61333830802752,43.2734512221512,249.350999999995 -5.61360965493887,43.2735340614044,249.024399999995 -5.61382648489227,43.2736138467712,249.044500000004 -5.614315989467,43.2738352524803,248.904299999995 -5.61463510249694,43.2740063630122,248.887700000007 -5.61492563742276,43.2741999160271,248.724300000002 -5.6151040482281,43.2743495414628,248.816099999996 -5.61539383306064,43.2746379445984,248.2739 -5.61562918268194,43.27491793608,248.277900000001 -5.61580707426102,43.2751599647029,248.151400000002 -5.61602247229985,43.2754963543282,247.722899999993 -5.61634173175519,43.2759898475523,247.241099999999 -5.6166751127268,43.2764518128959,247.636899999998 -5.61722791439307,43.277268992878,246.669699999999 -5.61750831183092,43.277690047441,245.832299999995 -5.61772343768022,43.2779254968494,245.716899999999 -5.61807371955559,43.2785063357416,245.873900000006 -5.61850073552253,43.2791523140722,245.309999999998 -5.61887190143162,43.2796440328062,245.388399999996 -5.61914118131948,43.2800244931938,245.475399999996 -5.61956229625332,43.2806644348922,245.446500000005 -5.61989394527306,43.2810927302878,245.223199999993 -5.62007088912954,43.2812968550855,244.768100000001 -5.62041621140623,43.2815837048203,244.811900000001 -5.62078050340677,43.2818443959331,244.434500000003 -5.62127521102362,43.2821229900918,244.286099999998 -5.6218426300762,43.282398908284,244.091 -5.62252783982208,43.2826919503592,243.111000000004 -5.62300155291243,43.2828765492829,242.755900000004 -5.62336097514584,43.2830323966619,242.954700000002 -5.62361640211373,43.2831952101721,243.223800000007 -5.62379611906944,43.2833192061705,243.099900000001 -5.62396010113467,43.2834699012744,242.435200000007 -5.62417268115847,43.2837313559592,241.138000000006 -5.62448951426421,43.2841033634596,239.611799999999 -5.62461819613203,43.2842686250653,239.150800000003 -5.62482829680564,43.2846771063908,238.895499999999 -5.62498540586064,43.2849489272372,240.453899999993 -5.62506468398108,43.2851557888681,241.771599999993 -5.62508948556775,43.2853514441055,242.122300000003 -5.62509877055455,43.2860826234756,241.784299999999 -5.62510597594143,43.2862051906638,241.626999999993 -5.62515431608351,43.2863073541025,241.830400000006 -5.62524314509206,43.286416422717,241.727899999998 -5.62538555321742,43.2865559086041,241.599799999996 -5.62557564301972,43.2866870417473,241.410799999998 -5.62581734822165,43.2867947233889,241.388099999996 -5.62606200438931,43.2868685067792,241.128500000006 -5.62622337505197,43.2869097881397,241.183699999994 -5.62652000055544,43.2869250942121,241.020499999999 -5.62677206063764,43.2869214970533,240.829899999997 -5.62708613861043,43.2868440034373,240.749400000001 -5.6272221067135,43.2870118529626,236.2163 -5.62739434339789,43.2872537098919,238.738100000002 -5.62746155534745,43.2873288430406,237.368799999997 -5.62757279462739,43.2873763956928,240.853099999993 -5.62770705054153,43.2874087999521,240.852299999999 -5.62784117530166,43.2874007680393,240.738500000007 -5.62800045468638,43.2873575704156,240.703099999999 -5.6280866947503,43.2873386902045,240.604399999997 -5.62840488431213,43.2872923668661,239.887900000002 -5.62874363541252,43.2872594878088,240.131299999994 -5.62889282491994,43.2872277210291,239.583899999998 -5.62904308072762,43.2871981278198,239.879700000005 -5.62924052952877,43.287187203648,239.520999999993 -5.62948868822768,43.2871726888693,239.3024 -5.62986102733655,43.2872033610375,239.543999999994 -5.63017675641283,43.2872516043131,239.349400000006 -5.63027697066929,43.2872516736272,239.301399999997 -5.63042566251006,43.2872914795157,239.609899999996 -5.63074356461102,43.2873689634069,239.373699999996 -5.63088112812203,43.287393372375,239.294099999999 -5.63106314745984,43.2874388939497,239.047099999996 -5.63122983075914,43.2875122652533,238.908200000005 -5.63133289986158,43.2875799978637,238.747199999998 -5.63155879381619,43.2877272141203,238.455799999996 -5.63169244965574,43.2877850320495,238.309299999994 -5.63193707887392,43.2878598729025,238.129700000005 -5.63217011892661,43.2879466989791,237.890700000004 -5.63249673468581,43.2881210674317,237.495299999995 -5.63258655812938,43.2881804000646,237.386299999998 -5.6326547968533,43.2882701642901,237.431299999997 -5.63271510974149,43.2883344526466,237.477400000003 -5.63276834749847,43.2883763869065,237.493600000002 -5.63295264676048,43.2884952830945,237.377900000007 -5.63299910313541,43.2885647467711,237.342900000003 -5.6330112276968,43.2886202720136,237.260200000004 -5.63298535262334,43.2887332532854,237.238100000002 -5.63298106047291,43.2887921158281,237.426900000006 -5.63301122949343,43.2888501347968,237.3027 -5.63301496828165,43.288920947694,237.544299999994 -5.63304075981175,43.288945212184,237.795800000007 -5.63358563384567,43.2890671890293,238.248699999996 -5.63414442817318,43.2891898280161,238.059899999993 -5.63450907321164,43.2892794907076,238.186199999996 -5.63470947208017,43.2893273589687,238.404299999995 -5.63545053996874,43.2895978283872,236.798299999995 -5.6358327650373,43.2897281618163,236.111000000004 -5.63593095449114,43.289753534964,236.020999999993 -5.63620878005229,43.2897537128192,234.468399999998 -5.63641745959112,43.2897650229728,234.712400000004 -5.63645362396784,43.2897620667838,234.614300000001 -5.63648128579036,43.2897392463862,234.274799999999 -5.63648800788364,43.2896339016963,232.842000000004 -5.63644404433362,43.2895045783133,228.358200000002 -5.63644042412306,43.2894068509577,228.501000000004 -5.63646121832523,43.2891983814933,234.036200000002 -5.63659564941087,43.2892007773298,234.282999999996 -5.63683119935649,43.2891765077107,234.180399999997 -5.63715064745802,43.2891515089991,233.943299999999 -5.63771106144803,43.2891011447145,233.611000000004 -5.63805615285767,43.2890403234247,233.731599999999 -5.63908453431347,43.2888615347013,232.787700000001 -5.64008420651109,43.2886896289632,232.133400000006 -5.64099290721822,43.2885365123473,231.749200000006 -5.64123784815179,43.2885091992455,231.791800000006 -5.64143163092826,43.2884789527664,231.978600000002 -5.64231392565758,43.2883281177133,231.894799999995 -5.64277794143447,43.28824476306,231.744600000005 -5.64301680257018,43.2882090956505,231.793999999994 -5.64368579233531,43.2881353988929,231.358300000007 -5.64439862437788,43.2880532772269,231.243499999997 -5.64486383401577,43.2879875369185,231.091700000004 -5.64520186376896,43.2879260494997,230.951499999996 -5.64575579641418,43.2878724565512,230.688500000004 -5.64621433516276,43.287897797778,230.301999999996 -5.64681960472984,43.2879161121927,230.545800000007 -5.6474271829672,43.2879380949757,230.463099999994 -5.64770019266014,43.2879076965079,230.343800000002 -5.64801460121296,43.2878494418901,230.151500000007 -5.64905479641305,43.2874727773067,228.1538 -5.64958713984706,43.2878673835965,229.479800000001 -5.65007868629242,43.2877186663214,230.155899999998 -5.650649407552,43.2874812970223,229.945399999997 -5.65106611085946,43.2873293589721,229.9758 -5.65135844870405,43.2872619281873,229.663 -5.65168864335136,43.287226831716,229.236399999994 -5.65195737257197,43.2872445682793,229.236600000004 -5.65221794868305,43.2872729713567,228.776199999993 -5.65249219355954,43.2873587474452,228.831699999995 -5.65282586558528,43.287489712766,228.388699999996 -5.65322455138312,43.2877224654886,227.898000000001 -5.65351611218499,43.2879170433452,227.279299999995 -5.65367146413526,43.2880370357103,226.998000000007 -5.65386764810847,43.2882706272482,226.573000000004 -5.65405278999023,43.2885284361187,226.160499999998 -5.65430949705738,43.2889252221631,225.723599999998 -5.65431437490939,43.2889252247786,225.675600000002 -5.65456473268412,43.2893066707249,225.087700000004 -5.65478581705871,43.2895938769828,225.301900000006 -5.65509967135098,43.2899773961035,226.145999999993 -5.65566868581151,43.2896786885943,225.9136 -5.65583790415651,43.289716681647,226.039399999994 -5.65595984416814,43.2898581778351,225.478300000002 -5.65613135231882,43.289969954981,225.224400000006 -5.65639821753521,43.2901010820719,225.083400000003 -5.65666790435993,43.2902105813261,224.843399999998 -5.6569293617183,43.2902799397317,224.785199999998 -5.65716625644187,43.2903164827713,224.641300000003 -5.65759019657728,43.2903500238574,225.218800000002 -5.6579387707553,43.2903614136726,225.188699999999 -5.65844815414896,43.2903338921508,224.463300000003 -5.65868486741285,43.2903456278681,223.683099999995 -5.65904183994044,43.290332492862,223.354600000006 -5.65931263887946,43.2903129597007,223.073199999999 -5.65964071709597,43.2902804405991,223.117400000003 -5.66000978274392,43.2902307370086,224.279200000004 -5.66035703370351,43.2901722073728,223.497499999998 -5.66080211479081,43.2900955234733,223.449399999998 -5.66116995244179,43.2900267036517,224.133000000002 -5.66154020745916,43.2899588802614,222.604200000002 -5.6621642347477,43.289846209897,221.559599999993 -5.66246227240278,43.2897946587432,221.443100000004 -5.66282517381127,43.2897231138638,221.861099999995 -5.66304724543434,43.2896973791077,221.628500000006 -5.66328053701531,43.2896780288291,221.843699999998 -5.66366590079747,43.2896696369278,221.972699999998 -5.66420036066227,43.2896698455157,221.522400000002 -5.66448290956523,43.2896811844556,221.684399999998 -5.66478336548502,43.2897004641143,221.685500000007 -5.66500708821159,43.2897171406708,221.785699999993 -5.66523430268967,43.2897283730195,222.068299999999 -5.66538376977652,43.2897340290797,222.097500000003 -5.66547866780313,43.2897424955144,222.186499999996 -5.66569900927099,43.2897882167258,221.622199999998 -5.66595956022925,43.2898420316128,221.113400000002 -5.6662793029782,43.2898979342847,220.705199999997 -5.66634861249395,43.2899058377076,220.701499999996 -5.6664108873027,43.2899233073615,220.657000000007 -5.66662874403049,43.2899233877885,220.5429 -5.66685556863973,43.2899378639858,220.610100000005 -5.66699162387938,43.2899419095263,220.505799999999 -5.66792216083443,43.2899453744232,220.4761 -5.66883011324491,43.2899498502145,220.249500000005 -5.66977126918494,43.2900036433806,219.971399999995 -5.6701098433172,43.2900414243743,220.229300000006 -5.67082298258361,43.2901934491541,219.632700000002 -5.67119857000052,43.2902964578919,218.4617 -5.67168039847115,43.2904282028419,217.043900000004 -5.67200187496863,43.2905011638316,217.684699999998 -5.6724211528477,43.2907344516651,217.657300000006 -5.67254957779734,43.2908080001149,217.531000000003 -5.6727969792165,43.2910203787579,217.305800000002 -5.67352159715558,43.2916550667658,216.606499999994 -5.67432130796424,43.2923341237814,215.905400000003 -5.67441804843549,43.2923815116731,215.914699999994 -5.67451055155357,43.2924813357237,215.819799999997 -5.67459084207535,43.2925481225651,215.7745 -5.67470949604963,43.2926264889942,215.741599999994 -5.67496120399224,43.2927624128655,216.514800000004 -5.67518653739813,43.2928732954435,216.212199999994 -5.67538757317219,43.2929569190224,216.162800000006 -5.67559385151425,43.2930175539731,216.039399999994 -5.67595166306833,43.2930589481984,216.046499999997 -5.67609469642111,43.29310035678,215.790099999998 -5.67626908097732,43.2931319243396,214.885500000004 -5.67672202681494,43.2932114819711,214.164900000003 -5.67696540108667,43.293261487162,213.816300000006 -5.67741520282078,43.2933884160391,213.657000000007 -5.67801797507137,43.2936041084769,213.347299999994 -5.67844252426454,43.293778475749,213.573900000003 -5.67872334121563,43.2939072388616,213.391900000002 -5.67942401276419,43.294252007643,213.2641 -5.67981799138993,43.2944525556469,212.921400000007 -5.68007889897935,43.2946335221788,212.142699999997 -5.68043891589746,43.2949368036963,212.554900000003 -5.68129388836743,43.2957357116728,211.647800000006 -5.68217320158835,43.2965700833846,211.328200000004 -5.68290413468389,43.2972422912405,210.853900000002 -5.68326698399009,43.2975946748279,210.602400000003 -5.6839034304874,43.2979901470996,211.190000000002 -5.6849078969937,43.2985558077127,212.092399999994 -5.68563923612777,43.2989931267959,210.301099999997 -5.68609631780896,43.2991583858659,210.154399999999 -5.68668820607154,43.2993407263611,209.940700000006 -5.68722482638464,43.2995290110808,209.948300000004 -5.68781557288851,43.2996786324111,209.781600000002 -5.6880464866289,43.2997328170805,210.518500000006 -5.68882700762646,43.2998636465765,208.604399999997 -5.68945633048359,43.2999872902105,214.268100000001 -5.69003710299289,43.3000703339205,215.543900000004 -5.69038626736404,43.3001425105888,213.120500000005 -5.69072545953721,43.3002881868913,210.702799999999 -5.6911364154235,43.3005117961265,208.384600000005 -5.6915657328742,43.3008226862112,207.2114 -5.69215547416328,43.3012686532154,206.755399999995 -5.69288626173174,43.3017996071282,206.804000000004 -5.69361054190428,43.3023161406861,206.138399999996 -5.69419558680107,43.302679671872,205.788799999995 -5.69451363712402,43.3027658400489,206.281600000002 -5.69512195826814,43.3030941857855,206.272599999997 -5.69541088520959,43.3033525685542,205.876199999999 -5.69588009145217,43.3036557601697,205.664699999994 -5.69613511238154,43.3039381421447,205.425300000003 -5.69643982182423,43.304342655327,205.181100000002 -5.69666589364526,43.3046153015324,205.086899999995 -5.69685677396505,43.3051667737543,204.854999999996 -5.69697871307835,43.3058343773009,204.392900000006 -5.69712953482466,43.3063731337887,204.207500000004 -5.69728109408782,43.3067912198097,204.798299999995 -5.69722664180856,43.306858848583,204.977499999994 -5.69686871796505,43.3068235411641,205.334199999998 -5.6966403814912,43.3068410915922,205.104399999997 -5.69645422630982,43.3069179903595,205.051099999997 -5.69640521063466,43.3071309389771,203.090100000001 -5.69646179192114,43.3072661577786,201.656400000007 -5.6966630343077,43.3074541349066,199.969100000002 -5.6967763504926,43.3075667229676,198.3269 -5.69695825843934,43.3077324274262,198.411800000002 -5.69684952186574,43.3077860329428,201.157099999997 -5.69664205505259,43.307938645475,198.667300000001 -5.69679883442585,43.308062951863,198.988500000007 -5.69697840495621,43.3083239315007,200.334900000002 -5.69688331289349,43.3083713298104,200.693199999994 -5.69695550330634,43.3084293274849,200.509999999995 -5.69711067289864,43.3085434642627,200.237500000003 -5.69733063527742,43.3086976940483,200.158100000001 -5.69761203613342,43.3088937742653,200.083199999994 -5.69798263879883,43.3091625368637,199.598700000002 -5.69807816295121,43.3092216535203,199.865699999995 -5.69827608067292,43.3093559146218,199.353000000003 -5.6983891444312,43.3094141126866,199.304900000003 -5.69846101414552,43.3094638875353,199.276599999997 -5.69859862257232,43.3096544581484,199.136799999993 -5.69875074148588,43.3098530309659,198.9139 -5.69884445104139,43.3100317318279,198.887400000007 -5.69903062418908,43.3103600350513,198.580900000001 -5.69922658717674,43.3107174803317,198.793300000005 -5.69928961477369,43.3108711313476,198.628100000002 -5.69924165102573,43.3110777596984,198.013600000006 -5.69912074138174,43.3113513868878,198.018400000001 -5.69901605980338,43.3114600903011,198.382100000003 -5.69870924560799,43.3115174222317,198.727100000004 -5.69837014506296,43.3115908821408,198.924599999998 -5.69800899806423,43.3118074460248,198.794800000003 -5.69771044836944,43.3119465769221,199.049799999993 -5.69741768292676,43.3120579121317,198.999599999996 -5.69753263853706,43.3121610152131,198.787500000006 -5.69777454765653,43.312344435736,198.725300000006 -5.69795554471154,43.3125615185349,198.611000000004 -5.6981501844808,43.312825121489,198.579299999998 -5.69832654443233,43.313021392323,198.089500000002 -5.6985104771817,43.3132303919125,198.087400000004 -5.69866511766627,43.3134544019299,197.747799999997 -5.69884006187291,43.3137095085017,197.809699999998 -5.6989041072611,43.3138131761241,197.911999999997 -5.6988976187298,43.313912497652,198.055999999997 -5.69883993341382,43.3140341204837,198.190300000002 -5.69916839880419,43.3142449205711,197.925799999997 -5.69960315645227,43.314532161336,197.952699999994 -5.699769550494,43.3146541541791,197.789000000004 -5.69971626153305,43.3147050698633,197.895900000003 -5.69995097424881,43.3148723575112,197.8606 -5.70025670507596,43.3150662465244,197.406199999998 -5.70086922674234,43.315439987218,197.771200000003 -5.70106271487139,43.3155386655568,197.221000000005 -5.7012808518735,43.3156634165362,197.270199999999 -5.70158932615556,43.3158486742126,197.295499999993 -5.70170237554078,43.3158243086924,197.209700000007 -5.70174276469428,43.3157690272458,197.125499999995 -5.70181644361559,43.315726478537,196.689799999993 -5.70190380298032,43.315711175792,197.154699999999 -5.70199684329093,43.3156984024775,197.598100000003 -5.7020894524102,43.315707369223,197.402799999996 -5.70229322984251,43.3157701181039,197.016600000003 -5.70263571883279,43.3158687743379,197.205700000006 -5.70306365287796,43.3159863625189,196.845799999996 -5.7036717189005,43.3161311073888,196.622000000003 -5.70396150103812,43.316191629033,196.805600000007 -5.70429625643213,43.3162786126963,196.914999999994 -5.70458735011004,43.31634836555,196.625799999994 -5.70488246285057,43.3164440659534,196.845799999996 -5.70527044073017,43.3165754686322,196.274799999999 -5.70577799066236,43.3167575758427,196.529800000004 -5.70591421209035,43.3168122014942,196.420800000007 -5.70609388143539,43.3168407704983,196.2883 -5.70627084685139,43.316869745367,196.375899999999 -5.70640449909768,43.3169103129051,196.371199999994 -5.70659708801314,43.3169842695573,196.401700000002 -5.70690648576328,43.3171942502735,196.411399999997 -5.70716017898267,43.3173703727348,196.419899999994 -5.70730142558639,43.3175029282884,196.441800000001 -5.70742631836032,43.3176572052714,196.517300000007 -5.70758328458318,43.3178573858849,197.229099999997 -5.70774154617668,43.318047009945,197.920899999997 -5.70798203955129,43.3182613789994,197.961500000005 -5.70820123566715,43.3184501913708,197.323799999998 -5.70833258463304,43.3185663288604,196.965100000001 -5.70843702636122,43.3186753794846,196.705499999996 -5.70859123385786,43.3188566765148,196.254499999995 -5.70882936106998,43.3190718472503,196.111399999994 -5.70931706362426,43.3194529125924,196.206999999995 -5.70971785956468,43.3197436108918,196.218599999993 -5.71034457191758,43.3201687057889,197.040500000003 -5.71107610329113,43.3206773459123,197.471999999994 -5.71170798365186,43.3211252350609,197.538199999995 -5.71180888152625,43.3211950529335,197.539499999999 -5.71196436642719,43.3211038622667,196.8652 -5.71208708168492,43.3210645686693,196.236099999995 -5.71233264874424,43.3210971608423,195.452600000004 -5.71250977046714,43.3211599100392,195.350900000005 -5.71277581282673,43.3213397108922,195.234299999996 -5.71296551725181,43.3214263349284,195.698999999993 -5.71324154258914,43.3214903640668,196.453899999993 -5.71349322987051,43.3215125863245,196.688800000004 -5.71385642053651,43.3215574412369,196.751199999999 -5.71428821464244,43.321624944439,196.891000000003 -5.71493888326733,43.3217472354327,197.131099999999 -5.71546898450639,43.3218482157337,198.519199999995 -5.71584926651899,43.32189638839,198.906900000002 -5.71618626949783,43.3219533301185,200.054699999993 -5.71647417774977,43.3219856427562,200.7356 -5.71665674236495,43.3220467003475,201.709700000007 -5.71694394903263,43.3221901479001,200.961500000005 -5.71712452837106,43.3222619408236,199.934099999999 -5.71735249473901,43.3223199258958,197.964699999997 -5.71747438175004,43.3223704927077,197.263500000001 -5.71763646118348,43.3225944128284,195.967300000004 -5.71771609324015,43.3228065360147,194.898000000001 -5.717743208887,43.3230184395305,194.357600000003 -5.7178317980454,43.3231663816616,193.012900000002 -5.71781139281369,43.3233105643931,195.522299999997 -5.7177722199791,43.3234946629424,196.531700000007 -5.71782209534201,43.3236741059483,196.055800000002 -5.71793147061774,43.3236635641005,192.771699999998 -5.71793869307261,43.3236155385792,192.486499999999 -5.71800708810342,43.3235779117645,192.252900000007 -5.71811039705601,43.3236049222205,191.847399999999 -5.71813709588458,43.3236758338413,191.064899999998 -5.71815566585815,43.3239094328959,190.539399999994 -5.71814200158436,43.3240956234773,190.866699999999 -5.71818008835577,43.3242680885065,190.608600000007 -5.71842816800293,43.3243747605868,190.7546 -5.71855966339422,43.3244213125036,191.016799999998 -5.71858770879741,43.3244174502787,191.032999999996 -5.71869013470609,43.3244608215477,192.164499999999 -5.71878488540901,43.3244246741422,191.549700000003 -5.71892783701512,43.3245734107785,191.949500000002 -5.71889371001749,43.3246468921548,192.063699999999 -5.71904834151889,43.3247013329606,191.657000000007 -5.71916275634337,43.3247639751815,191.571200000006 -5.71931979263484,43.3249067477861,191.373800000001 -5.71945093947979,43.3250219763317,191.291899999997 -5.71959922618036,43.3251293032013,191.324600000007 -5.71974601089778,43.3252928280666,191.1538 -5.71987138786368,43.3254015235323,191.363500000007 -5.72004382756731,43.3255395188993,191.249200000006 -5.72010544570758,43.3256545756828,191.302899999995 -5.72052472717994,43.3260560219308,191.672699999996 -5.72095604607707,43.3264784175529,192.156700000007 -5.72115660664237,43.3266635200538,192.647200000007 -5.72133921437668,43.3268302343499,193.073499999999 -5.72150871479271,43.3266726250264,192.054399999994 -5.72158913646849,43.3266262819889,191.960699999996 -5.72178716378468,43.3267370093575,192.197400000005 -5.72186479349658,43.3268520887052,192.544800000003 -5.72200828948177,43.326956849395,192.6636 -5.72206842091024,43.3270769097905,192.969700000001 -5.72217421011136,43.3271634263177,193.179099999994 -5.72230603518435,43.3272830831102,193.596099999995 -5.72238969169352,43.3273566611905,193.571599999996 -5.72243245060272,43.3274071708786,193.597299999994 -5.72246029029171,43.3274672983553,193.958199999994 -5.7227226998643,43.3277420822314,194.740600000005 -5.72299708577623,43.3280037020558,195.414300000004 -5.72335033478698,43.3283408952852,196.514800000004</coordinates>
</LineString>
</Placemark>
</Folder>
</Document></kml>
