<?xml version="1.0" encoding="UTF-8"?>

<kml xmlns:xsd="http://www.w3.org/2001/XMLSchema" xmlns:gx="http://www.google.com/kml/ext/2.2" xmlns:atom="http://www.w3.org/2005/Atom" xmlns="http://www.opengis.net/kml/2.2">
<Document>
<name>ES48a_06a_la_puebla_de_arganzon-salcedo</name>
<visibility>1</visibility>
<Schema name="ES48a_06a_la_puebla_de_arganzon-salcedo" id="kml_schema_ft_ES48a_06a_la_puebla_de_arganzon-salcedo">
<SimpleField type="xsd:string" name="id">
<displayName>id</displayName>
</SimpleField>
<SimpleField type="xsd:string" name="nombre">
<displayName>nombre</displayName>
</SimpleField>
<SimpleField type="xsd:double" name="longitud">
<displayName>longitud</displayName>
</SimpleField>
<SimpleField type="xsd:string" name="_formato">
<displayName>_formato</displayName>
</SimpleField>
</Schema>
<Folder id="kml_ft_ES48a_06a_la_puebla_de_arganzon-salcedo">
<name>ES48a_06a_la_puebla_de_arganzon-salcedo</name>
<Placemark id="kml_1">
<name>&lt;img height='20' src='https://nco.ign.es/iconos/icono_todos_caminos_azul.png' /&gt;&lt;img height='20' src='https://nco.ign.es/iconos/Camino Santiago_20.png' /&gt;&lt;img height='20' src='https://nco.ign.es/iconos/icono_todos_caminos_azul.png' /&gt;  Camino de Santiago </name>
<visibility>1</visibility>
<description><![CDATA[<!DOCTYPE html>
<html>
<head>
<style>
#nco {
  border-collapse: collapse;
  overflow:hidden;
}
#nco th, #nco td {
  padding: 4px;
  text-align: left;
}
#nco th {
  color: #364B5F;
  padding-right: 5px;
}
#nco td {
  color: rgb(51, 51, 51);
  font-size: 12px;
  padding-right: 5px;
}
</style>
</head>
<body>
<table id="nco">
<tr>
<td>Caminos del Norte</td>
</tr>
<tr>
<th><b>Camino: </b></th>
<td>ES48a Camino de las Asturias</td>
</tr>
<tr>
<th><b>Etapa: </b></th>
<td>06a La Puebla de Arganzón-Salcedo</td>
</tr>
<tr>
<th><b>Longitud: </b></th>
<td>20.21 km</td>
</tr>
</table>
</body>
</html>]]></description>
<Style>
<IconStyle>
<scale>0.8</scale>
</IconStyle>
<LabelStyle>
<color>ffffffff</color>
<scale>0.75</scale>
</LabelStyle>
<LineStyle>
<color>ffff0000</color>
<width>3.0</width>
<gx:labelVisibility>1</gx:labelVisibility>
</LineStyle>
<PolyStyle>
<color>66ff0000</color>
</PolyStyle>
</Style>
<ExtendedData>
<SchemaData schemaUrl="#kml_schema_ft_ES48a_06a_la_puebla_de_arganzon-salcedo">
<SimpleData name="id">ES48a_06a</SimpleData>
<SimpleData name="_formato">kml</SimpleData>
</SchemaData>
</ExtendedData>
<LineString>
<extrude>0</extrude>
<tessellate>1</tessellate>
<coordinates>-2.83249780387112,42.7644824875293,477.207899999994 -2.8328422143578,42.7634147151832,476.341499999995 -2.83195691027227,42.7634065900152,479.603199999998 -2.83119701010205,42.763395484518,483.571200000006 -2.83031317296539,42.7633429267807,487.426800000001 -2.83039300444804,42.7631577364432,485.857699999993 -2.83058641622028,42.7624087116946,480.106599999999 -2.83077320022236,42.7615836466777,477.955400000006 -2.8308227773446,42.7612031324062,477.483500000002 -2.83087569440302,42.7608228782939,477.081900000005 -2.83105503226973,42.7599234077753,475.806899999996 -2.83132076650718,42.7591082155375,474.827099999995 -2.83158247000396,42.7586115050776,474.605299999996 -2.83189434081607,42.7582059077388,474.424599999998 -2.83220388050005,42.7578917762011,474.2117 -2.83262157195435,42.7575610119486,473.939100000003 -2.8330690713064,42.7572330741931,473.447199999995 -2.83365138801964,42.7568032401171,473.059699999998 -2.83422113550543,42.7563812217833,472.968699999998 -2.83527334028259,42.7556182610151,472.449200000003 -2.83603906333246,42.7550531907629,471.943599999999 -2.83715477181362,42.7542416678344,471.752399999998 -2.83790074360535,42.7536953226822,471.609100000001 -2.83888784028731,42.7529835286787,471.678100000005 -2.83948849341214,42.752635559614,471.372099999993 -2.84019875806963,42.7522959955639,471.303100000005 -2.8410063578831,42.751980820213,471.409 -2.84160470054102,42.7518050471512,471.553199999995 -2.84300250247932,42.7514429585212,471.5769 -2.84402637259576,42.7511724952289,471.621299999999 -2.84502568906053,42.7508971850147,471.841899999999 -2.84590298556363,42.7506531131093,471.897899999996 -2.84662605660382,42.7503247218995,471.710800000001 -2.84770733805005,42.7497952762314,471.414699999994 -2.84856056509342,42.7493520218979,471.303599999999 -2.84883617720576,42.7491623594542,471.337499999994 -2.84868624029999,42.7490249675292,471.295700000002 -2.8487315558145,42.7488593686786,471.221099999995 -2.84880622647587,42.7487226984171,471.146399999998 -2.84842896370094,42.7476053389065,472.747199999998 -2.84816201404288,42.7469818260114,474.582500000004 -2.84749384713456,42.7460086843302,479.974000000002 -2.84683509636705,42.7452591409032,485.905899999998 -2.84667252375851,42.7441034970128,497.7163 -2.84654565828419,42.7438050025646,500.470499999996 -2.84611470050979,42.7430646086359,502.915200000003 -2.84599515720335,42.7427400069582,504.725699999995 -2.8460165371071,42.7424463596048,505.356199999995 -2.84607369421369,42.7422559160167,505.518400000001 -2.84623538737157,42.7420110632622,506.332200000004 -2.84650262179555,42.7416861163015,509.016000000003 -2.84668369161413,42.7408080797701,516.291299999997 -2.84681961120819,42.7402883317301,520.1351 -2.84673369543609,42.7402581999845,520.162299999996 -2.84667797653229,42.740318942444,520.309899999993 -2.84657160073127,42.7405277806462,521.0383 -2.84650243584428,42.7405442025791,521.914900000003 -2.84641264384174,42.7405133755771,523.384399999995 -2.84591672799083,42.7401794724747,528.034799999994 -2.8453404946687,42.7399767642475,529.895099999994 -2.84418982824822,42.7395703093154,534.3128 -2.8441336916278,42.739468981999,534.767099999997 -2.8442384450714,42.7392800579461,533.881999999998 -2.84469929788014,42.7389504188981,531.925000000003 -2.8451909664964,42.7384117777652,531.821200000006 -2.84583189918025,42.7376884876763,535.646599999993 -2.84651259129857,42.7372383074025,536.857699999993 -2.84694750884677,42.7369580752747,538.670499999993 -2.8470972849541,42.7368858860795,539.7209 -2.84726559869559,42.7368304925001,540.704599999997 -2.84756274342529,42.7367458409652,542.841799999995 -2.84820721277641,42.7365829283323,547.622300000003 -2.84888266502169,42.7364126374137,552.465500000006 -2.84924957022141,42.7363085548957,554.577699999994 -2.84990183335595,42.7360985003254,555.374400000001 -2.85044432865096,42.735927021751,555.112699999998 -2.85063852105921,42.7358616167759,555.036699999997 -2.85073765194744,42.7358102055192,554.955100000006 -2.85083730565515,42.735723790912,554.991999999998 -2.8511397558349,42.735362450923,556.391600000003 -2.85123730299328,42.7352658277735,557.097299999994 -2.85136040362826,42.7351851897113,556.949299999993 -2.85156359266404,42.7351181166102,556.269199999995 -2.85179843473721,42.7350698137713,555.712100000004 -2.85227077699842,42.7350192061697,555.460800000001 -2.8527598431953,42.7349206749643,555.080799999996 -2.8529901676409,42.7348730350849,554.835600000006 -2.85325302098123,42.7348603422397,554.900999999998 -2.85362450040234,42.7348861792402,556.7353 -2.85412301238443,42.734969430551,559.566800000001 -2.85445471889635,42.7350074832791,560.332299999995 -2.85472849485226,42.7350011193856,560.518800000005 -2.85492933928514,42.7349784475559,560.405299999999 -2.85519868475006,42.7349184078447,560.415200000003 -2.85565163058768,42.7347669876924,560.551800000001 -2.85597605086431,42.7346846697496,560.627800000002 -2.85633021256341,42.7345748010333,560.595000000001 -2.856504162335,42.7345014418455,560.860799999995 -2.85690236124594,42.7342844273076,562.169699999999 -2.85737666003787,42.7340618365084,563.385899999994 -2.85752544260847,42.7339639906585,563.152700000006 -2.85766922515623,42.7338086765256,562.654399999999 -2.85780881616486,42.7336757822639,562.036800000002 -2.85795416896771,42.7335975617222,561.844700000001 -2.85825336904277,42.7334839016829,562.776599999997 -2.85851492611415,42.7333748846593,563.939199999993 -2.85877215420419,42.7332359447519,565.148400000005 -2.85908095277806,42.7330815235294,566.005799999999 -2.85931296156478,42.7330160555084,565.120299999995 -2.85997478097731,42.7328885418243,562.693599999999 -2.86024361260589,42.7328313459619,562.138999999996 -2.86033815400132,42.7326995634112,561.693199999994 -2.86043408509052,42.7324476396862,556.798500000004 -2.8604682084949,42.732202683535,554.479200000002 -2.86051127642457,42.7320617053827,553.125899999999 -2.86058837074057,42.7319091571778,550.5959 -2.86067777017931,42.7317842027438,548.566999999995 -2.86076024899715,42.7317167340149,547.971300000005 -2.86089320774401,42.7316477238067,546.392200000002 -2.86123789940338,42.7315261307805,540.119699999996 -2.8614714470042,42.7314389870075,537.454599999997 -2.86178517643067,42.7313190695959,533.886400000003 -2.86208460557612,42.7312255487138,530.670700000002 -2.8623227759074,42.7311353922857,527.509600000005 -2.86237392597966,42.7310972474417,526.792499999996 -2.8624556412295,42.731019674265,525.222599999994 -2.86258333674714,42.7308781714772,523.417300000001 -2.86271662158245,42.7307974287312,521.804399999994 -2.86293785507739,42.7306745657895,518.990600000005 -2.86302784560758,42.7305991478454,517.9185 -2.8631309021336,42.7304352721641,516.768299999996 -2.86316506506388,42.7302990515644,516.780100000004 -2.86311837961856,42.73017179558,516.184200000003 -2.86300664446855,42.7300590517542,515.798999999999 -2.86283530340454,42.7299764227042,515.092999999993 -2.86234637195496,42.7297572833926,514.125100000005 -2.86223306565153,42.7296714760095,514.087400000004 -2.86220263611962,42.72961153608,513.447700000004 -2.86223646397825,42.7295299252746,512.849100000007 -2.86255578811232,42.7293487389651,512.546000000002 -2.86266478340068,42.7290927730892,512.539199999999 -2.86285509329023,42.7289558903238,511.278900000005 -2.86308173015158,42.7287200669734,508.020900000003 -2.86372524189863,42.7278883967089,500.2601 -2.86398002118121,42.7276866460577,498.329800000007 -2.86430605123884,42.7275076979983,496.176600000006 -2.86471503981466,42.7273973526627,493.3321 -2.8660402929123,42.7272682225624,484.460500000001 -2.8669416579768,42.7271731105023,478.4853 -2.86742530194259,42.7271102138011,477.127600000007 -2.86763481152475,42.7270183508349,477.296100000007 -2.86782309840831,42.7267698592723,476.879700000005 -2.86809892342136,42.7266552140257,477.000700000004 -2.86847012705969,42.72666489742,475.813099999999 -2.86869561856904,42.7267883820113,475.361099999995 -2.86886668834186,42.7269721500623,475.0674 -2.86914713518704,42.7270323162476,474.357499999998 -2.8695571550288,42.7270478614515,473.072100000005 -2.87047383187732,42.7270201952488,470.258700000006 -2.87103843740642,42.7269898326908,469.536800000002 -2.87135954200137,42.7268726973913,469.936000000002 -2.87151911333854,42.7267070974419,469.455499999996 -2.87181584214825,42.7265918977616,468.847699999998 -2.87194114275736,42.7264562230403,468.1823 -2.87199055548787,42.7262854918743,467.4905 -2.87203829735194,42.724946065319,465.388999999996 -2.87206269110349,42.7239931537367,464.411200000002 -2.87216708971257,42.7236999864689,464.1103 -2.8724782742118,42.7230818367196,463.956600000005 -2.87257699456996,42.7230284931237,463.936499999996 -2.87322984250774,42.7230832965059,458.768599999996 -2.8738616824443,42.7231340669526,461.539199999999 -2.87413748589778,42.7231270194638,463.326799999995 -2.87475150864898,42.7230720352968,463.852599999998 -2.8753084030397,42.7229954307754,464.9185 -2.8756659280312,42.7229557617417,466.446100000001 -2.8756861392268,42.7234259117435,468.755600000004 -2.87567861942953,42.7240171745186,469.710900000005 -2.87569433186216,42.7242970011923,470.418799999999 -2.87568246871052,42.7246395635326,471.010399999999 -2.8756886140854,42.7251161204559,472.765700000004 -2.87572693531708,42.725234109045,474.2402 -2.87586711741717,42.7252913020146,475.909 -2.87601005824351,42.7252795145932,477.088900000002 -2.87635864679456,42.7249760850593,482.125499999995 -2.87640989388491,42.7248716481084,483.356899999999 -2.87638718896607,42.7246938811086,485.759900000005 -2.8763990745756,42.7246083234313,486.938500000004 -2.87647522655888,42.7245218648394,488.496100000004 -2.87727637467199,42.7239291860438,500.148400000005 -2.87764630449924,42.7236859939087,503.665999999997 -2.87785350990267,42.7236277409254,504.804600000003 -2.87844434623809,42.7235335003369,507.987099999998 -2.87940064328223,42.7234012017594,513.933099999995 -2.88039884314108,42.7232951954662,519.412200000006 -2.88093812246741,42.7232379914172,521.971999999994 -2.88158158390879,42.7231794384012,524.886499999993 -2.88173206160035,42.7231803873928,525.406900000002 -2.88245061591126,42.7232472668434,527.780299999999 -2.88293345408826,42.7232832288225,529.676699999996 -2.88334649496435,42.723294902454,531.9421 -2.88358581244422,42.7232964948826,533.358699999997 -2.88383579921476,42.7233359828758,535.063599999994 -2.88404351755623,42.723431636687,536.024600000004 -2.88427992988449,42.7235459665028,537.451000000001 -2.8844852649955,42.7236897898438,538.453599999993 -2.8845188664787,42.7237865669738,538.970600000001 -2.88448995240466,42.7240334483802,540.733600000007 -2.88440397464883,42.724325729771,543.174100000004 -2.88429485269798,42.7246711876932,544.919999999998 -2.88421633006069,42.7248457515027,545.098599999998 -2.88412998938547,42.7249792031784,545.829700000002 -2.88398577115482,42.7251167684953,545.754300000001 -2.88381267657934,42.7252628081534,544.142999999996 -2.88364929279211,42.7254605550693,541.872600000002 -2.88353428418122,42.7256506694705,540.650200000004 -2.88344668945788,42.7258304873695,539.797900000005 -2.88341408600296,42.7259867017994,539.426200000002 -2.88335098474414,42.7262855684233,539.471900000004 -2.88324810967777,42.7265582790347,538.261400000003 -2.88304317970696,42.7269721322451,531.652400000006 -2.88298786863831,42.7271303221697,530.449099999998 -2.88295393837171,42.7275054378666,527.9853 -2.88291768955336,42.72773565545,525.133199999997 -2.88291963620257,42.7278306346698,524.058499999999 -2.88295371918278,42.7279900484758,522.078800000003 -2.88299729466058,42.7280812441777,521.377699999997 -2.88308164646573,42.7281483809795,520.763000000006 -2.88320467343886,42.7281933389721,520.525999999998 -2.88332892930727,42.728203212833,520.700800000006 -2.88429973054998,42.7281169433595,527.704599999997 -2.88454092281387,42.7281010691404,530.914799999999 -2.88468905141098,42.7281113640233,531.826100000006 -2.88524076611577,42.7284217584616,534.717699999994 -2.88573652925307,42.7286825158556,539.421300000002 -2.88612695414354,42.7288936295728,542.674299999999 -2.88638800007354,42.7291405737991,546.174100000004 -2.88669486008301,42.7294311774884,550.703299999994 -2.88686499740455,42.7295944236669,554.494099999996 -2.88718326691645,42.729893853592,561.764899999995 -2.88763032250074,42.7301316844069,570.444499999998 -2.88783079053957,42.7301172300723,574.256800000003 -2.88832629406375,42.7299978960663,583.299400000004 -2.88840774071729,42.7299357452392,585.037500000006 -2.88864642757987,42.7296114905489,591.715400000001 -2.8888314329177,42.7289425218732,606.573600000003 -2.88900483920857,42.7288405648237,610.666500000007 -2.88921651732378,42.7289255221145,610.699099999998 -2.88929367901343,42.728910069764,611.659 -2.88931135695991,42.7285745429029,617.076199999996 -2.88926737634192,42.7282313463664,621.248500000002 -2.88940315310384,42.7280042334122,626.490099999995 -2.88956308017387,42.7278739590087,630.885399999999 -2.88973575074455,42.7277755642667,637.117100000003 -2.88993503121052,42.7277853689057,642.261599999998 -2.88998938737006,42.7277271461675,644.275699999998 -2.88985313180608,42.7274917193603,641.480599999995 -2.88975505464168,42.7271970106117,639.025999999998 -2.88965305453442,42.7269554236215,636.401500000007 -2.88996190610889,42.7270178697695,641.432199999996 -2.89027850924595,42.7271037072194,649.146800000002 -2.89052617207482,42.7271610245055,656.339800000002 -2.89083852348565,42.7271583941594,662.922099999996 -2.89099381794375,42.7270108101838,665.2696 -2.89119999926775,42.7269120465091,667.185400000002 -2.89150852205882,42.7267331859616,669.866399999999 -2.89168376989604,42.7265358614809,670.280599999998 -2.89180055088298,42.7263110262509,670.637600000002 -2.89197122988863,42.7259856927991,668.805800000002 -2.89226803954671,42.7260696707374,669.074200000003 -2.89251311522758,42.726181570535,666.865699999995 -2.89286579650306,42.7263974783899,663.902900000001 -2.89336161533595,42.7266472971866,660.566000000006 -2.89355011601852,42.7267137221875,659.964200000002 -2.89375012232328,42.7267316008802,658.807000000001 -2.89400134068407,42.7267304361554,658.025500000003 -2.89439744921534,42.7267920108019,655.439199999993 -2.89546078411883,42.7268628259581,647.773799999995 -2.89614113936893,42.7270393712116,645.482300000003 -2.89654481620648,42.7272151056108,643.050000000003 -2.89696186267039,42.72735384718,639.921199999997 -2.8975807003915,42.7274843496789,638.694499999998 -2.89865386555916,42.7275244348485,638.4329 -2.90014282493922,42.7274191139713,635.526500000007 -2.90038145520791,42.7273860071104,634.213699999993 -2.90071641811274,42.7273237190478,632.806800000006 -2.90121512143598,42.7272836786213,630.396399999998 -2.90167282924292,42.7271481618085,627.817599999995 -2.90221446125695,42.7270425604958,625.736900000004 -2.90241418369409,42.7270482884051,625.015499999994 -2.90280695139082,42.7271086155313,623.554300000003 -2.90377547450596,42.7278371616318,610.9228 -2.90392074286718,42.7281330227991,606.337299999999 -2.90391304879678,42.728549304425,599.025099999999 -2.90376258188502,42.7289098744403,591.548999999999 -2.90376795470872,42.7291330406647,590.964300000007 -2.90387630321007,42.729390266071,587.646599999993 -2.90386365852413,42.7297160481946,586.186600000001 -2.90388142720045,42.7304190844443,579.859100000001 -2.90401373826204,42.7306578515646,578.247199999998 -2.90391458491591,42.7308985313493,576.8603 -2.90376163146742,42.7310930811217,575.666200000007 -2.90361640712366,42.73156340304,569.160000000003 -2.90343998518839,42.7317426653636,566.008600000001 -2.90350037892492,42.7319250225042,563.136700000003 -2.9036624053578,42.7322667172587,556.710600000006 -2.90390059365535,42.7325809872492,551.659199999995 -2.90433565673062,42.7323196629446,548.4277 -2.90462217798374,42.7320889846479,545.621700000003 -2.90484198315736,42.7319611958819,543.730100000001 -2.90507937824255,42.7319029486898,542.628500000006 -2.90537938949631,42.7320363297564,542.148499999996 -2.90569976735418,42.7321102586657,542.645699999994 -2.90599739986906,42.7320829233232,543.7889 -2.90684784662662,42.7316021203462,550.2065 -2.90720319769514,42.7315150980924,553.7405 -2.90765904509112,42.7313389054011,557.084199999998 -2.9079676038148,42.7312933808958,557.712 -2.90845455358088,42.7312909618776,561.155299999999 -2.90875829643633,42.7313046993393,563.214900000006 -2.90951395745668,42.7311421241145,569.102799999993 -2.90998971690925,42.7309817094904,573.778999999995 -2.91058829133253,42.7308881946982,578.425199999998 -2.91076797415229,42.7308975672991,580.562000000005 -2.91095634547748,42.7309580978764,582.645099999994 -2.91108497793795,42.7311620286011,584.314799999993 -2.9109400904624,42.7312514782883,585.3897 -2.91039875848566,42.7314452780231,589.346999999994 -2.9100032976397,42.7316840821036,590.361399999994 -2.90961189178894,42.7317903544968,590.634300000005 -2.90936119984092,42.7319319060117,591.458700000003 -2.90914123027563,42.7320859071367,591.840700000001 -2.90885433711998,42.7322132528914,592.550700000007 -2.90853430870675,42.7323088560634,593.177599999995 -2.90809016546059,42.7324518864157,591.717999999993 -2.90781782321592,42.7325548041927,589.209600000002 -2.90756842574022,42.7326960867288,586.685400000002 -2.90731611412973,42.7328357813781,586.508100000006 -2.90718747178779,42.7329794089849,588.263000000006 -2.90699212414611,42.7330924576238,588.828599999993 -2.90678086823903,42.7331471650173,588.888099999996 -2.90654714906,42.7332260505775,588.199699999997 -2.90621782847347,42.7333332770827,585.689299999998 -2.90600512987208,42.7335524638041,582.920599999998 -2.9058850844074,42.7337494795994,582.472500000003 -2.90589462631233,42.7340872442971,577.407800000001 -2.90586849521903,42.734220930782,575.940799999997 -2.90613187497213,42.7343222224663,574.326199999996 -2.90628461192665,42.7346506054141,567.928599999999 -2.90648074289926,42.7347325961337,568.903200000001 -2.90662001051438,42.7347610044876,569.606599999999 -2.90675958445503,42.7347703118415,569.635500000004 -2.90693491763218,42.7347300598025,568.862299999993 -2.90720679095626,42.7346565444219,571.595199999996 -2.9075459624682,42.734574700741,570.243700000006 -2.90782255823576,42.7345077398085,571.497399999993 -2.90805962902912,42.7344524199839,572.803700000004 -2.90813496354551,42.7344530844212,572.797399999996 -2.90826818010888,42.734491279327,573.223400000003 -2.90850468226868,42.7345774673548,573.631899999993 -2.90877782131901,42.7346759073911,575.079800000007 -2.90895964033253,42.7347135030468,574.620699999999 -2.90914761639899,42.7347957721251,573.961599999995 -2.90929707629931,42.7348480795909,572.006899999993 -2.90939714233375,42.7349463700798,571.606799999994 -2.90943039527064,42.735063296148,572.346999999994 -2.90950876788928,42.7351529546473,572.869699999996 -2.90975596808582,42.7352274241849,572.739499999996 -2.91018124042278,42.7352941375715,572.158299999996 -2.91043629818307,42.7353519612803,572.125899999999 -2.91051182314227,42.7353514763207,572.092199999999 -2.91064572961177,42.735407474946,572.936400000006 -2.91077186475578,42.7354400846487,572.560700000002 -2.91093274493833,42.735465768992,572.3079 -2.91114708116849,42.7354779477232,571.821800000005 -2.91125421424926,42.7355102169282,572.244099999996 -2.91135542294075,42.7355028191681,571.717300000004 -2.91145003260816,42.7355218143605,571.762400000007 -2.91155242797414,42.7354946085243,570.798200000005 -2.91172509315491,42.7354960158936,570.363700000002 -2.91204058866921,42.7354521512175,568.383499999996 -2.91212744946895,42.7354545548978,568.049299999999 -2.9122119872254,42.7355288775961,568.1587 -2.91259931202982,42.7355825099949,565.617199999993 -2.913434183797,42.7363066625927,553.422300000006 -2.91368341957596,42.7365764768476,549.171300000002 -2.91370766420715,42.73675223569,546.515700000004 -2.91359552751025,42.7369360296435,545.304099999994 -2.91343058424766,42.7370642086518,544.723700000002 -2.9132099346577,42.7373665266929,543.868799999997 -2.91310725183081,42.737664749298,545.643400000001 -2.91294681721266,42.7380828915285,542.773400000005 -2.91292425332937,42.738348757866,539.323999999993 -2.91296209036911,42.7384991624552,537.568299999999 -2.91304668651604,42.7386729187132,535.270000000004 -2.91369497909704,42.7384923357575,527.812900000004 -2.91428873226216,42.7389831652895,518.717999999993 -2.91493402087684,42.7386875610685,511.069600000003 -2.91508911770561,42.7383466624139,506.934500000003 -2.91532240120174,42.7378931602978,500.674199999994 -2.91575788199359,42.737727337734,493.151800000007 -2.9161204501271,42.7373547626794,486.863400000002 -2.91625207128252,42.7373513403605,484.040599999993 -2.91723869545064,42.7375674428991,481.383499999996 -2.91735343726189,42.7376406058029,482.057100000005 -2.91732507205848,42.737771206079,482.429300000003 -2.91714761077241,42.7384186810058,482.763999999996 -2.91749135920072,42.7388665679211,482.4853 -2.91763886436702,42.7389012356107,482.411099999998 -2.91785885010199,42.7387781815544,484.287800000006 -2.91871613393718,42.7378921363162,492.690600000002 -2.91889340837366,42.7377903041625,492.763200000001 -2.91906472608151,42.7377819282159,492.6774 -2.91938910952723,42.7379788599781,492.204400000002 -2.91950248500094,42.7379593548677,492.778699999995 -2.92007226931764,42.7379861116313,494.589800000002 -2.92022614353929,42.7380265476149,495.276500000007 -2.92073774397509,42.7383834311233,495.381800000003 -2.92079402432594,42.7387350845366,494.110499999995 -2.92099244510423,42.7391219643256,494.749400000001 -2.92126979815154,42.7394082987455,496.027799999996 -2.92165287033143,42.739662917697,497.478799999997 -2.92199077971037,42.7399284506785,497.861699999994 -2.92259635021308,42.740434124546,500.006800000003 -2.92285003894089,42.7408219424556,501.922399999996 -2.92313869459115,42.7413116234025,503.217000000004 -2.92318093068084,42.7415368205543,505.3177 -2.92304729280761,42.7418897155263,507.848299999998 -2.92300421230154,42.7422076022444,509.395499999999 -2.92289580900293,42.7424085693976,510.873000000007 -2.92257485712159,42.7428262079312,517.0291 -2.92255855719076,42.7429952778931,518.968200000003 -2.92258005657046,42.7433604743511,522.319699999993 -2.92264970834434,42.7435060752208,523.514200000005 -2.92278976917186,42.7436477715215,524.546900000001 -2.92300235009395,42.7436833575073,524.301800000001 -2.92319621102384,42.7435689724477,523.708899999998 -2.92339947372147,42.743150213425,520.2402 -2.9235261092271,42.7430942679729,519.228000000003 -2.92370063122554,42.7431222370768,518.446800000005 -2.92461304197478,42.7437419723138,522.714399999997 -2.92499081768775,42.7440073077234,524.295199999993 -2.92526822104073,42.7441023207394,525.799299999999 -2.92610118927783,42.7441703130016,529.194900000002 -2.92792365180037,42.7441079817612,537.399300000005 -2.92845189981501,42.744086352314,542.1342 -2.92887713891429,42.7439656888085,545.021099999998 -2.92980816814614,42.7436105863511,542.310500000007 -2.93030885944109,42.7434104649012,540.6149 -2.93052173321397,42.7433599643846,540.081600000005 -2.93072556185025,42.7433422976385,539.883600000001 -2.93141870910998,42.7433696735389,535.686000000002 -2.93166351260133,42.7434274930159,534.193799999994 -2.93211418390463,42.7435889791609,530.915699999998 -2.93223265013106,42.7434733952113,530.179799999998 -2.93248400054419,42.7429147587375,530.353300000002 -2.93270536159985,42.7422319412223,538.887499999997 -2.9334747102502,42.7416943703282,547.732499999998 -2.93376218192092,42.7415858110855,550.476899999994 -2.93407659945687,42.741511397345,553.762400000007 -2.93517830050787,42.7413762955903,563.601299999995 -2.93606358662708,42.7412435488356,570.983600000007 -2.93653919426438,42.7411450928352,575.414499999999 -2.93719189398014,42.7409117258983,578.402900000001 -2.93773528489549,42.7407582520596,580.317299999995 -2.93844034291761,42.7405439828812,584.705900000001 -2.93888244249648,42.740388226698,587.184599999993 -2.9391712436738,42.7402806673385,588.752900000007 -2.93949606370074,42.7400956218403,590.7745 -2.93998534459499,42.7400650235515,592.884900000005 -2.9404093565956,42.7400237246125,595.204700000002 -2.94056441389849,42.7400049630346,595.726200000005 -2.94076941842947,42.7399499911891,596.829400000002 -2.94100233900624,42.7399518794225,597.871499999994 -2.94152205392396,42.7399675414646,599.793900000004 -2.94197866039635,42.7398629542585,601.761199999994 -2.9426805931796,42.7397336970459,605.389899999995 -2.94301667358863,42.7397015864024,607.439499999993 -2.94325006039103,42.739477241599,606.727499999994 -2.94349865656949,42.7392781828877,605.534899999999 -2.94369130387543,42.7390998904339,605.458899999998 -2.94382938212112,42.7389217162262,605.088199999998 -2.94393133192271,42.738776334851,604.797399999996 -2.94399187028803,42.7386240208879,604.463099999994 -2.94403511428748,42.7385604878996,604.050499999998 -2.94416590180632,42.7385262449148,606.268800000005 -2.94470017841482,42.7384278103308,613.476200000005 -2.94493212521781,42.7383915542942,614.765100000004 -2.945216139273,42.7384105116542,615.398400000005 -2.9460514476214,42.7385438173658,614.794299999994 -2.94671803978304,42.7387171050597,610.067599999995 -2.94724202259667,42.7383685788871,607.482699999993 -2.9478967228606,42.7379491045051,604.258799999996 -2.94827277290987,42.7377090109186,603.2408 -2.94947127641585,42.7372365187147,607.671199999997 -2.94993955739369,42.7369390237802,606.544399999999 -2.94998041546774,42.7368455192901,606.6302 -2.95018020078695,42.7367023895448,605.656300000002 -2.95065130337307,42.7365844788526,605.286399999997 -2.95101020368529,42.7364650919701,605.900299999994 -2.95108567564387,42.7364081811397,606.473800000007 -2.95133600826579,42.7364086357404,605.686100000006 -2.95156360362953,42.736284104066,606.673999999999 -2.95171718679703,42.7361773478219,605.353799999997 -2.95187266810472,42.7359784381892,605.913199999995 -2.95216092669962,42.7356201242354,602.602100000004 -2.95241012295268,42.7355291547151,600.884600000005 -2.9526004346389,42.7353735726608,600.722699999998 -2.95264904427553,42.7352587163417,599.122799999997 -2.95289472272599,42.7353736538172,592.922000000006 -2.95311885957588,42.7355631017822,589.561100000006 -2.95327178607489,42.7358373399581,586.204500000007 -2.95333018644983,42.7361997572726,580.936799999996 -2.95334787697273,42.7367171913759,575.611099999995 -2.9533151432621,42.7372661696232,573.2353 -2.95357229319869,42.7373946112043,566.421900000001 -2.95409688417178,42.7375258302179,560.556100000002 -2.9544697559816,42.7377695421056,556.057499999995 -2.95485517995089,42.7380032586768,552.605100000001 -2.95551826688629,42.7376875243914,548.026199999993 -2.9560165345266,42.7371270596306,544.483600000007 -2.95660738074348,42.7368719103492,542.033599999995 -2.95791490828393,42.7367935513234,543.576799999995 -2.9582245117483,42.7366257338966,541.334199999998 -2.95865977335123,42.7362352413057,538.515799999994 -2.95914439019248,42.7358190983586,535.413700000005 -2.95936482328848,42.7357271493197,534.631200000003 -2.95975499844731,42.7356179079465,533.911600000007 -2.96051946205915,42.7354549191118,532.651899999997 -2.96122738930027,42.7352951022132,532.373999999996 -2.96185273801057,42.7351963180789,532.991299999994 -2.96308716065319,42.7349827871457,530.883400000006</coordinates>
</LineString>
</Placemark>
</Folder>
</Document></kml>
