<?xml version="1.0" encoding="UTF-8"?>

<kml xmlns:xsd="http://www.w3.org/2001/XMLSchema" xmlns:gx="http://www.google.com/kml/ext/2.2" xmlns:atom="http://www.w3.org/2005/Atom" xmlns="http://www.opengis.net/kml/2.2">
<Document>
<name>ES48a_12a_pedrosa_de_valdeporres-corconte</name>
<visibility>1</visibility>
<Schema name="ES48a_12a_pedrosa_de_valdeporres-corconte" id="kml_schema_ft_ES48a_12a_pedrosa_de_valdeporres-corconte">
<SimpleField type="xsd:string" name="id">
<displayName>id</displayName>
</SimpleField>
<SimpleField type="xsd:string" name="nombre">
<displayName>nombre</displayName>
</SimpleField>
<SimpleField type="xsd:double" name="longitud">
<displayName>longitud</displayName>
</SimpleField>
<SimpleField type="xsd:string" name="_formato">
<displayName>_formato</displayName>
</SimpleField>
</Schema>
<Folder id="kml_ft_ES48a_12a_pedrosa_de_valdeporres-corconte">
<name>ES48a_12a_pedrosa_de_valdeporres-corconte</name>
<Placemark id="kml_1">
<name>&lt;img height='20' src='https://nco.ign.es/iconos/icono_todos_caminos_azul.png' /&gt;&lt;img height='20' src='https://nco.ign.es/iconos/Camino Santiago_20.png' /&gt;&lt;img height='20' src='https://nco.ign.es/iconos/icono_todos_caminos_azul.png' /&gt;  Camino de Santiago </name>
<visibility>1</visibility>
<description><![CDATA[<!DOCTYPE html>
<html>
<head>
<style>
#nco {
  border-collapse: collapse;
  overflow:hidden;
}
#nco th, #nco td {
  padding: 4px;
  text-align: left;
}
#nco th {
  color: #364B5F;
  padding-right: 5px;
}
#nco td {
  color: rgb(51, 51, 51);
  font-size: 12px;
  padding-right: 5px;
}
</style>
</head>
<body>
<table id="nco">
<tr>
<td>Caminos del Norte</td>
</tr>
<tr>
<th><b>Camino: </b></th>
<td>ES48a Camino de las Asturias</td>
</tr>
<tr>
<th><b>Etapa: </b></th>
<td>12a Pedrosa de Valdeporres-Corconte</td>
</tr>
<tr>
<th><b>Longitud: </b></th>
<td>19.98 km</td>
</tr>
</table>
</body>
</html>]]></description>
<Style>
<IconStyle>
<scale>0.8</scale>
</IconStyle>
<LabelStyle>
<color>ffffffff</color>
<scale>0.75</scale>
</LabelStyle>
<LineStyle>
<color>ffff0000</color>
<width>3.0</width>
<gx:labelVisibility>1</gx:labelVisibility>
</LineStyle>
<PolyStyle>
<color>66ff0000</color>
</PolyStyle>
</Style>
<ExtendedData>
<SchemaData schemaUrl="#kml_schema_ft_ES48a_12a_pedrosa_de_valdeporres-corconte">
<SimpleData name="id">ES48a_12a</SimpleData>
<SimpleData name="_formato">kml</SimpleData>
</SchemaData>
</ExtendedData>
<LineString>
<extrude>0</extrude>
<tessellate>1</tessellate>
<coordinates>-3.74070064938854,43.0094580952127,684.993499999997 -3.74044890641165,43.0096013787575,686.728499999997 -3.73955083367264,43.0101515510679,686.229999999996 -3.73937793043834,43.0102663961645,685.906799999997 -3.73899691090889,43.0107112365213,685.112599999993 -3.73836911518773,43.0116262782081,683.642399999997 -3.73802736191767,43.0121703840501,683.727700000003 -3.73789637407453,43.0124264200963,684.128400000001 -3.73777842887099,43.0126085363504,684.165900000007 -3.73711466730081,43.0135555517403,685.072499999995 -3.73695251690043,43.0137875601094,685.829199999993 -3.73691359918738,43.0139899173482,686.827600000004 -3.73695447253281,43.0142757463538,686.746299999999 -3.7369101254022,43.0144625606949,687.768100000001 -3.73678327160598,43.0146374970178,689.262700000007 -3.73658645342215,43.0147675590075,689.091 -3.73651245470065,43.0150750182424,690.332899999994 -3.73636471417575,43.0153207839283,690.945300000007 -3.73638388242728,43.0156360361784,690.097800000003 -3.73637542748383,43.0158197691937,692.606400000004 -3.73626988621775,43.0158863382201,692.5144 -3.73597653866675,43.0159591869879,691.982900000003 -3.73575551268267,43.0160612448714,691.977499999994 -3.73561662056335,43.0162071139907,691.602599999998 -3.73543741295235,43.0164755685928,691.973299999998 -3.73521264279017,43.0167090102499,693.030400000003 -3.73498358407082,43.0168167640259,693.245899999994 -3.73455415163576,43.0168929968658,693.238599999997 -3.73432484228645,43.0169445114169,693.030499999993 -3.73406594961819,43.0171399920359,693.355800000005 -3.73288315225666,43.0179937799599,692.637199999997 -3.73231273552597,43.0186885259145,693.554600000003 -3.7322955696192,43.0188148855655,693.713199999998 -3.73240656006581,43.019096015169,694.145000000004 -3.73323054694669,43.0197066275966,696.899699999994 -3.73324044638114,43.0198007467305,699.354300000006 -3.7329251790389,43.0201437238958,700.399099999995 -3.73264135812152,43.0203421025018,701.335900000005 -3.73238531760428,43.0206325538113,703.223899999997 -3.73234262427209,43.0208023261569,704.493000000002 -3.73238279423667,43.0209869401938,706.0671 -3.732512429217,43.0212176844653,707.664199999999 -3.73258850664009,43.0214552318699,708.388600000006 -3.73278572816745,43.0219540957004,713.5674 -3.73288493900575,43.022427697675,721.317599999995 -3.73332427806174,43.0223727844616,727.326300000001 -3.73393561035869,43.0222950242621,732.702000000005 -3.73437770364935,43.0223055066123,736.052899999995 -3.73468150848856,43.0223177431333,738.084799999997 -3.73469573510769,43.0224259054142,739.676099999997 -3.73466562717264,43.0226347510592,742.844599999997 -3.73474087185748,43.0226947222768,744.614300000001 -3.7350113527929,43.022681732546,747.074600000007 -3.73520386804649,43.0226017076262,747.405700000003 -3.73548161455593,43.0224438424682,747.126699999993 -3.73572117098767,43.0224947993825,749.617199999993 -3.73598837307231,43.0225695113763,753.083700000003 -3.73610390989257,43.0225624257559,754.2022 -3.73622734110755,43.0225083861345,755.270999999993 -3.73637929023955,43.0223866733441,756.463799999998 -3.73656353380601,43.0223331037992,756.4375 -3.73666211402699,43.0223316339986,756.883300000001 -3.73703822067011,43.0223890914857,760.347500000003 -3.73730314822047,43.0223675140672,762.282300000006 -3.73751410229359,43.0223048827021,763.789900000003 -3.73775480497563,43.0221967116703,764.734500000006 -3.73791587649935,43.0221421246547,765.903200000001 -3.73797722245011,43.0221478449417,766.674499999994 -3.73812464407307,43.0222015276091,768.113100000002 -3.73822575394988,43.0223091686371,769.843200000003 -3.73838484738333,43.0223758002434,771.567899999995 -3.73851267764823,43.0224639671379,773.096099999995 -3.73859043851418,43.0225434051071,774.378899999996 -3.73869098694393,43.0225944033137,775.351599999995 -3.73882379387555,43.0226040449798,775.354600000006 -3.73923258931356,43.0225866872213,776.236300000004 -3.73939761701777,43.022631127145,776.1538 -3.73949477251072,43.0227413648383,776.493499999997 -3.73958973072443,43.0227815331966,776.743400000007 -3.73981902570072,43.0228057203636,778.252999999997 -3.74004570837615,43.0228690900522,779.406000000003 -3.74017445671929,43.022911003945,780.224499999997 -3.74038237628338,43.0230079854943,782.856400000004 -3.74071754310579,43.0230812861874,785.632899999997 -3.7408246438472,43.0230925860436,786.510800000004 -3.74106231561349,43.0231866691204,788.418799999999 -3.7412732211776,43.0232191671461,790.691000000006 -3.74138388284081,43.0232635619539,792.058000000005 -3.74151152266289,43.0232842885828,793.301300000006 -3.74198251385794,43.0231388565888,797.528600000005 -3.74238670812508,43.0232068145622,801.456999999995 -3.74276574327608,43.0232900251818,803.532000000007 -3.743017600339,43.023297740529,805.435899999997 -3.74321958203908,43.0233273370331,807.174599999998 -3.7435211258187,43.0233477365858,808.109899999996 -3.74399839533926,43.0233940167896,809.789999999994 -3.74441888235072,43.0234260425127,811.825899999996 -3.74483141118706,43.0234584865594,814.119900000005 -3.74523083450172,43.0234845280794,816.601800000004 -3.74558426407385,43.0235037441437,818.8174 -3.7458060114051,43.0234638928043,819.874299999996 -3.74603721799632,43.0233587664743,821.192200000005 -3.74625390152429,43.0231320363566,821.423200000005 -3.74625861049304,43.0231332467262,821.3946 -3.74650879848616,43.0232921976681,820.519 -3.74665250737205,43.0234003483812,820.763000000006 -3.74669024919041,43.0236810097539,822.277100000007 -3.74668780487454,43.0239666688717,823.888800000001 -3.74673096712731,43.0240522269242,825.027000000002 -3.74685904981883,43.0241540658005,825.457699999999 -3.74715794177174,43.0242778950004,826.491800000003 -3.74751375637094,43.0243706680633,827.728799999997 -3.7478306775116,43.0245436992429,829.590700000001 -3.74817144443148,43.0247641150255,830.328500000003 -3.74866879040031,43.0250962910097,831.213199999998 -3.74917531625304,43.0255026180405,833.364600000001 -3.74987646660365,43.0259136634634,841.630699999994 -3.75048275396197,43.0261132357067,846.787800000006 -3.75161741060745,43.0262598617687,851.199999999997 -3.75256388816722,43.0263433716476,854.409199999995 -3.75314217952967,43.0265127072549,856.566800000001 -3.75382135708844,43.026642335623,856.963300000003 -3.75400719785947,43.0267549597853,856.908299999996 -3.75440109114526,43.0270610902586,855.005699999994 -3.75465508530025,43.0271175799461,852.6875 -3.75558824084436,43.0269273925594,846.337400000004 -3.75537654476281,43.0273078599942,851.588499999998 -3.75540668952881,43.0275416656461,854.972299999994 -3.75555040200796,43.0277570857358,855.144700000004 -3.75552121933765,43.028157954519,858.561199999996 -3.75586297979422,43.0285984257445,860.419800000003 -3.75601982743946,43.0288063967096,861.420899999997 -3.75613102988849,43.0292362087551,862.133900000001 -3.75606771483064,43.0293829048446,863.625400000004 -3.75561662670901,43.0298503372535,870.666800000006 -3.75547202938932,43.0301234857948,873.004300000001 -3.75546134662394,43.0306107863455,873.932400000005 -3.75548034958547,43.0310434192184,875.9084 -3.75554206833705,43.0312946322644,877.267800000001 -3.75582277569369,43.0316547218093,876.877800000002 -3.75625071063716,43.0318716259284,875.491999999998 -3.75648389172536,43.0322202464704,875.749500000005 -3.75692970493959,43.0327653419256,875.525999999998 -3.75711330890558,43.0329839959875,873.563800000004 -3.75741422206787,43.0332743763234,872.932700000005 -3.75801275606695,43.0335857253279,873.453899999993 -3.7584932990484,43.034212806135,873.557499999995 -3.75888518549784,43.0345324047094,870.303700000004 -3.75902150035062,43.0346854264473,869.627800000002 -3.75926356757361,43.0351562971934,870.503200000006 -3.75961676358377,43.0354200562741,869.118000000002 -3.76016154239623,43.0357131572136,866.452000000005 -3.7603502820307,43.0359592309663,866.901100000003 -3.7606335810269,43.0361465236535,866.157099999997 -3.76096644636554,43.0364273132218,863.705499999996 -3.76119233313361,43.0364236940614,863.109100000001 -3.76191794281279,43.0366454677001,868.799700000003 -3.76220906433848,43.0366313568318,866.525599999994 -3.76277352344223,43.0365572023304,867.887199999997 -3.76319100379241,43.0369086031841,871.463099999994 -3.76316149413532,43.0370536696638,871.952900000004 -3.76299820197623,43.0372261234062,875.885299999994 -3.76323995838213,43.0377753535439,870.553599999999 -3.76379137125299,43.0379245846348,868.547200000001 -3.76528506655124,43.0381539133463,873.518500000006 -3.76555990162082,43.0383650034964,876.607699999993 -3.76566739762099,43.0386760784892,876.062000000005 -3.76554989528689,43.0390937294039,873.344200000007 -3.76537073708323,43.0392651571089,869.818400000004 -3.7647671455691,43.0394702161788,871.003299999997 -3.76468271920376,43.0395421545418,871.511899999998 -3.76480526467987,43.0396230988871,874.0867 -3.76519654027492,43.0395597569996,870.356499999994 -3.76544800477411,43.0396554713429,870.229200000002 -3.76581500609352,43.0398950254087,871.027799999996 -3.76592357558046,43.0401401139702,875.979000000007 -3.76595732528568,43.0407612871297,883.921300000002 -3.76624766258213,43.041139890882,891.294399999999 -3.76656033199657,43.0413396138624,893.912400000001 -3.76691910115471,43.0416278721125,894.473800000007 -3.76747570089802,43.0422157984052,902.870299999995 -3.76805161621658,43.0426517378183,911.297099999996 -3.7683211458361,43.0427498646775,911.497099999993 -3.76911973105569,43.0428435604731,914.991299999994 -3.76972807016609,43.0428484562015,916.5671 -3.77091494408241,43.0429400056601,919.693700000003 -3.77152302088475,43.0429820076093,915.697499999995 -3.77169980394278,43.0428770722745,912.695999999996 -3.77187774133595,43.0426459393454,907.456900000005 -3.77193213971628,43.0424036188873,904.173500000004 -3.77207002302757,43.042194231239,900.590400000001 -3.77256190005296,43.0417515944977,895.816999999995 -3.772790211374,43.0410978062599,887.571100000001 -3.77306225268307,43.0411610979752,889.038100000005 -3.77384504821492,43.0410354579378,888.838799999998 -3.77468586593095,43.040805325218,885.905499999993 -3.77537850923581,43.0404732900556,881.103900000002 -3.77592388452965,43.0402237198611,874.9859 -3.77632412710786,43.040088176363,871.255999999994 -3.77663760051446,43.0396974420559,866.043799999999 -3.7774284126119,43.0392549356854,862.336899999995 -3.77783914571598,43.0389666767918,860.306700000001 -3.77835712868186,43.038399721247,856.042100000006 -3.77870423052111,43.0379706391468,852.761499999993 -3.77908161546694,43.0374955976998,849.496599999999 -3.77980151994572,43.0368708406303,841.883100000006 -3.7804279592108,43.036449382085,837.598400000003 -3.78117879178652,43.0356859035366,828.998000000007 -3.78157292043088,43.0353877479012,824.9899 -3.78184234943913,43.034930240342,818.835900000005 -3.78177785848654,43.0347582601325,816.377699999997 -3.78144086089761,43.0345122610146,812.210699999996 -3.78156873967156,43.0342034492955,806.654500000004 -3.7819244159302,43.0339995315635,804.953299999994 -3.78197995876423,43.0337679383854,800.820800000001 -3.78214317007495,43.0335780920389,795.331999999995 -3.78232925967931,43.0334556335977,793.032600000006 -3.78229831451439,43.0332015238047,787.004700000005 -3.78228528804445,43.033074241647,784.752200000003 -3.78234258079666,43.0330250690502,783.967600000004 -3.78249171101528,43.0330615476273,782.981499999994 -3.78257768877114,43.0332090159648,785.883499999996 -3.78285123745324,43.0333138870692,783.472399999999 -3.7833144591194,43.0334058224065,773.945200000002 -3.7844947564695,43.0337782572467,765.519700000004 -3.78509111115572,43.0339225497448,766.013500000001 -3.78556792163716,43.0339237402029,762.330000000002 -3.78623233538424,43.0340045107321,751.854900000006 -3.78689720008556,43.0334845521607,741.277600000001 -3.78721016055416,43.033153462987,737.036399999997 -3.7873765411212,43.0326886061107,733.443899999998 -3.7875484633952,43.0323750771069,730.446599999996 -3.78767037016914,43.0322909115701,729.771099999998 -3.78785306953162,43.0323191392394,730.189499999993 -3.788026998642,43.032421437838,728.892900000006 -3.78834334036931,43.0328213200977,723.462199999994 -3.78831830252571,43.0333173363459,719.324699999997 -3.78871755336385,43.0331313404079,713.563599999994 -3.78901444836189,43.0327840672044,709.579800000007 -3.7890462002139,43.0325925893531,708.902300000002 -3.78893936896704,43.0322191354328,708.200800000006 -3.78875112071106,43.0319545673983,707.5959 -3.78876509131035,43.0316893547089,704.910399999993 -3.78884255932551,43.0316171845359,703.824500000002 -3.78906010882946,43.0316295144148,706.987299999993 -3.78936903765904,43.0317504163074,712.104699999996 -3.78960478613232,43.0319038172997,717.5677 -3.78975861274325,43.0320928283225,717.948600000003 -3.7905391355374,43.0325062217491,721.489300000001 -3.79083061998249,43.0327741795855,723.853499999997 -3.79103215342321,43.0331088592997,728.270199999999 -3.79151802341432,43.0335604327083,737.000499999995 -3.7918230858949,43.0337736812275,738.916299999997 -3.79207601734292,43.0338305659348,741.541700000002 -3.79261454388102,43.0340637912385,745.619900000005 -3.79300810119689,43.0341331166783,747.484200000006 -3.79337515282198,43.0341467179266,749.442599999995 -3.79385047120175,43.0341831190125,751.614000000001 -3.79418993017459,43.0341460166554,753.797399999996 -3.79460787225884,43.033955426868,756.340100000001 -3.7949931201583,43.0336956944881,757.828200000004 -3.79520993394202,43.0334118916271,760.020900000003 -3.79534655332369,43.0331828229486,762.604600000006 -3.79570375671833,43.0328133800649,762.9899 -3.79587074724143,43.0324061926384,764.1872 -3.79600126526571,43.0320918335084,764.535199999998 -3.79616391153609,43.0314635700726,767.411399999997 -3.79620107394108,43.0310050390834,771.129100000006 -3.79631344060671,43.0308881301601,771.690700000006 -3.79694445409321,43.0305599326969,769.924199999994 -3.79724618382409,43.0303535889707,773.139999999999 -3.79762568340409,43.0302170439289,776.422200000001 -3.79793389447976,43.0301750063184,777.852499999994 -3.79809919796675,43.0301049061403,778.613100000002 -3.79823448514686,43.0299336813645,780.908800000005 -3.79848788102387,43.0298196006365,782.981 -3.79889719658647,43.0295779676204,784.848199999993 -3.79913018274023,43.0294738157537,785.799799999993 -3.79932614213463,43.0292291915416,789.693799999994 -3.79981886177977,43.0288711024526,790.946100000001 -3.80015669120868,43.0284905205944,793.121700000003 -3.79996986498577,43.0281699830178,796.176699999996 -3.79998603376256,43.0280537463945,795.359899999996 -3.80013345269057,43.0279398677155,793.849199999997 -3.79993243398451,43.0277010379324,793.135599999994 -3.8001947851666,43.0276018074068,790.912700000001 -3.80053393152571,43.0275255182534,789.466199999995 -3.80115131667101,43.0273194854494,786.051900000006 -3.80150970494352,43.0273295801489,783.363400000002 -3.80158959930824,43.0272157552888,782.552100000001 -3.80159299044845,43.0270306319978,782.833899999998 -3.80172420197213,43.0268844615558,784.497600000002 -3.80215112900585,43.0267141123717,786.369500000001 -3.80268819488327,43.0266204845415,787.721999999994 -3.80318957428776,43.0266870812602,792.976899999994 -3.80306408143921,43.0270353772909,797.184099999999 -3.80348990085018,43.0270513731156,801.457699999999 -3.8038153353248,43.0270324096769,802.620999999999 -3.80406798110854,43.0271685165637,805.682199999996 -3.80453863184209,43.0272602279798,808.772400000002 -3.80479995085994,43.0276001210243,813.169800000003 -3.80531634290943,43.0281256646503,816.444300000003 -3.80615421235472,43.0287639871095,814.996100000004 -3.80657635945282,43.0289658878539,814.880999999994 -3.8073189086633,43.0291935137988,816.733999999997 -3.80758332597054,43.0293304117808,817.1345 -3.80801724099885,43.0298118493356,819.430800000002 -3.80828332827423,43.0300602857908,820.4326 -3.80858236305925,43.0302378174598,820.715500000006 -3.80869598377303,43.0304457927201,821.751999999993 -3.80880882744409,43.0308931227142,822.461800000005 -3.80864529723144,43.0314945120543,825.210200000001 -3.80856421798885,43.0319423695703,829.391900000002 -3.80865394441437,43.0324117550322,835.769899999999 -3.80872919448909,43.0325475939019,836.924499999994 -3.80917005169791,43.0329201363852,840.762900000002 -3.80949764751911,43.0333669125357,846.337299999999 -3.81038746653725,43.0339171674028,854.856499999994 -3.81076197328091,43.0339828605715,857.054699999993 -3.81109588066526,43.0341366552094,859.449800000002 -3.8114183075803,43.0343556655259,862.061700000006 -3.81226821624702,43.0345495450331,868.176099999997 -3.81249543611499,43.0346810093967,869.011700000003 -3.81326953146331,43.0353942095771,872.805600000007 -3.81368689503253,43.0356878241047,875.736900000004 -3.81442443164371,43.0358359302589,881.224100000007 -3.81492244775577,43.0360263553086,886.368499999997 -3.8153546541884,43.0362596911118,890.439700000003 -3.81603464651914,43.0366891705967,894.782200000001 -3.81630940613027,43.0368050363061,895.708400000003 -3.8165703271944,43.0369204658201,897.269499999995 -3.81686209460881,43.0369370729814,898.024600000004 -3.8173970009363,43.0371147764824,901.350399999996 -3.81918280411043,43.0376655092228,903.511799999993 -3.8195058499647,43.037759153034,903.607799999998 -3.82032160558264,43.0376855474858,903.499500000005 -3.82104662147541,43.0375679559656,905.939700000003 -3.82189809141409,43.037296547027,908.641699999993 -3.82232660666922,43.0372387495925,907.756399999998 -3.82278390753933,43.0373308898144,908.585999999996 -3.82328387119893,43.0374661209596,909.187300000005 -3.82408953963454,43.0375648207752,910.504700000005 -3.82564148169579,43.0375405816442,919.532999999996 -3.82628730480807,43.0375561932556,922.438999999998 -3.82697024361293,43.0375166320577,923.893200000006 -3.82765314648516,43.0372758316953,927.456399999995 -3.82817382080361,43.0374013494272,932.040800000002 -3.82862019097335,43.0375147896804,935.325599999996 -3.82909981767322,43.0375307729253,940.214500000002 -3.83055272855926,43.0378501664375,942.178499999995 -3.831393294747,43.0378657359488,943.849300000002 -3.83183132046606,43.0378632402838,945.319199999998 -3.83250313183951,43.0379831299244,947.557499999995 -3.83348547194203,43.0379628698345,955.998200000002 -3.83393646214727,43.0378742465534,960.453399999999 -3.83442026960647,43.037686844894,964.620800000004 -3.8349530612998,43.0377749609078,964.842300000004 -3.83599438478388,43.0378826704882,960.386100000003 -3.83688931252108,43.0382977576193,957.748600000006 -3.83859868882745,43.0388292671686,958.910000000003 -3.83934585897177,43.0390199875772,961.9323 -3.83983983985156,43.0391587722819,964.909599999999 -3.84055943980146,43.0393773123014,969.820699999997 -3.84093258649576,43.0393517903014,974.259000000005 -3.84117954055389,43.039261064075,977.405599999998 -3.84157784007614,43.0389175056335,983.014599999995 -3.8419443131862,43.0387385506747,988.163400000005 -3.84229288826252,43.0388386206764,992.842799999999 -3.8426899606861,43.0391836949165,999.952999999994 -3.84404510252984,43.0402825886085,1017.84 -3.84585827467573,43.0415004492057,1026.37239999999 -3.8465847539241,43.0421480886387,1019.8404 -3.84767645403101,43.0426551465218,1018.2641 -3.84824222287842,43.0425794039306,1016.2343 -3.84864733702042,43.0425206595018,1012.7784 -3.84932478801721,43.0421693216449,1010.9195 -3.84968770739198,43.0417836027642,1010.7068 -3.84996860249648,43.0415647364791,1011.1902 -3.8501124892488,43.0412781133852,1011.4469 -3.85034024451267,43.0416158823611,1006.0416 -3.85049614174035,43.0421404380318,997.422900000005 -3.85067167524181,43.0417970001027,995.712199999994 -3.85071783068111,43.0410859995815,996.018400000001 -3.85102945984644,43.0406029506549,994.968200000003 -3.85167958229563,43.0403022832951,990.316200000001 -3.85265798328565,43.0399938565683,990.528300000005 -3.85356036164981,43.0400331522327,987.002200000003 -3.85458562145999,43.0401573531807,983.160199999998 -3.85521771112818,43.0402942956452,982.022400000002 -3.85579795632642,43.0406326944178,979.643700000001 -3.85684100906741,43.0411079617218,981.635299999994 -3.85743502274399,43.041418350508,981.092900000003 -3.85778221800803,43.0416647106124,981.290099999998 -3.8588637060668,43.0427882729199,974.921300000002 -3.85902442006102,43.0429305733378,973.899900000004 -3.85920728291687,43.0429789258741,975.802100000001 -3.85946003290521,43.0430008492583,975.070500000002 -3.8598487590815,43.0431434308323,979.251499999998 -3.86005786801501,43.0432341591961,981.462 -3.86010499722807,43.0433807075914,983.347599999994 -3.86034548431446,43.0434751075272,985.992700000003 -3.860665795697,43.0435494066373,990.138600000006 -3.86085490543737,43.0435915775513,991.595100000006 -3.86140606677995,43.0436446722626,994.232000000004 -3.86160686989033,43.0436237890355,995.243900000001 -3.86189209936609,43.0435950518546,996.458799999993 -3.86223706231665,43.0435515613371,998.750899999999 -3.8624374315408,43.0435227735703,1000.42660000001 -3.86278972384578,43.0435091002134,1003.65029999999 -3.86295410386465,43.0434837079537,1005.054 -3.86292054909383,43.0433036994631,1004.5588 -3.8630747583871,43.0432202901307,1006.3676 -3.8631693905124,43.0431545799337,1007.4246 -3.86338526465833,43.0429271285406,1009.65119999999 -3.86360164096249,43.0427495265651,1011.8275 -3.86378338182257,43.042583496743,1014.1508 -3.86394979562727,43.0423530546939,1013.60430000001 -3.86406079056543,43.0422250397859,1012.9391 -3.86425647417706,43.0420924787562,1011.47070000001 -3.86429790986784,43.0419920030692,1008.4871 -3.86423244693816,43.041880031891,1005.80560000001 -3.86409305176226,43.0417463434938,1001.56939999999 -3.86408265466115,43.0416595948484,998.592699999994 -3.86418682779306,43.0414734679381,994.178899999999 -3.86429143211634,43.0410012623209,985.578599999993 -3.86459285372508,43.0410510660338,984.597899999993 -3.86505987616319,43.0411225265472,976.242299999998 -3.86536746740133,43.0411658986387,969.266699999993 -3.86548876242255,43.0411781760451,967.416299999997 -3.86577706413658,43.0412309892175,966.065799999997 -3.86614267755891,43.0412557219254,968.876300000004 -3.86690727501972,43.0413509950516,962.930500000002 -3.86769210613399,43.0414586333569,955.883600000001 -3.86805323247148,43.0414931609293,958.095300000001 -3.86899024448307,43.0415577502197,966.0677 -3.86968106959781,43.0416464292388,964.154599999994 -3.86997426713016,43.0416861886753,965.734700000001 -3.87121667130406,43.0417752358273,964.529299999995 -3.87199123287801,43.0418307836263,971.467999999993 -3.87263737489219,43.0418685194922,976.298200000005 -3.87333673040887,43.0419200163686,978.361000000004 -3.87400070937136,43.0419335180669,978.280599999998 -3.87467278215455,43.04204029857,980.863700000002 -3.8751916104351,43.0421144188705,981.009699999995 -3.87554872579482,43.0420971808665,979.772800000006 -3.87612600655261,43.0420382482065,978.443700000003 -3.87620344492336,43.0419508434364,977.168799999999 -3.87739922114412,43.0417979120355,978.636599999998 -3.87769471656695,43.0416781460562,979.192899999995 -3.87799725837487,43.0415623755555,977.212599999999 -3.87832846901673,43.041438992878,975.162100000001 -3.87873971955044,43.0412803594244,974.067299999995 -3.87898513030292,43.0412585608255,972.738800000006 -3.87965487555121,43.0412367799456,968.729500000001 -3.88029966200764,43.0412441450681,963.094700000001 -3.88078098203181,43.0413227465881,963.630999999994 -3.88157298260034,43.0413139987928,964.539600000004 -3.8820179837376,43.0412934062781,965.782300000006 -3.88230280537821,43.0412317258612,965.410000000003 -3.88256060389844,43.0412101688537,963.765400000004 -3.88313359609904,43.0412053563758,964.097500000003 -3.88337809236655,43.0412206295905,965.065100000007 -3.8837402562582,43.0411852962831,964.090800000005 -3.88404191412388,43.0411552028491,960.631099999999 -3.88433125339203,43.0411277191719,957.667199999996 -3.88468195298401,43.0410423891069,952.823399999994 -3.88487161878152,43.0409710617794,949.095100000006 -3.88510256665794,43.040923662282,944.761400000003 -3.88526748027608,43.0408406843495,942.858699999997 -3.88543459117346,43.04073232932,939.769 -3.8856961527364,43.0407260027991,934.722699999998 -3.88623046797247,43.0406516037566,924.451499999996 -3.88668409473306,43.0405858573242,917.102799999993 -3.88711175928363,43.0405395185182,909.799899999998 -3.88747954034073,43.0404727726916,904.713699999993 -3.88771234772977,43.0404325679818,902.138699999996 -3.88809681589158,43.0404051010513,897.940300000002 -3.88845796648357,43.0403435766579,894.017900000006 -3.88881741117483,43.0402131598144,889.624599999996 -3.88927010817912,43.0400785453218,883.245899999994 -3.88968483698959,43.0400036694894,877.258900000001 -3.89028367911084,43.0399479795327,869.281300000002 -3.89089985422545,43.0398615408671,859.742499999993 -3.89123472640044,43.0397967817116,855.800700000007 -3.89168616127175,43.039744433463,850.943100000004 -3.89214773093607,43.0397014779398,845.400299999994 -3.8925689922953,43.0397785017511,842.687099999996 -3.89307008962877,43.0396169514933,845.756399999998 -3.89327562955568,43.0395278959563,848.338799999998 -3.89376503621406,43.0395892740975,849.524300000005</coordinates>
</LineString>
</Placemark>
</Folder>
</Document></kml>
