<?xml version="1.0" encoding="UTF-8"?>

<kml xmlns:xsd="http://www.w3.org/2001/XMLSchema" xmlns:gx="http://www.google.com/kml/ext/2.2" xmlns:atom="http://www.w3.org/2005/Atom" xmlns="http://www.opengis.net/kml/2.2">
<Document>
<name>ES48a_03a_alsasua-salvatierra</name>
<visibility>1</visibility>
<Schema name="ES48a_03a_alsasua-salvatierra" id="kml_schema_ft_ES48a_03a_alsasua-salvatierra">
<SimpleField type="xsd:string" name="id">
<displayName>id</displayName>
</SimpleField>
<SimpleField type="xsd:string" name="nombre">
<displayName>nombre</displayName>
</SimpleField>
<SimpleField type="xsd:double" name="longitud">
<displayName>longitud</displayName>
</SimpleField>
<SimpleField type="xsd:string" name="_formato">
<displayName>_formato</displayName>
</SimpleField>
</Schema>
<Folder id="kml_ft_ES48a_03a_alsasua-salvatierra">
<name>ES48a_03a_alsasua-salvatierra</name>
<Placemark id="kml_1">
<name>&lt;img height='20' src='https://nco.ign.es/iconos/icono_todos_caminos_azul.png' /&gt;&lt;img height='20' src='https://nco.ign.es/iconos/Camino Santiago_20.png' /&gt;&lt;img height='20' src='https://nco.ign.es/iconos/icono_todos_caminos_azul.png' /&gt;  Camino de Santiago </name>
<visibility>1</visibility>
<description><![CDATA[<!DOCTYPE html>
<html>
<head>
<style>
#nco {
  border-collapse: collapse;
  overflow:hidden;
}
#nco th, #nco td {
  padding: 4px;
  text-align: left;
}
#nco th {
  color: #364B5F;
  padding-right: 5px;
}
#nco td {
  color: rgb(51, 51, 51);
  font-size: 12px;
  padding-right: 5px;
}
</style>
</head>
<body>
<table id="nco">
<tr>
<td>Caminos del Norte</td>
</tr>
<tr>
<th><b>Camino: </b></th>
<td>ES48a Camino de las Asturias</td>
</tr>
<tr>
<th><b>Etapa: </b></th>
<td>03a Alsasua-Salvatierra</td>
</tr>
<tr>
<th><b>Longitud: </b></th>
<td>22.17 km</td>
</tr>
</table>
</body>
</html>]]></description>
<Style>
<IconStyle>
<scale>0.8</scale>
</IconStyle>
<LabelStyle>
<color>ffffffff</color>
<scale>0.75</scale>
</LabelStyle>
<LineStyle>
<color>ffff0000</color>
<width>3.0</width>
<gx:labelVisibility>1</gx:labelVisibility>
</LineStyle>
<PolyStyle>
<color>66ff0000</color>
</PolyStyle>
</Style>
<ExtendedData>
<SchemaData schemaUrl="#kml_schema_ft_ES48a_03a_alsasua-salvatierra">
<SimpleData name="id">ES48a_03a</SimpleData>
<SimpleData name="_formato">kml</SimpleData>
</SchemaData>
</ExtendedData>
<LineString>
<extrude>0</extrude>
<tessellate>1</tessellate>
<coordinates>-2.16936601559258,42.8957438904084,528.266600000003 -2.16975764961543,42.8958308733857,528.707399999999 -2.17055505265211,42.8957606489201,529.586500000005 -2.1711627737216,42.8956822981494,530.132500000007 -2.17192054218961,42.8956261410867,530.660900000003 -2.17340358616355,42.8954470879533,531.529999999999 -2.17387747981525,42.895376250356,531.688500000004 -2.17550339364859,42.8949823357868,531.458899999998 -2.17616707976029,42.8948927165442,530.474100000007 -2.17680121040081,42.8949062624,527.669899999994 -2.17777128580477,42.8950363151001,522.080900000001 -2.17800730377264,42.8941251895279,521.428899999999 -2.17828926338077,42.8936647453384,521.5959 -2.17861132557978,42.8933236002269,521.456600000005 -2.17902836485719,42.8929550671428,521.668099999995 -2.17942155566041,42.8927764031073,522.063699999999 -2.18008947732866,42.8925392890342,522.998099999997 -2.18047854396641,42.8924294930822,524.401599999997 -2.18045988236471,42.8922966351712,525.184399999998 -2.18021223301056,42.8919197875825,527.822100000005 -2.18020471500995,42.891848533937,528.449399999998 -2.1802519493259,42.8917467687277,529.5818 -2.17979484788177,42.8912683762084,526.930300000007 -2.18013460419695,42.8910118020728,525.435500000007 -2.18065153793058,42.890976371852,528.798599999995 -2.18070698644149,42.8913537504063,530.336500000005 -2.18071828814607,42.8915423934055,530.776700000002 -2.18077752215758,42.8913946864626,530.888099999996 -2.18125973510717,42.8908048812135,533.736799999999 -2.18151437604917,42.8905500505778,535.236300000004 -2.18171749321974,42.8904375973974,537.123800000001 -2.18237738484767,42.8895270943009,531.4326 -2.18263655868862,42.8892394196947,530.885699999999 -2.18314293182774,42.888815185331,531.602100000004 -2.1835554552742,42.888418255864,531.571200000006 -2.18385451611041,42.888040201825,531.185700000002 -2.18419126935759,42.8876722479672,529.8226 -2.18471739824645,42.8875228520613,531.172699999996 -2.18543062914099,42.8873108343224,531.169599999994 -2.18628143612302,42.8870496541466,535.043300000005 -2.18737125336107,42.8866229911132,533.393899999995 -2.18761177368513,42.8865248031463,531.070200000002 -2.18846097627604,42.8861105060872,527.973499999993 -2.18861657166979,42.8859193801817,528.747199999998 -2.18871000274754,42.8858399552227,528.493900000001 -2.18897565074674,42.8856454597721,526.6777 -2.18919542268267,42.8855273521923,525.959900000002 -2.18933333114677,42.8854686958762,525.662299999996 -2.18945599070891,42.8854363455266,525.887900000002 -2.18980015505721,42.8854019283798,526.129100000006 -2.19000354711227,42.8853754867514,526.093800000002 -2.19060480390498,42.8853815962614,528.137499999997 -2.19109263402002,42.8852640068473,529.415299999993 -2.19135268731159,42.8851385298422,529.204100000003 -2.19172398706969,42.8848183814134,527.147299999997 -2.19214603535311,42.8846605757831,527.668999999994 -2.19311075320471,42.8845135342758,534.154999999999 -2.19359832011336,42.8843884052597,535.111199999999 -2.19409445245827,42.8843243464931,536.241899999994 -2.19488254266038,42.884085691277,535.564899999998 -2.19536312337107,42.8837631829038,531.505600000004 -2.19609457928613,42.8831631224575,528.736399999994 -2.19626448035076,42.8828318599667,528.359100000001 -2.19631978243628,42.8821799978209,527.857399999994 -2.19672721333339,42.8809944121379,527.636199999994 -2.19711598262881,42.8796918138537,526.785900000003 -2.19711475912336,42.8789003555087,528.433300000004 -2.19766522157666,42.8786145910524,530.566699999996 -2.19874832660294,42.8779734282933,534.135800000004 -2.19911957785195,42.8777589361306,535.438899999994 -2.19944884004801,42.8776265857629,536.693400000004 -2.19988766796261,42.8775835926179,538.074200000003 -2.20041038055844,42.877553290036,539.784799999994 -2.20071232049511,42.8773522296054,540.601599999995 -2.20076300883333,42.8770327688507,541.468999999997 -2.20116444796751,42.8768214628905,540.3413 -2.20189282625438,42.8764901624009,538.887100000007 -2.20403241742841,42.8754914735189,539.579100000003 -2.20589693278437,42.8746372367718,537.470799999996 -2.20704183291902,42.8741058752736,535.514200000005 -2.20754609771219,42.8739843808676,534.051099999997 -2.20773761403921,42.8739175423512,534.070399999997 -2.20826075782638,42.8738144993593,533.938500000004 -2.20917097758464,42.8735238679652,534.420499999993 -2.20977006404763,42.8733632848824,534.488500000007 -2.21121749161714,42.8729908102068,535.452399999995 -2.21235641885349,42.8727131759446,535.581000000006 -2.21368591379589,42.8723497542603,536.509600000005 -2.21516849423912,42.8719639707759,537.792499999996 -2.21576432071591,42.8718020056965,538.743900000001 -2.2167125976012,42.8715536834335,540.333299999998 -2.21745895297355,42.8713571527237,540.690900000001 -2.21794497118665,42.8712196981744,541.486499999999 -2.21812368921579,42.8711374509846,542.441399999996 -2.21849058722897,42.8710418902607,542.8511 -2.21991144981892,42.8706729909942,543.799199999994 -2.22089544910979,42.8704543988062,542.497799999997 -2.22215092017784,42.8700893007695,544.782399999996 -2.22299683044321,42.8698512831039,544.712599999999 -2.2237029107481,42.8696277284405,544.765799999994 -2.22406339389184,42.8696054396892,544.491899999994 -2.22452828911938,42.8693677460565,546.953800000003 -2.22463239936923,42.8694162351631,546.730599999995 -2.22557387421116,42.8703450395475,542.294899999994 -2.22692708467707,42.8703532882758,544.927200000006 -2.22767967345918,42.8703577230614,546.664900000003 -2.22836634835729,42.8705191059825,548.854699999996 -2.22889287340321,42.8705263480414,550.480599999995 -2.22931593408792,42.8704934203676,551.973400000003 -2.22966334854092,42.870185887396,552.359599999996 -2.23022342027277,42.8699008318155,551.849600000001 -2.23106030157126,42.8696717100867,551.061700000006 -2.23185368824031,42.86946049743,551.068899999998 -2.23299905370229,42.8689780239057,551.587899999999 -2.23451664867865,42.8686467794087,550.454199999993 -2.23556540662004,42.8680920183377,549.983399999997 -2.23573519000536,42.8678937766242,550.2359 -2.23640799671215,42.8662760014746,559.089000000007 -2.23640619469167,42.8658221627337,560.362899999993 -2.23663390234483,42.8655684792452,559.493600000002 -2.23637604992568,42.8651055858857,560.769499999995 -2.23651046573996,42.8651116750162,560.735499999995 -2.23684092988183,42.8654687782958,561.186199999996 -2.23707689215415,42.8655578556079,560.424199999994 -2.23800502162424,42.8656354775818,557.222899999993 -2.2394581813436,42.8657459644985,559.165500000003 -2.23966689771335,42.865714941718,560.872000000003 -2.23988985507528,42.8655951835125,562.695399999997 -2.24022686344401,42.8651066090809,567.275500000003 -2.24041493024031,42.8643084464833,573.3946 -2.24047498710863,42.8642149288495,574.120800000004 -2.24078685702245,42.8639063828632,576.739199999996 -2.24098174742167,42.8639105330077,576.003899999996 -2.24217067488672,42.8636073544426,568.735000000001 -2.24399716276006,42.8635895771441,563.466 -2.24539342857922,42.863580586105,564.107699999993 -2.24766601802602,42.863566700198,565.960500000001 -2.24859729878612,42.8635641678255,567.338000000003 -2.24923674385984,42.8635628548897,569.0677 -2.24945600016284,42.8635616031891,569.957599999994 -2.24963532904638,42.8636047963925,570.5524 -2.24977601689797,42.8637097362807,572.0236 -2.25001493911912,42.8639694494899,575.623699999996 -2.25017671761696,42.8641061320352,576.872900000002 -2.25039947285795,42.864128844172,577.993300000002 -2.25085106493444,42.8641262031804,578.566200000001 -2.25121989702044,42.864100406263,577.931400000001 -2.2531656461292,42.8640673395229,572.297099999996 -2.25360598321349,42.8640641632186,572.145699999994 -2.25431505311165,42.8640795996345,569.633799999996 -2.25683617405822,42.8642877485667,566.194900000002 -2.25796466826084,42.8642757215827,570.823399999994 -2.25852020889043,42.8641871678529,575.535199999998 -2.2592748233735,42.86415852388,577.719100000002 -2.26038779289138,42.8641867240666,580.452600000004 -2.26238257204835,42.8643214894263,577.706399999995 -2.26342347601922,42.8642231362572,577.685700000002 -2.26459856134407,42.8640769415214,578.155499999993 -2.26616084481087,42.8638756317524,581.231400000004 -2.26812144576624,42.8637020239529,585.908200000005 -2.26890743301227,42.8637065415216,588.661099999998 -2.2698071891941,42.8636899810522,589.217699999994 -2.27217774710915,42.8636398242219,593.956900000005 -2.27598651587894,42.8635873061743,601.695699999997 -2.2777633529682,42.8635582023297,602.973899999997 -2.27859269111322,42.8635779806458,602.754400000005 -2.27875397014778,42.8641316919129,597.362699999998 -2.27884401008532,42.865668862816,588.272200000007 -2.28003884846494,42.8657006421447,584.134300000005 -2.28048555999451,42.8657486383419,582.9323 -2.28250681699445,42.8657513760518,580.270699999994 -2.28425612072028,42.8657503522089,582.027900000001 -2.28632021118963,42.8657259399694,580.116800000003 -2.28760166512895,42.8656801027159,583.147400000002 -2.28881043997188,42.8656687021613,588.8413 -2.28938762550824,42.8655827907007,594.6976 -2.29021544729709,42.8655334334159,598.811900000001 -2.29161852773597,42.8656206268914,595.940199999997 -2.29350246287172,42.8657537272692,593.4185 -2.29479855216365,42.8658082865489,594.959099999993 -2.29667032051722,42.8659116780424,598.043399999995 -2.29795912447219,42.8659524848125,600.381200000003 -2.29890707167575,42.8659769944082,601.041500000007 -2.29928473240435,42.8661504391072,599.173500000004 -2.30029137552859,42.8663273834464,596.876699999993 -2.3011724754986,42.8664731857065,593.535199999998 -2.30147227474995,42.8665679647272,592.5389 -2.30343879560302,42.8668149474353,585.695900000006 -2.30415173095186,42.8669210577823,585.031900000002 -2.30485190663039,42.8670684447398,585.1777 -2.30688936474652,42.8671032381868,586.031600000002 -2.30963413655442,42.8671402596569,591.371899999998 -2.31105737518829,42.8671713133246,595.011700000003 -2.31125156220662,42.8667010861067,597.257800000007 -2.31151408317032,42.8664121074109,599.0769 -2.31200077152662,42.8660745836538,601.781199999998 -2.31246676988533,42.8657768101485,605.089500000002 -2.31263404247942,42.865588965379,605.919899999994 -2.31364889171377,42.8654648843826,605.811600000001 -2.31538425897626,42.8651945162345,603.256500000003 -2.3170747958145,42.86494525744,599.938999999998 -2.31812357441716,42.8646848767361,598.236600000004 -2.31849309281601,42.8643476292959,597.789199999999 -2.31894744182209,42.8642065476136,598.172999999995 -2.32015174125828,42.8625864265542,601.566000000006 -2.3209119720085,42.8620917105692,603.082299999995 -2.32155535888972,42.8618511684715,603.971900000004 -2.32564274014488,42.8611752718326,606.157500000001 -2.32727160584221,42.8634798554307,598.594200000007 -2.32757981781622,42.8639866373764,603.088499999998 -2.32799819109178,42.8642421518914,601.137499999997 -2.32847704613881,42.864424639131,599.237999999998 -2.32961677197745,42.8643262229164,596.725099999996 -2.33111010435631,42.8639751686898,598.498099999997 -2.3314333092124,42.8636993941366,600.881899999993 -2.33121538331434,42.8633759357418,600.456900000005 -2.33226732758003,42.8631397944449,601.323499999999 -2.33333277621939,42.8630171162899,603.002099999998 -2.33406535682519,42.8637263421773,602.063899999994 -2.33573413556893,42.8635144342723,605.091799999995 -2.33601376315056,42.8643227582308,606.556800000006 -2.33616015081263,42.8647163852979,610.1057 -2.3362882883014,42.8650491488086,608.243100000007 -2.33650704334445,42.8653244031029,605.997300000003 -2.33686629579624,42.8655714349008,603.510299999994 -2.33761608273297,42.8659379811847,600.361099999995 -2.33877620482013,42.8656836390932,601.786300000007 -2.33949095746076,42.8655283556636,602.435299999997 -2.34074983134711,42.8654144978877,603.718699999998 -2.34225760324585,42.8652818649186,604.465200000006 -2.34459996394244,42.8650979224559,607.0435 -2.34655914735629,42.8648984286713,607.229699999996 -2.34863132445985,42.8646858610908,606.842399999994 -2.34951703817715,42.8645896549914,606.957899999994 -2.35111705807242,42.8642464567458,608.036300000007 -2.35365927595343,42.863711047238,607.0959 -2.35416614765754,42.8635804715359,608.043099999995 -2.35587439118833,42.8636774667046,608.825299999997 -2.35755981751092,42.8637291122405,605.1679 -2.36009987404537,42.8629761910339,605.961800000005 -2.36156893484356,42.8627219875252,604.767500000002 -2.36344300198592,42.8620675339282,601.028200000001 -2.36545970362909,42.8612967657723,595.993199999997 -2.37171105004689,42.8608010273807,607.179699999993 -2.38002267358564,42.8601840867507,589.127900000007 -2.38653046925413,42.8596898750112,590.772200000007 -2.386746212246,42.8586422817557,590.112399999998 -2.38697897561759,42.8579185294884,588.017699999997 -2.38768735740624,42.8570575052294,587.650899999993 -2.38843578159867,42.8562293588266,585.311900000001 -2.38954155830609,42.8549060207858,587.182000000001 -2.38992789226878,42.8547705618494,589.453699999998 -2.3900893069489,42.8546283302061,591.672300000006 -2.38997161417194,42.8545082739084,593.0429 -2.39002113200538,42.8541930004692,597.506699999998 -2.38999214426947,42.8538164509294,600.814599999998 -2.38996546161059,42.8535757152485,602.110199999996 -2.38968927098322,42.852638889528,603.230899999995 -2.38931580718362,42.8512787748508,606.332399999999 -2.389187578965,42.8508819378179,607.069399999993 -2.38890290644474,42.8499919436169,603.636899999998</coordinates>
</LineString>
</Placemark>
</Folder>
</Document></kml>
