<?xml version="1.0" encoding="UTF-8"?>

<kml xmlns:xsd="http://www.w3.org/2001/XMLSchema" xmlns:gx="http://www.google.com/kml/ext/2.2" xmlns:atom="http://www.w3.org/2005/Atom" xmlns="http://www.opengis.net/kml/2.2">
<Document>
<name>ES29a_04b_valdore-sabero</name>
<visibility>1</visibility>
<Schema name="ES29a_04b_valdore-sabero" id="kml_schema_ft_ES29a_04b_valdore-sabero">
<SimpleField type="xsd:string" name="id">
<displayName>id</displayName>
</SimpleField>
<SimpleField type="xsd:string" name="nombre">
<displayName>nombre</displayName>
</SimpleField>
<SimpleField type="xsd:double" name="longitud">
<displayName>longitud</displayName>
</SimpleField>
<SimpleField type="xsd:string" name="_formato">
<displayName>_formato</displayName>
</SimpleField>
</Schema>
<Folder id="kml_ft_ES29a_04b_valdore-sabero">
<name>ES29a_04b_valdore-sabero</name>
<Placemark id="kml_1">
<name>&lt;img height='20' src='https://nco.ign.es/iconos/icono_todos_caminos_azul.png' /&gt;&lt;img height='20' src='https://nco.ign.es/iconos/Camino Santiago_20.png' /&gt;&lt;img height='20' src='https://nco.ign.es/iconos/icono_todos_caminos_azul.png' /&gt;  Camino de Santiago </name>
<visibility>1</visibility>
<description><![CDATA[<!DOCTYPE html>
<html>
<head>
<style>
#nco {
  border-collapse: collapse;
  overflow:hidden;
}
#nco th, #nco td {
  padding: 4px;
  text-align: left;
}
#nco th {
  color: #364B5F;
  padding-right: 5px;
}
#nco td {
  color: rgb(51, 51, 51);
  font-size: 12px;
  padding-right: 5px;
}
</style>
</head>
<body>
<table id="nco">
<tr>
<td>Caminos del Norte</td>
</tr>
<tr>
<th><b>Camino: </b></th>
<td>ES29a Ruta Vadiniense</td>
</tr>
<tr>
<th><b>Etapa: </b></th>
<td>04b Valdore-Sabero</td>
</tr>
<tr>
<th><b>Longitud: </b></th>
<td>8.8 km</td>
</tr>
</table>
</body>
</html>]]></description>
<Style>
<IconStyle>
<scale>0.8</scale>
</IconStyle>
<LabelStyle>
<color>ffffffff</color>
<scale>0.75</scale>
</LabelStyle>
<LineStyle>
<color>ffff0000</color>
<width>3.0</width>
<gx:labelVisibility>1</gx:labelVisibility>
</LineStyle>
<PolyStyle>
<color>66ff0000</color>
</PolyStyle>
</Style>
<ExtendedData>
<SchemaData schemaUrl="#kml_schema_ft_ES29a_04b_valdore-sabero">
<SimpleData name="id">ES29a_04b</SimpleData>
<SimpleData name="_formato">kml</SimpleData>
</SchemaData>
</ExtendedData>
<LineString>
<extrude>0</extrude>
<tessellate>1</tessellate>
<coordinates>-5.16109166692949,42.8719730863395,970.823099999994 -5.16138235097566,42.8720797039677,967.116899999994 -5.16167387404829,42.872211132032,969.522899999996 -5.1617885377061,42.8721097110039,969.665599999993 -5.16189700029351,42.8718344494397,967.926200000002 -5.16202239342909,42.8715590200832,968.387400000007 -5.16218416384206,42.8713573515484,968.363299999997 -5.16234593425506,42.8711558508954,968.682000000001 -5.16250854369452,42.8709791600416,969.637600000002 -5.16251843414583,42.8707805088798,969.4179 -5.16274860138624,42.8706023099469,969.618900000001 -5.16297876862664,42.8704241104995,968.195500000002 -5.16314271835251,42.8702846353052,970.856899999999 -5.16313433617259,42.8700491044133,972.498800000001 -5.16321128226657,42.869836706654,974.973899999997 -5.16355041425263,42.86988012524,979.508000000002 -5.1638934018079,42.8700353575616,977.134099999996 -5.16402399169739,42.8699089588037,980.803899999999 -5.16372961916867,42.8697034346845,984.585300000006 -5.16350146415449,42.869459521052,988.1391 -5.16343424052683,42.8689889610042,994.523300000001 -5.16345234607137,42.8685417024088,1000.1278 -5.16333533421741,42.868096958933,1007.3511 -5.16318462745546,42.8676528857956,1012.1776 -5.16315026240426,42.8671570121135,1011.34819999999 -5.16309913209494,42.8666613062929,1007.24129999999 -5.16318127494282,42.8661134651078,1015.9945 -5.16324648634425,42.8655659594648,1029.10739999999 -5.16330432167888,42.865291871001,1034.0561 -5.16287282132204,42.8650270032581,1038.51639999999 -5.16263863052746,42.8646094165164,1043.7699 -5.16256151734686,42.8643378429778,1046.91069999999 -5.1623363788754,42.8641809337751,1050.7841 -5.16205893869147,42.8639752417765,1053.03660000001 -5.16199607368956,42.8636289013197,1058.38529999999 -5.16185140270801,42.8633586686718,1061.433 -5.160789918334,42.8634285738061,1073.26119999999 -5.16048531938409,42.8634097989121,1079.71550000001 -5.16009103533117,42.863243501853,1083.75229999999 -5.15969675037991,42.8630773722503,1087.3653 -5.15961192516259,42.8628931381101,1090.3406 -5.15966825222582,42.8626540859216,1093.1853 -5.15980940270982,42.8623739629505,1095.64690000001 -5.16007125353028,42.8621550279467,1100.4537 -5.16040166826481,42.8620458949803,1103.5098 -5.1606926882809,42.8620406984184,1108.2349 -5.16078438650848,42.8618884834727,1111.20540000001 -5.16067676204922,42.8615890818059,1114.14750000001 -5.1605039279852,42.8612752628571,1116.53049999999 -5.16027946055525,42.8610258176947,1116.4237 -5.16011735417236,42.8607116640122,1118.7065 -5.15997603570344,42.8603733702769,1122.72749999999 -5.16010494933658,42.8600538519254,1128.62270000001 -5.16007360082813,42.8597769140946,1133.5791 -5.16002079516079,42.8595004787639,1134.458 -5.16003085269869,42.8591752612737,1133.99159999999 -5.1600407440483,42.8588419965966,1135.75380000001 -5.1600003432167,42.8586128351374,1139.56329999999 -5.15981744981812,42.8583231567889,1147.6379 -5.1598928867424,42.8580125235378,1154.764 -5.15969574426679,42.8579292071206,1162.0499 -5.15938393813337,42.8579592144508,1164.7347 -5.15911102276352,42.8578693603348,1168.5502 -5.15899736432053,42.8577050752331,1172.06140000001 -5.15896467462732,42.8573884069297,1178.00169999999 -5.1589388588427,42.8569605944865,1184.4647 -5.15893718258638,42.8566038608107,1189.8318 -5.15874305755178,42.856298256594,1193.87480000001 -5.15861196460576,42.8559438700244,1202.2261 -5.15844667369516,42.8555346655039,1208.53419999999 -5.15819974209489,42.8552619180564,1217.82180000001 -5.15778835861055,42.8552223554313,1220.83689999999 -5.15737546595651,42.8551351834894,1230.8417 -5.15695033555335,42.8550086172472,1240.0202 -5.15659762553176,42.8547933696156,1233.06230000001 -5.15621256088861,42.8545786256746,1229.80899999999 -5.15577418752154,42.8543808127409,1229.6367 -5.15530513578919,42.8542312795955,1230.3894 -5.1547656767998,42.8542257471776,1234.9712 -5.15420542989645,42.8542445228888,1240.5762 -5.15363411934208,42.8542555870621,1245.4274 -5.15319457277523,42.8540260905049,1245.11139999999 -5.15280565256287,42.8537003693687,1240.4155 -5.15241807353521,42.8534143789127,1237.2268 -5.15196897069037,42.8532167334737,1235.4886 -5.15158222979091,42.8529545475951,1227.2083 -5.15145951902476,42.8528380396447,1223.7286 -5.15159765296601,42.8527800364978,1220.6593 -5.15176780555893,42.8527134845435,1218.28479999999 -5.1518931986945,42.8526001609353,1214.2638 -5.15198489692205,42.8524477778331,1208.6455 -5.15194801568975,42.8523217138352,1204.44040000001 -5.15154585251348,42.8522343744751,1198.2343 -5.15115173554718,42.8520674071905,1189.6213 -5.15075728261099,42.8518925610097,1180.54519999999 -5.15048084764185,42.8516994416606,1175.12549999999 -5.15050431702698,42.8514453023652,1169.93120000001 -5.15062669272151,42.8512448075582,1167.89320000001 -5.15094503769187,42.8510962797099,1158.902 -5.151272770057,42.8509078548507,1151.2218 -5.15158776161643,42.8506641093139,1145.0058 -5.15177115807156,42.8505120612634,1140.8406 -5.15196142753695,42.8505583292946,1140.8885 -5.15207977967731,42.8504768573894,1141.1318 -5.15212738859074,42.8502974848635,1140.8876 -5.15201892690166,42.8498931415145,1135.0656 -5.15196125955199,42.8493986090008,1129.7038 -5.15189655120714,42.8490926694664,1118.95940000001 -5.15182195241101,42.8488859722336,1117.2513 -5.15189068431003,42.8485376200633,1115.6765 -5.15207055936923,42.8482864986636,1109.6468 -5.1522504353268,42.8480353762429,1106.98299999999 -5.15279844448103,42.8479062953663,1095.58229999999 -5.15334511155223,42.8477374834643,1092.39479999999 -5.15385104361857,42.847559619771,1088.3643 -5.15426577961555,42.8474727834447,1083.836 -5.15479216362595,42.8474928995137,1078.5569 -5.15480976521565,42.8474065662758,1078.6719 -5.15499115034287,42.8472662533488,1080.5527 -5.15533162261534,42.8471381778924,1080.21189999999 -5.15567896879636,42.8470099342225,1078.20329999999 -5.15591315959094,42.8468025661292,1079.2933 -5.15605246673192,42.8466428072869,1079.4688 -5.15626737878219,42.8464765098571,1076.43459999999 -5.15648916384268,42.8463100453469,1072.8333 -5.15664657562993,42.8460788726908,1070.2228 -5.156769454381,42.845843173708,1066.6155 -5.15663651719366,42.8455970805695,1063.364 -5.15658203527,42.8454205582838,1062.5141 -5.15660768396799,42.8451664188405,1061.9828 -5.15669535864141,42.8449111059688,1061.6465 -5.15675537328893,42.8446562959052,1057.6807 -5.15667155418472,42.8444296492124,1053.9758 -5.1564174145026,42.844267040187,1052.77830000001 -5.15616344280548,42.8441096281463,1051.02009999999 -5.15575340050583,42.8440313415366,1050.6629 -5.15553664421433,42.8439543951851,1050.6167 -5.15542248271476,42.8438501245059,1051.0756 -5.15556346611207,42.8437409921214,1051.75350000001 -5.1557044495094,42.843631859544,1051.446 -5.15579581266536,42.8434831651914,1050.928 -5.15583839280982,42.8433200530938,1050.29829999999 -5.15576345804377,42.8431540911988,1049.4762 -5.15559900526133,42.842989805813,1048.9339 -5.1554345524789,42.8428255206489,1049.1024 -5.15533648429767,42.8425889832851,1044.81630000001 -5.15490917458161,42.8424094429465,1045.5941 -5.15468839563424,42.8422158210219,1043.0379 -5.1544930973999,42.841960675774,1044.0211 -5.15433970826852,42.8417201151987,1043.2599 -5.15399906801109,42.8416505457849,1042.6265 -5.15374794577003,42.8415742702954,1040.9868 -5.15363596358335,42.8413328716916,1040.3196 -5.15356304104354,42.8410247528056,1035.6053 -5.15340965281045,42.8406470644739,1028.41929999999 -5.15302274392599,42.8403768313725,1022.1903 -5.15261655629723,42.8401704692326,1020.4397 -5.15266785369321,42.8399344348274,1014.83869999999 -5.15298720477672,42.8394326941297,1008.74920000001 -5.15303783113121,42.8390756247134,999.735100000005 -5.1529595438525,42.8386434538722,993.269499999995 -5.15293389515451,42.8383812680528,990.240699999995 -5.15239410109354,42.8379750813445,989.416100000002 -5.15195539265488,42.837765365553,988.152300000002 -5.15132306133987,42.8374104760937,986.176200000002 -5.15041714541011,42.8369420952462,985.859599999996 -5.14984248234307,42.8366953322945,985.986099999995 -5.14922456809005,42.836369946626,985.376900000003 -5.14864655251038,42.8362306395518,984.798500000004 -5.14907168201524,42.8358038326885,979.424400000004 -5.14964265749803,42.8358504364943,977.771099999998 -5.15020776518537,42.8357257134141,975.689700000003 -5.15053080385314,42.8353389725082,975.494300000006 -5.15064412722454,42.834879979603,979.030400000003 -5.1500332539667,42.8344345654763,977.701199999996 -5.14919154332529,42.8340505061987,972.624200000006 -5.14819527035268,42.8336884083143,971.268899999995 -5.14719916536506,42.8333263096258,970.3995 -5.14672961057614,42.8332210335189,969.145900000003 -5.14625469194668,42.8329633734961,969.218900000007 -5.14534207099166,42.8327712602022,967.789300000004 -5.14435518541378,42.8326757066336,970.963799999998 -5.1429978202397,42.8326443582746,965.136199999994 -5.14121213923648,42.8324636447473,964.160199999998 -5.1407249828579,42.8324120119315,962.0432 -5.14030890567615,42.8323590384636,961.023499999996 -5.13989333065268,42.832321319577,960.426900000006 -5.13922680137311,42.8322121872512,961.275099999999 -5.13855976993532,42.832087800052,959.298899999994 -5.13784714001367,42.8318422101109,957.734299999996 -5.13734154391726,42.8315927646482,958.780100000004 -5.13636941047299,42.8316264601284,957.551200000002 -5.13541018581934,42.8314313293926,959.051699999996 -5.13449236721211,42.8312353600625,957.276199999993 -5.13355895834308,42.831192109962,957.894899999999 -5.13293920074711,42.8312343547521,957.692500000005 -5.13241549910614,42.831061519522,959.262100000007 -5.13180177639224,42.8306769577046,961.934500000003 -5.13118537130888,42.8302162884479,963.661500000002 -5.13076543765966,42.8300737960375,965.539099999995 -5.1303483543648,42.829990312149,962.888699999996 -5.13006018470314,42.8300416096819,951.400299999994 -5.12990998099773,42.8298922442444,957.055699999997 -5.12991601587983,42.8294654377461,956.763999999996 -5.12967579110148,42.8291043453545,956.183099999995 -5.12931251868879,42.8287759425367,955.707399999999 -5.12894924717442,42.8284477072902,954.388300000006 -5.12843560396969,42.8279704414884,956.266600000003 -5.12817677148857,42.8276707047565,955.893599999996 -5.12775247921356,42.8273739853259,953.078699999998 -5.12726867534762,42.8271547147633,951.635399999999 -5.12668462488588,42.8270286505391,948.557199999996 -5.12611901414195,42.8268412314434,948.735700000005 -5.12553697410982,42.8267760199455,943.513300000006 -5.12526942437716,42.8268269821638,942.912299999996 -5.12505015370115,42.8270749190282,940.805500000002 -5.12536665443024,42.8272521123689,940.392900000006 -5.1257850789098,42.8273815289183,940.903600000005 -5.12620400644594,42.8275262003482,941.997900000002 -5.12652520087239,42.8278405221716,943.097599999994 -5.12678654863632,42.8282168696803,942.566900000005 -5.12727169278867,42.8284824078637,943.229500000001 -5.12778030722445,42.82882371906,942.997499999998 -5.12777360130085,42.8290191854576,942.614400000006 -5.12751694813259,42.8292679600986,937.256800000003 -5.12704974064152,42.8295598176744,943.194300000003</coordinates>
</LineString>
</Placemark>
</Folder>
</Document></kml>
