<?xml version="1.0" encoding="UTF-8"?>

<kml xmlns:xsd="http://www.w3.org/2001/XMLSchema" xmlns:gx="http://www.google.com/kml/ext/2.2" xmlns:atom="http://www.w3.org/2005/Atom" xmlns="http://www.opengis.net/kml/2.2">
<Document>
<name>PT08a_10a_sao_domingos-santiago_de_cacem</name>
<visibility>1</visibility>
<Schema name="PT08a_10a_sao_domingos-santiago_de_cacem" id="kml_schema_ft_PT08a_10a_sao_domingos-santiago_de_cacem">
<SimpleField type="xsd:string" name="id">
<displayName>id</displayName>
</SimpleField>
<SimpleField type="xsd:string" name="nombre">
<displayName>nombre</displayName>
</SimpleField>
<SimpleField type="xsd:double" name="longitud">
<displayName>longitud</displayName>
</SimpleField>
<SimpleField type="xsd:string" name="_formato">
<displayName>_formato</displayName>
</SimpleField>
</Schema>
<Folder id="kml_ft_PT08a_10a_sao_domingos-santiago_de_cacem">
<name>PT08a_10a_sao_domingos-santiago_de_cacem</name>
<Placemark id="kml_1">
<name>&lt;img height='20' src='https://nco.ign.es/iconos/icono_todos_caminos_azul.png' /&gt;&lt;img height='20' src='https://nco.ign.es/iconos/Camino Santiago_20.png' /&gt;&lt;img height='20' src='https://nco.ign.es/iconos/icono_todos_caminos_azul.png' /&gt;  Camino de Santiago </name>
<visibility>1</visibility>
<description><![CDATA[<!DOCTYPE html>
<html>
<head>
<style>
#nco {
  border-collapse: collapse;
  overflow:hidden;
}
#nco th, #nco td {
  padding: 4px;
  text-align: left;
}
#nco th {
  color: #364B5F;
  padding-right: 5px;
}
#nco td {
  color: rgb(51, 51, 51);
  font-size: 12px;
  padding-right: 5px;
}
</style>
</head>
<body>
<table id="nco">
<tr>
<td>Caminos Portugueses</td>
</tr>
<tr>
<th><b>Camino: </b></th>
<td>PT08a Caminho Central Faro-Golegã</td>
</tr>
<tr>
<th><b>Etapa: </b></th>
<td>10a Sao Domingos-Santiago de Cacém</td>
</tr>
<tr>
<th><b>Longitud: </b></th>
<td>24.14 km</td>
</tr>
</table>
</body>
</html>]]></description>
<Style>
<IconStyle>
<scale>0.8</scale>
</IconStyle>
<LabelStyle>
<color>ffffffff</color>
<scale>0.75</scale>
</LabelStyle>
<LineStyle>
<color>ffff0000</color>
<width>3.0</width>
<gx:labelVisibility>1</gx:labelVisibility>
</LineStyle>
<PolyStyle>
<color>66ff0000</color>
</PolyStyle>
</Style>
<ExtendedData>
<SchemaData schemaUrl="#kml_schema_ft_PT08a_10a_sao_domingos-santiago_de_cacem">
<SimpleData name="id">PT08a_10a</SimpleData>
<SimpleData name="_formato">kml</SimpleData>
</SchemaData>
</ExtendedData>
<LineString>
<extrude>0</extrude>
<tessellate>1</tessellate>
<coordinates>-8.54149125480418,37.9311142491046,77.7198999999964 -8.54299698034069,37.93380198973,77.9536999999982 -8.54717502406588,37.9314414785434,84.9058999999979 -8.54729186703658,37.9312575794243,85.4890000000014 -8.54761892925848,37.9307503068241,83.6572000000015 -8.54777064213354,37.9306348038669,84.001099999994 -8.54782244168777,37.9305850153782,83.6263999999937 -8.54783199706747,37.9305709336219,83.5090999999957 -8.54784993462704,37.9305602054389,83.4545999999973 -8.54797247830652,37.9303831792108,82.8610000000044 -8.54809518907267,37.930228114224,83.0427999999956 -8.54833373759466,37.9300670141337,82.9622999999992 -8.5486014562106,37.929957378378,83.0136999999959 -8.54880429759837,37.9298713806827,83.0927999999985 -8.55015110217797,37.9292237943296,81.1631000000052 -8.55103170537965,37.928829342364,81.1399999999994 -8.55189034746756,37.9284620471467,81.7829000000056 -8.55241371313861,37.9282354008044,81.351800000004 -8.55258068030553,37.9281993584568,81.1861000000063 -8.5527738001253,37.9281784037766,81.2369999999937 -8.55345407542533,37.9282293651686,81.7004000000015 -8.55386981753546,37.9282868652442,82.2376999999979 -8.55413787032465,37.9282992702442,82.959400000007 -8.55437021687795,37.9282763039513,83.5237000000052 -8.55460960442647,37.928188964375,83.8617999999988 -8.5553059730448,37.9279276167548,84.242499999993 -8.55586906850595,37.9277202485,83.4413000000059 -8.55603167794541,37.927709855059,83.195000000007 -8.55634214379243,37.9277108612416,82.915399999998 -8.55662427857202,37.9277517646804,82.4710999999952 -8.55710824952459,37.9279948401549,82.4388000000035 -8.55731042076919,37.9280791621377,82.1052999999956 -8.55733070562662,37.9280746357555,82.0071999999927 -8.55752952435858,37.9280999489137,82.1117999999988 -8.55782926072783,37.9280506632145,81.2856000000029 -8.55814257603095,37.927946057475,79.7753999999986 -8.5581462645135,37.9279458895422,79.770399999994 -8.55842772914989,37.9278826901099,79.142399999997 -8.55865286672305,37.9279183967472,78.6435999999958 -8.5586491782405,37.9279187319042,78.6474000000017 -8.55875596367326,37.9279881341858,78.8417000000045 -8.55876065826893,37.9279911520137,78.8453000000009 -8.55918411151744,37.9282511587859,78.5164999999979 -8.55939617411161,37.9283646495976,78.5268000000069 -8.55946708442519,37.9283374921143,78.5788999999932 -8.55979749915976,37.9282585343336,79.3035999999993 -8.56023285508578,37.9283116759507,80.1487999999954 -8.56045547917276,37.928355261713,80.5035999999964 -8.56096426069517,37.9285715150752,84.775999999998 -8.56107138119955,37.9286669007198,84.0366000000067 -8.56107993046609,37.9286699185198,84.0727999999945 -8.5611858777707,37.9288811422493,84.2750999999989 -8.56142308600632,37.9291646185212,84.1030000000028 -8.56237812001915,37.9301322254045,81.8102999999974 -8.56263611437214,37.9303122685523,81.2314000000042 -8.562875166849,37.9303895498157,81.7456999999995 -8.56317188577724,37.9304260948709,82.3040000000037 -8.56368033222807,37.9304441998189,83.3940000000002 -8.56384947870787,37.9304490612008,84.3187999999936 -8.56407310800964,37.9303872023779,85.6983999999939 -8.56420520706878,37.9304079899184,85.4671999999991 -8.56436848665147,37.930459957327,84.9367999999959 -8.56526870277071,37.9304998552175,81.1946999999927 -8.56651777424067,37.9305570197896,79.6575000000012 -8.56762954989755,37.930588871316,79.4351000000024 -8.56775930165887,37.9306210579734,79.1539000000048 -8.56807077272071,37.9307256641583,78.9982000000018 -8.56833631202376,37.9308810646564,78.6315999999933 -8.56846338141565,37.9309088921956,78.5482999999949 -8.56859330116193,37.9309558306848,78.6275000000023 -8.56867913159404,37.9310745187645,78.5786999999982 -8.56918388956232,37.9314066096988,80.1667000000016 -8.57076589015128,37.9323792460102,82.417100000006 -8.5713484323417,37.9327413437148,80.9464000000007 -8.57166945968152,37.9328866859199,80.8334999999934 -8.57189862080882,37.9329368101097,80.803899999999 -8.57212610567979,37.9329366421883,81.0806000000011 -8.57248082792758,37.9328494704016,82.1003999999957 -8.57292238582236,37.9327547547853,82.577099999995 -8.57342513246267,37.9326322114622,82.2902000000031 -8.57363149524639,37.9325440339065,81.7694999999949 -8.57378270506488,37.9324286988559,81.2581000000064 -8.57411898669656,37.9320126210909,82.8950000000041 -8.57434663955249,37.9317829573938,83.3880999999965 -8.5745357349198,37.931654043373,84.0681999999942 -8.57508139677621,37.9314914343768,83.6413999999932 -8.57589494433516,37.9313008304242,83.1649000000034 -8.57643255998157,37.9311685634269,82.7504999999946 -8.57674939578227,37.9310927914785,83.1977000000043 -8.57695223806837,37.9309591835341,84.1582999999955 -8.57707729523403,37.930875867451,83.963699999993 -8.57729371645395,37.9307866844823,84.6860000000015 -8.57747443053968,37.9307018589911,85.7813000000024 -8.57772605493895,37.9306592793451,86.0014999999985 -8.577962760118,37.9306341335775,85.3169999999955 -8.57843130789548,37.9306708464377,87.8368000000046 -8.57861554247877,37.9306891185435,88.4902000000002 -8.57863565935127,37.9306819104576,88.7038999999932 -8.57880262651818,37.9306584411293,89.5561000000016 -8.57890505332516,37.9307070562088,89.7318999999989 -8.57904788096377,37.9307920489117,91.1386999999959 -8.57936421370793,37.9311501235149,90.0868000000046 -8.57966830960127,37.9314284023744,91.5696000000025 -8.58010819213803,37.9317983801841,90.0166000000027 -8.58045637644721,37.9322706162802,86.7005999999965 -8.58061211197811,37.9323790780876,88.8822999999975 -8.58081730066373,37.9323779047547,92.1410000000033 -8.58100120017543,37.9323095084855,94.6748999999982 -8.5811140204903,37.9322344065707,97.3806000000041 -8.58121644729731,37.9321140425482,97.8282999999938 -8.58126807976488,37.9320171472307,99.077099999995 -8.58130512718551,37.9318925925527,103.179900000003 -8.58130009841656,37.9318805225895,103.517200000002 -8.58122700789179,37.9317091962089,106.3125 -8.58112541921293,37.9315331767522,107.043600000005 -8.58106238802269,37.9313801229132,107.576000000001 -8.58106959610454,37.9313799549883,107.647100000002 -8.58109239444814,37.9313125646324,108.603600000002 -8.58120504767635,37.931307200241,109.357499999998 -8.58128333495506,37.9313657061678,109.6109 -8.5812985901452,37.9313776082907,109.729300000006 -8.58140788996244,37.9315851440741,109.483699999997 -8.58161844338696,37.9318491739771,105.843500000003 -8.58184475415986,37.9319386929213,106.985499999995 -8.58202395997419,37.9319237732229,108.024000000005 -8.58228061314245,37.931990660665,108.597999999998 -8.58277564864438,37.9321675186419,106.979500000001 -8.58303146458278,37.9322426206249,106.371100000004 -8.58325090234545,37.9323794132243,105.748500000002 -8.58352113534583,37.9325074891955,106.6443 -8.58398146892835,37.9326176270402,108.1345 -8.58423024387157,37.9327230714106,109.151700000002 -8.58450265618484,37.9328425976622,108.846000000005 -8.5846578886592,37.9328660670017,109.210800000001 -8.58491253139783,37.9328097402908,110.228799999997 -8.58515560653056,37.9327021166027,111.758600000001 -8.58543941756647,37.9326136039952,111.468900000007 -8.58569992720224,37.9326167888468,110.705600000001 -8.58597166847401,37.9326421025667,108.686100000006 -8.58631264380302,37.9326704332053,106.345600000001 -8.58673961844746,37.9326432758954,103.453299999994 -8.58701907085762,37.9326020364997,100.1679 -8.58731897521186,37.9324877076573,97.0308999999979 -8.58779104438523,37.9323287870119,93.0510999999969 -8.58840024138675,37.9322419503502,89.0372000000061 -8.58909208339437,37.9322008786524,88.2920000000013 -8.58994737296964,37.9321879705414,91.2752000000037 -8.59007209506369,37.9323113520935,92.5095000000001 -8.59029974791962,37.9324654115285,94.7290999999968 -8.5904707386407,37.9324848579364,95.4284000000043 -8.59117280706955,37.9324582036168,101.075100000002 -8.5921077242099,37.9323914831057,106.192500000005 -8.59246747612501,37.9323103466823,107.493799999997 -8.59277877920189,37.9322214984657,107.205100000006 -8.59357707246899,37.931998539608,103.232399999994 -8.59457418356975,37.9316775130921,98.4125000000058 -8.59507324172755,37.9315549693903,97.8273999999947 -8.59512722149297,37.9315908442941,97.8675999999978 -8.59526971316163,37.9317633435847,98.1156000000046 -8.59539410108239,37.9320387725103,98.7550000000047 -8.59542829904695,37.9322479849482,99.0384000000049 -8.59542310229305,37.9322572051213,99.0651000000071 -8.59541639726774,37.9322754775413,99.1294999999955 -8.59531464060393,37.9325458782172,101.127699999997 -8.59503669646513,37.933125235351,105.469299999997 -8.5948901812423,37.9335351100751,107.451400000005 -8.59487660230848,37.9336137327261,107.872700000007 -8.59497165304869,37.9342805966848,110.564599999998 -8.59502362058788,37.9346899690085,111.224300000002 -8.59518069730351,37.934831790314,111.449999999997 -8.59535805887658,37.9349281824222,111.591 -8.59536610508658,37.9349315350903,111.602499999994 -8.59538236638983,37.9349384083429,111.626600000003 -8.59547574087373,37.9350326209385,111.940799999997 -8.5958261044958,37.9357439092779,115.689599999998 -8.59606968268508,37.9360915908857,117.073300000004 -8.59627403324254,37.9362069258574,117.619200000001 -8.59647670754367,37.9362696221861,118.369500000001 -8.59648643090832,37.9362832012352,118.419800000003 -8.59668491367034,37.9363370129572,118.502500000002 -8.59679237014464,37.9364295488773,118.648700000005 -8.59697341930195,37.9365950078479,119.1734 -8.59698280669665,37.936602048858,119.206000000006 -8.59761312578543,37.93704578629,122.540800000002 -8.59819533290422,37.9374451004325,124.995200000005 -8.59842432694489,37.9376709085857,125.411300000007 -8.59881173798756,37.9381951128224,127.953299999994 -8.59908482044407,37.938579842441,128.046199999997 -8.59923334789313,37.9387617295999,127.376300000004 -8.59945077432786,37.9389240037017,126.751399999994 -8.60034629674978,37.9395437611102,126.471699999995 -8.60066950340246,37.9396696574072,126.7307 -8.6018793472406,37.9398200287503,128.0337 -8.60279649480634,37.9399306699816,129.283800000005 -8.60307930062747,37.9399222881726,129.826400000005 -8.60318105639295,37.9399201089446,129.923200000005 -8.60339529830001,37.9399942047855,130.477199999994 -8.60360635478107,37.940109037003,131.153300000005 -8.6039816960596,37.9403157348257,131.688899999994 -8.60436927508723,37.9404657704556,132.653399999996 -8.60456926791726,37.9404806905456,132.840700000001 -8.60506530863401,37.9404887371912,133.600900000005 -8.6052708323912,37.9404775053262,133.113299999997 -8.60546395221102,37.9405048304797,133.180800000002 -8.60559152465945,37.9405090209968,133.087 -8.60577525528787,37.9404974540353,133.003400000001 -8.60603358561077,37.9405420456645,133.612599999993 -8.60649593141952,37.9405658504789,134.286999999997 -8.60691737423843,37.9405574687424,135.376699999993 -8.60734065950199,37.9406080956636,136.261499999993 -8.60750226282833,37.9406823587146,136.314899999998 -8.60751634481873,37.9406872208363,136.335699999996 -8.6077444998329,37.9407888095635,136.562900000004 -8.60797332588861,37.9408392684221,136.554900000003 -8.60824355888899,37.9408548586325,136.938299999994 -8.60843416342596,37.9408830217448,137.227299999999 -8.60866969450694,37.9409329782463,137.470600000001 -8.6090270991242,37.9411453753562,137.593699999998 -8.60988322682763,37.9415334574839,139.639999999999 -8.61030953043056,37.9417554104763,140.453899999993 -8.61056668665537,37.9419391416441,141.251300000004 -8.6110104247613,37.9421807079881,141.110400000005 -8.61207190913534,37.942707426882,139.945500000002 -8.61225429947735,37.9428239352647,140.008300000001 -8.61241841718817,37.9429179804805,140.545400000003 -8.61271513611641,37.9431771488092,140.784199999995 -8.61285360512927,37.9432659965351,140.867100000003 -8.61396387251478,37.9436037876447,139.349000000002 -8.614704161564,37.9438329489739,138.695000000007 -8.61578861226657,37.9441576635727,142.873699999996 -8.61595926791603,37.9441742597449,143.444300000003 -8.61630996660972,37.9441814686329,143.866899999994 -8.61684456481508,37.9441077078465,144.156799999997 -8.61712435229682,37.9440818915537,143.854399999997 -8.61797712748762,37.9440443402443,142.185400000002 -8.61834978729502,37.9440171828862,142.026400000002 -8.61846830652204,37.9439865053669,142.257400000002 -8.61940607401682,37.9439571688792,143.517500000002 -8.619925417032,37.9438795519187,143.926900000006 -8.62028785041824,37.9436587728272,144.505999999994 -8.62060803962988,37.9434069802249,145.376900000003 -8.62093962756418,37.9432027975219,146.358800000002 -8.62138219157208,37.9428599775264,148.026500000007 -8.62180966927306,37.9425533676601,149.308999999994 -8.62190270778704,37.9425567199805,149.433000000005 -8.62190388098682,37.9425617491691,149.414600000004 -8.62193657067999,37.942610029079,149.300300000003 -8.62194076221912,37.9427604007818,148.889800000004 -8.62190656335625,37.9429456405235,148.254700000005 -8.62198602383471,37.9430965145256,147.751099999994 -8.62218366936689,37.9432173819689,147.225699999995 -8.62290685988299,37.9434229063937,145.177599999995 -8.62313887136467,37.9434691745124,144.848899999997 -8.62319838295562,37.94352164488,144.556200000006 -8.62319922108378,37.9435244948814,144.540500000003 -8.62329678620847,37.9436218921809,144.303100000005 -8.62330080976263,37.94362457499,144.305999999997 -8.62342989048243,37.9436619579086,144.620899999994 -8.62352913276176,37.9436855952326,145.046000000002 -8.623726610309,37.9439062063472,144.279299999995 -8.6238682638495,37.9439980724878,144.829599999997 -8.62406708258146,37.944077532636,145.803899999999 -8.62431082875569,37.9441154190117,146.215800000005 -8.6243140141817,37.9441152511159,146.220300000001 -8.62455289777531,37.9441420733546,146.435599999997 -8.62497350156776,37.9441398942518,147.979099999997 -8.62564673677091,37.9441442524574,148.726299999995 -8.62610589715365,37.9441217891349,148.894799999995 -8.62654024696658,37.9440892676383,148.7693 -8.62675163851922,37.9440503752901,148.107900000003 -8.6269588394311,37.9439870083469,147.951700000005 -8.6273623446904,37.9438778757887,148.026599999997 -8.62761665145915,37.9438168557058,148.119699999996 -8.62786106777658,37.9437093997372,148.435599999997 -8.62809944921198,37.9435830002937,148.9859 -8.62821931052199,37.9435196329475,149.298500000004 -8.62847847897306,37.9434535841482,150.058099999995 -8.62905750066585,37.9433114266812,151.471300000005 -8.62959746271178,37.9431865362178,152.373000000007 -8.62966669766734,37.9431858660429,152.483600000007 -8.62977616457124,37.9431251811815,152.651299999998 -8.62986853384032,37.942975480402,152.854699999996 -8.62993575656968,37.942901887012,153.067200000005 -8.63013893392737,37.9427753204059,153.531300000002 -8.63035937780315,37.942660991093,153.802599999995 -8.63093437594178,37.9423562251695,155.019199999995 -8.63151457173264,37.9420465973675,156.534799999994 -8.63175798193699,37.9418967293236,156.889899999995 -8.63186359416998,37.9418528079951,156.997900000002 -8.63223474480772,37.9416789672085,157.305200000003 -8.63240791484169,37.9415852576271,157.261700000003 -8.63253934285934,37.9415009355502,157.216199999995 -8.63267915305689,37.9414454471728,157.127999999997 -8.63285282614737,37.9414209724522,157.1155 -8.63300973577638,37.9414234867312,157.055399999997 -8.63334886686412,37.9414942301047,157.563699999999 -8.63351231443177,37.9414717666805,158.091700000004 -8.63360920941326,37.9414258338166,158.516600000003 -8.63383568817111,37.9413420145548,159.116599999994 -8.63384608167893,37.9413416794589,159.136899999998 -8.63401036737474,37.9412962495121,159.434599999993 -8.63428344983122,37.9413222332688,159.9666 -8.63466549703335,37.9413542522835,160.045499999993 -8.63481335344091,37.9413401704648,160.074900000007 -8.6349719393262,37.9413748716545,160.103499999997 -8.63512549554425,37.9413998500966,160.030899999998 -8.63528894221357,37.9413763806479,159.919899999994 -8.63558650016826,37.9414169491806,159.604500000001 -8.63603878754078,37.9416917078767,158.962799999994 -8.63628773046895,37.9418244773534,158.650800000003 -8.63659853138759,37.941880468439,158.394499999995 -8.63696498832796,37.9419885951425,157.579199999993 -8.63721057784517,37.9421250522236,157.418799999999 -8.63761307699136,37.9422003218514,156.746100000004 -8.63784374639004,37.9421877491715,156.634600000005 -8.63799763857797,37.9421666263278,156.556500000006 -8.63821389181296,37.9422123915369,156.4807 -8.63852284849029,37.9421165027645,156.407300000006 -8.63895703121657,37.9420179317077,157.022299999997 -8.63907219882925,37.9419426618932,156.9568 -8.6394205502251,37.9418995786797,157.412800000006 -8.63942189140979,37.9419036026333,157.426500000001 -8.63977879297051,37.9418400673548,158.625899999999 -8.6400750097405,37.9417847471346,159.263200000001 -8.6403019915549,37.9417252357167,159.304000000004 -8.64045957132711,37.9417098128839,159.373800000001 -8.64064631939658,37.9417067949107,159.380900000004 -8.64065134906386,37.9417066277178,159.380300000004 -8.64078160388173,37.9417404906451,159.339000000007 -8.64096617353663,37.9418124068957,159.266300000003 -8.64126473670614,37.9418345351221,159.253100000002 -8.64148819802298,37.9418620283804,159.333400000003 -8.64160118632277,37.9419069549833,159.209199999998 -8.64182263631168,37.9418930411714,159.123000000007 -8.64201877267418,37.941940147632,158.323000000004 -8.64202983632523,37.9419436678811,158.247099999993 -8.64220334232908,37.9419621079192,157.881399999998 -8.64242512738957,37.941941991707,158.319199999998 -8.64264842161975,37.9419835659147,158.632800000007 -8.64279778629867,37.9421039300703,157.618199999997 -8.64291647440894,37.9422801176182,156.877699999997 -8.64289736364959,37.9424162397755,156.470400000006 -8.64279124925836,37.9425530318614,155.938099999999 -8.64278404027819,37.9425629230478,155.897700000001 -8.64269619851814,37.942651770808,155.314799999993 -8.64269569546157,37.9426660202745,155.292600000001 -8.64276945612954,37.9427905751163,155.755900000004 -8.64279426669938,37.9428023103242,155.870699999999 -8.64301890121596,37.942901887012,156.587299999999 -8.64339340436634,37.9431154579688,157.828699999998 -8.6435540024779,37.9432222432144,158.6777 -8.6435620486879,37.9432302902682,158.710699999996 -8.64375986130671,37.9434783939865,159.347999999998 -8.64396723020351,37.9435885323948,160.867199999993 -8.643980976224,37.9435969144941,160.9853 -8.6442502031113,37.9436249100754,162.430999999997 -8.64496031775012,37.943561877851,164.774000000005 -8.64525753973493,37.9435550046965,164.455100000006 -8.64532895400338,37.9435226508462,164.457800000004 -8.64546574675989,37.9434944873287,164.384600000005 -8.64578207950405,37.9435523225933,163.838399999993 -8.6457966636527,37.9435516524217,163.847599999994 -8.64599011854406,37.943564895748,164.006399999998 -8.64613227514113,37.9435229859321,164.362500000003 -8.64633796778165,37.9434760476751,164.6976 -8.64651935201055,37.9434887880317,164.657999999996 -8.64675354190679,37.943504042594,165.018700000001 -8.64746818315635,37.9432782346519,165.774000000005 -8.64754429112217,37.9432170468815,165.643400000001 -8.6476968412271,37.9431627315438,165.611699999994 -8.64791208834895,37.9431580381923,165.144799999995 -8.64810353101411,37.9431810040865,164.778399999996 -8.64833068081347,37.943154517293,165.092999999993 -8.64847769999117,37.9430933294196,165.442899999995 -8.64860828988065,37.9430192338696,166.1921 -8.64871373412871,37.9429681042056,166.224499999997 -8.64888288060852,37.9429419524239,166.460500000001 -8.64915914849097,37.9429362530841,167.046900000001 -8.64939015385957,37.9429375941469,167.526800000007 -8.64959115190439,37.9429610630969,167.690900000001 -8.64975694587153,37.942983191686,167.641099999993 -8.65018358454605,37.9431025496492,167.159100000004 -8.65038106209328,37.9431630673398,166.682199999996 -8.65063285447751,37.9431417768783,166.376300000004 -8.65077065334717,37.9431087526705,166.021999999997 -8.65089252598512,37.9430752247533,165.665699999998 -8.65121874918056,37.9429640810186,163.959799999997 -8.65159509747051,37.9428554513459,162.406799999997 -8.65174060658025,37.9428076745852,161.934599999993 -8.65181453523318,37.9427833668003,161.918699999995 -8.65198167038505,37.9427885638722,161.895900000003 -8.65208325906391,37.9427330757587,161.647500000006 -8.65210169968006,37.9427322369722,161.597200000004 -8.65230420599624,37.9425588998387,161.289799999999 -8.65249682186115,37.9425034115517,161.382599999997 -8.65272631895835,37.9424470851415,162.040399999998 -8.65282120171361,37.9424306564789,162.3511 -8.65305103388243,37.9424325005416,163.215500000006 -8.65326829233221,37.9424147308034,163.396099999998 -8.65346593786437,37.9424583167054,164.610199999996 -8.65395192014488,37.9426909982777,167.456399999995 -8.65417906994426,37.9428866316163,168.578299999994 -8.65449942624256,37.9431771488092,169.054300000003 -8.65459062141357,37.9432866160782,169.133799999996 -8.65459850053694,37.9432943280379,169.137799999997 -8.65469019876449,37.943442352028,169.157699999996 -8.6551257226755,37.9438718407288,168.501999999993 -8.65560600514553,37.9442193542466,167.517399999997 -8.6561060694164,37.9444905929644,167.427500000005 -8.65634243952387,37.9445687122554,167.533100000001 -8.65676673090054,37.9447086903293,167.940900000001 -8.65729009746992,37.9449153879665,168.302200000006 -8.65773467370402,37.9451510866748,168.208100000003 -8.65786610172166,37.9452037251515,168.228400000007 -8.65789124736311,37.9452097601021,168.236499999999 -8.65844965002516,37.9453105109046,168.715599999996 -8.65929689249213,37.9455237461599,170.434099999999 -8.65953141835829,37.9457294384019,170.511299999998 -8.65993794016034,37.9462150857023,170.405299999999 -8.66031445553695,37.9466777664156,171.235000000001 -8.66052299763353,37.9469039103159,172.417600000001 -8.66122154556478,37.9472230936849,173.570399999997 -8.66180358469859,37.9474785738339,173.934299999994 -8.66196652831137,37.947589046981,173.981599999999 -8.66197088693712,37.9476163723236,173.997300000003 -8.66195328534742,37.9477156137965,174.2111 -8.66195144110615,37.9477253371088,174.235799999995 -8.66177961225691,37.9478485509024,174.617599999998 -8.6617435700511,37.9478698407085,174.636700000003 -8.66161566253105,37.9479605330598,174.762199999997 -8.66134442431585,37.9480222240829,174.747900000002 -8.66098115190315,37.9481290092817,173.987399999998 -8.66095097749278,37.9481417502484,173.894100000005 -8.66040699189269,37.9483380540793,172.503500000006 -8.66015134393925,37.9485026744375,172.211299999995 -8.66013675889227,37.948526311621,172.186900000001 -8.65982830527148,37.9487722369098,171.665299999993 -8.65968430443313,37.9488605820077,171.459000000003 -8.65953192141486,37.9491323235385,171.588300000003 -8.65951985165069,37.9491457344518,171.597800000003 -8.65932270917508,37.9494989473596,171.988400000002 -8.659230339906,37.9499053022847,172.256800000003 -8.65919614194143,37.9501922987919,172.012900000002 -8.65926889739462,37.9504085516628,171.478600000002 -8.65936478626299,37.950769140997,170.097999999998 -8.65945162280825,37.95114666246,168.854000000007 -8.65952404229149,37.9512571357584,168.207800000004 -8.65968849507392,37.9513870552559,167.152499999997 -8.65998504691554,37.9515530167715,165.598100000003 -8.66015134393925,37.9517126084476,164.481799999994 -8.66026433223904,37.9519441167368,162.830499999996 -8.66026600849535,37.9519496482083,162.799100000004 -8.66015000275451,37.9522470387441,161.983099999998 -8.65999996703409,37.9525415784243,161.574399999998 -8.65999963106418,37.9525608566022,161.550499999998 -8.66000398968993,37.9527695664958,161.871199999994 -8.66010993699454,37.9529682174281,161.747700000007 -8.66007842139943,37.9532907531986,161.760299999994 -8.6601563727082,37.9534607379842,161.412100000001 -8.66017632159571,37.953488230434,161.381200000003 -8.66024069486898,37.9535874724751,161.494699999996 -8.66023063643274,37.9538521727483,161.557799999995 -8.6601396092467,37.9540603796038,160.942500000005 -8.66013659180564,37.9540717786822,160.892999999996 -8.66012401898494,37.9540897163076,160.803799999994 -8.66008529440966,37.9542109184125,160.372600000002 -8.66019291797058,37.954411413459,159.948000000004 -8.66031127011094,37.9545931332259,159.342900000003 -8.66028696259768,37.9548546488207,157.560899999997 -8.6603100969112,37.9549605960663,156.880699999994 -8.66041872658524,37.9551230369742,156.081900000005 -8.6605967583015,37.9552375338911,155.723299999998 -8.66061570107589,37.9553768414082,154.794099999999 -8.66062710069686,37.955404836751,154.610100000005 -8.66063766218967,37.9556341652668,153.630300000004 -8.66053238502826,37.9559339023826,150.767800000001 -8.66036407667662,37.9562237489291,148.410300000003 -8.66017363922627,37.9565011898438,143.819000000003 -8.65987759044124,37.9568354600672,138.768100000001 -8.65969972670993,37.9570480251146,134.717099999994 -8.65968832708897,37.9570554013141,134.664399999994 -8.65963082772429,37.957139555382,134.523400000005 -8.65967106057089,37.9572478494533,133.464500000002 -8.65973711010048,37.9574238696534,131.815199999997 -8.65967357495536,37.9576971193313,130.021800000002 -8.65954834980478,37.957948911833,129.529500000004 -8.65954650556351,37.9579867981386,129.427500000005 -8.65962613402692,37.9580374250919,129.526100000003 -8.65981522939423,37.958081680973,129.997900000002 -8.66010457315397,37.9582032185928,129.310299999997 -8.66043766935963,37.9583457113046,128.863500000007 -8.66080211497211,37.9584821684636,129.262499999997 -8.66108877546408,37.9586327074177,129.965299999996 -8.6616979724656,37.9587689975977,131.072799999994 -8.66175496967207,37.9588021897117,131.648400000005 -8.66175178424606,37.9588177803604,131.932400000005 -8.66174222886637,37.9592135736361,137.361199999999 -8.66171171848609,37.95956259616,144.261599999998 -8.66163929900281,37.9599877261444,149.3223 -8.6615442482626,37.9602381771287,151.025099999999 -8.66154139880651,37.9602432065236,150.984899999996 -8.66154609250387,37.9603848609421,151.807199999996 -8.66154726570365,37.9603895546097,151.728900000002 -8.66160728035114,37.9605912233797,147.808799999999 -8.66161750587403,37.9606730304671,147.824299999993 -8.6616986435071,37.9608386565351,149.044599999994 -8.66188857700257,37.9610758644499,149.595000000001 -8.66219267289594,37.9613512940065,147.736600000004 -8.66243122141793,37.9615660387353,147.758199999997 -8.66255091474302,37.9617199298966,148.406300000002 -8.66265334155004,37.961818836437,149.643700000001 -8.66280589255326,37.9618879035765,150.615600000005 -8.66281108930721,37.9618915914333,150.649600000004 -8.66301896036225,37.9619407092484,151.490000000005 -8.66312256126734,37.9619958627272,151.403099999996 -8.66319162733965,37.9621479101283,151.098899999997 -8.66320101563268,37.9621541129581,151.097500000003 -8.66330897426519,37.9623200742272,151.476599999995 -8.66347191877627,37.96243842694,152.082500000004 -8.66353595607962,37.9624737987875,151.962199999994 -8.66367090459486,37.9626085796562,151.675300000003 -8.66401573639141,37.9629316184391,152.509900000005 -8.66452703229829,37.9633448461416,153.891300000003 -8.6646839419273,37.9635520466007,153.342499999999 -8.66478821297559,37.9636841455386,154.070699999997 -8.66498820490729,37.9638921842935,154.539900000003 -8.66517512096171,37.9640814473193,154.1878 -8.66540864071476,37.9642049969995,154.445600000006 -8.66574509033139,37.9643885608351,154.709700000007 -8.66597676674149,37.9645275322942,155.246599999999 -8.66616837649327,37.964718807159,156.209600000002 -8.66636233444121,37.9648272692344,156.755300000004 -8.66642469548822,37.9648844340173,157.297900000005 -8.66649677989987,37.9650297763893,158.667300000001 -8.66655562044932,37.9651094043006,159.469100000002 -8.66669895114447,37.9651429320773,159.631699999998 -8.66706674926954,37.9650785585342,159.203500000003 -8.66737470073212,37.9650098272588,159.567299999995 -8.66769069840467,37.96496104436,159.496700000003 -8.66794500517337,37.9649622178809,159.383799999996 -8.66815723485421,37.965063471342,159.570300000007 -8.6683716438479,37.965245190958,160.021800000002 -8.66849670191185,37.9654731785495,160.622799999997 -8.66854598708161,37.9655598477562,160.837899999999 -8.66862595061664,37.9656151684881,161.164499999999 -8.66878403344539,37.9656981491536,161.884999999995 -8.66896675885902,37.9658488553263,163.0622 -8.66906918566603,37.965982127886,163.840400000001 -8.66916825996038,37.966173906039,164.695900000006 -8.66924889363861,37.9665053263278,166.430200000003 -8.66924017638708,37.9666853695986,167.995699999999 -8.66925626970541,37.9670345598647,169.466400000005 -8.66926549001349,37.9672213084769,170.043900000004 -8.66927085475236,37.9672313670179,170.112099999998 -8.66936489937945,37.9674362201705,171.308799999999 -8.66952013185382,37.9676169346516,171.782800000001 -8.66958769055306,37.967826146362,172.281700000007 -8.66967687349783,37.9682065177233,172.467000000004 -8.66963563453808,37.9684169033438,173.083299999998 -8.66954963612102,37.9685979525072,174.076100000006 -8.66944335374479,37.9687530172637,174.510200000004 -8.66944100734528,37.9687640819237,174.512100000007 -8.66938669250824,37.9688465597616,174.510299999994 -8.66936590549257,37.9689369167385,174.6685 -8.6697184484275,37.969150152106,175.6682 -8.67013486068083,37.9694341309425,176.611499999999 -8.67037206891645,37.9695637151885,177.404899999994 -8.67070432789226,37.969734873289,178.179099999994 -8.67102485127722,37.9699191081025,178.320300000007 -8.6712157908858,37.9703340123733,180.369699999996 -8.67135526601174,37.9707455632653,181.934099999999 -8.67141678893063,37.970923427744,182.347099999999 -8.67153715329722,37.9710315541913,182.531900000002 -8.67181576757922,37.9710612261579,182.562000000005 -8.67244223109882,37.9710213283365,182.049199999994 -8.67298571364234,37.9709623193199,181.232600000003 -8.67329986797191,37.9708694480238,181.474300000002 -8.67363665266012,37.9707304758214,181.854600000006 -8.67392130182423,37.970469295776,182.948699999994 -8.67416605321328,37.9701670444952,186.719100000002 -8.67436889549937,37.9700222051798,190.126999999993 -8.67475345708598,37.9698445091874,193.370299999995 -8.67535762531852,37.9695969073806,193.365699999995 -8.67579784202853,37.9694420101199,193.352400000003 -8.67614082958381,37.9693382422915,194.292799999996 -8.67632472909551,37.9693424325804,194.902900000001 -8.67632724347999,37.9693424325804,194.909199999995 -8.67661725738295,37.9694376512905,194.985000000001 -8.67693979299414,37.9696205441497,195.057799999995 -8.67711028065865,37.9698032701324,193.518599999996 -8.67711715366887,37.9698124898424,193.493100000007 -8.67716543362384,37.9700270667761,192.179399999994 -8.67716744585007,37.9700450040454,191.950899999996 -8.67710089326395,37.9705507682266,185.845400000006 -8.67697868465605,37.971344366932,178.900099999999 -8.67693409318366,37.9719254002818,173.531600000002 -8.67668464809724,37.9721770250285,169.574600000007 -8.67653578557657,37.9723287376372,170.348199999993 -8.67646269505179,37.9724539630806,170.968299999993 -8.67646571249285,37.9724844729191,170.984500000006 -8.67654953159705,37.9730539396582,178.131599999993 -8.67664910894797,37.9734904690341,182.363700000002 -8.67686318197175,37.9737576843904,184.0046 -8.67698002584078,37.9740399869572,184.618199999997 -8.67706401292994,37.9745598323506,186.680200000003 -8.67701455977523,37.9750010554183,190.160699999993 -8.67685178324911,37.9752545241909,192.838300000003 -8.67652220664274,37.9754508284957,194.390899999999 -8.67643486704091,37.9755376650779,194.979800000001 -8.67644408734898,37.9757472125229,197.889200000005 -8.67638926945541,37.9759921317859,200.984200000006 -8.67629488885839,37.9761944707716,201.816999999995 -8.67629053113097,37.97623185411,201.986900000004 -8.67630310395168,37.9763572477981,202.965599999996 -8.67631198828984,37.9763597622976,203.020699999994 -8.67647543585746,37.9765979758591,206.502099999998 -8.67647862038514,37.9765974731025,206.496299999999 -8.67674751220082,37.9767314158462,208.290599999993 -8.67722310097351,37.9770053364791,211.242599999998 -8.67747573148591,37.9772992061349,213.566300000006 -8.6777337267372,37.9775781556885,214.503899999996 -8.67808995725638,37.97788074254,215.630499999999 -8.67850486213665,37.9782237297748,217.1109 -8.6788812095283,37.9786520450313,217.586200000005 -8.67904683551048,37.9788843917426,217.606799999994 -8.67926493298675,37.9790925977269,217.5429 -8.67964765033208,37.9793477432684,216.607000000004 -8.67985451617235,37.9795294629316,217.063200000004 -8.68023488711813,37.9798982667091,220.2448 -8.68061441903749,37.9802635495127,223.628299999997 -8.68064342024812,37.9804305170836,225.222500000003 -8.68061509007899,37.9807709900911,228.059399999998 -8.68064694074571,37.9811647723756,229.945500000002 -8.68073897404487,37.9817744716096,229.046199999997 -8.68092287355658,37.9821462931617,232.206900000005 -8.68113325899613,37.9824586025506,231.424700000003 -8.68127206308058,37.9826191997595,232.575500000006 -8.68151664738297,37.9827987404465,233.390799999994 -8.6819221639702,37.9828792065299,235.688699999999 -8.68233405051112,37.9829283244651,237.036300000007 -8.6824706752827,37.9829625224124,237.477700000003 -8.68284115577721,37.9832552190596,238.499500000005 -8.68322756160513,37.9835844600603,241.075599999996 -8.68341514870105,37.983975559365,242.574900000007 -8.68357155437519,37.9842075706063,244.514800000004 -8.68364246558707,37.9845480437904,244.478400000007 -8.68370331836275,37.9847210460616,244.179199999999 -8.68373734834232,37.9848154263415,244.419200000004 -8.68403373309727,37.9851610957351,246.430399999997 -8.68410866696502,37.9852202717591,246.400800000003 -8.68427630517347,37.9855639298807,246.125499999995 -8.68436766832943,37.9857597315294,245.853900000002 -8.68451820710642,37.9858636673081,244.468500000003 -8.68462365135446,37.9858893152751,244.629300000001 -8.68481241165019,37.9858700373506,245.810400000002 -8.68503017315651,37.9857588932343,247.845499999996 -8.68526788444867,37.9856554607098,248.965400000001 -8.68542261386649,37.9856390317993,249.317299999995 -8.68577180428879,37.9856236089827,249.657600000006 -8.68590054993697,37.9856749064915,249.997099999993 -8.68610456542284,37.9858103577411,249.713900000002 -8.68642123413692,37.986099533392,249.364600000001 -8.68675299005618,37.9863385854886,251.904899999994 -8.68704652445674,37.9867350495748,253.032699999996 -8.6873279881948,37.9870503767837,253.510299999994 -8.68751943085997,37.9872297494513,254.405599999998 -8.687653709232,37.9873333496775,255.219700000001 -8.68783123789169,37.987415157411,255.844700000001 -8.68810918203049,37.9875113814043,256.820000000007 -8.6894511249278,37.9884746296592,260.146299999993 -8.68968883532164,37.9906606298967,249.312399999995 -8.68921341363564,37.9986547867699,247.186100000006 -8.68461677834423,38.0027139742244,241.178499999995 -8.68675651055377,38.005586620195,255.1826 -8.68707351344114,38.0112063510002,245.606199999995 -8.6866773851469,38.0138288810739,247.312900000004 -8.69040213538649,38.0145156940812,219.516600000003 -8.69096590188911,38.0145063065911,213.642699999997 -8.69198815863129,38.015120197357,206.950299999997 -8.69277605749228,38.0153939498881,203.460500000001 -8.69290983280777,38.0155756694358,204.495899999994 -8.69458571093717,38.0155625940909,211.653900000005 -8.6947449669657,38.0154898392198,212.019899999999 -8.69508845757751,38.0153644458886,214.819499999998 -8.69596838973766,38.0149750228397,224.627999999997 -8.69673080698728,38.0148627048076,231.958499999993 -8.69721679016609,38.0148494616014,235.3799 -8.6969487364786,38.0143016202252,238.903099999996 -8.69741795619587,38.0140903965452,248.299100000004 -8.69761895424069,38.0142421088363,248.753899999996 -8.69735928273312,38.0145921372511,243.250499999995 -8.69752692094153,38.0152455903983,233.387700000007 -8.69666375224291,38.015456814288,224.1584 -8.69629511598964,38.0152522961864,224.845000000001</coordinates>
</LineString>
</Placemark>
</Folder>
</Document></kml>
