<?xml version="1.0" encoding="UTF-8"?>

<kml xmlns:xsd="http://www.w3.org/2001/XMLSchema" xmlns:gx="http://www.google.com/kml/ext/2.2" xmlns:atom="http://www.w3.org/2005/Atom" xmlns="http://www.opengis.net/kml/2.2">
<Document>
<name>PT08a_01a_faro-loule</name>
<visibility>1</visibility>
<Schema name="PT08a_01a_faro-loule" id="kml_schema_ft_PT08a_01a_faro-loule">
<SimpleField type="xsd:string" name="id">
<displayName>id</displayName>
</SimpleField>
<SimpleField type="xsd:string" name="nombre">
<displayName>nombre</displayName>
</SimpleField>
<SimpleField type="xsd:double" name="longitud">
<displayName>longitud</displayName>
</SimpleField>
<SimpleField type="xsd:string" name="_formato">
<displayName>_formato</displayName>
</SimpleField>
</Schema>
<Folder id="kml_ft_PT08a_01a_faro-loule">
<name>PT08a_01a_faro-loule</name>
<Placemark id="kml_1">
<name>&lt;img height='20' src='https://nco.ign.es/iconos/icono_todos_caminos_azul.png' /&gt;&lt;img height='20' src='https://nco.ign.es/iconos/Camino Santiago_20.png' /&gt;&lt;img height='20' src='https://nco.ign.es/iconos/icono_todos_caminos_azul.png' /&gt;  Camino de Santiago </name>
<visibility>1</visibility>
<description><![CDATA[<!DOCTYPE html>
<html>
<head>
<style>
#nco {
  border-collapse: collapse;
  overflow:hidden;
}
#nco th, #nco td {
  padding: 4px;
  text-align: left;
}
#nco th {
  color: #364B5F;
  padding-right: 5px;
}
#nco td {
  color: rgb(51, 51, 51);
  font-size: 12px;
  padding-right: 5px;
}
</style>
</head>
<body>
<table id="nco">
<tr>
<td>Caminos Portugueses</td>
</tr>
<tr>
<th><b>Camino: </b></th>
<td>PT08a Caminho Central Faro-Golegã</td>
</tr>
<tr>
<th><b>Etapa: </b></th>
<td>01a Faro-Loule</td>
</tr>
<tr>
<th><b>Longitud: </b></th>
<td>23.29 km</td>
</tr>
</table>
</body>
</html>]]></description>
<Style>
<IconStyle>
<scale>0.8</scale>
</IconStyle>
<LabelStyle>
<color>ffffffff</color>
<scale>0.75</scale>
</LabelStyle>
<LineStyle>
<color>ffff0000</color>
<width>3.0</width>
<gx:labelVisibility>1</gx:labelVisibility>
</LineStyle>
<PolyStyle>
<color>66ff0000</color>
</PolyStyle>
</Style>
<ExtendedData>
<SchemaData schemaUrl="#kml_schema_ft_PT08a_01a_faro-loule">
<SimpleData name="id">PT08a_01a</SimpleData>
<SimpleData name="_formato">kml</SimpleData>
</SchemaData>
</ExtendedData>
<LineString>
<extrude>0</extrude>
<tessellate>1</tessellate>
<coordinates>-7.93488001432158,37.0135199831313,9.71809999999823 -7.93471405326778,37.0136700189587,10.6696999999986 -7.93482502934134,37.0139570155942,10.6419000000024 -7.9346560499482,37.013959027606,10.9352999999974 -7.9346149789734,37.0142659724737,11.1293000000005 -7.93497305373386,37.0148429828046,9.41220000000612 -7.93481798834613,37.0147360295875,9.8859999999986 -7.93536096783311,37.0145630275555,7.09279999999853 -7.9355410117756,37.0146830564586,6.35300000000279 -7.93557906530938,37.015839926189,4.93649999999616 -7.93572105481979,37.0161039561107,4.99989999999525 -7.93669201416599,37.0164509669864,7.37690000000293 -7.93788392134286,37.0160000208119,2.87390000000596 -7.93811693803935,37.0160300280259,2.57749999999942 -7.93876905025691,37.0170320003674,3.07240000000456 -7.93985098567667,37.0179530041711,2.42530000000261 -7.9413040726325,37.0195879783356,3.33839999999327 -7.94227000320975,37.0210380477413,6.42549999999756 -7.94637294508223,37.0256589909811,5.1765000000014 -7.94695900777024,37.025964930432,3.9777000000031 -7.94796299188123,37.0257049237533,1.79899999999907 -7.94799802797393,37.0265610514382,3.24139999999898 -7.94784195737141,37.0271890230237,4.78010000000359 -7.94886907579591,37.0286199814348,3.23020000000542 -7.94987205379379,37.0293190328236,1.36310000000231 -7.9497449844019,37.0301890739156,3.58550000000105 -7.95191992068909,37.0331589499384,2.19130000000587 -7.9507300257385,37.0339429933207,3.44019999999728 -7.95040497574283,37.0343339248491,3.60229999999865 -7.95142102961796,37.035511079465,4.898199999996 -7.95131206487234,37.0355330403823,5.12790000000678 -7.95159000901114,37.0358500441707,5.49529999999504 -7.95206107207139,37.0375099960091,5.2274000000034 -7.95246507948896,37.0383709849807,5.9890000000014 -7.95268703253441,37.0383870780524,4.931700000001 -7.95258795824003,37.0384779379096,5.67250000000058 -7.95292792835425,37.0388650141249,4.69250000000466 -7.95287093114778,37.0389459837354,5.39290000000619 -7.95418605214733,37.0395719441238,2.45660000000498 -7.95540897186275,37.0407809495542,7.18649999999616 -7.95617507759492,37.0430869788281,4.45540000000619 -7.95610098185533,37.0435439606571,3.62480000000505 -7.95627499001746,37.0436740472183,3.55959999999322 -7.95624196525267,37.0439590325758,3.71180000000459 -7.95654203759184,37.0443529813301,6.98230000000331 -7.95649694306291,37.0445310134345,8.97149999999965 -7.95665100233749,37.0446480244364,10.3589999999967 -7.95720202803447,37.0462409217762,15.6328999999969 -7.9572390763534,37.0464239819932,15.4597000000067 -7.95690095048045,37.0464310228171,14.2642999999953 -7.95718207914693,37.0464070510317,15.4989999999962 -7.95687496671087,37.046698070318,13.9639000000025 -7.95298593077551,37.0472950294833,7.76240000000689 -7.95290596813881,37.0462280130882,8.02929999999469 -7.95247295861231,37.0460969206629,7.7957000000024 -7.95199099898763,37.0461730278173,7.62630000000354 -7.95256398579836,37.0464989165452,7.93700000000536 -7.95268099765231,37.0478049848027,7.68739999999525 -7.9525200653675,37.0479969302839,7.64620000000286 -7.95248804581749,37.0478339857257,7.64079999999376 -7.95226106400309,37.0478120254986,7.61930000000575 -7.95126596423026,37.0483600341177,7.33250000000407 -7.95104099464209,37.0489990703056,7.24959999999555 -7.95098399743562,37.049580942344,7.16659999999683 -7.95117594315733,37.0500300444684,7.57630000000063 -7.95119203647563,37.0507869306227,8.8810999999987 -7.95090403390059,37.0529439296515,11.8478999999934 -7.95085307247452,37.0544749676443,12.8849000000046 -7.95097393899939,37.0546979262808,12.9392999999982 -7.95085307247452,37.0548739468507,13.4578000000038 -7.95127401133856,37.0598459235827,18.1975999999995 -7.95115599426982,37.0598299985048,18.6353999999992 -7.95479005239491,37.0599719878585,16.5090000000055 -7.95495903088976,37.0600930224416,16.7314999999944 -7.9549199712429,37.0600060179224,16.6919999999955 -7.95513706260602,37.0607220005911,17.9168999999965 -7.95525507967479,37.0607169711494,18.2623000000021 -7.95495601344871,37.0611109203768,17.6097000000009 -7.95500496444517,37.0629279499883,20.6150000000052 -7.9555350351415,37.0650329805199,24.1276999999973 -7.95577391963344,37.0669400316318,26.6738999999943 -7.95513505127808,37.0680580097322,28.7937999999995 -7.95366603898891,37.0698049659401,31.9655000000057 -7.9528940654613,37.0711190807431,37.0225999999966 -7.95188304035513,37.0743010186153,41.9694000000018 -7.95181799693865,37.0759359929039,45.4633999999933 -7.95157307756465,37.0767919526208,47.0859000000055 -7.9517009850847,37.0770920248122,47.6649999999936 -7.95143092006924,37.0795050075304,53.0371000000014 -7.9513269849909,37.0830089779683,61.0616000000009 -7.95094795522978,37.0835920231593,62.1074999999983 -7.95292993968219,37.0840429692219,62.7434000000067 -7.95361105311038,37.0851790528893,65.2364999999991 -7.95374700773873,37.0862400336833,69.1300999999949 -7.95500596965996,37.0880500219279,73.8350000000064 -7.95519104237144,37.0886199914333,76.6140000000014 -7.95610902806533,37.0884910775991,78.4792000000016 -7.9569039679215,37.0880739941711,79.1082000000024 -7.95784693217019,37.0880260496771,79.2924000000057 -7.95813694607316,37.0881489284322,79.309699999998 -7.95740604441864,37.0905880623091,86.4036999999953 -7.95770494265974,37.0916369735907,88.4606000000058 -7.95779194718995,37.0925990486859,91.0273000000016 -7.95846501350984,37.0944720690696,100.742299999998 -7.95870792155595,37.0948029860118,102.712299999999 -7.95892702424701,37.0963320133043,106.356 -7.95941803619476,37.0971990370426,109.9764 -7.96028304823635,37.0978100778917,111.376199999999 -7.96063793846914,37.0988620066652,116.974900000001 -7.96121494883402,37.099588047345,122.218200000003 -7.96351293095894,37.100179976883,122.141600000003 -7.96368593390626,37.1024590164625,138.745899999994 -7.9639489579265,37.1028020044677,140.723800000007 -7.96382004429333,37.1028509541132,142.151400000002 -7.96412095386236,37.1028269822458,139.913 -7.96385206294501,37.103035021176,143.671199999997 -7.96384904550396,37.1035310623239,146.236900000004 -7.96428708379944,37.1038029712126,145.046799999996 -7.96423796571635,37.1036259451132,144.828399999999 -7.96396303901857,37.1035349175328,145.860400000005 -7.96454993983473,37.1037479854054,144.608099999998 -7.96421198194674,37.104550972109,145.555300000007 -7.96457894104536,37.1055229376037,147.888600000006 -7.96664591870005,37.1054590671617,159.525299999994 -7.96711396431928,37.105587980786,160.283200000005 -7.96818701540087,37.1061589560549,158.515400000004 -7.96855598672572,37.107021957134,163.918900000004 -7.96913400320373,37.1067560834428,163.919099999999 -7.97009104854448,37.1069069573273,165.415699999998 -7.97001997024594,37.1068020158483,164.898499999996 -7.97004193046139,37.1079350818265,171.711800000005 -7.96963105003358,37.1085179588869,173.9519 -7.96972207721963,37.1091970612599,175.805999999997 -7.96954002194921,37.1098890711599,179.946899999995 -7.97011703231409,37.1099219283021,178.218900000007 -7.97088498228754,37.1104109281485,181.650399999999 -7.97148898253512,37.1103950029446,184.055500000002 -7.97354104007125,37.1112700732434,205.430300000007 -7.97498004503668,37.1110729308207,225.007800000007 -7.9753890821215,37.1116799483733,242.747799999997 -7.9752670414986,37.1126510759318,254.754799999995 -7.97540299612695,37.1129169497024,259.614799999996 -7.97502899513482,37.1138439879217,264.281700000007 -7.97493495050772,37.1148159537843,285.808099999995 -7.97445902576514,37.1155999971648,293.6976 -7.97457503150598,37.1159909291371,293.231199999995 -7.97529805493545,37.1163580562614,290.498099999997 -7.9754589872203,37.1166140396156,290.165699999998 -7.97710502511262,37.1178750126932,285.914699999994 -7.97879800177517,37.1183150631079,283.788700000005 -7.97967994616156,37.1199520483376,265.787299999996 -7.98014799088246,37.1200100515814,263.202799999999 -7.98057295419896,37.1202990593137,259.958899999998 -7.9809809851707,37.1202600000202,258.876900000003 -7.98186493998669,37.1208400273819,253.8076 -7.98360904695857,37.121599930715,223.659 -7.98366604416504,37.1218029406777,217.584000000003 -7.98368599305255,37.1217090633929,220.193199999994 -7.98440096937369,37.1217350470337,214.376099999994 -7.98502491761048,37.1219620288987,203.062900000004 -7.98505308069295,37.1218089752993,204.508799999996 -7.98721192366185,37.122304010319,190.898700000005 -7.98767292828586,37.1226290604913,189.691900000005 -7.98777502002129,37.1231259402555,188.562099999996 -7.98998599851433,37.1209920751298,190.622000000003 -7.99353707566338,37.1199619389121,186.267900000006 -7.99370907249757,37.1206470757979,176.965599999996 -7.99449093647646,37.1208829428508,173.743700000006 -7.99461800586835,37.1212400118746,172.286600000007 -7.99468992319334,37.1230159694424,162.177599999995 -7.99492897477194,37.1241389765587,157.5524 -7.99476603026087,37.1243709878945,157.135800000004 -7.99491405465338,37.1245290708336,156.491899999994 -7.99498094231113,37.1254019622795,156.231 -7.99472093573191,37.1259519822035,159.673800000004 -7.99503492207655,37.1262440083779,162.969500000007 -7.99526894488616,37.1269829565403,175.173500000004 -7.99586003634309,37.1274280356083,189.638699999996 -7.99694499010223,37.1275380064571,190.396800000002 -7.99768896763403,37.1280370649571,200.313099999999 -7.9986470190879,37.1284439221564,224.225200000001 -7.99966206774824,37.1283460215414,229.527300000002 -8.00042599416755,37.1281059642454,235.033800000005 -8.00096394488555,37.1275889684512,232.387300000002 -8.00144406026891,37.1276270219705,232.356799999994 -8.00233304475218,37.1273980287507,228.165099999998 -8.00316905558314,37.1274570368783,230.481400000004 -8.00439700496582,37.1271080146088,218.343800000002 -8.00536695909723,37.1271499238091,218.837299999999 -8.00610004006461,37.1269060108489,212.454100000003 -8.006776962852,37.1268999759174,205.606199999995 -8.00888299925525,37.1262029366696,188.631099999999 -8.0087919720692,37.1264039345675,190.354800000001 -8.00967408354221,37.1256359845251,179.418799999999 -8.01010893641169,37.1254569474052,174.419200000004 -8.01178397641297,37.1252960150426,170.558900000004 -8.01193803568755,37.1254369986581,171.100399999996 -8.01284194028938,37.1246889970656,172.695999999996 -8.01426803736249,37.1245109654694,163.587499999994 -8.01505895366449,37.1235039636172,151.857000000004 -8.01502894634074,37.1232240080655,149.755399999995 -8.0152569342683,37.1231130317614,145.374500000005 -8.01629796579991,37.1243220378336,141.201300000001 -8.01739901287735,37.1236219808845,125.603700000007 -8.01775004754093,37.1236860186532,125.695000000007 -8.01803000300763,37.124079967993,127.167000000001 -8.01941100465347,37.1247320801032,120.025099999999 -8.02008893355402,37.1256339733251,120.3128 -8.02110398221436,37.1264339418192,123.902900000001 -8.02143305576416,37.126522957915,124.434200000003 -8.02121194084687,37.1268190063722,125.568199999994 -8.02127597815022,37.1275029696186,128.471399999995 -8.02200302513386,37.1290330026928,140.236399999994 -8.02198894314346,37.1303610310659,143.311000000002 -8.02223905927138,37.1313430549673,144.198900000003 -8.02255405083081,37.1320010344612,147.236399999994 -8.02315603975049,37.1325869296994,148.986699999994 -8.02307708232857,37.1332070224279,152.982399999994 -8.02382307118827,37.1354109604958,164.676699999996 -8.02391896005665,37.1358979487786,163.981299999999 -8.02380396042892,37.1366479614936,171.059999999998 -8.02358904837866,37.1368640470714,173.077900000004 -8.02375501033079,37.1374519534952,171.489100000006 -8.0241139232194,37.1378100285626,169.918000000005 -8.02421299751379,37.1394699809835,170.001300000004 -8.02512897187975,37.1403599709961,169.539300000004 -8.0253400283608,37.1403120266567,168.742299999998</coordinates>
</LineString>
</Placemark>
</Folder>
</Document></kml>
