<?xml version="1.0" encoding="UTF-8"?>

<kml xmlns:xsd="http://www.w3.org/2001/XMLSchema" xmlns:gx="http://www.google.com/kml/ext/2.2" xmlns:atom="http://www.w3.org/2005/Atom" xmlns="http://www.opengis.net/kml/2.2">
<Document>
<name>PT08a_22a_golegã-entroncamento</name>
<visibility>1</visibility>
<Schema name="PT08a_22a_golegã-entroncamento" id="kml_schema_ft_PT08a_22a_golegã-entroncamento">
<SimpleField type="xsd:string" name="id">
<displayName>id</displayName>
</SimpleField>
<SimpleField type="xsd:string" name="nombre">
<displayName>nombre</displayName>
</SimpleField>
<SimpleField type="xsd:double" name="longitud">
<displayName>longitud</displayName>
</SimpleField>
<SimpleField type="xsd:string" name="_formato">
<displayName>_formato</displayName>
</SimpleField>
</Schema>
<Folder id="kml_ft_PT08a_22a_golegã-entroncamento">
<name>PT08a_22a_golegã-entroncamento</name>
<Placemark id="kml_1">
<name>&lt;img height='20' src='https://nco.ign.es/iconos/icono_todos_caminos_azul.png' /&gt;&lt;img height='20' src='https://nco.ign.es/iconos/Camino Santiago_20.png' /&gt;&lt;img height='20' src='https://nco.ign.es/iconos/icono_todos_caminos_azul.png' /&gt;  Camino de Santiago </name>
<visibility>1</visibility>
<description><![CDATA[<!DOCTYPE html>
<html>
<head>
<style>
#nco {
  border-collapse: collapse;
  overflow:hidden;
}
#nco th, #nco td {
  padding: 4px;
  text-align: left;
}
#nco th {
  color: #364B5F;
  padding-right: 5px;
}
#nco td {
  color: rgb(51, 51, 51);
  font-size: 12px;
  padding-right: 5px;
}
</style>
</head>
<body>
<table id="nco">
<tr>
<td>Caminos Portugueses</td>
</tr>
<tr>
<th><b>Camino: </b></th>
<td>PT08a Caminho Central Faro-Golegã</td>
</tr>
<tr>
<th><b>Etapa: </b></th>
<td>22a Golegã-Entroncamento</td>
</tr>
<tr>
<th><b>Longitud: </b></th>
<td>8.84 km</td>
</tr>
</table>
</body>
</html>]]></description>
<Style>
<IconStyle>
<scale>0.8</scale>
</IconStyle>
<LabelStyle>
<color>ffffffff</color>
<scale>0.75</scale>
</LabelStyle>
<LineStyle>
<color>ffff0000</color>
<width>3.0</width>
<gx:labelVisibility>1</gx:labelVisibility>
</LineStyle>
<PolyStyle>
<color>66ff0000</color>
</PolyStyle>
</Style>
<ExtendedData>
<SchemaData schemaUrl="#kml_schema_ft_PT08a_22a_golegã-entroncamento">
<SimpleData name="id">PT08a_22a</SimpleData>
<SimpleData name="_formato">kml</SimpleData>
</SchemaData>
</ExtendedData>
<LineString>
<extrude>0</extrude>
<tessellate>1</tessellate>
<coordinates>-8.48717702593992,39.4015216819851,26.0393999999942 -8.48700921974652,39.4018194077134,26.8635999999969 -8.4855102001336,39.4028287560284,25.2189999999973 -8.48434410963969,39.4036813634704,24.6309999999939 -8.48352855075281,39.404318220732,24.7479000000021 -8.48322512590098,39.4045901294998,24.7627999999968 -8.48278826080526,39.4051751863095,23.8974000000017 -8.48263252527433,39.405415746679,23.4839999999967 -8.48179684951498,39.4065409337173,24.3044999999984 -8.48098112264314,39.4076158288297,23.047900000005 -8.48061935940014,39.4080511845243,22.3521000000037 -8.48033286599476,39.408331475663,21.6778999999951 -8.47982626378524,39.4088466276719,19.8619000000035 -8.47930289811419,39.4092922096849,18.7464999999938 -8.4785210341353,39.4098908451985,19.6379000000015 -8.47730129984588,39.4106665063085,20.4109000000026 -8.47641617093183,39.411249216235,22.7253000000055 -8.47556959860805,39.4118124798231,23.6521000000066 -8.47476493538727,39.4124547012835,24.414300000004 -8.47405867631763,39.4130211504417,25.008799999996 -8.47329659413959,39.4135860910496,24.851800000004 -8.4724572298977,39.4141659505372,25.6122999999934 -8.4716862624832,39.4147265324968,25.6713000000018 -8.47075469785545,39.4154695042618,24.0473000000056 -8.47025966235353,39.4158376372336,23.7908000000025 -8.46988700344442,39.4160383003194,24.0314999999973 -8.469437565528,39.416232425378,23.6407999999938 -8.46917169205167,39.4163848081735,23.4247999999934 -8.46807433255848,39.4174679175225,23.5427999999956 -8.46773151298816,39.4177819038623,22.7023999999947 -8.46715718499274,39.4186001454477,23.2042999999976 -8.46701452533909,39.4187106189604,23.3310999999958 -8.46692282711154,39.4187401231797,23.3013999999966 -8.46685510132564,39.4186874847013,23.168399999995 -8.46578473261347,39.4175819113253,21.3580999999976 -8.46530444924512,39.4191944220414,23.2422999999981 -8.46512021466183,39.4196011120778,23.2799999999988 -8.46480103246157,39.4199503024199,23.3850999999995 -8.46403341755972,39.4208288930136,22.9933000000019 -8.46387298743315,39.4210974494714,22.3747000000003 -8.46362337436177,39.4216040514586,21.8120999999956 -8.46325792353452,39.422284662206,22.4952000000048 -8.46279876315177,39.4229976270211,22.7954000000027 -8.4624512489858,39.4235540174406,22.0228999999963 -8.46224740148488,39.4241140964518,21.1916000000056 -8.46209418033846,39.4249159089332,21.4584000000032 -8.46198957421855,39.4254890640427,20.732799999998 -8.46174884548537,39.4266509630019,21.0622000000003 -8.46164239602251,39.4270564798788,20.7118999999948 -8.46157181988222,39.427261333665,20.601999999999 -8.46141440809497,39.4277971046606,21.1269999999931 -8.46130661654908,39.4279976000931,21.2958000000071 -8.46103185783629,39.4284978314201,20.7470999999932 -8.46095055311653,39.4288398136621,20.1901000000071 -8.46086354948465,39.4292054322189,19.997000000003 -8.46058241991984,39.4297353362321,20.3787000000011 -8.46022803364196,39.4304726082825,21.1729999999952 -8.46025736992417,39.4307232268803,21.3160999999964 -8.46035275573601,39.4310779490646,21.5911999999953 -8.46045384225662,39.4313530429978,21.7755000000034 -8.46075760218004,39.4317889019787,21.6606000000029 -8.46120469279865,39.4324985140877,21.5938000000024 -8.46131885429821,39.4327606999089,21.8689000000013 -8.46133863520076,39.4329462755026,22.0751000000018 -8.46127593908214,39.4332979800173,22.3521000000037 -8.46120301654229,39.4337506027646,22.1389000000054 -8.46103152276467,39.4346092449976,21.7964999999967 -8.46097536368636,39.434845949592,21.7946999999986 -8.46086304642807,39.4350162703878,21.7161000000051 -8.46066791528039,39.4351917873896,21.6572000000015 -8.45951892421793,39.4362690291212,21.9815999999992 -8.45872180504887,39.4369737800006,22.4257999999973 -8.45808075738066,39.4374255643621,22.2529000000068 -8.45570364984887,39.4390068944343,22.2416999999987 -8.45438584647989,39.4399967973379,23.8695000000007 -8.45383197042852,39.4400333418394,24.7302000000054 -8.45300199447965,39.4400846391148,25.9309999999969 -8.45242045840236,39.4401283931126,25.8301999999967 -8.45228986851291,39.4405652579439,25.3513999999996 -8.45224996983955,39.440617895854,25.2831000000006 -8.45257619393329,39.4414047895032,25.7253999999957 -8.4525592624868,39.4415528132686,25.6364999999932 -8.45171269016306,39.4429653317895,24.7651000000042 -8.45098145343696,39.4442192649371,25.4968999999983 -8.45089293973706,39.4443066039934,25.5013000000035 -8.4495558585221,39.4450864564393,23.141300000003 -8.44884004407277,39.4455363970354,21.7066999999952 -8.44876477513344,39.4456272563756,21.4122000000061 -8.44892788673114,39.4461836471511,21.317200000005 -8.44906534963085,39.4467236096037,20.7934999999998 -8.4491986218898,39.4468753222161,20.6490999999951 -8.44962593160582,39.44709794555,20.0687000000034 -8.44983749114345,39.447276144428,19.6156999999948 -8.44992399171879,39.4474982649459,19.3313000000053 -8.44993857676573,39.447843096519,19.1287000000011 -8.44990136136015,39.4487511918104,20.4985000000015 -8.44990806638542,39.4491186543869,20.9741999999969 -8.44987034792329,39.4493099299687,21.2142000000022 -8.44977227974202,39.4494463873936,21.3677000000025 -8.44874247894808,39.4504548976882,20.7436000000016 -8.44815339881906,39.4509802756164,20.3614999999991 -8.44730934087979,39.4516271907382,22.017200000002 -8.44653870943518,39.4522127503266,21.2502999999997 -8.44643728784298,39.452358092409,21.366200000004 -8.44658262986607,39.4527399718468,22.4965999999986 -8.44657609282575,39.452797806962,22.6202000000048 -8.44646025417154,39.453002493497,22.9539999999979 -8.44528779372395,39.4542472059856,24.2578999999969 -8.4441089633227,39.4554935948611,25.7051999999967 -8.44395238876531,39.4558283684447,25.8840000000055 -8.44369892012473,39.4562047154314,25.7470999999932 -8.44361526900548,39.4563887824152,25.6578000000009 -8.44357185073287,39.4566345393092,25.383799999996 -8.44347864423392,39.4568538098271,25.0573000000004 -8.44334419787693,39.4570363679226,24.6337000000058 -8.44320690296215,39.4571671255483,24.2908000000025 -8.44305653127181,39.4574066804165,23.4768999999942 -8.44300271949135,39.4577193257282,22.5923000000039 -8.44297925010622,39.4582125167311,21.9480999999942 -8.44301428619895,39.4586220564153,23.3080000000045 -8.44308687366714,39.4597562955418,28.3684999999969 -8.44316633414563,39.4601029709207,29.6128000000026 -8.44318963554578,39.4604910533467,30.9671999999991 -8.44308083878507,39.4612705705614,32.9689000000071 -8.44294287282879,39.4618313193925,33.966499999995 -8.44291621801768,39.4619996281196,34.307799999995 -8.44241665680335,39.4629697499406,35.9707999999955 -8.44229478416539,39.4631058719713,36.3190999999933 -8.44208942749479,39.4634944571048,37.4266999999963 -8.44221884418453,39.4637678743694,37.9334999999992 -8.44247566533772,39.4641524361676,38.3107000000018</coordinates>
</LineString>
</Placemark>
</Folder>
</Document></kml>
