<?xml version="1.0" encoding="UTF-8"?>

<kml xmlns:xsd="http://www.w3.org/2001/XMLSchema" xmlns:gx="http://www.google.com/kml/ext/2.2" xmlns:atom="http://www.w3.org/2005/Atom" xmlns="http://www.opengis.net/kml/2.2">
<Document>
<name>PT08a_15a_casebres-vendas_novas</name>
<visibility>1</visibility>
<Schema name="PT08a_15a_casebres-vendas_novas" id="kml_schema_ft_PT08a_15a_casebres-vendas_novas">
<SimpleField type="xsd:string" name="id">
<displayName>id</displayName>
</SimpleField>
<SimpleField type="xsd:string" name="nombre">
<displayName>nombre</displayName>
</SimpleField>
<SimpleField type="xsd:double" name="longitud">
<displayName>longitud</displayName>
</SimpleField>
<SimpleField type="xsd:string" name="_formato">
<displayName>_formato</displayName>
</SimpleField>
</Schema>
<Folder id="kml_ft_PT08a_15a_casebres-vendas_novas">
<name>PT08a_15a_casebres-vendas_novas</name>
<Placemark id="kml_1">
<name>&lt;img height='20' src='https://nco.ign.es/iconos/icono_todos_caminos_azul.png' /&gt;&lt;img height='20' src='https://nco.ign.es/iconos/Camino Santiago_20.png' /&gt;&lt;img height='20' src='https://nco.ign.es/iconos/icono_todos_caminos_azul.png' /&gt;  Camino de Santiago </name>
<visibility>1</visibility>
<description><![CDATA[<!DOCTYPE html>
<html>
<head>
<style>
#nco {
  border-collapse: collapse;
  overflow:hidden;
}
#nco th, #nco td {
  padding: 4px;
  text-align: left;
}
#nco th {
  color: #364B5F;
  padding-right: 5px;
}
#nco td {
  color: rgb(51, 51, 51);
  font-size: 12px;
  padding-right: 5px;
}
</style>
</head>
<body>
<table id="nco">
<tr>
<td>Caminos Portugueses</td>
</tr>
<tr>
<th><b>Camino: </b></th>
<td>PT08a Caminho Central Faro-Golegã</td>
</tr>
<tr>
<th><b>Etapa: </b></th>
<td>15a Casebres - Vendas Novas</td>
</tr>
<tr>
<th><b>Longitud: </b></th>
<td>22.42 km</td>
</tr>
</table>
</body>
</html>]]></description>
<Style>
<IconStyle>
<scale>0.8</scale>
</IconStyle>
<LabelStyle>
<color>ffffffff</color>
<scale>0.75</scale>
</LabelStyle>
<LineStyle>
<color>ffff0000</color>
<width>3.0</width>
<gx:labelVisibility>1</gx:labelVisibility>
</LineStyle>
<PolyStyle>
<color>66ff0000</color>
</PolyStyle>
</Style>
<ExtendedData>
<SchemaData schemaUrl="#kml_schema_ft_PT08a_15a_casebres-vendas_novas">
<SimpleData name="id">PT08a_15a</SimpleData>
<SimpleData name="_formato">kml</SimpleData>
</SchemaData>
</ExtendedData>
<LineString>
<extrude>0</extrude>
<tessellate>1</tessellate>
<coordinates>-8.49439183256789,38.5271326074397,33.6349000000046 -8.49404666569976,38.527412395505,34.1067999999941 -8.49413752579918,38.5279448138837,34.6410999999935 -8.4936885909393,38.5283845283999,35.6546999999991 -8.4935355368795,38.5291736011409,37.3187999999936 -8.49375849603809,38.5292492058187,37.1058000000048 -8.49389880929219,38.5294034325092,37.3940000000002 -8.49398530986754,38.5296664570384,38.247000000003 -8.49390098860509,38.5300414630108,40.0111999999936 -8.4933554938353,38.5311632971024,42.8506000000052 -8.49337678390754,38.5313421669961,43.5749000000069 -8.49325105570039,38.5320571431956,46.8622000000032 -8.49322373074607,38.5323091029375,48.3487000000023 -8.49324904347415,38.5326381765532,50.0013000000035 -8.49283916915947,38.5329556835112,48.2358999999997 -8.49264688746785,38.5330633065367,47.9437999999936 -8.49321903704871,38.5364945228914,54.2002999999968 -8.493609968589,38.5388952675403,55.7691999999952 -8.49372362703203,38.5395973356203,55.6125000000029 -8.49420340734377,38.5419999243718,61.1067000000039 -8.49430600213574,38.5425853165341,62.296199999997 -8.49473230573868,38.5451257040009,67.2948000000033 -8.49506674312905,38.547112885491,81.0093000000052 -8.49516682353655,38.5472922581084,81.3010000000068 -8.49595120189991,38.5477770670828,82.7477000000072 -8.49759170796673,38.5488201116315,89.7704999999987 -8.49729280882731,38.5521110138742,93.3093999999983 -8.49732466039232,38.5526281777085,93.7228000000032 -8.49751828237035,38.5561742253671,100.194000000003 -8.49781215184249,38.5612389064524,111.471699999995 -8.49325876683877,38.5633199658506,101.051999999996 -8.49298970793646,38.5636217144154,100.1921 -8.49289163975519,38.5646617405719,91.2358999999997 -8.49245309840317,38.5651817543276,92.0013000000035 -8.49214481186904,38.5657036115984,94.4755000000005 -8.49225545287101,38.5659342814834,94.4315999999963 -8.49201656837907,38.5664252931917,96.6696999999986 -8.49195336920387,38.5667332440527,97.1679000000004 -8.4911599385174,38.5673796563191,92.3632999999973 -8.49153762709375,38.5683430728522,88.3800000000047 -8.49205495788273,38.5689551191474,87.2403000000049 -8.4921119550892,38.5690525168047,86.8261999999959 -8.49233055472368,38.5699909544798,82.0877999999939 -8.49276775489101,38.5709795161396,78.0908999999956 -8.49341718473914,38.5719932236141,74.0185000000056 -8.49327301591583,38.5728570628175,73.9100000000035 -8.49278870989164,38.5737552675329,70.3533000000025 -8.4928043001534,38.5743036117055,69.7197000000015 -8.49251395117884,38.575062341517,69.0169000000024 -8.49210826660665,38.5756534332397,66.3966999999975 -8.49184021381742,38.5766104787034,57.5013000000035 -8.49162261939773,38.5766929565862,57.0608000000066 -8.49142044815316,38.5768049392117,56.7522000000026 -8.49133579092076,38.5768445020663,56.8162000000011 -8.4911599385174,38.5768445020663,57.7581999999966 -8.49107276690052,38.5768559014456,58.2676999999967 -8.49098944995456,38.5777876337592,51.7087000000029 -8.49066523808705,38.5790170911997,48.4254999999976 -8.49053967786485,38.5795459891835,50.1198000000004 -8.48999032752589,38.5813001534628,57.8364000000001 -8.48985185851307,38.5815705540279,59.2501000000047 -8.48939554758639,38.5823812517379,69.4140999999945 -8.48816441367601,38.5842567863349,75.1203999999998 -8.48661610889333,38.5866533401664,84.0225000000064 -8.48597841373776,38.5876375430529,85.8510999999999 -8.48406281298825,38.5904528569943,86.7706999999937 -8.48356660428655,38.5909817550168,86.1686999999947 -8.4832085295261,38.591309655047,87.0837000000029 -8.47995132184919,38.5932224053333,89.8295999999973 -8.47720356673624,38.5947507617976,97.1725000000006 -8.473842255996,38.5966532858124,94.6549999999988 -8.47299652180042,38.5970373446758,100.245999999999 -8.47260776867469,38.5972064911782,101.463199999998 -8.47238581652754,38.5972693560162,102.1584 -8.47259469369574,38.5973013742988,101.396299999993 -8.47303055267833,38.5973229997077,100.074500000002 -8.47343338689613,38.5973607181346,97.8886000000057 -8.4736509804175,38.597513268904,96.0154000000039 -8.47377805070769,38.5977793110253,94.9444999999978 -8.47387813021689,38.5980522254344,93.847299999994 -8.47383823244184,38.5986801976703,90.7652999999991 -8.47423721109046,38.599304146531,84.0121000000072 -8.47453057750603,38.5994632349378,79.3366999999998 -8.47506433758327,38.5996699328684,72.3163999999961 -8.47521051773448,38.5997509022316,69.9272999999957 -8.47534546624975,38.5998769657852,67.3347000000067 -8.47540698916859,38.5999792253465,65.6300999999949 -8.47544638478537,38.6001299318805,63.7488000000012 -8.47535166911677,38.6005445006385,61.561400000006 -8.4753813404706,38.6007076125234,60.8932999999961 -8.4754525867541,38.6007335966031,60.7143999999971 -8.47556859249494,38.6007755058459,60.4949999999953 -8.47574494795488,38.6007914317168,60.2550000000047 -8.47594544294316,38.6007600833373,60.2988000000041 -8.47610721335617,38.6006412278324,60.5534000000043 -8.47747262563855,38.5999718488859,59.6481000000058 -8.47758175836916,38.5999495531131,59.6722000000009 -8.47826555326848,38.6001416666539,60.725099999996 -8.47845230223628,38.6001862580732,60.9146999999939 -8.47853025444338,38.6001715058958,60.8689000000013 -8.47868448080462,38.60013462579,60.7544999999955 -8.47884910157202,38.6001421693219,60.7262000000046 -8.47975619159982,38.6002134154668,60.1628000000055 -8.47985107435507,38.6002509659891,60.1545000000042 -8.47993623464401,38.6003310971529,60.2768999999971 -8.48039137237092,38.6009555490674,62.0047999999952 -8.48045138612011,38.6010085230641,62.4784000000072 -8.48055599223998,38.601017407404,62.6974999999948 -8.48076906094727,38.6009892442883,62.8592999999964 -8.48092949017557,38.6009778452297,63.2394000000058 -8.481057062624,38.6009894120764,63.8190000000031 -8.48129527607441,38.6010125457642,64.938599999994 -8.48143961288268,38.6010127135522,65.5283000000054 -8.48164379635351,38.6009555490674,66.2989999999991 -8.48203422483723,38.6008211036022,67.8696000000054 -8.48219515712207,38.6007808701654,68.2281999999977 -8.48233697954586,38.6007699737374,68.7348999999958 -8.48250931145164,38.6008288148504,70.0273000000016 -8.48264141051081,38.6008809499991,71.0702000000019 -8.48278507627758,38.6010019849474,72.6802000000025 -8.48300183167079,38.6012705407774,75.2565999999933 -8.48352704158312,38.6019265086122,78.3589000000065 -8.48365260270365,38.6020086513334,78.2768999999971 -8.48380582385008,38.6021037022096,78.159599999999 -8.48388846975454,38.6021617047066,78.1294999999955 -8.48397849082748,38.6021930531759,77.9458000000013 -8.48410438701959,38.6022363038477,77.7440000000061 -8.48482070452546,38.6023085560277,76.4513000000006 -8.48595997312161,38.6024054507349,78.8196999999927 -8.48608134270302,38.6024316019847,79.1548000000039 -8.48622551152636,38.6025419080494,79.6643999999942 -8.48635258181655,38.6027571554988,79.883600000001 -8.48678760267098,38.6035133705393,77.2890999999945 -8.48693428587877,38.6036364172388,76.4257999999973 -8.48714668264623,38.6037866204707,75.182799999995 -8.48831143195541,38.6046227994019,73.8744000000006 -8.48885340622757,38.6050589933653,71.7599000000046 -8.48915800427918,38.6053868936774,69.2501000000047 -8.48961180082135,38.6059092542131,66.1747999999934 -8.49069289901128,38.6070877492211,62.6235000000015 -8.49077805840189,38.6072072756734,62.3111999999965 -8.49082415904397,38.6073222748568,62.0678000000044 -8.49076263612512,38.6074082736923,62.1925999999949 -8.49073313185792,38.6075241114174,62.2695999999996 -8.49077085032008,38.6076260350671,62.2109000000055 -8.49084326980332,38.6077386882773,62.1394 -8.49090563174865,38.6078625729094,62.1037999999971 -8.49091686338466,38.6079453855391,62.1557999999932 -8.49079968444404,38.6081608006976,62.5623999999953 -8.49050095328957,38.6085455301364,62.9363000000012 -8.49052425468972,38.6086399103993,62.9045000000042 -8.49058192203939,38.6087309379467,62.9281000000046 -8.49079230837724,38.6089227156061,63.2547999999952 -8.49159764084293,38.6095570584646,68.2180999999982 -8.49175337727217,38.6095857243296,69.2635000000009 -8.49199125565099,38.6097317370632,70.8564999999944 -8.4923080914517,38.6099684420485,72.3105999999971 -8.49251462132204,38.6102103435049,72.9517000000051 -8.49282793662516,38.6105823328253,74.4668999999994 -8.49329648530093,38.6111585043859,76.8208000000013 -8.49440725484469,38.6119403687452,80.2762999999977 -8.49448973276419,38.6120297193963,80.5489999999991 -8.49456081196103,38.612088560402,80.7535000000062 -8.49492039499285,38.6122271970528,81.2130999999936 -8.49513111640232,38.6123406881638,81.7234000000026 -8.4953718442372,38.6124908921278,82.5510000000068 -8.49685108294757,38.6134995697882,86.370299999995 -8.49712014184991,38.613732754861,87.4885000000068 -8.49721804294452,38.6138038330913,87.6416999999929 -8.49713590009663,38.6140140512322,88.6178999999975 -8.49595824289512,38.6151276709477,96.4373000000051 -8.49548114495277,38.6156139889546,97.9312999999966 -8.4953161891138,38.6157440759953,98.5578999999998 -8.49518191074173,38.6161893227541,98.7728999999963 -8.4951462036075,38.6166582063682,97.5013000000035 -8.49512960723263,38.6169277683659,97.238400000002 -8.49509876178073,38.6178167529354,96.3960999999981 -8.49523169896806,38.6190587838615,96.6419000000024 -8.49537536473483,38.6203819506216,98.7360000000044 -8.49545164068557,38.6207537720956,96.4821999999986 -8.49549589708637,38.620854857894,95.3380000000034 -8.49572539328528,38.6214333767265,91.3166999999958 -8.49586201805683,38.6216804752473,90.9278999999951 -8.49603485301919,38.6220097166031,90.8785000000062 -8.49613158001572,38.6222497744443,91.3907000000036 -8.49628614234688,38.6226071783558,93.271900000007 -8.49675385289449,38.6235456165774,97.2253999999957 -8.49710555770127,38.6239516359596,97.1536000000051 -8.49831271916997,38.6254063989242,95.0253999999986 -8.499234728418,38.6264494428391,98.6968000000052 -8.50082091964779,38.6282381406876,102.699699999997 -8.50160915447869,38.6291539476396,104.751999999993 -8.50188810383228,38.629439770961,105.154200000004 -8.50200008601899,38.6295188954793,105.121700000003 -8.50215883899094,38.6296072410646,105.0095 -8.50345719563062,38.6300664018263,106.646699999998 -8.50421609328098,38.6303109856848,109.130399999995 -8.50457400095477,38.6304192797635,109.884099999996 -8.50479276857425,38.6305191919395,110.065400000007 -8.50485764400576,38.6305605988728,110.095300000001 -8.50490290651965,38.6306829746244,110.384099999996 -8.50504657228642,38.6316085045697,111.453800000003 -8.50528478663516,38.6326579184106,113.181800000006 -8.50613638772784,38.6360358254881,116.669500000004 -8.50642790990217,38.6371988985501,114.865999999995 -8.50645925841065,38.6372567337383,114.8848 -8.5066362840138,38.6376424684029,114.841400000005 -8.50637594236299,38.6376756608283,114.357999999993 -8.50621903273398,38.6377257848419,114.226299999995 -8.50552501141346,38.6390090540284,116.068499999994 -8.50437518222285,38.6412196973979,115.994399999996 -8.50334454330074,38.6432784607338,119.515299999999 -8.50037835563993,38.6491107566254,123.842699999994 -8.49878663168631,38.6494478762039,124.749599999996 -8.49474169313338,38.6525017387641,126.765799999994 -8.49286615814386,38.6539774570335,128.9908 -8.49198505278397,38.6547653554809,129.683799999999 -8.49135356049542,38.6553730437498,130.157999999996 -8.49119765697956,38.6555453757444,130.339900000006 -8.48872633683571,38.6588978018687,129.868700000006 -8.48854629289318,38.6591752425301,131.389200000005 -8.4881974384408,38.6597559409286,133.128400000001 -8.48758824143931,38.6605123237811,132.017600000006 -8.48739830794383,38.6607548964796,132.309800000003 -8.48733795822473,38.6609263899126,132.320399999997 -8.48727576426435,38.6616261114387,132.342300000004 -8.48722983160727,38.6619652427871,133.354600000006 -8.4871875865344,38.6625806426198,134.904200000004 -8.4871243873592,38.6626758608279,134.924799999993 -8.48555026589358,38.663423191037,135.440199999997 -8.47571829314377,38.6673522919614,140.993799999997 -8.47551126021688,38.6673765994154,140.737500000003 -8.47520012422666,38.6675187567548,140.246599999999 -8.47266074232699,38.6685190530729,140.715200000006 -8.47203293852102,38.6687679959246,140.2065 -8.47030945147815,38.6695086205663,138.809200000003 -8.46910346320922,38.6699707989593,138.262799999997 -8.46821598699731,38.6703035602805,137.959700000007 -8.46810115535454,38.6705541794927,138.357600000003 -8.4683584795643,38.6728719427075,145.306299999997 -8.46835814449272,38.6730886987322,145.485000000001 -8.46829025072186,38.6731433489395,145.531900000002 -8.46821464581261,38.6732466142435,145.6054 -8.46810819545143,38.6732747770361,145.521200000003 -8.46706951031933,38.6734469418178,143.566500000001 -8.46132673342155,38.6744160572386,148.520499999999 -8.4605100004366,38.674545473711,149.698499999999 -8.46012962949078,38.6745640818857,149.4614 -8.45714114564461,38.6747094236763,147.379799999995 -8.45692371920987,38.6746945037842,147.473400000003 -8.4568471090858,38.6747270261153,147.707299999995 -8.45683319508036,38.6748287819997,148.236600000004 -8.45684861735716,38.675017877757,148.9611 -8.45597354687933,38.6766380996697,152.563299999994 -8.45552226561994,38.6774395776236,153.332200000004 -8.45492798873701,38.67722835327,153.0481 -8.4548711586172,38.6773039578195,152.926900000006 -8.45504885526184,38.677455838518,152.919399999999 -8.45507735341593,38.6774918800862,152.901100000003 -8.45497224513778,38.6777061220189,152.503899999996 -8.45514725851469,38.6777746858099,152.507199999993</coordinates>
</LineString>
</Placemark>
</Folder>
</Document></kml>
