<?xml version="1.0" encoding="UTF-8"?>

<kml xmlns:xsd="http://www.w3.org/2001/XMLSchema" xmlns:gx="http://www.google.com/kml/ext/2.2" xmlns:atom="http://www.w3.org/2005/Atom" xmlns="http://www.opengis.net/kml/2.2">
<Document>
<name>PT08a_18a_santo_estevao-benavente</name>
<visibility>1</visibility>
<Schema name="PT08a_18a_santo_estevao-benavente" id="kml_schema_ft_PT08a_18a_santo_estevao-benavente">
<SimpleField type="xsd:string" name="id">
<displayName>id</displayName>
</SimpleField>
<SimpleField type="xsd:string" name="nombre">
<displayName>nombre</displayName>
</SimpleField>
<SimpleField type="xsd:double" name="longitud">
<displayName>longitud</displayName>
</SimpleField>
<SimpleField type="xsd:string" name="_formato">
<displayName>_formato</displayName>
</SimpleField>
</Schema>
<Folder id="kml_ft_PT08a_18a_santo_estevao-benavente">
<name>PT08a_18a_santo_estevao-benavente</name>
<Placemark id="kml_1">
<name>&lt;img height='20' src='https://nco.ign.es/iconos/icono_todos_caminos_azul.png' /&gt;&lt;img height='20' src='https://nco.ign.es/iconos/Camino Santiago_20.png' /&gt;&lt;img height='20' src='https://nco.ign.es/iconos/icono_todos_caminos_azul.png' /&gt;  Camino de Santiago </name>
<visibility>1</visibility>
<description><![CDATA[<!DOCTYPE html>
<html>
<head>
<style>
#nco {
  border-collapse: collapse;
  overflow:hidden;
}
#nco th, #nco td {
  padding: 4px;
  text-align: left;
}
#nco th {
  color: #364B5F;
  padding-right: 5px;
}
#nco td {
  color: rgb(51, 51, 51);
  font-size: 12px;
  padding-right: 5px;
}
</style>
</head>
<body>
<table id="nco">
<tr>
<td>Caminos Portugueses</td>
</tr>
<tr>
<th><b>Camino: </b></th>
<td>PT08a Caminho Central Faro-Golegã</td>
</tr>
<tr>
<th><b>Etapa: </b></th>
<td>18a Santo Estevao-Benavente</td>
</tr>
<tr>
<th><b>Longitud: </b></th>
<td>24.16 km</td>
</tr>
</table>
</body>
</html>]]></description>
<Style>
<IconStyle>
<scale>0.8</scale>
</IconStyle>
<LabelStyle>
<color>ffffffff</color>
<scale>0.75</scale>
</LabelStyle>
<LineStyle>
<color>ffff0000</color>
<width>3.0</width>
<gx:labelVisibility>1</gx:labelVisibility>
</LineStyle>
<PolyStyle>
<color>66ff0000</color>
</PolyStyle>
</Style>
<ExtendedData>
<SchemaData schemaUrl="#kml_schema_ft_PT08a_18a_santo_estevao-benavente">
<SimpleData name="id">PT08a_18a</SimpleData>
<SimpleData name="_formato">kml</SimpleData>
</SchemaData>
</ExtendedData>
<LineString>
<extrude>0</extrude>
<tessellate>1</tessellate>
<coordinates>-8.74962480747221,38.8628851623548,11.8991999999998 -8.77578204533997,38.8700894082443,2.71719999999914 -8.77578472681111,38.8702154718652,2.69319999999425 -8.77584155693092,38.870339691645,2.69890000000305 -8.77601740843599,38.8705348224789,2.81759999999485 -8.77602595860086,38.8705395161369,2.81780000000435 -8.77624690553319,38.8707621396642,2.93390000000363 -8.7763300535959,38.8709016143742,3.1530000000057 -8.77640247307917,38.8711832465378,3.25280000000203 -8.77645108810573,38.8715208692137,2.93640000000596 -8.7765052358561,38.8718303295556,3.204899999997 -8.77655653325209,38.8720061812978,3.36209999999846 -8.77672936731611,38.872261829893,3.50909999999567 -8.77694930903366,38.8725404444462,2.94389999999839 -8.77709532119995,38.8726985267755,2.66310000000522 -8.77725457812677,38.8728090001911,2.07809999999881 -8.77796888340638,38.8723293879413,2.79730000000563 -8.77808354796252,38.8722874782779,2.83379999999306 -8.77818513664138,38.8723481634961,2.74529999999504 -8.77997517627038,38.8747527635989,1.33430000000226 -8.78126146314592,38.8764849674207,2.66860000000452 -8.78345584526408,38.8794045519923,2.40589999999793 -8.78598449768599,38.8828924296752,2.56489999999758 -8.78729525916145,38.8847334313151,1.74259999999776 -8.78874918424544,38.8867115598999,1.22930000000633 -8.79039807249215,38.8889170064936,0.745100000000093 -8.79248600424917,38.8912215269184,1.28079999999318 -8.7952201813266,38.8942234220399,1.59579999999551 -8.79729503810463,38.8964907269568,2.77419999999984 -8.79758035741193,38.8966763021431,2.55359999999928 -8.79926327653655,38.8977820428643,2.36800000000221 -8.80128314743604,38.8989372366871,1.53849999999511 -8.80320578828243,38.8998763447404,3.71219999999448 -8.80597131297004,38.9015292560161,2.06110000000626 -8.80794072550004,38.9023401212705,1.86759999999776 -8.80926204846828,38.9029037203993,1.99980000000505 -8.81081236547721,38.9035269991348,0.865300000004936 -8.81154377018827,38.9036143384639,1.63880000000063 -8.81426956508579,38.9039942062516,1.72179999999935 -8.81642337928573,38.9042558894373,1.68809999999939 -8.8210744973991,38.9052337219792,1.51080000000366 -8.82264677462345,38.9055731891417,2.62739999999758 -8.82287107406841,38.905696235617,2.24210000000312 -8.82310207943701,38.9060742593619,2.07619999999588 -8.82342411199162,38.9063225313842,1.50819999999658 -8.8239677625201,38.9065622539407,0.584000000002561 -8.8248654642549,38.906896188841,2.20650000000023 -8.82712019609217,38.9074830897565,1.39830000000075 -8.82890436792573,38.9078822356697,1.5856000000058 -8.82937124034519,38.907921128296,1.79929999999877 -8.82981346928147,38.9080768635585,2.36269999999786 -8.83145682480435,38.9092325602483,1.42519999999786 -8.83412126476798,38.9110829496529,1.97179999999935 -8.83683146940374,38.9129677044111,0.295100000003004 -8.839398510431,38.9147971387212,1.22280000000319 -8.83712433276276,38.9172731523567,2.10989999999583 -8.83972993127868,38.9205575177197,2.16409999999451 -8.84110590415554,38.9223790728086,1.31110000000626 -8.84129030672382,38.9225426877343,1.11289999999281 -8.84138451933587,38.9230013453782,1.10300000000279 -8.8420205373368,38.9255539700203,1.91060000000289 -8.84224047905435,38.9261098575146,1.91730000000098 -8.84238079230845,38.9262597265612,1.91920000000391 -8.84320724775972,38.9267562703872,4.5231000000058 -8.84370865321536,38.9270464515732,5.54180000000633 -8.87021323636585,38.9379623716239,10.9135999999999 -8.86523036323152,38.9409860595117,4.53919999999925 -8.86882301441193,38.9477720483163,1.4085999999952 -8.87093307436932,38.94998956473,-0.162700000000768 -8.84991176459395,38.9581733198604,2.23679999999877 -8.84801493953218,38.9612918904155,2.7045000000071 -8.84612632956367,38.9630271120196,5.00430000000051 -8.84538486641638,38.9653329734525,4.33269999999902 -8.84401626870799,38.9725155944248,9.16379999999481 -8.84435841813507,38.9737126972964,6.88719999999739 -8.84378811369382,38.976018056563,9.16240000000107 -8.84338896706023,38.9778357560716,8.45560000000114 -8.83836921269363,38.9810627883923,8.52880000000005 -8.83534820713921,38.9797419680694,8.25430000000051 -8.82799157898575,38.983820267185,6.32640000000538 -8.82889866811525,38.9859705602351,2.76330000000598 -8.82548237239478,38.9871006083282,3.0734999999986 -8.82548237239478,38.9858149925125,6.26200000000244 -8.82485507074705,38.9863470752608,5.11179999999877 -8.82337247952405,38.9867016303162,3.79230000000098 -8.81101001011107,38.9843345805208,7.54760000000533</coordinates>
</LineString>
</Placemark>
</Folder>
</Document></kml>
