<?xml version="1.0" encoding="UTF-8"?>

<kml xmlns:xsd="http://www.w3.org/2001/XMLSchema" xmlns:gx="http://www.google.com/kml/ext/2.2" xmlns:atom="http://www.w3.org/2005/Atom" xmlns="http://www.opengis.net/kml/2.2">
<Document>
<name>PT08a_03a_salir-ameixal</name>
<visibility>1</visibility>
<Schema name="PT08a_03a_salir-ameixal" id="kml_schema_ft_PT08a_03a_salir-ameixal">
<SimpleField type="xsd:string" name="id">
<displayName>id</displayName>
</SimpleField>
<SimpleField type="xsd:string" name="nombre">
<displayName>nombre</displayName>
</SimpleField>
<SimpleField type="xsd:double" name="longitud">
<displayName>longitud</displayName>
</SimpleField>
<SimpleField type="xsd:string" name="_formato">
<displayName>_formato</displayName>
</SimpleField>
</Schema>
<Folder id="kml_ft_PT08a_03a_salir-ameixal">
<name>PT08a_03a_salir-ameixal</name>
<Placemark id="kml_1">
<name>&lt;img height='20' src='https://nco.ign.es/iconos/icono_todos_caminos_azul.png' /&gt;&lt;img height='20' src='https://nco.ign.es/iconos/Camino Santiago_20.png' /&gt;&lt;img height='20' src='https://nco.ign.es/iconos/icono_todos_caminos_azul.png' /&gt;  Camino de Santiago </name>
<visibility>1</visibility>
<description><![CDATA[<!DOCTYPE html>
<html>
<head>
<style>
#nco {
  border-collapse: collapse;
  overflow:hidden;
}
#nco th, #nco td {
  padding: 4px;
  text-align: left;
}
#nco th {
  color: #364B5F;
  padding-right: 5px;
}
#nco td {
  color: rgb(51, 51, 51);
  font-size: 12px;
  padding-right: 5px;
}
</style>
</head>
<body>
<table id="nco">
<tr>
<td>Caminos Portugueses</td>
</tr>
<tr>
<th><b>Camino: </b></th>
<td>PT08a Caminho Central Faro-Golegã</td>
</tr>
<tr>
<th><b>Etapa: </b></th>
<td>03a Salir-Ameixal</td>
</tr>
<tr>
<th><b>Longitud: </b></th>
<td>23.7 km</td>
</tr>
</table>
</body>
</html>]]></description>
<Style>
<IconStyle>
<scale>0.8</scale>
</IconStyle>
<LabelStyle>
<color>ffffffff</color>
<scale>0.75</scale>
</LabelStyle>
<LineStyle>
<color>ffff0000</color>
<width>3.0</width>
<gx:labelVisibility>1</gx:labelVisibility>
</LineStyle>
<PolyStyle>
<color>66ff0000</color>
</PolyStyle>
</Style>
<ExtendedData>
<SchemaData schemaUrl="#kml_schema_ft_PT08a_03a_salir-ameixal">
<SimpleData name="id">PT08a_03a</SimpleData>
<SimpleData name="_formato">kml</SimpleData>
</SchemaData>
</ExtendedData>
<LineString>
<extrude>0</extrude>
<tessellate>1</tessellate>
<coordinates>-8.04292023184586,37.2411293900844,252.618900000001 -8.04295996163596,37.2410899955999,252.718200000003 -8.04309004936719,37.2411800173231,252.255399999995 -8.04338995372141,37.2411800173231,251.290699999998 -8.04340001215764,37.2413099367899,249.806400000001 -8.04321007776387,37.2413800093512,248.963199999998 -8.04321996911345,37.2413800093512,248.959000000003 -8.04306993249469,37.241440023376,247.159799999994 -8.0421599930108,37.2415300453962,244.932000000001 -8.04215848473944,37.2415949215421,243.013999999996 -8.0420190096135,37.2417144471738,238.815199999997 -8.04183661927145,37.2418383320985,237.273499999996 -8.04157376323617,37.2419238268234,232.782099999997 -8.04146111000796,37.2420433533637,230.100999999995 -8.04148994413196,37.242029941697,230.488200000007 -8.04151006010613,37.242340072829,228.571200000006 -8.04146999524445,37.2424800500605,226.465100000001 -8.0415799652049,37.2425799625337,225.450400000002 -8.04194005219158,37.2433400337263,222.213000000003 -8.04232997851709,37.2438799954378,220.202799999999 -8.04240005070252,37.2440100825938,219.338900000002 -8.04266005728171,37.2441200532991,217.953099999999 -8.04269006460545,37.2441200532991,217.872099999993 -8.04266005728171,37.2441200532991,217.953099999999 -8.04240005070252,37.2440100825938,219.338900000002 -8.04232997851709,37.2438799954378,220.202799999999 -8.04194005219158,37.2433400337263,222.213000000003 -8.04192999375535,37.2434099384917,221.9473 -8.04174006025988,37.2439200613904,220.255799999999 -8.0416999944999,37.2440799881679,219.993199999997 -8.04165992873993,37.2443700018558,217.929099999994 -8.04166998717616,37.2444999215447,216.733999999997 -8.04174995071116,37.2447500376078,215.909400000004 -8.04261999242003,37.2457199909156,214.842099999994 -8.04277002814048,37.2459199830534,214.588600000003 -8.04278997702799,37.2459399321811,214.528300000005 -8.04281998435174,37.2461600408525,214.206600000005 -8.04264999884548,37.2466699956819,214.783500000005 -8.04243994847754,37.2474000599757,217.240000000005 -8.042340036055,37.2482399267178,221.491299999994 -8.04237004337874,37.2490600117097,224.9277 -8.04240005070252,37.2493200184645,226.660799999998 -8.04249996312502,37.2496299815893,229.339099999997 -8.04248001423751,37.2503799937599,235.2546 -8.04249007267375,37.2508800580287,237.1823 -8.04243994847754,37.2514399691597,242.921199999997 -8.04232997851709,37.2517400416526,245.6734 -8.0422600734183,37.2520099389122,249.664499999999 -8.04222000765832,37.2523400178792,251.829199999993 -8.04212998568706,37.2527099950813,254.808000000005 -8.0419600010791,37.2531599359758,256.705400000006 -8.04163997985242,37.2534900156248,258.756999999998 -8.0413199586257,37.2539399561509,260.955300000001 -8.0413199586257,37.253930065232,260.969200000007 -8.04122004620316,37.2542299697877,259.424700000003 -8.04119993022899,37.2546700193629,256.270699999994 -8.04122993755277,37.2549799826436,257.820099999997 -8.04180007400907,37.2567200658801,274.172099999996 -8.04183997178409,37.2568799919461,277.307400000005 -8.04186997910787,37.2571899547136,280.470000000001 -8.04211992814915,37.2577800407389,283.405400000003 -8.04240994115379,37.258320003364,283.731599999999 -8.04257003620878,37.2584499225948,287.562699999995 -8.04277002814048,37.2587900602466,287.223800000007 -8.04295007118468,37.2591699281783,290.583799999993 -8.04295996163595,37.2594200441637,289.494600000005 -8.04301997628344,37.2596099782104,290.660499999998 -8.04369991651189,37.2605899898985,307.517500000002 -8.0438300033448,37.2608999531285,310.266199999998 -8.04390007642855,37.2610300402136,312.229999999996 -8.04387995955608,37.2611400103871,312.622199999998 -8.04376998959561,37.2613099957586,312.592900000003 -8.04372003338435,37.2614999293292,313.237200000003 -8.04386001066857,37.2618799651909,312.840599999996 -8.04396998152731,37.2621000737674,313.9179 -8.04416997345902,37.2627699558097,316.607499999998 -8.04441003115073,37.2632100055419,318.479300000006 -8.0445999655445,37.2638500480073,328.597599999994 -8.04456995822076,37.264259923012,331.654399999999 -8.04456995822076,37.2646999726172,328.880699999994 -8.04433995896531,37.264820001363,328.477400000003 -8.04393008375229,37.2651100152912,325.612299999993 -8.04369002606061,37.2652300440983,320.392999999996 -8.0435699967656,37.2654099196602,309.5147 -8.04346002680516,37.2655500649335,307.538100000005 -8.0431099982547,37.2657800650164,296.847599999994 -8.04289005653716,37.2658699185497,292.524999999994 -8.04277002814048,37.2658600277674,299.297300000006 -8.04254991933631,37.2657399992495,307.103199999998 -8.042340036055,37.2656699264647,311.714999999997 -8.04211992814915,37.2656999334613,310.075800000006 -8.04179001557284,37.2658799766196,301.780700000003 -8.04157007475362,37.2661099764097,298.237399999998 -8.04151995145571,37.2661999982674,294.079100000003 -8.04151995145571,37.2661899395253,294.554499999998 -8.04110001780649,37.2669699598896,267.629000000001 -8.04061001197181,37.2673699437721,261.230200000005 -8.04042007757804,37.2675900527456,260.361600000004 -8.0402100272101,37.2680099859116,246.614700000006 -8.04005999148965,37.2681000076425,250.376199999999 -8.03979998491046,37.2681000076425,252.046100000007 -8.03958993364419,37.2681199566162,252.690300000002 -8.0393800512612,37.2682500440982,249.909299999999 -8.03915994245703,37.2684200291491,248.267300000007 -8.03837992271942,37.2685900138163,242.942500000005 -8.03791992331019,37.2687100427955,236.385800000004 -8.037659916731,37.2687299916076,235.528699999995 -8.03743997591179,37.2687900060096,234.8318 -8.03719002776879,37.2689199257666,231.210500000001 -8.03691996275337,37.2690399542199,230.298500000004 -8.03657999263914,37.2691100274431,230.136199999994 -8.03605997948073,37.2690900780168,229.128700000001 -8.03576996557779,37.2691100274431,231.858300000007 -8.03555002475857,37.2692099396322,229.633499999996 -8.03478006255887,37.2699299452921,229.012199999997 -8.03401999170877,37.2702199588418,225.969800000006 -8.03397003549751,37.2702100679159,225.331900000005 -8.03400456943196,37.2703688215501,226.923500000004 -8.03400993327253,37.2704668898579,228.171400000007 -8.03395092473816,37.2705736751081,229.037800000006 -8.03374707723725,37.2707103000732,227.911300000007 -8.03367733922511,37.2708554745498,227.954299999998 -8.03363978874791,37.2710133897205,227.698799999998 -8.0336397887479,37.2711669460597,228.632100000003 -8.03378462771445,37.2715171422129,230.816000000006 -8.03378999245331,37.2717518356744,231.1633 -8.03375244107781,37.2719652386772,231.125199999995 -8.03386509430602,37.2723709226751,233.199299999993 -8.03400456943196,37.2727848209098,235.260599999994 -8.03407967128467,37.2731690474063,237.425099999993 -8.03410112844353,37.2733782595811,239.375599999999 -8.03431570542222,37.2738008754077,240.154500000004 -8.03440690059322,37.2741636439169,240.917499999996 -8.03454637571916,37.2747570831565,241.675199999998 -8.03462684141244,37.2749406466112,241.800600000002 -8.03479850317501,37.2751242103331,242.191300000006 -8.03497552877816,37.2752735758711,243.011799999993 -8.0349862573576,37.2753674532343,242.846000000005 -8.03490042692546,37.275521177253,243.6204 -8.03492724882322,37.2756363444318,245.7791 -8.03503990205143,37.2757089319595,245.641300000003 -8.03525447813178,37.275756038366,243.512300000002 -8.03556561502033,37.275845556898,245.508600000001 -8.03585529295336,37.2760676775974,248.005999999994 -8.03608059851144,37.2762981795169,250.088499999998 -8.03622007363741,37.2763493092239,251.156099999993 -8.03667068475361,37.2763749580546,250.452999999994 -8.03727149957518,37.2768359628801,254.910499999998 -8.03757190698597,37.2769980685568,260.355299999996 -8.0375289917699,37.2773566465061,265.305399999997 -8.0375289917699,37.2776639267052,269.930900000007 -8.03762555078148,37.2778347504022,275.186100000006 -8.03785085633959,37.2779628253902,278.139800000004 -8.0380332466816,37.2780055737115,281.013900000005 -8.03811907801207,37.2779371771005,281.196800000005 -8.03815126375038,37.277740872542,280.024399999995 -8.03819417986474,37.2776298965873,280.622499999998 -8.03826928171745,37.2775360191864,280.706200000001 -8.03840875594509,37.2774590731402,279.569900000002 -8.03860187486657,37.2774250429297,279.927599999995 -8.03879499468635,37.2775274694708,283.007599999997 -8.0390417574033,37.2778347504022,288.449099999998 -8.03963184364547,37.2780738022837,293.153399999996 -8.04010391192054,37.2783299533726,303.375199999995 -8.0405008792412,37.2788080568049,319.101200000005 -8.04072618479931,37.2790214598194,326.357399999994 -8.04096221893683,37.279379870163,335.217600000004 -8.04127335582538,37.2797811955151,342.6489 -8.04123580444988,37.2800373465119,346.793900000004 -8.04115533785831,37.2802123605456,352.824800000002 -8.04105877884673,37.2804512447671,356.969100000002 -8.04113388069944,37.2806178771595,359.267600000006 -8.0411177873811,37.2807885326148,366.228799999997 -8.04106950742617,37.2810872637877,378.3171 -8.04106950742617,37.2813434146281,384.105800000005 -8.04109632932391,37.28156117693,390.237699999998 -8.04112851596054,37.2819195866158,403.899600000004 -8.04106950742617,37.2820647616336,406.850900000005 -8.04087102376582,37.2823847823894,415.890899999999 -8.04071009148098,37.2825428649288,417.421400000007 -8.0405223372984,37.2827348105688,417.011799999993 -8.04047405734346,37.2828585279725,416.377699999997 -8.04035604027469,37.2830635491024,416.564700000003 -8.04019510709155,37.2832513035788,416.224000000002 -8.04011464139827,37.2833835698996,415.536300000007 -8.0399644376929,37.2835329354873,413.567599999995 -8.04000198817007,37.2836397207866,413.1541 -8.0401092766594,37.2837976362997,411.0864 -8.04020047183041,37.2839981312947,408.779800000004 -8.04011464139827,37.2841092751146,407.263099999996 -8.03997516627233,37.2843652584278,407.481199999995 -8.03997516627233,37.284536081925,406.775699999998 -8.04022192988761,37.2845446315592,402.642800000001 -8.0405008792412,37.2846385087953,397.144499999995 -8.04077982859482,37.2846641569455,395.029999999999 -8.04116606733604,37.284800614821,388.953399999999 -8.04121971113158,37.2851335440679,387.164600000004 -8.04117679591551,37.2856456779623,387.357699999993 -8.04120898255211,37.2859018290115,386.569000000003 -8.04136991483696,37.2861834610066,386.281700000007 -8.04131627104145,37.2863457345213,386.460999999996 -8.04119825397268,37.2867980224071,387.319900000002 -8.04108023600561,37.2870030435252,387.223800000007 -8.04084420186809,37.2872761256494,386.605200000005 -8.04089784656189,37.2875577582186,386.686300000001 -8.04070472674211,37.2878821374482,386.945999999996 -8.0405974391511,37.2881637691787,386.065400000007 -8.04056525251447,37.2885137976367,388.342000000004 -8.04042577738853,37.2888723757531,387.284700000004 -8.04020047183041,37.2896490429342,385.532800000001 -8.03992152247682,37.2901014974958,386.753500000006 -8.03964257222491,37.2904087785463,386.759600000005 -8.03948163994006,37.2908525166772,388.278600000005 -8.03930997817749,37.2915525726763,384.276199999993 -8.03937435145072,37.2916208018311,383.983999999997 -8.0394923685195,37.2917530677341,385.302800000005 -8.03956210653164,37.2918682350885,385.481899999999 -8.03954601321333,37.2921329358812,384.751900000003 -8.03954601321333,37.2923889190559,382.208299999998 -8.03961575032714,37.2925213529822,381.226500000004 -8.03986787778299,37.2926705510688,384.788499999995 -8.04023265846705,37.2928413742924,387.7255 -8.04037749743356,37.292947992017,389.967199999999 -8.04030776031975,37.2930718770094,390.354000000007 -8.04012000523884,37.2932168832942,388.792300000001 -8.03995907295399,37.2932168832942,385.647500000006 -8.03970694549814,37.2932083339306,383.768700000001 -8.03954064847443,37.2932296240809,384.126699999993 -8.03941726666679,37.293391897407,387.146900000007 -8.03935825813242,37.2936735299531,390.695800000001 -8.03933143623468,37.2941643737279,401.378500000006 -8.03943872472399,37.2946592412783,405.661600000007 -8.03946554662176,37.2949281328706,405.062099999996 -8.03932607149579,37.2950221779541,403.544800000003 -8.03912758783544,37.2950860482761,401.555500000002 -8.03911685925601,37.2952568710173,400.579899999997 -8.03930461433692,37.2955512434065,397.6299 -8.0394977332584,37.2959609508161,389.960600000006 -8.03968012360041,37.2960335380357,392.039600000004 -8.03984642062412,37.2960590193676,392.756800000003 -8.03975522545311,37.296110316449,391.988700000002 -8.0394923685195,37.296110316449,388.458100000003 -8.03926706296142,37.2961059579636,385.716499999995 -8.03899884218723,37.2959225619004,388.661699999997 -8.03878962994745,37.2959609508161,385.816099999996 -8.03854823107107,37.2960719276095,383.298200000005 -8.03755581366767,37.2962895215157,380.601800000004 -8.03728222815462,37.2964772765776,379.599900000001 -8.03719103298361,37.2965924438461,379.769499999995 -8.03654730294597,37.29701924988,380.619600000005 -8.03618252316021,37.297317980934,380.751999999993 -8.03567290350964,37.2979965800682,382.235400000005 -8.03537785993942,37.2981970751022,378.860400000005 -8.03493797740266,37.2985256460385,375.792600000001 -8.03465902804908,37.2986537215425,376.260399999999 -8.03432643400165,37.2990206806966,377.532900000006 -8.03411185702297,37.2991827871782,378.945999999996 -8.03392946757926,37.2994858765044,379.330000000002 -8.03354322883803,37.2998997749729,379.460999999996 -8.03323745758668,37.2999423550528,377.797699999996 -8.03300142255083,37.299959454392,375.375 -8.03257226949184,37.300164308161,371.195800000001 -8.03170323389608,37.3004885201324,371.715500000006 -8.03109705433561,37.300859838549,372.911200000002 -8.03041040908189,37.3013803545229,371.1924 -8.03029239201311,37.3014658495455,369.981400000004 -8.03025484063761,37.3016194059221,369.327399999995 -8.03016364546661,37.3018584579906,367.065199999997 -8.0301100016711,37.3020760523066,365.490399999995 -8.03014218830774,37.3022252500211,365.475699999995 -8.03010463693224,37.3023704244473,364.849799999996 -8.02991688274962,37.3025794696981,365.359500000006 -8.02967548387324,37.3027630331721,365.077900000004 -8.02928388129141,37.3029464289914,365.150599999994 -8.02882790543635,37.3030872453738,364.285999999993 -8.02851140470723,37.3030957950436,363.631399999998 -8.02827000583085,37.3031854811291,363.251900000003 -8.02800714979556,37.3032409692185,362.444900000002 -8.0275672672588,37.3033177474201,362.619099999996 -8.02725613126858,37.3033517780688,363.390700000004 -8.02690207916396,37.3033517780688,360.903399999996 -8.0265212060599,37.3033177474201,360.595799999996 -8.02575409421461,37.3032622593874,359.112999999998 -8.02521228792741,37.30321532097,355.632400000002 -8.02487432914109,37.3031640237323,354.867299999998 -8.02460610836694,37.3030872453738,354.306800000006 -8.02429497237671,37.3030062760576,353.630600000004 -8.02401602302309,37.3030062760576,352.382199999993 -8.02384972599938,37.303027566293,351.994999999995 -8.023850061071,37.3030300808198,351.996299999999 -8.02388995884602,37.3030899271048,352.320300000007 -8.02390001728225,37.3032500219176,353.183199999999 -8.02384000263477,37.303370050645,354.262300000002 -8.02368007556474,37.3034699630869,354.544099999999 -8.02353003984429,37.3036199990632,354.986600000004 -8.02338000412384,37.3038600565743,358.133900000001 -8.02327992371637,37.3041200634694,358.744600000005 -8.02322007705381,37.3048900251907,357.803400000004 -8.0233699456876,37.305619920913,360.419500000004 -8.02341001144761,37.3059000443178,360.663 -8.0233699456876,37.3059800073193,360.256999999998 -8.02281992520544,37.306429947847,354.922200000001 -8.02278002743042,37.3065399188634,354.486399999994 -8.02287004850335,37.3070099761946,355.5628 -8.02269637541284,37.3070299248585,354.966 -8.02235841752485,37.3070086350417,352.2019 -8.02202045873856,37.3070726723859,349.987899999993 -8.02175760270328,37.3072433278584,348.038400000005 -8.02156448378183,37.3075164101053,347.735199999996 -8.02142500865586,37.3079772477238,347.888699999996 -8.02129089826878,37.308241780365,348.464200000002 -8.02101194891516,37.3086087398929,348.976500000004 -8.02086710905035,37.308839074969,348.849700000006 -8.0205398797418,37.3091121571365,348.642099999997 -8.02023410759211,37.3092529734047,349.359100000001 -8.01969766604381,37.3093639498766,349.229999999996 -8.01932215678031,37.3094918575934,350.142000000007 -8.01907539406333,37.3095602533866,349.979300000006 -8.01881790186861,37.3095431548014,350.390899999999 -8.01845312118456,37.3094407275425,351.114499999996 -8.01818490041041,37.3094321778796,352.182400000005 -8.01780939114691,37.3094663765256,350.618400000007 -8.01743388188342,37.3095771854907,349.417700000005 -8.01712274589317,37.3096370322811,348.581099999996 -8.01684379564125,37.3096370322811,347.201700000005 -8.01642537116169,37.3094834751283,346.691600000006 -8.01609277711427,37.3094321778796,347.165599999993 -8.01577091254461,37.3095260554978,350.329100000003 -8.01545977565606,37.3097734891585,350.458199999994 -8.01538467380335,37.3099186640169,350.971399999995 -8.01526665673461,37.3105670881944,345.120200000005 -8.01509499587033,37.3109937270412,344.910499999998 -8.01483750367561,37.3115227923157,345.136299999998 -8.01462292669693,37.3117361954242,343.994500000001 -8.0136036873958,37.3122225137564,344.664300000004 -8.01305651636973,37.3126748010999,345.602599999998 -8.01301360115366,37.3129735321255,344.523799999995 -8.0131530762796,37.3133232250835,343.689700000003 -8.01323890671174,37.3137840621184,345.172300000006 -8.01303505921086,37.3139974659525,342.371799999994 -8.01260590525353,37.3140913428714,339.036200000002 -8.01241278633205,37.3141339227745,338.031000000003 -8.01211237892127,37.3143302274045,337.415399999998 -8.01137208897372,37.3144155548115,337.758400000006 -8.01091074927809,37.3144837839457,339.464600000007 -8.00943017028132,37.3151664055256,346.942899999995 -8.00882935545975,37.3157040211062,360.121199999994 -8.00822854063817,37.3158233791022,361.256299999994 -8.00791740374962,37.3161390418162,367.237899999993 -8.00778865810141,37.3164377726496,375.938200000004 -8.00764918297544,37.3166682752062,377.514599999995 -8.00743460689512,37.3167450532712,378.626499999998 -8.00718784327981,37.3166937559763,376.663 -8.00691962250565,37.3166426265369,374.772500000006 -8.00688743586902,37.3167450532712,376.167000000001 -8.00696253772172,37.3168729612898,378.736499999999 -8.00714492806377,37.3170094186073,382.429000000004 -8.00742387741735,37.3172057228722,387.498099999997 -8.0075848106005,37.3174189583911,392.686799999996 -8.0076599124532,37.3176834913884,397.586200000005 -8.00783157331748,37.3179138258093,401.9182 -8.0077135562487,37.3179907719184,403.380399999995 -8.0075848106005,37.3179054442833,401.391399999993 -8.00733804698521,37.3177944675606,399.690900000001 -8.00697326630116,37.3177859181332,398.831399999995 -8.00667285889037,37.3177688192756,397.767600000006 -8.00621151919474,37.3178370475093,402.370699999999 -8.0059969422161,37.3178201165512,401.730200000005 -8.00577163665798,37.3177005902655,398.471699999995 -8.00549268730439,37.3176749419485,394.955100000006 -8.00528883890518,37.3177517196997,396.103000000003 -8.00500988955156,37.3178457648187,394.843800000002 -8.00463438028807,37.3181186799603,389.417499999996 -8.00431251482008,37.3182040073534,387.371899999998 -8.00381898848785,37.3183235335531,383.983399999997 -8.00344347922436,37.3183064341033,383.838399999993 -8.00314307181357,37.3184003113561,384.871599999999 -8.00260663026523,37.3188609808139,380.604000000007 -8.00205945923916,37.3192450398999,373.0524 -8.00197362880702,37.3195008557835,365.967300000004 -8.00183415368105,37.3196545796473,360.975999999995 -8.00151228911139,37.3198507162643,358.193700000003 -8.00123333975777,37.3199020135479,355.074999999997 -8.00116896648454,37.3200213720218,352.443499999994 -8.00129771213271,37.3201749283671,352.214999999997 -8.00152301769083,37.3203626830886,350.989799999996 -8.00146937389532,37.3206101168012,349.008499999996 -8.00126552549611,37.3208575504135,343.923200000005 -8.00102949135856,37.3210709534541,339.319499999998 -8.00065398209507,37.3213011210438,331.793099999995 -8.00020337097887,37.3215743708278,326.725099999996 -8.00023555761551,37.3217193778776,325.670899999997 -8.00040721937812,37.3217193778776,326.751900000003 -8.00072908394777,37.3217619577459,330.861699999994 -8.00092220286922,37.3218301866411,333.236900000004 -8.00112605126847,37.322231176953,334.941999999995 -8.00105094941576,37.3224531292767,333.890899999999 -8.00081491437991,37.3229563788021,329.338499999998 -8.0005896088218,37.3232209115975,325.728600000002 -8.00036430326372,37.3234257655705,324.605899999995 -8.00026774425214,37.3236049705487,323.902100000007 -8.0000531672735,37.3237243288565,323.014800000004 -7.99986004835201,37.3237583595552,322.3122 -7.99947381050909,37.3236646497263,321.847800000003 -7.99903392797233,37.3235878715862,324.190900000001 -7.99863696065167,37.3234938265086,326.871400000004 -7.99834728271861,37.323545124163,326.393500000006 -7.996630668686,37.3242959744001,321.796700000006 -7.99652338019666,37.3244067836504,320.298999999999 -7.99629807463858,37.3246713163406,322.347899999993 -7.996201515627,37.3248761699315,323.827900000004 -7.99623370136531,37.3250126277198,322.665800000002 -7.99636244791185,37.3251490845459,320.532999999996 -7.99661994010656,37.3254050682054,317.587299999999 -7.99675941433421,37.3257975087844,315.623099999997 -7.99687743230128,37.3259936450848,314.598299999998 -7.99695253415398,37.3261217209484,314.160499999998 -7.99684524566465,37.3262923767522,313.573199999999 -7.996630668686,37.3262838268629,313.616899999994 -7.99633026127521,37.3262410795446,314.176500000001 -7.99605131192159,37.3261131710396,316.752900000007 -7.99583673494295,37.3259170350511,319.6976 -7.99553632753216,37.3259083179636,323.748399999997 -7.9950964449954,37.3260192941346,333.605899999995 -7.99492478413112,37.3264373832702,333.715800000005 -7.99443125690055,37.3272819436156,322.399000000005 -7.99415230754697,37.3273929206152,321.049199999994 -7.99377679828348,37.3274611486837,319.391099999993 -7.99348711945212,37.3275379271522,316.448000000004 -7.9932081700985,37.3275122786208,315.076400000005 -7.99282193225558,37.3274440498844,315.025999999998 -7.99256444006086,37.3274356679925,314.957899999994 -7.99238204971882,37.3274866300806,314.331099999996 -7.99229621928671,37.3276403540388,315.399000000005 -7.99260735527693,37.3277427807857,317.130499999999 -7.99301505117706,37.3279816655039,316.503700000001 -7.99331545858784,37.3281181226528,317.138300000006 -7.99384117155671,37.3283142593245,312.6679 -7.99401283242099,37.3287578295137,313.725099999996 -7.99435615504785,37.3291502704395,311.193199999994 -7.99488186801675,37.3295001309987,312.126900000003 -7.99556851416879,37.3299693497455,318.235499999995 -7.99599766722779,37.330140005382,316.777499999997 -7.99631953269578,37.3301825854789,317.764800000004 -7.99656629541273,37.3302850123316,317.645000000004 -7.99693107609679,37.3303361417756,314.888500000001 -7.99722075492814,37.3303874390446,314.061300000001 -7.99738168721298,37.3306006750201,311.985799999995 -7.99752116233892,37.3311466716743,309.835500000001 -7.99730658536027,37.3315220136794,308.3992 -7.99698471989229,37.3318462254277,308.473800000007 -7.99636244791185,37.3324348025644,306.423999999999 -7.9961585995126,37.3328186937089,306.479200000002 -7.99611568429653,37.3330233800895,305.463900000002 -7.99621224420644,37.3334669503324,304.897400000002 -7.99608349765993,37.3337058347068,306.325100000002 -7.99590110821622,37.3339958481318,307.193199999994 -7.99571871787417,37.3341324736369,307.979200000002 -7.99568653123753,37.3342432819517,307.921000000002 -7.99584746352238,37.3343371592949,307.689199999993 -7.99604058244386,37.3343968385195,307.3024 -7.99661994010656,37.3344736170427,307.675099999993 -7.99697399131286,37.3345503947733,305.553499999995 -7.99719929687094,37.3347381500033,304.975900000005 -7.99717783971207,37.3350110645085,306.132800000007 -7.99711883027937,37.3351218729557,306.863700000002 -7.99710810169993,37.3352370403139,306.897899999996 -7.99719393213207,37.3352797882278,306.092300000004 -7.99736559389468,37.3353138186926,304.959400000007 -7.99801468867119,37.3358256180247,305.679000000004 -7.99817562095604,37.3359409528656,305.211200000005 -7.9987066986638,37.3362180584568,302.887400000007 -7.99899101275629,37.3364824238559,301.233699999997 -7.99898028417682,37.3366148579755,301.270900000003 -7.99877107103874,37.336926161517,301.362999999998 -7.99839019793468,37.3372631139793,301.361799999999 -7.99812197716053,37.3374678003915,300.159400000004 -7.99767136604433,37.3375744184052,300.901800000007 -7.99753725565726,37.3378302340263,299.191999999995 -7.99719929687094,37.3379626679121,298.505099999995 -7.99685060950521,37.3380436367162,298.574900000007 -7.9965931173105,37.338146063564,298.141699999993 -7.99639999838902,37.338192835183,298.190499999997 -7.99615323567207,37.3381715449079,299.618100000007 -7.99593329395452,37.3381331561175,300.789099999995 -7.99557387800933,37.3380776673573,301.955100000006 -7.99526274201911,37.3381502546268,301.186300000001 -7.99495160602889,37.3383762309871,302.766199999998 -7.9947263004708,37.338683344052,302.241999999998 -7.99460828340203,37.3389775485598,298.320500000002 -7.99451172349212,37.3392804710233,301.328699999998 -7.99458682534483,37.3395320955618,299.864799999996 -7.99484431753955,37.3397880787817,297.471699999995 -7.99504816504046,37.3399798568973,296.964399999997 -7.99530565723518,37.3401845430478,296.8897 -7.99565434460093,37.3404490758931,297.142900000006 -7.99586355684071,37.3406963420443,296.819900000002 -7.99609959097823,37.3410078136459,296.671600000001 -7.9961800575698,37.3412039495176,296.704800000007 -7.99626052416138,37.3414257350947,297.7546 -7.99630343937744,37.3415281616151,297.441600000006 -7.996201515627,37.3417071991464,298.895799999998 -7.99611568429653,37.3418010764455,300.595400000006 -7.99622297278587,37.3418565645974,299.112399999998 -7.99631953269578,37.3419631828086,299.633600000001 -7.99634635459351,37.34203560206,299.869099999996 -7.99638926980958,37.3421933499607,300.595100000006 -7.99638926980958,37.3424067531085,301.481599999999 -7.99646973640115,37.3424706231707,300.724700000006 -7.99651801545779,37.3425517599468,300.441500000001 -7.99650192303779,37.3427435381469,301.705499999996 -7.99638390507072,37.3428330562313,303.078200000004 -7.99623370136531,37.342905643904,305.155499999993 -7.99608349765993,37.3430037119252,307.369999999995 -7.99599766722779,37.3432851764903,307.628800000006 -7.99580454830631,37.3434729313107,308.622300000003 -7.99581008013184,37.3434600226373,308.656300000002 -7.99564998597515,37.3434100669429,309.901800000007 -7.99551000779263,37.3434300159442,310.011499999993 -7.99543993560721,37.3435299279874,308.182100000005 -7.9954199867197,37.3436300077279,306.315199999997 -7.99543993560721,37.3437699858764,304.374200000006 -7.99538997939596,37.3439200213995,303.986499999999 -7.99531001586093,37.344029992554,301.750700000004 -7.99517003857674,37.3441200140207,299.895699999994 -7.99500005307048,37.3441699699569,299.441099999996 -7.99457006188333,37.3442100353794,299.767999999996 -7.99443008370081,37.3441899187564,300.103199999998 -7.99448003991207,37.3443500131608,299.703999999998 -7.99457006188333,37.3445300566472,299.656300000002 -7.99475999537877,37.3445999617154,298.9761 -7.99505000928173,37.344730049072,298.120200000005 -7.99532007429716,37.344939932064,296.207899999994 -7.99548000136722,37.3451600404799,296.168300000005 -7.99644995460031,37.346839941771,306.683399999994 -7.99661004875696,37.347180079084,306.264899999995 -7.9966400560807,37.3477500486146,300.325800000006 -7.99662999764447,37.347759939343,300.427200000006 -7.9966400560807,37.347759939343,300.313099999999 -7.99630997731608,37.3480100550791,297.056200000006 -7.99612004292232,37.3480900182692,295.730299999996 -7.99601912528496,37.3482407250096,295.3701 -7.9956758026581,37.3485733191101,291.035399999993 -7.9951930049053,37.3490083401946,289.362500000003 -7.99489259749452,37.3491873770302,288.482600000003 -7.9945921900837,37.3494177119936,286.942800000004 -7.99430251125234,37.3496735279764,286.439899999998 -7.99413084948977,37.3496991760821,286.559999999998 -7.9937338830674,37.3501170977189,287.831900000005 -7.99329400053064,37.3505521191417,290.025299999994 -7.99302577975649,37.3508506824498,290.478400000007 -7.99280047419838,37.3512855353792,291.406600000002 -7.99254298200366,37.3515413507101,292.520900000003 -7.99291849126715,37.3517120066067,289.320200000002 -7.9931545254047,37.3518484642056,287.101800000004 -7.99331545858784,37.351976371735,287.328999999998 -7.99379825634064,37.3522578362279,285.799700000003 -7.99399673910269,37.3524155833619,286.337100000004 -7.99414157896753,37.352471071525,286.079700000002 -7.99433469788898,37.3524881710541,285.593099999998 -7.9945921900837,37.3525051020549,285.651899999997 -7.99497842792662,37.3527268871006,286.203299999994 -7.99516081826867,37.3528633449969,286.077300000004 -7.99551486947496,37.3532641675227,287.691600000006 -7.99582600636351,37.3535285328975,288.267399999997 -7.99613714235373,37.3537843484398,285.734899999996 -7.99630343937744,37.3540616216919,285.475399999996 -7.99652874493556,37.3542321097651,285.980800000005 -7.9966843124815,37.3544922837227,288.230899999995 -7.99674332101587,37.3547737480651,288.633900000001 -7.99669504195927,37.3552086011194,287.934299999994 -7.99656093157216,37.3555411950551,285.706600000005 -7.99641609170735,37.3557884614916,284.6783 -7.99619615088814,37.3559889566114,284.323300000004 -7.99590110821622,37.3561936426794,284.673200000005 -7.99548804757722,37.3564367176388,284.673800000004 -7.99503743646103,37.3566499532039,283.3367 -7.99488186801675,37.3567309225656,283.087400000004 -7.99471557099304,37.3569312502235,282.471399999995 -7.9946458338792,37.3570591576608,282.434899999993 -7.99445271495776,37.3570251270533,282.397700000001 -7.99431323983178,37.357080447579,282.632500000007 -7.99411475617146,37.3573364309546,282.644899999999 -7.99396991720492,37.3577328953901,282.357699999993 -7.99396991720492,37.3579717796925,281.959900000002 -7.9941791294447,37.3583342129001,281.657699999996 -7.99429714651348,37.3585643798487,285.659299999999 -7.99452245207156,37.3587690660336,287.716400000005 -7.99479603758461,37.3588074549846,287.070999999996 -7.9951339963709,37.3587434174567,283.411099999998 -7.99550950563439,37.358658257492,282.4041 -7.99589037873845,37.358658257492,281.785199999998 -7.99634098985465,37.3587776157954,280.172200000001 -7.99655556683329,37.35891826402,280.052500000005 -7.99635708317295,37.3590974692935,280.044699999999 -7.99648046498059,37.3593489260323,280.908800000005 -7.99650728687836,37.3597113597297,280.810800000007 -7.99644291360509,37.3599715339732,280.0052 -7.99627125274081,37.3602102504972,280.496499999994 -7.9960727690805,37.3604447764436,280.556100000002 -7.99599230248889,37.3606452712631,280.662200000006 -7.99583673494295,37.3608115681507,281.850699999995 -7.9955846074871,37.3609947966115,282.594800000006 -7.99542367430395,37.3610886740706,283.362899999993 -7.99520373348474,37.361118513769,283.962100000004 -7.99502670788159,37.36107576557,283.964000000007 -7.99490332607395,37.3609478578379,285.409899999999 -7.9947048424136,37.3607688204908,288.007700000002 -7.99430787599124,37.3605983329849,289.055900000007 -7.99406647711483,37.3605428444037,289.6391 -7.99387335819335,37.3605854243999,286.931100000002 -7.99384653539728,37.3607091415182,283.396299999993 -7.99393236672775,37.3609180187857,281.424199999994 -7.99334228048558,37.3617707929583,273.214699999997 -7.99318134820077,37.3618048235559,273.072700000004 -7.99292921984659,37.3617111140686,273.223299999998 -7.99269318570907,37.3617111140686,273.147800000006 -7.99247860873039,37.3616599845646,273.0769 -7.99196898907982,37.3617367630593,273.296000000002 -7.99181342153388,37.3619840290767,273.276100000003 -7.99140572563375,37.362197264589,273.3753 -7.99091756314205,37.3623804932366,273.995699999999 -7.99069225758397,37.3625851790094,273.311600000001 -7.99055814719689,37.3627087278993,273.122799999997 -7.99033820637765,37.3628495443978,272.966799999995 -7.99023091788834,37.3630200317873,273.349499999997 -7.99002170564856,37.3634081140244,273.378100000002 -7.9896408316462,37.3636808615012,273.099600000001 -7.98951745073686,37.3638984553143,272.873900000006 -7.98923850048494,37.364111523314,273.255399999995 -7.98879861794818,37.3645037966377,274.660999999993 -7.98809051553559,37.364887520274,280.995899999994 -7.98760771778276,37.364887520274,285.143100000001 -7.98725366567814,37.3649728480922,289.849799999996 -7.98681378403971,37.3650665577902,291.048599999995 -7.98655629184499,37.3651688171188,293.174299999999 -7.98613786736543,37.3651178548971,293.410999999993 -7.98590183232958,37.3650836565918,293.769799999995 -7.98567116293093,37.3652201141558,296.138399999996 -7.98543512789509,37.3653864109008,299.621499999994 -7.98530638224688,37.3655186776654,301.472800000003 -7.98516154328037,37.3656293182918,304.079800000007 -7.98490941492618,37.3657957833385,308.9133 -7.98478066927798,37.3658723941049,311.453599999993 -7.98457682087876,37.3660003012965,314.858200000002 -7.98439443143505,37.3661196600599,316.911900000006 -7.9841047526037,37.3661665984543,319.993000000002 -7.98390090510281,37.3660727209222,322.936600000001 -7.9836916919647,37.3659022333289,328.642000000007 -7.98345565782719,37.3657488447121,331.313999999998 -7.98313915709807,37.3657444859811,336.871400000004 -7.98298895339266,37.3657146466944,339.496100000004 -7.98261344412916,37.3656378679859,343.730100000001 -7.98240423188941,37.3656806157279,344.321599999996 -7.98230230813894,37.3655399673258,345.385699999999 -7.98215746917243,37.3655952880007,346.111600000004 -7.98198044267095,37.3655996467404,347.404500000004 -7.98171758663567,37.3657019060564,349.0239 -7.98174004990769,37.3657000618944,348.884300000005 -7.98172999147142,37.3657200106843,348.8655 -7.98151005065221,37.3659000543249,349.412100000001 -7.98122992720054,37.3660200829405,351.858200000002 -7.98033993660416,37.366319987645,361.179699999993 -7.97981992344574,37.3665699358745,369.448600000003 -7.97950996065526,37.3667499789035,372.543600000005 -7.97918993942858,37.3669000149069,376.027100000007 -7.97904996214437,37.3671100658071,382.210399999996 -7.97872994091765,37.3674200284953,390.376000000004 -7.97852994898595,37.3675700645867,395.275800000003 -7.9782199861955,37.3676399696185,401.148100000006 -7.97797992850378,37.3676599186066,402.501999999993 -7.97786995764505,37.3675400575353,401.289099999995 -7.97783005986999,37.3674200284953,399.880399999995 -7.97774992924834,37.367319948342,398.508600000001 -7.97768002414957,37.3672800508935,398.829400000002 -7.97748992177081,37.3672399849325,400.732199999999 -7.97725003206409,37.367149963346,402.133799999996 -7.97688994597573,37.3668700075874,401.680500000002 -7.97627002039477,37.366519979851,399.714399999997 -7.97602007135348,37.3663099294407,399.295100000003 -7.97584002830928,37.3662799218852,398.896500000003 -7.97547005087132,37.366380001998,399.514500000005 -7.97536997136215,37.366380001998,399.663100000005 -7.97524005161587,37.3663600526694,399.634699999995 -7.97469003113371,37.3661500025254,400.058799999999 -7.97432005369574,37.3660400316454,402.568599999999 -7.97398997493113,37.3659800177345,405.182400000005 -7.97383993831238,37.3659200030616,406.458899999998 -7.97374002678813,37.3657899160118,407.980800000005 -7.97357993173315,37.3655300767982,409.060400000002 -7.97342000556146,37.365419938656,409.158899999995 -7.97305991857473,37.3653699825809,411.289799999999 -7.97239003678255,37.3653000775761,413.753599999996 -7.97047007830557,37.365440055302,412.498300000007 -7.96968000013172,37.3655300767982,410.662700000001 -7.96917004540954,37.3654700624794,406.928599999999 -7.96877006064783,37.3653899314586,403.326499999996 -7.96860007603987,37.3654499458415,403.426300000006 -7.9684999956324,37.3656599965175,403.257299999997 -7.96848993719613,37.3657800255172,402.988899999997 -7.96839002477363,37.3656100398881,403.165200000003 -7.9681999232932,37.3655099601763,403.2932 -7.96701002834257,37.3652499536392,411.613200000007 -7.96612992909579,37.3653000775761,416.780799999993 -7.96506006254187,37.3651800485226,418.366899999994 -7.96457290616329,37.3650199542725,418.928799999994 -7.96404920542062,37.3645839278909,420.157800000001</coordinates>
</LineString>
</Placemark>
</Folder>
</Document></kml>
