<?xml version="1.0" encoding="UTF-8"?>

<kml xmlns:xsd="http://www.w3.org/2001/XMLSchema" xmlns:gx="http://www.google.com/kml/ext/2.2" xmlns:atom="http://www.w3.org/2005/Atom" xmlns="http://www.opengis.net/kml/2.2">
<Document>
<name>ES24a_14a_cervera-castellnou_de_la_seana</name>
<visibility>1</visibility>
<Schema name="ES24a_14a_cervera-castellnou_de_la_seana" id="kml_schema_ft_ES24a_14a_cervera-castellnou_de_la_seana">
<SimpleField type="xsd:string" name="id">
<displayName>id</displayName>
</SimpleField>
<SimpleField type="xsd:string" name="nombre">
<displayName>nombre</displayName>
</SimpleField>
<SimpleField type="xsd:double" name="longitud">
<displayName>longitud</displayName>
</SimpleField>
<SimpleField type="xsd:string" name="_formato">
<displayName>_formato</displayName>
</SimpleField>
</Schema>
<Folder id="kml_ft_ES24a_14a_cervera-castellnou_de_la_seana">
<name>ES24a_14a_cervera-castellnou_de_la_seana</name>
<Placemark id="kml_1">
<name>&lt;img height='20' src='https://nco.ign.es/iconos/icono_todos_caminos_azul.png' /&gt;&lt;img height='20' src='https://nco.ign.es/iconos/Camino Santiago_20.png' /&gt;&lt;img height='20' src='https://nco.ign.es/iconos/icono_todos_caminos_azul.png' /&gt;  Camino de Santiago </name>
<visibility>1</visibility>
<description><![CDATA[<!DOCTYPE html>
<html>
<head>
<style>
#nco {
  border-collapse: collapse;
  overflow:hidden;
}
#nco th, #nco td {
  padding: 4px;
  text-align: left;
}
#nco th {
  color: #364B5F;
  padding-right: 5px;
}
#nco td {
  color: rgb(51, 51, 51);
  font-size: 12px;
  padding-right: 5px;
}
</style>
</head>
<body>
<table id="nco">
<tr>
<td>Caminos del Nordeste</td>
</tr>
<tr>
<th><b>Camino: </b></th>
<td>ES24a Camí Catalá de Sant Jaume</td>
</tr>
<tr>
<th><b>Etapa: </b></th>
<td>14a Cervera-Castellnou de la Seana</td>
</tr>
<tr>
<th><b>Longitud: </b></th>
<td>27.56 km</td>
</tr>
</table>
</body>
</html>]]></description>
<Style>
<IconStyle>
<scale>0.8</scale>
</IconStyle>
<LabelStyle>
<color>ffffffff</color>
<scale>0.75</scale>
</LabelStyle>
<LineStyle>
<color>ffff0000</color>
<width>3.0</width>
<gx:labelVisibility>1</gx:labelVisibility>
</LineStyle>
<PolyStyle>
<color>66ff0000</color>
</PolyStyle>
</Style>
<ExtendedData>
<SchemaData schemaUrl="#kml_schema_ft_ES24a_14a_cervera-castellnou_de_la_seana">
<SimpleData name="id">ES24a_14a</SimpleData>
<SimpleData name="_formato">kml</SimpleData>
</SchemaData>
</ExtendedData>
<LineString>
<extrude>0</extrude>
<tessellate>1</tessellate>
<coordinates>1.27192396669278,41.6685047926679,544.036600000007 1.27193285192924,41.6679681833539,544.0 1.2717536461149,41.6669828066404,543.0 1.27155180994192,41.6664399947244,542.983800000002 1.27107705929742,41.6657846977326,542.0 1.27096591523887,41.665647234274,542.0 1.27117294816579,41.6655498364367,541.859500000006 1.27118334167361,41.6654966952738,540.728400000007 1.27109047024629,41.6653106169737,538.184200000003 1.27118049221755,41.6652506024247,536.891300000003 1.27121502525371,41.6650742473724,535.377699999997 1.27087522312444,41.6647989856128,528.722099999999 1.27031866470364,41.6647803778067,530.2448 1.27009553845841,41.6647649549592,532.426300000006 1.27000920496973,41.6650442399947,534.827900000004 1.26991499235768,41.6650326732425,534.0 1.26974148635379,41.6655550332465,528.805800000002 1.26956831631986,41.6659178022863,524.192299999995 1.26951852809356,41.6665536531405,516.993900000001 1.26944191796949,41.6666738495326,514.866599999994 1.26925600712986,41.6665407451998,515.479500000001 1.26811673853372,41.6661863579676,503.225999999995 1.26777224270708,41.6662371525057,499.255600000004 1.26605277921838,41.66561990945,487.032699999996 1.26507511394858,41.6652160693715,480.458899999998 1.26473195840838,41.6649884167729,477.994099999996 1.26439265933566,41.6648494443618,475.185599999997 1.26358950528453,41.6645559106552,471.0 1.26264637305088,41.6636022171824,471.783200000005 1.26249298481783,41.6637167141078,466.010500000004 1.26233959568641,41.6635678516903,464.845499999996 1.26220548529934,41.6636652491703,464.696200000006 1.26205008484002,41.6637267724756,464.0 1.26191781869422,41.6639601250952,464.211299999995 1.26146150776757,41.6642638848898,468.656700000007 1.26098507996842,41.6643966543592,470.0 1.25970834847254,41.6649255525087,472.450899999996 1.25845994804411,41.6648187671383,473.085200000001 1.25606188551169,41.6652752451046,471.640700000004 1.25489478890467,41.6655283787883,472.304300000003 1.25414259717791,41.665565426865,465.228700000007 1.25356625785458,41.6656271174656,462.925300000003 1.25198442525054,41.6655516805526,457.994099999996 1.25132644523754,41.6654987071603,458.625400000004 1.24958686487637,41.6649785257014,455.941800000001 1.2494130246992,41.6649562303524,454.767000000007 1.24882444762675,41.6649662885266,455.782600000006 1.24788768624509,41.6645860853608,456.195999999996 1.24671002814529,41.6641255833476,456.202999999994 1.24634390717483,41.6640067284085,456.275099999999 1.24522157002514,41.6635046518328,452.9758 1.24328250078884,41.6628015779244,451.719800000006 1.2425990400628,41.6626091297476,450.031400000007 1.24225219693832,41.6625883422257,451.1351 1.24185539760259,41.6625898515443,451.927299999996 1.24153487421766,41.6624297568692,450.119600000005 1.24142792079994,41.6624537288496,452.504400000005 1.24100044399726,41.6623033575426,452.404200000004 1.24068612258103,41.6620391599751,448.959000000003 1.23988665611412,41.6617863622248,451.258900000001 1.23900588582581,41.661715115956,451.220799999996 1.23820072044678,41.6617551815476,449.339600000007 1.23719070145372,41.6616302909091,448.736999999994 1.23689012605795,41.6616792414591,449.577699999994 1.23618420205992,41.6617692628859,449.996499999994 1.23532354864408,41.6619110847822,450.442599999995 1.23479984700311,41.6619050494573,449.637400000007 1.23383291031275,41.6619493060329,449.138999999996 1.23308340095546,41.6620309462316,450.268599999996 1.23270956794828,41.6621040363656,449.501999999993 1.23253757111409,41.6620512299282,448.280899999998 1.23210003587518,41.6618701810662,450.902600000001 1.22989425413608,41.6612834475562,446.116299999994 1.22976198799028,41.6612534404252,445.556200000006 1.22953383207777,41.661254949104,445.103499999997 1.22928841054552,41.6613665966041,444.250199999995 1.22906796666973,41.6613593881115,445.148499999996 1.2289725799596,41.6612371798456,445.364100000006 1.22874777745809,41.6610915022106,447.084900000002 1.22832817977876,41.6609406277353,449.221399999995 1.22738488045848,41.6606633543875,449.769400000005 1.22700484458425,41.660427990527,449.347500000003 1.22666319821371,41.6601663080497,449.917700000005 1.22651601194935,41.6599052949724,449.952099999995 1.22568419175921,41.6597926422621,449.494000000006 1.22495563740255,41.6597753759521,448.0 1.22479654846068,41.6597309514406,447.232900000003 1.22448876498306,41.6597460392546,444.710699999996 1.22391460497259,41.6598206380099,444.4041 1.22336056093627,41.660025491695,444.765599999999 1.22325712801613,41.6600655569957,444.901500000007 1.22102435639431,41.660788244888,439.196800000005 1.2202934547398,41.6611540313017,437.353600000002 1.21976371821676,41.6612822744382,440.740999999995 1.21841222083812,41.6613954298952,437.150500000003 1.21697287990277,41.6612970263287,434.670899999997 1.21665252360448,41.6613037321594,435.928799999994 1.21532399165606,41.6610760798218,434.536200000002 1.21424004401004,41.6607771807153,432.005000000005 1.21333144571088,41.6604306730298,430.637499999997 1.21246106893039,41.6600839977101,430.432400000005 1.21158499233945,41.6594696037138,428.958400000003 1.21138650957743,41.6593688535833,427.0 1.21099423595411,41.6593187294654,426.971300000005 1.21084470329023,41.6591898159747,427.215599999996 1.21059760460333,41.6588307352304,428.742499999993 1.21027858948973,41.6586672882244,428.9185 1.2100569715159,41.6586359395923,429.041599999997 1.2097636051003,41.6586889132615,428.979099999997 1.20967928293952,41.6587204296544,429.0 1.20955087236293,41.6586932723623,429.132800000007 1.20939429870383,41.6584056053039,430.202600000004 1.20902616550714,41.6581020125083,428.112200000003 1.20855409633378,41.6579414153903,428.390499999994 1.20824010998913,41.6578155193459,426.375599999999 1.20706496717214,41.657527684604,424.360000000001 1.20531063557566,41.6567786778945,423.906000000003 1.20397573367356,41.6565116300225,421.632599999997 1.20236322270428,41.6560035195355,420.613700000002 1.20128832738141,41.6556841688997,419.541500000007 1.19881181048362,41.6552348985682,417.472399999999 1.19706602725542,41.6549995350038,415.888699999996 1.19547497524163,41.6545598203308,413.779599999994 1.19435062676405,41.6540929481224,412.157600000006 1.19198592406801,41.6534604497035,409.0 1.19098713581263,41.6534210548518,408.523300000001 1.18705283826167,41.6524353434261,407.754300000001 1.18597978718008,41.6519676329066,405.362099999998 1.18314234516744,41.6512590269977,406.028999999995 1.18121819604969,41.6509545963841,405.0049 1.18039844562369,41.6510659080046,406.481199999995 1.17951918360674,41.6510659080046,406.0 1.17767969172135,41.6510519941465,400.0 1.17548396841846,41.6512570153375,402.140100000004 1.17345169178488,41.6513721826141,401.646099999998 1.17124339566131,41.6512628825117,397.788499999995 1.1704028582196,41.6511529116693,398.0 1.16882756355424,41.6504754863078,397.0 1.16837477312515,41.6499137311639,393.0 1.16629924620392,41.6490747029236,393.0 1.16485621768436,41.6483456449481,396.0 1.16139432437838,41.648143138418,389.0815 1.15606795973394,41.6479533717495,387.0 1.15018939619277,41.6479238678936,380.0 1.14749444674712,41.6478182558869,380.0 1.14337256210024,41.6475607638872,379.0 1.14196725204281,41.6480648510003,379.200500000006 1.14143181570929,41.6479982991023,379.0 1.14145679426408,41.6472471127349,376.233399999997 1.13950950993449,41.6464499937082,371.0 1.13837024223664,41.6465537619554,374.935299999997 1.13577386402884,41.6473352902304,366.0 1.13484649004191,41.6474938758366,364.492700000003 1.13027717880651,41.6474083802608,360.0 1.12970251573947,41.6470539937978,360.0 1.12917462345771,41.6471042852085,358.0 1.12859476363677,41.6473207056434,358.0 1.12271804343854,41.6473210412762,353.0 1.11861174905343,41.6473044449023,351.0 1.11696789047397,41.6470117488483,351.0 1.11137095865585,41.6471500502238,351.0 1.10854793370523,41.6473215440542,353.566300000006 1.1069853789472,41.6481434733753,354.0 1.10415145743218,41.6494564146642,353.0 1.10142080085231,41.6509219069116,352.724700000006 1.10093398044368,41.6516194487693,351.439799999993 1.09880480882861,41.6527116104817,349.991500000004 1.09695190599433,41.6535595243635,348.0 1.0964649167024,41.6536004279885,348.0 1.09611757141968,41.6538708278094,347.744600000005 1.09442492982874,41.654783281986,345.0 1.09104869896995,41.6564278115892,342.0 1.08953274791057,41.6566772564131,340.0 1.08684031284944,41.6572735456117,338.0 1.08363021192773,41.658255401728,336.0 1.08142241796237,41.6587717267305,334.0 1.08117515218884,41.6583194389647,333.0 1.08073526965208,41.6581162617624,332.0 1.07993479797038,41.6581447602613,326.274999999994 1.0792595523376,41.6583407292144,323.409199999995 1.07868539142884,41.6584862392445,321.0 1.07741670704129,41.6581953873148,319.861499999999 1.07510313375628,41.6578634633774,318.0 1.07219897207085,41.6574195580676,315.126300000004 1.07119817248757,41.6570799231564,315.0 1.06913940992614,41.6561604286892,314.0 1.0661750656083,41.6552573623941,312.744900000005 1.06366904444334,41.6540175111209,311.765199999994 1.0624974221239,41.6537777890443,316.0 1.06117777541198,41.6535042033119,318.7837 1.06031427164175,41.6531908878367,317.0 1.05915002538911,41.6524036595104,317.295499999993 1.05800438683928,41.6519128152436,319.9856 1.05686545331476,41.6516952208332,318.0 1.05268187776405,41.6509520812936,315.0 1.0523357056811,41.6507455515496,312.0 1.05182105636325,41.6506778257535,312.0 1.05029018608361,41.6510211485843,313.809099999999 1.04876099116199,41.6510595373924,313.831000000006 1.04793654793692,41.650869939067,313.0 1.04764318062302,41.6503410409279,313.001199999999 1.04478428145154,41.6501137237175,311.461599999995 1.03605989371782,41.6506528479132,306.0 1.03413121798933,41.6503219302169,304.998099999997 1.02300038554327,41.6509239185823,300.0 1.01811775900476,41.6508838529645,297.0 1.01233910788613,41.6505229283516,293.500599999999 1.00753996538024,41.6503152245851,291.653600000005 1.00273143458132,41.6504597284453,290.0 0.997706316374121,41.6501422224011,284.520300000004 0.997410267589084,41.6498213626215,286.0 0.993105154472005,41.6502008951346,284.0 0.992818158010086,41.6509431969217,280.0 0.990831143890429,41.6508442900722,272.695300000007 0.990650262718074,41.6502407933684,270.132299999997 0.989307146621051,41.6487030496356,274.387000000002 0.987507887582271,41.6488497326324,274.0 0.983264800440613,41.6488170434344,273.885599999994 0.981020294126239,41.6487509937377,279.048500000004 0.979344415996803,41.6488212340483,276.891900000002 0.976885165617122,41.6481262066274,276.0 0.973355378540286,41.6477203551594,275.126300000004 0.97215224062578,41.6479302381446,273.585600000006 0.970676019356432,41.6481255360414,271.0</coordinates>
</LineString>
</Placemark>
</Folder>
</Document></kml>
