<?xml version="1.0" encoding="UTF-8"?>

<kml xmlns:xsd="http://www.w3.org/2001/XMLSchema" xmlns:gx="http://www.google.com/kml/ext/2.2" xmlns:atom="http://www.w3.org/2005/Atom" xmlns="http://www.opengis.net/kml/2.2">
<Document>
<name>ES24a_11a_manresa-monasterio_de_montserrat</name>
<visibility>1</visibility>
<Schema name="ES24a_11a_manresa-monasterio_de_montserrat" id="kml_schema_ft_ES24a_11a_manresa-monasterio_de_montserrat">
<SimpleField type="xsd:string" name="id">
<displayName>id</displayName>
</SimpleField>
<SimpleField type="xsd:string" name="nombre">
<displayName>nombre</displayName>
</SimpleField>
<SimpleField type="xsd:double" name="longitud">
<displayName>longitud</displayName>
</SimpleField>
<SimpleField type="xsd:string" name="_formato">
<displayName>_formato</displayName>
</SimpleField>
</Schema>
<Folder id="kml_ft_ES24a_11a_manresa-monasterio_de_montserrat">
<name>ES24a_11a_manresa-monasterio_de_montserrat</name>
<Placemark id="kml_1">
<name>&lt;img height='20' src='https://nco.ign.es/iconos/icono_todos_caminos_azul.png' /&gt;&lt;img height='20' src='https://nco.ign.es/iconos/Camino Santiago_20.png' /&gt;&lt;img height='20' src='https://nco.ign.es/iconos/icono_todos_caminos_azul.png' /&gt;  Camino de Santiago </name>
<visibility>1</visibility>
<description><![CDATA[<!DOCTYPE html>
<html>
<head>
<style>
#nco {
  border-collapse: collapse;
  overflow:hidden;
}
#nco th, #nco td {
  padding: 4px;
  text-align: left;
}
#nco th {
  color: #364B5F;
  padding-right: 5px;
}
#nco td {
  color: rgb(51, 51, 51);
  font-size: 12px;
  padding-right: 5px;
}
</style>
</head>
<body>
<table id="nco">
<tr>
<td>Caminos del Nordeste</td>
</tr>
<tr>
<th><b>Camino: </b></th>
<td>ES24a Camí Catalá de Sant Jaume</td>
</tr>
<tr>
<th><b>Etapa: </b></th>
<td>11a Manresa-Monasterio de Montserrat</td>
</tr>
<tr>
<th><b>Longitud: </b></th>
<td>20.38 km</td>
</tr>
</table>
</body>
</html>]]></description>
<Style>
<IconStyle>
<scale>0.8</scale>
</IconStyle>
<LabelStyle>
<color>ffffffff</color>
<scale>0.75</scale>
</LabelStyle>
<LineStyle>
<color>ffff0000</color>
<width>3.0</width>
<gx:labelVisibility>1</gx:labelVisibility>
</LineStyle>
<PolyStyle>
<color>66ff0000</color>
</PolyStyle>
</Style>
<ExtendedData>
<SchemaData schemaUrl="#kml_schema_ft_ES24a_11a_manresa-monasterio_de_montserrat">
<SimpleData name="id">ES24a_11a</SimpleData>
<SimpleData name="_formato">kml</SimpleData>
</SchemaData>
</ExtendedData>
<LineString>
<extrude>0</extrude>
<tessellate>1</tessellate>
<coordinates>1.8492962789625,41.6961935716921,244.992400000003 1.84931203720921,41.6962331342215,244.780599999998 1.84917608258083,41.6959310505988,244.894400000005 1.84898413685916,41.6954251186263,245.718299999993 1.84872915994721,41.6950541359857,246.412800000006 1.84819992648072,41.694668903337,245.724799999996 1.84768712140414,41.6942441086771,243.524999999994 1.84727808431932,41.6939361571224,240.455000000002 1.84689905455823,41.6935831113649,237.204100000003 1.84672705862234,41.6932770046627,235.225399999996 1.8465721603213,41.6931650221076,233.348899999997 1.84622414399707,41.6930870704839,231.621299999999 1.84604912972183,41.6928671292629,229.895300000004 1.8455790727747,41.6923920432213,226.445500000002 1.8454850281476,41.6922750321727,225.612399999998 1.84500709207709,41.691727022855,224.333499999993 1.84455513977619,41.6915000409089,223.868400000007 1.84401216028921,41.6909701368794,222.287400000001 1.84373706560651,41.6907000719645,221.340700000001 1.84322308733015,41.6903971499962,218.566600000006 1.84298805930575,41.6901810648363,217.764200000005 1.84279711879887,41.6896171304139,217.479200000002 1.84261405831362,41.688983123419,216.414000000004 1.84248715600839,41.6883320172214,215.491299999994 1.84231516007249,41.6878291026363,215.374500000005 1.84198105685541,41.6875451239288,213.034599999999 1.8417691622462,41.6871401105579,209.221799999999 1.84155710055033,41.6867751621001,206.4185 1.84146204981011,41.6866100384555,205.409400000004 1.84141611715303,41.6864930276233,204.606499999994 1.84137001651095,41.6863040991579,203.371100000004 1.84133213006383,41.6861071244977,202.557799999995 1.84118410567131,41.6857790570207,200.974900000001 1.84084916522437,41.6851271126792,198.158800000005 1.84064414362538,41.6844630979954,197.085300000006 1.84063106774813,41.6843771000339,196.948199999999 1.8405350108948,41.6842320926404,196.928199999995 1.84033200152205,41.6838421667453,196.818599999999 1.84034004773205,41.6833521605475,196.083100000003 1.84027601042869,41.6832031301906,195.268800000005 1.84035815327661,41.6827330736056,191.912899999996 1.84048002591456,41.6824690430677,189.352799999993 1.84050416544287,41.6822591605996,186.143899999995 1.84036016460451,41.6821061069891,179.240699999995 1.84056200077749,41.6819721644025,182.405899999998 1.84043711069849,41.6818571645619,180.663 1.84033015728077,41.681854146828,180.146200000003 1.84013502703139,41.6817800506163,178.969500000007 1.83979908047133,41.6812211455136,177.3609 1.84006411581948,41.6809740473624,176.638999999996 1.84096600819507,41.6807170582673,175.424299999999 1.84119902578987,41.6804790115764,173.753400000001 1.84122316531817,41.6804350904511,173.247199999998 1.84129910529903,41.6803521096069,172.611699999994 1.84155005955514,41.6802880721425,171.142500000002 1.84211483217091,41.6803563008526,169.674100000004 1.84243954709495,41.6803246172558,168.822199999995 1.84271246156647,41.6803088593168,168.633300000001 1.84302728603928,41.6803480867622,167.087599999999 1.84329349548549,41.6804139685281,166.005499999999 1.84364704453357,41.6803150619888,166.203699999998 1.84411877773702,41.6803794348869,169.279699999999 1.84447551131278,41.6801521176978,162.921700000006 1.84477273419589,41.6799008281922,165.409799999994 1.84507297362172,41.6797056977677,170.230200000005 1.84514086649425,41.679477206754,170.9764 1.84529777612326,41.6794706692069,172.268800000005 1.84563305254012,41.680011972369,172.3125 1.84593899177643,41.6800679630421,177.382599999997 1.84630393954711,41.6798800408861,179.449900000007 1.84636294808152,41.6796550708541,179.170800000007 1.84632103897856,41.6795548233019,180.133300000001 1.84626504788521,41.6794116601657,179.690000000002 1.84622515011019,41.6792383228489,171.408800000005 1.84611601737957,41.6787384261822,173.431400000001 1.84580236700484,41.6783761601329,177.482900000003 1.84587126599052,41.6779808694277,181.051699999996 1.84596581367416,41.6776360377699,183.679900000003 1.84600772367545,41.6772912062773,185.810100000002 1.84617569695548,41.6768756319012,188.109700000001 1.84627192089543,41.6764820174355,191.340100000001 1.84610227135909,41.6761780898442,194.230200000005 1.84589104689308,41.6758049276119,197.753299999997 1.84590697312475,41.6754959705721,200.531799999997 1.84565316851425,41.6753727565104,201.107499999998 1.84483241287346,41.6751824869921,205.595000000001 1.84422371892851,41.6751590182858,208.804199999999 1.84386681736783,41.6751511390198,211.253100000002 1.84337362610718,41.6751197903613,215.683399999994 1.84276493306053,41.6751432597529,217.918900000004 1.84248145709624,41.6748924733813,221.050000000003 1.84220870971134,41.6746416867034,223.4614 1.84185180815063,41.6743672636495,227.287299999996 1.84162097076702,41.6742026429391,228.954299999998 1.84132710129488,41.6739597349992,232.039600000004 1.84088638062996,41.6736068574075,235.400800000003 1.84009697259931,41.6730159331088,239.081999999995 1.83983914533298,41.6729661443776,240.300900000002 1.83953404422482,41.6731679803725,242.842000000004 1.8392390015529,41.6738690428529,248.798699999999 1.83894898764997,41.6730559983784,252.968099999998 1.83868244313213,41.6727916328966,252.673200000005 1.83840952776228,41.6725250889245,252.115000000005 1.83773780262713,41.671882364176,251.394700000004 1.83741258464647,41.6716158197938,252.298999999999 1.83676600425444,41.6712649531369,252.375899999999 1.83635260944216,41.670918110015,250.161399999997 1.83606896549288,41.6706520689331,249.670599999998 1.83560745781229,41.6704711871835,247.825100000002 1.8351459501317,41.670290975952,245.6103 1.83498820327286,41.6700400223775,243.216100000005 1.83480983558669,41.6697342498966,240.381999999998 1.83467337880009,41.6695775086941,239.543600000005 1.8342536131358,41.6692717367005,238.526400000002 1.83371834478724,41.6688563299762,237.387000000002 1.83338256531381,41.6685974967802,237.627099999998 1.83317201188933,41.6684119213316,238.675700000007 1.83297319315736,41.6681272717772,240.967199999999 1.83272140077313,41.6677901514041,244.358200000002 1.83258628517123,41.6676158077466,245.840599999996 1.83240087738817,41.6673809470908,247.834799999997 1.83155849570523,41.6670136519401,247.613500000007 1.83091375955447,41.6667216265848,247.356499999994 1.83042492691957,41.6666049506874,244.286600000007 1.83035938044652,41.6666760291483,242.789399999994 1.83026181532183,41.6667554897805,241.605899999995 1.83009233287214,41.6668436674133,239.770399999994 1.82995906061323,41.6668290825459,238.477299999999 1.82989099975571,41.6667489516123,240.195200000002 1.82988664112996,41.6666661383361,240.665500000003 1.82979326664606,41.6665474504844,242.203999999998 1.82952186134423,41.6665757815123,244.908299999996 1.82936796915627,41.6665559998556,245.392399999997 1.82932622713994,41.6665362188638,245.535999999993 1.82892590730662,41.6663062195114,246.792700000005 1.82859096685968,41.6662400025337,248.655299999999 1.82851251249434,41.6661456220504,249.109899999996 1.82836448810182,41.6658049815889,254.039499999999 1.8282347354422,41.6657322264952,255.538700000005 1.82792678487795,41.6656524310759,258.570399999997 1.82789107774372,41.6656712063987,258.733900000007 1.82780088868583,41.665665674732,260.196200000006 1.82765085206708,41.6657384292299,262.853600000002 1.82766610725722,41.6658100106099,262.512600000002 1.82752478878831,41.6658946677513,264.760399999999 1.8272711521628,41.6658921532441,266.127800000002 1.82688809974584,41.6658911473071,267.917700000005 1.82640513400809,41.6658460532579,267.312300000005 1.82609500323265,41.6659171312144,264.879300000001 1.8257481601082,41.6659211549611,261.9372 1.82541808134356,41.6659451269838,260.186799999996 1.82524692263752,41.6661533333092,258.655199999994 1.82508883980877,41.6661744558859,256.720799999996 1.82483134761405,41.6659912275703,254.686199999996 1.82432055476371,41.6658519204453,253.5772 1.82416850681706,41.6657141215932,253.626099999994 1.8241500670992,41.6656740564516,253.848400000003 1.82382602231836,41.6655399461225,253.7408 1.82363139422719,41.6653946036944,253.928599999999 1.82354874922106,41.6651357706737,253.872499999998 1.82344783068543,41.6649233728337,253.325299999997 1.82340810089534,41.6647579146181,251.968399999998 1.82333115480136,41.664724554356,251.087899999999 1.82327834913401,41.6647669668686,250.524900000004 1.82322973410749,41.6649245465565,249.820999999996 1.82319402697323,41.6651820389384,248.245500000005 1.82306092269927,41.6652033289324,247.731700000004 1.82271692903092,41.6651168274247,247.832800000004 1.82253856224304,41.6649927754473,248.670499999993 1.82235214834686,41.664807702987,248.153600000005 1.82186348369692,41.6646398970183,248.588900000002 1.8214609845507,41.6645922882059,245.448600000003 1.8212757447526,41.6645731770256,244.405400000003 1.82081758958467,41.6647277393219,241.074500000002 1.8206392227968,41.6648640290065,240.061799999996 1.82033512780176,41.6649124764709,238.643200000006 1.81982031049895,41.6648821341476,238.515499999994 1.81928923368951,41.6647428266362,238.578800000003 1.81872295190406,41.6645766975419,239.292000000001 1.81859102082988,41.6645530605528,239.539199999999 1.81862907526192,41.6643740232648,237.685800000007 1.81900609279677,41.6643351310229,240.5962 1.81923005717015,41.6642999270611,242.143400000001 1.81931152897654,41.6641931419953,242.331000000006 1.81927749899693,41.6641654816802,242.541400000002 1.8193351663466,41.6638080768871,244.409199999995 1.81932359963901,41.6636934123504,245.460300000006 1.81884935115275,41.6631816137859,251.080400000006 1.81871306145278,41.6629861474553,254.060299999997 1.81858582407593,41.6628636040405,256.014999999999 1.81850468734116,41.6624820596654,259.942500000005 1.81843813475503,41.6622051217989,263.129799999995 1.81838516110273,41.6620897866515,264.198900000003 1.81838901757024,41.6619070614561,266.013600000006 1.81849110840734,41.6616001161605,268.776400000002 1.81854911172692,41.6613499998222,271.225999999995 1.81854609428587,41.6613350801639,271.320999999996 1.81845104354566,41.6610511013159,273.785600000003 1.81843981190968,41.6609010656511,275.396800000002 1.81857911905067,41.6607131432379,275.908299999996 1.81854609428587,41.6605651188264,275.251199999999 1.81851105729485,41.6602290044797,277.974199999997 1.81836890069777,41.6601332829882,278.667300000001 1.81837108001066,41.6599750325214,280.843800000002 1.81837409745168,41.6596890423191,283.063099999999 1.81835012501,41.6593281173798,285.962499999994 1.81832900292275,41.6590731398518,288.427899999995 1.81829815747081,41.6590000496334,288.921000000002 1.81835884226154,41.6588414641648,291.317299999995 1.81831106536314,41.6586570619505,292.573900000003 1.81830704180897,41.6586401309098,292.736699999994 1.81816806973957,41.6584101315403,294.187300000005 1.81814409819623,41.6583400587347,294.387900000002 1.8181231431956,41.6582961372678,295.021599999993 1.8181010149952,41.6582780322883,295.275500000003 1.81775601611203,41.6580051180333,297.157800000001 1.81747203709116,41.6578031136919,299.543600000005 1.81719409295236,41.6576560953688,302.596799999999 1.81717414406485,41.6576440252631,302.864199999996 1.8168380295198,41.6574041354705,304.981499999994 1.81642111420993,41.657099033876,305.230299999996 1.81604610800301,41.6567971182077,303.524799999999 1.8157951537469,41.6565870674587,301.6973 1.81498797614164,41.655956413089,296.675700000007 1.81481815862031,41.6557021061426,296.055699999997 1.81442504776715,41.6552040536666,293.155199999994 1.81388525280785,41.6548902350156,288.324800000002 1.8133840153372,41.654530148347,286.168999999994 1.81300515266278,41.6542600835347,284.2788 1.81284204106504,41.6540671319409,283.331900000005 1.81249503085393,41.6535700850334,281.690400000007 1.81223938200219,41.6533030379531,280.873300000007 1.81194702169971,41.653176136103,278.679999999993 1.8116161039086,41.6528790810548,278.419800000003 1.81155810148735,41.652808002802,278.111199999999 1.81138711076627,41.6526420409246,277.451300000001 1.8111911414904,41.6524960283774,276.615600000005 1.81087715514579,41.6523609119741,274.768800000005 1.81075159492358,41.6523064295815,273.860700000005 1.81048806784677,41.6523034118047,273.136100000003 1.81031573594099,41.6522231131141,272.385599999994 1.81023208392341,41.6520821297104,271.618300000002 1.81007048149536,41.6518913577496,269.575299999997 1.80977409674041,41.6517597619661,271.224100000007 1.80956002281831,41.6516211248077,266.331699999995 1.80952683096689,41.6516445947112,267.367299999998 1.80926330389007,41.6515658047763,265.264800000004 1.80891662875058,41.6515128306182,263.550199999998 1.8087141215361,41.6514261617086,261.866999999998 1.80866215399691,41.6514120801225,261.976200000005 1.80858420178982,41.6512977512762,261.154800000004 1.80838957459698,41.6512281815346,259.969400000002 1.8078680522689,41.6512560091717,257.294399999999 1.80748701117988,41.651308144511,256.587799999994 1.80716313438396,41.6513000985472,255.657000000007 1.80702902399689,41.6512868546215,255.379300000001 1.80682618171079,41.6511839249748,253.578200000004 1.80666407532787,41.6510809951636,252.320200000002 1.80635394545077,41.651006731296,249.175099999993 1.80626275027976,41.6509143629783,248.937099999996 1.80627314378758,41.6508940791301,250.255999999994 1.80605705853757,41.6507670094254,245.746599999999 1.80591808646817,41.650759129859,245.603700000007 1.80573368479822,41.6507825994053,245.412200000006 1.80549111182373,41.6507031391994,242.730299999996 1.80519606915181,41.6504850419769,245.205600000001 1.80518601071558,41.6504620757469,245.203200000004 1.80539220551431,41.6502473311991,246.521099999998 1.80534459660091,41.6500723171355,248.246799999994 1.80521300059831,41.6499380387238,249.8413 1.80504301599034,41.6496530544445,252.505099999995 1.80503413075389,41.6493100666574,255.588600000003 1.80506832871842,41.6491447757408,257.4084 1.80518366431606,41.649075037876,258.094500000007 1.8054508789771,41.6490202204366,259.318400000004 1.80554911514332,41.6489481364227,259.864400000006 1.805914062914,41.6488547616351,262.003899999996 1.80600559315663,41.6487370800508,261.641499999998 1.80608941226083,41.6484544418611,263.384099999996 1.80604733517292,41.6482479121647,262.960399999996 1.80612813683611,41.6479651066992,264.810700000002 1.80610416439443,41.6475242182976,266.297399999996 1.80605286699845,41.6473245613932,266.099000000002 1.80602537495751,41.6467649859138,264.971699999995 1.80609008330236,41.6465490677387,263.361499999999 1.80635612476366,41.6462630769922,261.653699999995 1.80646207206826,41.6462320640029,260.122300000003 1.80666709276892,41.6461571299805,262.417700000005 1.80688804059958,41.646025031107,265.214099999997 1.80722700460066,41.6458381145007,268.576100000006 1.80750712715402,41.645674164626,271.975300000006 1.80789504215159,41.6454540559902,269.897599999997 1.8080311638666,41.6453420741275,269.908100000001 1.80779797918515,41.6449715935321,270.911300000007 1.80764727332153,41.6448314481414,271.463099999994 1.80739715719358,41.6446983436382,271.789499999999 1.80725215024211,41.6445801590466,271.516000000003 1.80708535016182,41.6444121855796,271.761299999998 1.80724008047794,41.6442997004472,273.030299999999 1.80747762288685,41.6443062382095,275.447 1.80759647898208,41.6443685996615,277.113899999997 1.80777652202628,41.6443835192223,278.669299999994 1.80818488806961,41.6443895541753,282.091700000004 1.80826216923517,41.6443513325732,283.361099999995 1.80845109751586,41.6442960123407,285.558900000004 1.80846115595209,41.6442031409971,288.075400000002 1.80842410763313,41.6440800946184,289.898300000001 1.80842109019208,41.6440500875279,290.343800000002 1.80838806542729,41.6439280464657,291.728600000002 1.8083890715404,41.6438231052527,293.481299999999 1.80843215474143,41.6436490968043,295.479099999997 1.80858705214421,41.6436211014117,296.165900000007 1.80862611179107,41.6436160720005,297.626499999998 1.80883616215901,41.643601152262,301.840700000001 1.80888511225714,41.6435971291346,302.470400000006 1.80898904823385,41.6435981347487,303.473700000002 1.80903615409071,41.6435500230136,304.208599999998 1.80909214518407,41.6433621003226,305.448799999998 1.80918116104218,41.6432700674391,307.488299999997 1.80939456482108,41.6431582529645,309.984500000006 1.80946212262203,41.6430541496354,311.020499999999 1.8095910362552,41.6429601043927,311.910900000003 1.80963378438461,41.6429637925757,311.948000000004 1.80975330972474,41.6427798933676,313.300900000002 1.8101261366188,41.6425143549816,315.269799999995 1.81061664640832,41.6425307834179,316.665500000003 1.81108955281154,41.6425591142704,317.084000000003 1.81208498765599,41.6426898722516,317.741500000004 1.81252939590513,41.6427287641388,315.690900000001 1.81329013779676,41.6427347992468,314.884699999995 1.81352516671949,41.6426481299402,315.077300000004 1.81345308230784,41.6424920592401,316.7978 1.81341603398888,41.6422721176333,319.414099999995 1.81348510095952,41.6420100995761,321.717000000004 1.81357311070452,41.6416971195797,323.582200000004 1.81356305226828,41.6413040083636,326.264299999995 1.81339709121449,41.6409900219684,327.831000000006 1.81346313984574,41.6406290969773,328.377500000002 1.81366514400368,41.6403100823237,329.477100000004 1.81388609093601,41.6401620573446,332.396500000003 1.81427802858942,41.6400001191372,333.955900000001 1.81460391761157,41.6398251054336,331.002099999998 1.81505704311225,41.6395790125044,335.561700000006 1.81526893772146,41.6393414696053,333.459300000002 1.81544797465254,41.6391959592936,331.951199999996 1.81560002259923,41.6389356178528,328.579899999997 1.81567294513904,41.6387709971868,327.755499999999 1.81607007954636,41.6385150138243,323.439700000003 1.81627392794557,41.6385629581226,323.860499999995 1.81687507783876,41.6380660789348,328.261100000003 1.81764805658119,41.6379078286323,334.861199999999 1.81854793762885,41.637872960006,342.424400000004 1.8186999855755,41.6384134252876,346.1106 1.81892394994888,41.6383869381775,345.309899999993 1.81907398656763,41.6374850453489,349.349700000006 1.81952493275545,41.6369789459369,354.696599999996 1.82026991640033,41.6367590049833,359.836200000005 1.82163767508226,41.6368671312881,367.299100000004 1.82204101235664,41.6368270663279,370.162299999996 1.8223519812602,41.6365060388599,373.730200000005 1.82254996186401,41.6357689344391,379.332500000004 1.82212097589164,41.6347939517439,383.929999999993 1.8220894593982,41.6345828953343,385.833899999998 1.82229800149478,41.6344169335067,386.305699999997 1.82265792049651,41.6343210447484,386.970799999996 1.82299084961555,41.6345741778976,388.524799999999 1.8232369421893,41.635050940863,387.842399999994 1.82361597195042,41.6352393658218,388.531000000003 1.82387933104225,41.6354271208545,388.566099999996 1.8241220711034,41.6354200799918,388.964800000002 1.82491499963163,41.6350894976356,390.137000000002 1.82583835006439,41.6349340968089,396.192999999999 1.82627689051812,41.6349329232109,396.831099999996 1.82690603640712,41.6348420639738,399.538799999995 1.82731037979462,41.6346662111152,402.934999999998 1.82766946066819,41.6345155050331,405.4323 1.82767901604788,41.6342610301928,407.188099999999 1.82707400968715,41.6338176276015,411.506500000003 1.8270079601576,41.6336640707516,412.208899999998 1.82702070096326,41.6335145379643,413.169500000004 1.82740995624724,41.6329340071922,416.494200000001 1.82754440260423,41.6321325294751,418.492800000007 1.82764397905686,41.6315488137499,420.3891 1.82773198970019,41.6309250328388,422.012600000002 1.82751473035207,41.63068564583,421.505300000004 1.82654695553355,41.6300149258707,420.574500000002 1.8264465409528,41.6297695038608,419.996700000003 1.82649130041014,41.6293483968563,420.516799999998 1.82640697824936,41.6291889729336,419.937300000005 1.82561354756285,41.628965679001,415.654800000004 1.82542311011254,41.6289378511372,416.0677 1.82494299472914,41.6287279680648,416.492599999998 1.82485213462972,41.6283571529127,415.953299999994 1.82478558294192,41.6279559947104,416.460099999997 1.82462599094348,41.6277699167331,416.680099999998 1.82366173752088,41.6275801504986,414.150200000004 1.82339301369015,41.627441010755,413.410900000003 1.82333903392473,41.6271119372443,414.308300000004 1.82359451389322,41.6264906704071,411.312999999995 1.82350415774867,41.6263260501868,409.119200000001 1.82276738829875,41.6262672093298,403.997399999993 1.82263294194172,41.6260950450572,404.349000000002 1.82265507014212,41.6258650456622,402.400500000003 1.82305505490387,41.6254840039915,402.022299999997 1.82268993914819,41.6249829338826,402.429000000004 1.82330952965753,41.6246702888728,405.386499999993 1.82382283689235,41.6241358586886,412.045599999998 1.82411704233441,41.6235950581338,416.333799999993 1.82406591292338,41.6232021145142,418.374599999996 1.82333400515578,41.6227810082621,414.615099999995 1.82213706920997,41.6225530203461,405.0821 1.82147003687382,41.622308268318,398.037899999996 1.82131312814314,41.6222732321012,397.182000000001 1.82094750933092,41.6219453322389,393.905100000004 1.82078406176331,41.6211348018909,396.765899999999 1.82034686249431,41.6205116911512,394.946899999995 1.82038307178678,41.6201910001323,399.087799999994 1.82100718800853,41.6198275605606,407.844100000002 1.82103501601938,41.6196785302355,411.007700000002 1.82097902492606,41.619580964844,411.327000000005 1.81935075660836,41.6191737718061,403.300300000003 1.81888036458961,41.6190299385188,399.837299999999 1.81860007315299,41.6188861049107,399.452099999995 1.81822238457661,41.618780492997,398.866599999994 1.817946620649,41.6185258512794,396.273300000001 1.81770253940315,41.6179166544791,396.894700000004 1.81772885824434,41.6178878205323,395.941300000006 1.81695403526064,41.617492194781,399.444900000002 1.81682093098668,41.6172749354399,398.018899999995 1.81690072653675,41.6171820641113,399.185200000007 1.81735251085269,41.617100592056,399.745999999999 1.81789398206831,41.6168779688077,404.042799999996 1.81812414930872,41.6169255779618,405.482900000003 1.81854357900307,41.6171733470079,407.695900000006 1.81912796543475,41.6171510512309,412.580900000001 1.81950112829873,41.6173349503621,415.449299999993 1.81972291335922,41.6173587551107,416.065799999997 1.82002902058049,41.6172149211333,419.872300000003 1.82042481380311,41.6164908922061,428.412599999996 1.82059178097002,41.6163418622295,428.898700000005 1.82089990041752,41.6162466436959,432.236999999994 1.82127758899387,41.6162657544384,435.320800000001 1.8214080108984,41.6162079191731,437.059500000003 1.82145595578175,41.6160354197816,438.558999999994 1.82129602871172,41.6158119580655,441.5432 1.82131597759923,41.6157029938884,442.827099999995 1.82201905214119,41.6148369750913,449.8177 1.82188225938465,41.6146391625643,449.640199999994 1.82147707786903,41.6143189735866,450.9761 1.82140901701151,41.6141530119789,452.236499999999 1.8212676976443,41.6135830426632,456.454599999997 1.82131597759923,41.6133570666387,455.213399999993 1.82141823731959,41.6133040926371,455.305200000003 1.82213891255291,41.6133820448308,460.014599999995 1.82231526801286,41.6133515345095,462.553499999995 1.82247033340059,41.6133733272139,462.519899999999 1.82299168774371,41.6131047709757,466.718599999993 1.82327399050826,41.6130880072878,467.250100000005 1.82304449341106,41.6122813329405,473.855100000001 1.82259438535144,41.6116889003177,478.847500000003 1.82240528998412,41.6111571525525,483.873900000006 1.82173004345304,41.6102079853699,492.536099999998 1.82162225280546,41.6097803409917,496.554000000004 1.82163801015385,41.6090769313109,502.368600000002 1.82202491903831,41.6086120710092,507.717999999993 1.82258851845429,41.6084202931617,510.986000000004 1.82311892512056,41.6083830778871,513.911999999997 1.82480905232702,41.6088970560933,524.171300000002 1.82578001167322,41.6090289872479,532.598599999998 1.82595703727637,41.6089170045654,533.986799999999 1.82566132356295,41.6085653000071,534.705400000006 1.82551095277091,41.6084030265182,535.193700000003 1.82552805130403,41.6081990108383,536.068700000003 1.82587221295734,41.6079899663522,537.632299999997 1.82576207411361,41.607939507399,539.463199999998 1.82594748189671,41.6077646605473,544.739000000001 1.82602476306227,41.6077152075917,544.880300000004 1.8259436263275,41.6076788301652,547.197199999995 1.82539913767086,41.6077244277169,555.335399999996 1.82530643422847,41.6076355794277,562.137499999997 1.82563500472175,41.6073080148696,571.308199999999 1.82508196679854,41.6074689470796,577.558799999999 1.82479798777767,41.6073609884218,581.341 1.82517299398459,41.6072399539302,590.221000000005 1.8249270693958,41.6072040793266,592.523799999995 1.825044583408,41.6071418854385,594.7255 1.82506101179792,41.6070320824574,597.092499999999 1.82490795863645,41.6070674540647,599.2497 1.82470092570952,41.6069920170916,602.817999999999 1.82445617432047,41.6068785262948,606.272800000006 1.82417605086881,41.6065819745266,611.867800000007 1.82352695609227,41.6067749259039,619.873099999997 1.82354087009771,41.6066758518587,622.401299999998 1.82390196229919,41.6063539864392,631.315400000007 1.82395594206464,41.6060649787573,636.883199999997 1.823733150891,41.6062617858568,641.006500000003 1.82340173094165,41.6063917053097,646.042300000001 1.82324800673869,41.6063860053319,649.356899999999 1.82357506806225,41.6061090674795,647.334799999997 1.82355226971868,41.6058410143272,645.842000000004 1.82356467455443,41.6054021376811,642.734800000006 1.82356903318018,41.6051300607655,641.711599999995 1.82377908354812,41.6047560603548,638.756099999999 1.82392409049959,41.6045041004945,636.712799999994 1.82406306256899,41.604072097158,636.072100000005 1.82417236238623,41.6038459534729,634.660999999993 1.82418594132009,41.6036855240767,634.597099999999 1.82435207035884,41.6034640737047,633.114000000001 1.82463303193866,41.603400036362,631.378100000002 1.82495506449331,41.6032721280735,631.626900000003 1.82544859082554,41.6030251976841,633.845600000001 1.8257892319813,41.6027923484862,636.642200000002 1.82597631602068,41.602668799197,638.155100000004 1.82611092946433,41.6025700600864,638.783100000001 1.82647570925005,41.6024765180206,640.058799999999 1.82652818074411,41.6024835591222,639.896900000007 1.82665608826416,41.6025100455332,640.236600000004 1.82710401701093,41.6026351038342,641.082899999994 1.82803507858207,41.6028381133931,643.294699999999 1.82808000602441,41.6028421363774,643.528000000006 1.82859985119784,41.6028932663434,644.895300000004 1.82887008419825,41.602885051777,645.4133 1.82937903370562,41.6027090318214,647.261799999993 1.82972604391673,41.6024490253399,648.551399999997 1.83005914102069,41.6021320216859,650.396800000002 1.8305598754348,41.6018161920189,655.976500000004 1.83111559572745,41.6018480432134,668.858200000002 1.83132581408034,41.6018755354784,670.264599999995 1.83149697278638,41.6018150184899,673.149799999999 1.83156134516132,41.6017415926119,675.7984 1.83171607547744,41.6013159597449,685.729600000006 1.83206107436061,41.6012049833854,690.4611 1.83230314427852,41.6009593932848,698.532999999996 1.83259801896549,41.6005909254353,706.438099999999 1.8335619382148,41.6002509554016,707.323099999994 1.8339037525703,41.6002759332942,706.897599999997 1.83417515787216,41.6001917790588,707.255399999995 1.83433592307034,41.6000675590786,705.448199999999 1.83435771619913,41.5997617869894,707.293699999995 1.83443130888214,41.5989242676412,711.516399999993 1.83449132352966,41.5986837071524,713.204599999997 1.83522155504098,41.5984106244756,703.9035 1.83602605027681,41.5980659606593,708.073199999999 1.83608824423718,41.5977747735436,714.475900000005 1.83620693144916,41.5975030319333,712.570000000007 1.83643156686404,41.5972571066303,715.563099999999 1.83678042131642,41.5970004532536,716.713300000003 1.83699231592564,41.5968663423975,717.442599999995 1.83730194364453,41.5965764961448,717.317500000005 1.83758156403965,41.5964133843337,718.306700000001 1.83812169317221,41.5963037491835,718.457699999999 1.8385736454731,41.5959813812479,718.365900000004 1.83903800350808,41.5957540637855,717.607099999994 1.83917999301853,41.5956429199876,714.882599999997 1.83922760193197,41.5955044509975,719.840500000006 1.83931477354881,41.5953495533474,718.172900000005 1.83947285637756,41.5950969225704,710.531600000002 1.83959506408713,41.5949319669293,713.274799999999 1.83988172547747,41.5947993653689,716.821500000005 1.84018146274505,41.5947056555067,721.514599999995 1.84033401284998,41.5946974412418,717.458599999998 1.8404865638532,41.5946240159992,717.035600000003 1.84052411433038,41.5945311443081,717.626799999998 1.84043392527249,41.5943321583325,715.548599999995 1.84025488834144,41.5942307373316,715.922099999996 1.84011859864147,41.5941450736971,715.878700000001 1.84004601117324,41.5941075230128,714.021900000007 1.8399864995823,41.5940905918083,713.464699999997 1.83989513642633,41.5941003143861,715.007599999997 1.83957796555401,41.5940592433376,713.546799999996 1.83948643531142,41.5940064375693,712.660099999994 1.83919759460823,41.5937945429131,711.447799999994 1.83863064267957,41.5934074662022,708.865600000005 1.83795103842104,41.5931030357795,707.4902 1.83721795655534,41.5929037141881,706.132500000007 1.83698963355621,41.5928297857176,707.220000000001 1.83620994889021,41.5923810184672,706.574399999998 1.8356084639254,41.5921823678297,710.519700000004 1.83537628535706,41.5922723889288,711.411399999997 1.83602185963601,41.5927377525811,718.2932 1.8364330751354,41.5929950766003,719.219100000002 1.83686440840562,41.5930861043115,719.349199999997</coordinates>
</LineString>
</Placemark>
</Folder>
</Document></kml>
