<?xml version="1.0" encoding="UTF-8"?>

<kml xmlns:xsd="http://www.w3.org/2001/XMLSchema" xmlns:gx="http://www.google.com/kml/ext/2.2" xmlns:atom="http://www.w3.org/2005/Atom" xmlns="http://www.opengis.net/kml/2.2">
<Document>
<name>ES24a_03a_bascara-girona</name>
<visibility>1</visibility>
<Schema name="ES24a_03a_bascara-girona" id="kml_schema_ft_ES24a_03a_bascara-girona">
<SimpleField type="xsd:string" name="id">
<displayName>id</displayName>
</SimpleField>
<SimpleField type="xsd:string" name="nombre">
<displayName>nombre</displayName>
</SimpleField>
<SimpleField type="xsd:double" name="longitud">
<displayName>longitud</displayName>
</SimpleField>
<SimpleField type="xsd:string" name="_formato">
<displayName>_formato</displayName>
</SimpleField>
</Schema>
<Folder id="kml_ft_ES24a_03a_bascara-girona">
<name>ES24a_03a_bascara-girona</name>
<Placemark id="kml_1">
<name>&lt;img height='20' src='https://nco.ign.es/iconos/icono_todos_caminos_azul.png' /&gt;&lt;img height='20' src='https://nco.ign.es/iconos/Camino Santiago_20.png' /&gt;&lt;img height='20' src='https://nco.ign.es/iconos/icono_todos_caminos_azul.png' /&gt;  Camino de Santiago </name>
<visibility>1</visibility>
<description><![CDATA[<!DOCTYPE html>
<html>
<head>
<style>
#nco {
  border-collapse: collapse;
  overflow:hidden;
}
#nco th, #nco td {
  padding: 4px;
  text-align: left;
}
#nco th {
  color: #364B5F;
  padding-right: 5px;
}
#nco td {
  color: rgb(51, 51, 51);
  font-size: 12px;
  padding-right: 5px;
}
</style>
</head>
<body>
<table id="nco">
<tr>
<td>Caminos del Nordeste</td>
</tr>
<tr>
<th><b>Camino: </b></th>
<td>ES24a Camí Catalá de Sant Jaume</td>
</tr>
<tr>
<th><b>Etapa: </b></th>
<td>03a Bàscara-Girona</td>
</tr>
<tr>
<th><b>Longitud: </b></th>
<td>31.83 km</td>
</tr>
</table>
</body>
</html>]]></description>
<Style>
<IconStyle>
<scale>0.8</scale>
</IconStyle>
<LabelStyle>
<color>ffffffff</color>
<scale>0.75</scale>
</LabelStyle>
<LineStyle>
<color>ffff0000</color>
<width>3.0</width>
<gx:labelVisibility>1</gx:labelVisibility>
</LineStyle>
<PolyStyle>
<color>66ff0000</color>
</PolyStyle>
</Style>
<ExtendedData>
<SchemaData schemaUrl="#kml_schema_ft_ES24a_03a_bascara-girona">
<SimpleData name="id">ES24a_03a</SimpleData>
<SimpleData name="_formato">kml</SimpleData>
</SchemaData>
</ExtendedData>
<LineString>
<extrude>0</extrude>
<tessellate>1</tessellate>
<coordinates>2.91107671343732,42.1600589894975,61.9804000000004 2.91115332356139,42.1599691353479,57.8187000000034 2.91096204888121,42.1594538164688,60.3576999999932 2.91077697616974,42.1590519880492,62.0859000000055 2.91067505241929,42.1588675860989,62.6230000000069 2.91062392300827,42.1586216607252,63.3512999999948 2.91055100046845,42.1582624123306,64.0323000000062 2.91038721782922,42.157686408136,65.4937000000064 2.9103774953629,42.1572394853027,66.4637999999977 2.9111860132546,42.1571494633313,63.5448999999935 2.91117008792122,42.1569394128987,64.5627999999997 2.91121602057834,42.1566403466278,65.1475000000064 2.91149748521473,42.1563795016432,66.2222000000038 2.91178029013753,42.1559144739901,68.3312000000005 2.91189143419604,42.1555294088887,68.7090999999928 2.91171424060794,42.1551604374125,69.3323999999993 2.91142221537707,42.1544913944246,70.2685000000056 2.91114008059748,42.1538744858531,71.4453999999969 2.91114343311011,42.1531653772354,73.2348000000056 2.91130319219518,42.1525394164513,75.0369999999966 2.91166126695564,42.1522163781201,75.9925999999978 2.91162421953501,42.1517144696404,77.5295999999944 2.91145741945475,42.1507654707487,79.647100000002 2.91149631111666,42.150116375993,82.533500000005 2.91171943736188,42.1497024775418,83.502999999997 2.91218848909419,42.1492444905093,84.0262999999977 2.91246525913492,42.1489144109145,84.574099999998 2.91263440651302,42.1485394047168,84.6453000000038 2.91269844381638,42.1480334729403,85.2722000000067 2.91286038221434,42.14747238861,86.3974000000017 2.91302600909485,42.1471503561034,87.7439000000013 2.91277639602348,42.146855480228,89.5540999999939 2.91246006238101,42.1465014287516,92.6217000000033 2.91233517230201,42.1461763787948,95.1416000000027 2.91264312376456,42.1456833547906,96.8623999999982 2.91298829063269,42.1452044133006,100.137400000007 2.91311619815274,42.1449672054521,102.395199999999 2.91323538842126,42.1446054424398,105.049799999993 2.91323807079069,42.1442651372398,107.621400000004 2.91329339174084,42.1439954072261,110.228099999993 2.9135602713303,42.1437603788851,111.922600000005 2.91383737734094,42.1435984402138,113.098400000003 2.9139624354049,42.143589388325,113.334099999993 2.91412806138708,42.1435964286831,113.247300000003 2.9142504370816,42.1435283676372,113.180800000002 2.91457934264647,42.1431600668765,114.428199999995 2.91467824985419,42.1427124733022,116.436000000002 2.91481604782552,42.1423344496443,116.781300000002 2.91482727946153,42.1422593474019,117.176000000007 2.91488729410902,42.1417713531725,123.053799999994 2.91488729410902,42.1416654063014,124.660399999993 2.91474832203962,42.1414774840199,128.461800000005 2.91463633985294,42.141495421211,128.320600000006 2.91461404456591,42.1414863683555,128.516399999993 2.9140315014772,42.1414634021656,134.233300000007 2.91388716556723,42.1414344005034,135.833700000003 2.91378004506285,42.1412293795539,139.057199999996 2.91377820082158,42.1412174771068,139.131500000003 2.91383000127414,42.1409024854137,141.870999999999 2.9140584913599,42.1404904311075,146.379499999995 2.91404843292366,42.14040141511,146.806700000001 2.91398908931767,42.1403434121315,147.390499999994 2.91397735462512,42.1403294985494,147.638800000001 2.91400434450785,42.1401231358148,150.982399999994 2.91410928569934,42.140012494791,153.173899999994 2.91412219448997,42.1400034423895,153.397100000002 2.91416343344972,42.1397144343007,157.618000000002 2.91431900099566,42.1393464683924,163.133000000002 2.91433425618584,42.1391114401135,163.986199999999 2.91412102039189,42.138975485494,164.650800000003 2.9140953716939,42.1389563745542,164.779200000004 2.9137763565803,42.1384594954226,167.087100000004 2.91352204981159,42.1378943880839,164.722899999993 2.91348533746255,42.137593477233,165.711299999995 2.91347242867192,42.1374563496225,166.090800000005 2.91339933904545,42.1373854389119,165.706200000001 2.91329842050979,42.1373914734297,165.1495 2.9133353008438,42.137341350077,165.443599999999 2.91344845623025,42.1371753881726,166.200700000001 2.9134601909228,42.1369854541477,166.028300000005 2.91346538767671,42.1369774078501,166.045800000007 2.91344007494866,42.136765345342,165.4804 2.9137044401536,42.1360163385705,163.814700000003 2.91423635598953,42.1352244163934,160.570000000007 2.91426636241498,42.1351654074367,160.386599999998 2.91430123142105,42.1350383382458,159.575200000007 2.91438722983814,42.1346641698282,158.255900000004 2.91424339608642,42.1345273769514,158.4179 2.91376411883121,42.1344534485602,157.884099999996 2.91268620606725,42.1342894989081,153.988400000002 2.91174022437755,42.1340554764306,155.632899999997 2.91133202631918,42.1339691427185,156.921300000002 2.91114946799218,42.13391935374,157.722099999999 2.9104083408148,42.1338194419132,158.2359 2.90987642497887,42.1338204478339,157.495899999994 2.90939127992823,42.1337854111411,157.342399999994 2.90885047975414,42.1337533921943,157.867199999993 2.90871737548018,42.133346366976,158.914900000003 2.90855241964117,42.1328394297661,160.838000000003 2.90838746380219,42.1322944384779,162.6783 2.90832342560054,42.1317123987495,164.916700000002 2.90833147270884,42.1316813860418,164.7546 2.90844228079747,42.1310664896218,164.445999999996 2.90830146538509,42.1302624971172,161.224000000002 2.90817908969057,42.1299154866736,159.865999999995 2.90814606492577,42.1296673822113,156.584400000007 2.90814237644323,42.1295954654528,156.467799999999 2.90808739146299,42.1288583606054,153.819900000002 2.90808739146299,42.1287963350449,153.536900000006 2.90804531437508,42.1280684502268,151.9758 2.90804246402069,42.1279764167165,151.954299999998 2.90802234804655,42.1278464976046,151.664499999999 2.90778547488251,42.1276664545453,152.3459 2.9076460006549,42.127590346876,152.713099999994 2.9075841417661,42.1272924537765,151.257599999997 2.90750937498502,42.1271953910084,150.764899999995 2.90718533110247,42.1267642261705,149.440799999997 2.90664033938926,42.1260733897248,148.188899999994 2.90655400590058,42.1257954458919,147.565199999997 2.90654327732111,42.1256754169098,147.263600000006 2.90651628743842,42.1254913501312,146.357799999998 2.90652450163338,42.1252534721316,145.181200000006 2.90662642538382,42.1250333631963,144.804499999998 2.90674008472514,42.1247114983988,144.888999999996 2.90673539012947,42.1244253401275,144.318400000004 2.90670001896516,42.1244283576708,144.280799999993 2.90670823316012,42.1243693486502,144.225600000005 2.90672248223715,42.1241673446446,143.247099999993 2.90672248223715,42.1241473957271,142.876000000004 2.90675349567401,42.1241301292248,142.817500000005 2.90675533901698,42.1241064924648,142.501300000004 2.90683312323912,42.1240774908492,142.566300000006 2.90689447907134,42.1238253631907,142.746299999999 2.90701802796564,42.1235152327949,141.512700000007 2.90719941219454,42.1230533897707,137.658800000005 2.90728440539682,42.1228844107889,136.224700000006 2.90738331170624,42.1226974941764,133.930399999997 2.90742622692231,42.1226081433447,133.196899999995 2.90757341318667,42.122350483603,129.854900000006 2.90766947004,42.1221154548845,128.482300000003 2.90769126227049,42.1220654986765,128.186100000006 2.90792226763905,42.1217074240625,125.997399999993 2.90841747112593,42.1211850640178,125.105599999995 2.90879214226127,42.1206880168146,124.872399999993 2.90902901452698,42.1203510645782,125.272400000002 2.90913328557527,42.1193693761456,124.719299999997 2.90921140486899,42.118881381449,125.305900000007 2.90911735934359,42.1186570818034,125.118000000002 2.90900722139816,42.1182423453569,123.563599999994 2.90915323446278,42.1175054082703,122.755999999994 2.90921140486899,42.1173775007063,122.551300000006 2.90924509977698,42.1173541985982,122.216 2.90940737324653,42.1170754168968,121.855200000005 2.90951835021842,42.1166903521237,120.283299999996 2.90959546339906,42.116405367062,118.9954 2.90982831300889,42.1160214763417,117.4179 2.91016107414294,42.1160313671195,115.162500000006 2.9102311472267,42.1160424306887,114.867899999997 2.91029535251501,42.116054501125,114.601200000005 2.91064521308051,42.1160841727721,113.003700000001 2.91104402374414,42.1160204701384,111.452499999999 2.91224330698781,42.1160154411206,109.558699999994 2.9135891054543,42.1160182911417,112.765100000004 2.91377115982639,42.1158174606299,116.090899999996 2.91376529292928,42.1154803405588,117.228600000002 2.91416930034683,42.1153004649336,117.747499999998 2.91443249235203,42.1155074976124,119.244999999995 2.91465226518629,42.1160174528611,121.910799999998 2.91485443732918,42.1163354623051,124.489199999996 2.91533740216867,42.1165342807843,127.158599999995 2.91580913627045,42.11642648987,128.875400000004 2.91600711687422,42.1163773714509,129.374899999995 2.91643342047713,42.1163864238973,132.0193 2.91645437457946,42.1163874300949,132.1011 2.91684932967392,42.1160883635046,131.471000000005 2.91772104763907,42.1154523452055,129.751099999994 2.91901739295089,42.114511392409,130.118199999997 2.91921939710882,42.1143673911258,130.703699999998 2.91934210787493,42.1142834048865,131.048899999994 2.92033100478074,42.1137114233442,131.756999999998 2.92033636951961,42.1137033767557,131.725600000005 2.92045237526045,42.1136504031897,131.629300000001 2.921146228596,42.1132693619197,131.838499999998 2.92160505390716,42.1128544576014,131.180300000007 2.92251046767864,42.111981398654,128.981700000004 2.92265111600439,42.1118544968729,128.555099999998 2.92347036337382,42.1112303801561,126.434899999993 2.92370237395721,42.1110493309128,125.289300000004 2.92376138249158,42.1110022248908,125.041200000007 2.924057096205,42.110689412054,124.743199999997 2.92423445687976,42.1097373958518,121.702699999994 2.92445439859731,42.1096183727451,122.707399999999 2.924614324769,42.1096344656253,124.284199999995 2.92488405471284,42.10969934159,126.780499999993 2.92533114533145,42.1097663973664,130.845499999996 2.92589306849112,42.1097033654717,134.261299999998 2.92622935012279,42.1096743639282,136.240600000005 2.92684139658038,42.1096850927282,138.334400000007 2.92764538875966,42.1096614559113,137.690400000007 2.92779911296266,42.1096413391525,136.834300000002 2.92909545827444,42.1093714416871,135.807799999995 2.92954506327749,42.1092304583224,133.555800000002 2.92990012059693,42.1092403488271,132.580900000001 2.93014520795589,42.1092044741643,131.390299999999 2.9303802359803,42.1092044741643,131.526899999997 2.93107744272682,42.1091424480234,134.546400000007 2.93122747934557,42.1090794161747,135.937699999995 2.93127022657668,42.1090723753119,136.115399999995 2.93146049604207,42.1085813636673,136.771800000002 2.93158639223418,42.1082214447905,135.366099999999 2.93166903813865,42.1080484422576,134.626999999993 2.93169317766695,42.1080023416691,134.320800000001 2.93199123777992,42.1074853462038,132.970700000005 2.9321520029781,42.1072960829124,131.219200000007 2.9323863608593,42.1069484015208,129.000700000004 2.93268844452644,42.106583452937,125.4283 2.93274242429186,42.1065254503143,125.169399999999 2.93283110507839,42.1064134683339,124.899699999994 2.93293135257251,42.1062523678875,124.452999999994 2.93302338587168,42.1060314211835,123.711200000005 2.93323226303988,42.1056463566255,124.686700000006 2.93316738671006,42.1048670071146,125.209799999997 2.9330532252105,42.1046153821936,125.886799999993 2.93291240889982,42.1044073435394,126.003700000001 2.93270034720395,42.1040903399574,124.617599999998 2.93266916668043,42.104040048294,124.367599999998 2.93221134658409,42.1033984978423,121.4859 2.93162126124025,42.1024704535434,118.178599999999 2.93144742016478,42.102274484244,117.556299999997 2.93080318707056,42.1016644492248,115.767800000001 2.93070344263301,42.1013184445585,114.981299999999 2.93070830431531,42.1007704354005,111.073499999999 2.9306581801191,42.1004904803272,108.366999999998 2.93063638699031,42.1004004583227,107.882899999997 2.93043740117172,42.099553383273,104.721399999995 2.93036045507774,42.099179382543,103.900299999994 2.93025149033209,42.0987284367573,102.764299999995 2.93004211010735,42.097778431222,101.177599999995 2.92993733690081,42.0970644611326,99.7595000000001 2.92992141066914,42.0967013566926,97.889599999995 2.92984010684774,42.0965454534353,96.8113000000012 2.92976818952271,42.0964604610658,96.2648000000045 2.92948320528703,42.096042371845,92.2817000000068 2.92949611317935,42.0960463952604,92.2912000000069 2.92938832163347,42.0957873943719,89.8727000000072 2.92931824944805,42.0956234439838,87.8991999999998 2.92939536262865,42.0955054269048,87.156799999997 2.92956333590868,42.0953644433678,86.2495999999956 2.92955026003143,42.095287497676,85.8227999999945 2.92898314101615,42.0950063685447,84.7715000000026 2.92886847646001,42.0949213761124,84.8004999999976 2.92865842609207,42.0944744528929,84.8828999999969 2.9286302630096,42.0943914721744,84.8896999999997 2.92829917723354,42.0935214306095,83.8745999999956 2.92798234143283,42.0927063740372,85.1174000000028 2.9279164598882,42.0925784664269,85.644100000005 2.92777916407512,42.0923923883541,86.2103000000061 2.92763449219527,42.0921494805277,85.7743000000046 2.92753038913194,42.0920393423371,84.8898000000045 2.92713543403748,42.0919174695643,82.1015999999945 2.92699109722921,42.0919243430126,81.1227999999974 2.92685732281205,42.0919364127085,80.5243999999948 2.92630311079076,42.0920074909454,77.7011999999959 2.92622348322565,42.0920183873882,77.3027000000002 2.92588837479375,42.0920614705155,75.5341999999946 2.9255450512686,42.0921023744614,73.1230000000069 2.92506728318305,42.0920894661999,70.4297999999981 2.92440041883189,42.091746479051,66.5966999999946 2.92412716928875,42.0913583966167,65.5280000000057 2.9236413540949,42.090630344426,62.3445999999967 2.92347338081487,42.0903842520298,59.4391999999934 2.92336441606922,42.0901804037943,55.767200000002 2.92329048741629,42.089967336027,54.7498999999953 2.92318604928134,42.0896484883341,52.9824999999983 2.92279243447331,42.0897514183421,51.6542999999947 2.92228834664824,42.0897453832866,49.917300000001 2.92167814443193,42.0895024753228,50.6858999999968 2.92163690547218,42.0894754857879,51.1211999999941 2.92139248915474,42.0896114406367,51.8815999999933 2.92083811004683,42.0894893998725,55.0806000000011 2.92079804428682,42.089511360281,55.7992999999988 2.92077809539931,42.0895242684005,56.0623999999953 2.92053937889236,42.0895973585861,57.9945000000007 2.92050149334357,42.0895774101202,58.7638000000006 2.92029630375963,42.0893034893972,63.4717999999993 2.92010016739713,42.0891133878615,66.0353000000032 2.91973538671308,42.0890694667614,68.6680999999953 2.91958535099262,42.0888994812042,71.4383999999991 2.91958535099262,42.0883694096247,75.2388000000064 2.91959825888495,42.0878723630811,79.2397999999957 2.91979204884793,42.0873503381866,80.3901000000042 2.91999706954859,42.0867193482351,80.7529000000068 2.92001232473876,42.0863793787372,81.6116000000038 2.91994744930725,42.0859594450387,82.4640999999974 2.91985340378182,42.0858253343923,81.2663999999932 2.91978249346824,42.0856203134846,79.431700000001 2.91968543050179,42.0854394317809,77.9499999999971 2.91964419154204,42.0853324786817,77.0157999999938 2.91961049663407,42.0850694545993,74.8963999999978 2.91961938187053,42.0849393675249,73.9226000000053 2.91963715144518,42.0847993898683,73.4431000000041 2.91969750116429,42.0845224517382,70.709600000002 2.91997946795893,42.0844004111841,72.0139999999956 2.92017241979374,42.084391358837,72.7741999999998 2.92092829910472,42.0842961404405,74.8552999999956 2.92122736533081,42.0842773650216,75.2183999999979 2.92189942643588,42.0842854113446,73.6897000000026 2.92206505331639,42.0843080429146,72.5136000000057 2.92246621127787,42.0843762715888,68.6806999999972 2.92269939595933,42.0844193545731,66.4584000000032 2.92365945874114,42.0845983917868,60.4752000000008 2.92421735834664,42.0846944484245,58.3313000000053 2.92474441250024,42.0844783627867,56.6312000000034 2.92482035248111,42.0843603456379,56.4340999999986 2.92529527111056,42.083688284596,55.4575000000041 2.92593430745087,42.0836314550907,54.0501999999979 2.92648633926093,42.0834703554339,53.8214000000007 2.9266152528941,42.0833384243129,53.6487999999954 2.92704524497959,42.0829213406629,52.8717999999935 2.92777212307994,42.0825243736393,50.7991000000038 2.92782509673224,42.0824923547923,50.501099999994 2.92811846404614,42.082296385762,49.0337 2.92832046730578,42.0820144183258,47.9020000000019 2.92848123250397,42.0811054848454,46.8782999999967 2.92880443825836,42.0803373675757,46.8444000000018 2.92903142007279,42.0796964867719,46.4475999999995 2.92969744629579,42.0790544333526,46.4235000000044 2.93013230006357,42.0786314827883,46.5310000000027 2.93067712379182,42.0777503768434,45.7418000000034 2.93082900375351,42.0773773823827,44.9128999999957 2.93063236433448,42.0772303636476,44.7912000000069 2.93005434785647,42.0774363904777,46.4790000000066 2.92946727905535,42.0776863389825,48.335699999996 2.92877225162172,42.0780264764114,50.2937999999995 2.92810538816889,42.0783654411945,51.2069999999949 2.92735503978511,42.0787094341441,52.6784000000043 2.9266534744128,42.0790473924896,53.6022999999986 2.92652506383621,42.0791084126101,53.6082000000024 2.92637603333058,42.0790624796713,53.786300000007 2.92619749945607,42.0788884714679,51.4691000000021 2.92611401542345,42.0786854617388,51.0910000000003 2.92587647211624,42.0780484374541,48.5757000000012 2.92585417593088,42.0780164183488,48.6907000000065 2.92578410374546,42.0779793705261,49.1604999999981 2.92541010275333,42.0777344512296,49.7712000000029 2.92541010275333,42.0778373812316,51.3190999999933 2.92524632101242,42.0775433435519,50.7406999999948 2.92524447677115,42.0775213830013,50.9593000000023 2.92528940331512,42.0772724406651,52.9492999999929 2.92522637212492,42.0766774929434,62.5252999999939 2.92501313633097,42.0761164087042,69.3607999999949 2.92480224783487,42.0757363734111,72.1540999999997 2.92461248142606,42.0754254042915,72.0454000000027 2.92448641724895,42.0752111627639,73.1845999999932 2.92433638152853,42.0749283576925,73.6227000000072 2.92409129416957,42.0746093423991,76.9097000000038 2.92393740287994,42.0743324044688,76.1592999999993 2.92390102560251,42.0740864795651,67.5605999999971 2.92384436346762,42.0740083598311,66.5991999999969 2.92383631725762,42.0739634327389,65.7234999999928 2.92381217683099,42.0737714875354,63.0507000000071 2.92383044946218,42.0737503651859,61.5117999999929 2.92384033991349,42.0736653722796,60.4777000000031 2.92383329981661,42.0736063640123,60.6791999999987 2.92385743934491,42.0727504038972,48.7572999999975 2.92444350203291,42.0726972627528,45.8632999999973 2.9245613511167,42.072401381511,44.5660000000062 2.92457425990736,42.0723373435871,43.5541999999987 2.92461248142606,42.0719864771655,41.9725999999937 2.92458012680447,42.0717794444087,41.4290000000037 2.92466729842131,42.0713534759685,39.6410000000033 2.9248983037899,42.0710254084574,38.4514000000054 2.92506342761384,42.070734388657,38.0380000000005 2.9250084426336,42.0705514953465,36.5724000000046 2.92489143077964,42.070534396292,36.5831000000035 2.92412716928875,42.070409338061,37.2082999999984 2.92368946606488,42.0703263578721,38.0008999999991 2.92366834397759,42.0703573705951,38.3194999999978 2.9236830961112,42.0703823484061,38.3757999999943 2.92368728675199,42.0703833546668,38.3757000000041 2.92368426931097,42.0703764815521,38.3545000000013 2.92364303035122,42.0703444625771,38.3513999999996 2.92346248425045,42.0702973563245,38.3108000000066 2.92287742677726,42.0700754034564,37.9686999999976 2.92269822186126,42.0699184938427,37.6247000000003 2.92256629078704,42.0698034944311,37.3316999999952 2.92154504015797,42.0689904497894,35.651199999993 2.9206044223088,42.06831034233,35.471000000005 2.92053418213842,42.0682853643706,35.4867999999988 2.92023545098395,42.0682283670258,35.5405000000028 2.91869234295522,42.0682384253061,36.1622999999963 2.91778240347129,42.0682273613978,37.4294999999984 2.91657608013078,42.0680813484369,38.0963999999949 2.91599404099694,42.0679774129852,38.917300000001 2.91549229957142,42.0679044906178,39.8266000000003 2.91532248294841,42.0678694541616,40.9916999999987 2.91449334512771,42.0676734853208,41.4821999999986 2.91432721519062,42.0676174943981,41.506899999993 2.91358843441276,42.0673933621621,40.9493999999977 2.91324511178591,42.0672954614417,40.7838999999949 2.91309725537835,42.0673754246668,40.9324000000051 2.91304042525854,42.0675351840976,41.3938000000053 2.91293833442144,42.067553456316,41.3372999999992 2.91272208118644,42.0675643529576,41.0173000000068 2.91263725596912,42.0676811963141,41.2109000000055 2.91251001859227,42.0679624932187,41.8551000000007 2.91249644055677,42.0679874713051,41.9545999999973 2.91215429112966,42.0679423765692,42.7448000000004 2.91199117863363,42.0678904090843,43.3031000000046 2.91200827806508,42.0678503431167,42.9841000000015 2.91198045005419,42.0678034043973,42.6456000000035 2.91197944394107,42.067804410699,42.6514000000025 2.9119144005246,42.0675983832773,41.9146000000037 2.91191037786877,42.0675464155108,41.7814000000071 2.91198045005419,42.067189346696,41.0660000000062 2.91205706107655,42.0669124084011,40.4020000000019 2.91208237380463,42.0669202875396,40.354800000001 2.91155414645129,42.0667534876688,41.2943999999989 2.91090438153154,42.0666874380772,42.0022999999928 2.91080648043694,42.0669583414642,42.4940000000061 2.91072148813296,42.067044339662,42.7348000000056 2.91050775018077,42.0673271451845,43.5660999999964 2.91021304168213,42.0673271451845,44.0663000000059 2.9092043638738,42.0672114748725,44.4121000000014 2.90912322713903,42.0671393905521,44.0129000000015 2.90818026289034,42.0669720877661,44.4636000000028 2.90713537489118,42.0671134064863,46.3698000000004 2.90644437101172,42.0671953812296,47.9992999999959 2.90632300053198,42.0671474370477,46.5623999999953 2.90625829218713,42.0671673858971,46.7713999999978 2.90622107678154,42.0671544778972,46.6833000000042 2.90620347519184,42.067114412132,46.5899999999965 2.90609534857438,42.0670773639473,46.7541999999958 2.90520502290638,42.0669583414642,46.4695000000065 2.90426440505724,42.0667063814189,43.7722000000067 2.90403239447386,42.0665244941617,42.8855999999942 2.90398227027761,42.0664294430178,42.800900000002 2.90408737945406,42.0660564487128,44.7375999999931 2.90418611867686,42.0657704578081,44.4943000000058 2.90422735763658,42.0656923385094,44.3864000000031 2.90431503230999,42.0654923462646,43.9070000000065 2.90428619818603,42.0654143946804,44.3369999999995 2.90415041154263,42.065396457293,44.6561999999976 2.90374539801194,42.0655084396723,45.3614999999991 2.90359938494732,42.0654353490797,44.9272000000055 2.90311139044061,42.0648704088249,43.8853999999992 2.90307819858916,42.0648274939646,43.543399999995 2.90259741216426,42.0642414307899,42.6652999999933 2.90171748000411,42.0634543705116,40.877800000002 2.90156845039681,42.0631881612601,39.4058999999979 2.90147038221554,42.0625063770214,39.1560000000027 2.90124339950282,42.0620783969288,39.2776000000013 2.90090946516899,42.0609414761403,37.7577000000019 2.90071349589312,42.0600794807753,36.6950999999972 2.90058240294709,42.0598072368116,36.3537000000069 2.90020605555544,42.0597284465591,37.2326999999932 2.89897140114747,42.0595534329399,37.1407000000036 2.89769735202105,42.059280350358,38.7214999999997 2.89722209831998,42.0591983753993,38.4489999999932 2.89641039410398,42.0588714809497,38.0951999999961 2.8951824456196,42.0583603524702,38.8122000000003 2.89463225715248,42.058222386453,38.9208000000071 2.89417812643702,42.0581003460116,38.8383999999933 2.89305008947686,42.0576232483257,39.3309000000008 2.89174200947253,42.0570083518151,39.363400000002 2.89134018136784,42.056764438113,39.5813000000053 2.89120238249822,42.0567223608403,39.6172999999981 2.89079938119376,42.0565644457599,39.7222000000038 2.89014039596594,42.0562494541589,39.9753999999957 2.89013335497075,42.0561544029733,40.1016999999993 2.89022404708522,42.0559733539092,40.0026000000071 2.89020409819771,42.055900431761,40.094299999997 2.8902163359468,42.0557854316356,39.9930000000022 2.89033418503062,42.0555314602818,40.1098000000056 2.89050349949538,42.0548024020448,39.9903999999951 2.89050148816745,42.0546233648157,39.1187000000064 2.89028540291744,42.054299488374,36.7844999999943 2.89023645192097,42.0541943791025,37.0902999999962 2.88978818810262,42.0540443431417,37.8931000000011 2.88915937728521,42.0537094019784,39.0387000000046 2.88857415362369,42.0533583679017,38.9814999999944 2.88839746309213,42.0532044765921,39.2972000000009 2.88844339574925,42.0531094255184,39.849000000002 2.8886961933483,42.0526113730692,40.168399999995 2.88871614223581,42.0525803596818,40.2318999999989 2.88866736012263,42.0524953671143,40.3543000000063 2.888518329617,42.0524284795779,40.6153000000049 2.8883154873309,42.0523014099406,40.1267999999982 2.88759414105604,42.05178240293,40.7988999999943 2.88737202092397,42.0515844220137,40.5850000000064 2.88703741465028,42.0514023673684,40.334400000007 2.88637423878167,42.0511314643142,40.1536999999953 2.8862741592725,42.0510744669121,40.2217999999993 2.88564333712719,42.050869445804,39.9070000000065 2.88483045971141,42.0507794240934,41.005799999999 2.88340620687958,42.0505832877724,41.1613999999972 2.88238126776796,42.0505673620131,41.6992999999929 2.88178229718766,42.0507393586679,41.7844000000041 2.88167031500095,42.050761486574,41.8772999999928 2.88059541967808,42.0508000437964,41.9581000000035 2.8800163979853,42.0508000437964,42.0080000000016 2.87978606275993,42.0507764063801,42.2568000000028 2.87961524002381,42.0507373468578,42.2011999999959 2.87870043885759,42.0505564651227,42.1440000000002 2.87770634519787,42.0502584048282,42.4161000000022 2.87690235301859,42.05006545341,42.440499999997 2.87600347808404,42.0498024292521,42.8880999999965 2.87542546160607,42.049962356304,43.3319000000047 2.87501743063433,42.0499224584609,43.3024000000005 2.87426339466633,42.0493283490488,43.476800000004 2.87403540673878,42.0491954117362,43.5466000000015 2.87366207678818,42.0490103397842,43.4036999999953 2.87314139348656,42.048763408909,43.726999999999 2.87308020474097,42.0487354134545,43.6689000000042 2.87273621197091,42.0485263683743,43.8129000000044 2.87207823285624,42.0480794452308,44.0657000000065 2.87123937167088,42.0474154312446,43.7581999999966 2.87024108737034,42.0469304543932,44.1676000000007 2.86933936208141,42.0462664397378,46.4551000000065 2.86888523046762,42.0459264696811,48.9973999999929 2.86838516619674,42.0456450057745,52.715200000006 2.86788443088434,42.0455544810047,52.289300000004 2.86766532819328,42.0454554065365,50.563599999994 2.86739911874703,42.0453434248169,48.091499999995 2.86730725343282,42.045324481773,47.3445000000065 2.86696024232338,42.0452124991556,46.7488000000012 2.86635238650659,42.0449523247965,46.5439000000042 2.86599313854639,42.044744454054,46.5446999999986 2.86573950192085,42.0446423623193,46.652700000006 2.86504648581515,42.0444194038231,46.7917000000016 2.86419019102506,42.0441371013473,47.1083000000071 2.86408524983357,42.0441064233843,47.1919999999955 2.86330724142389,42.0438854763688,48.1831999999995 2.86315636667699,42.0438363584708,48.6803000000073 2.86282444367106,42.0437344347252,48.4731000000029 2.86222446697765,42.0436323427017,48.6013999999996 2.86210142113992,42.0436123937968,48.5877000000037 2.86122500857907,42.0434414032125,50.1530999999959 2.86020744553421,42.0432784590197,50.760500000004 2.8593053851737,42.0431684881816,51.821299999996 2.85854615245175,42.0430194582223,53.7902999999933 2.85789823177328,42.0428873596304,53.8846999999951 2.85752238743821,42.042548394872,54.4931999999972 2.85763135218387,42.0421713768947,53.8261000000057 2.85796646061576,42.0412714957876,51.5803000000014 2.85802043948285,42.0410354613781,51.1067000000039 2.8582651908719,42.040172460631,49.1154999999999 2.85834046070956,42.0399213390015,48.4235000000044 2.8584901613584,42.0394633517856,48.8852999999945 2.85863215086885,42.0389904447028,48.1974999999948 2.85873943935816,42.03819634366,46.9671999999991 2.8587064145934,42.038001380088,46.7035000000033 2.85839712284442,42.0367303483297,47.4896000000008 2.85837834715668,42.0366415001934,47.6012000000046 2.85837348547436,42.0363913840864,48.1855999999971 2.8581880776913,42.0361084114358,47.8914999999979 2.85818338399393,42.0359444609808,47.901199999993 2.85861337518108,42.0350254695142,47.3856999999989 2.85907035714926,42.0340271849114,47.4087 2.85941619416063,42.0333174049856,47.3957999999984 2.85984434200481,42.0324213799052,47.2709000000032 2.85992916632383,42.0321134287518,47.4492999999929 2.85991944385751,42.0319063954346,47.9676999999938 2.85982137567625,42.0315094290051,48.1622000000061 2.85993335786295,42.0306363694437,48.3911999999982 2.86020241676526,42.0296303736901,48.2041999999929 2.86024315266844,42.0293274515789,48.1036000000022 2.86013737334879,42.0285494433371,48.3942999999999 2.86004634616274,42.0280284246081,48.9716000000044 2.85958701779505,42.0271121146451,49.1840999999986 2.85948945177203,42.026933077452,49.6692999999941 2.85928308988667,42.0264383771751,49.6312000000034 2.85902744193319,42.0257814040145,52.3105000000069 2.85897245605466,42.0257032842426,52.5442999999941 2.85890338908405,42.025637234667,52.408500000005 2.85882644388837,42.0255814115479,52.5823999999993 2.8580603372579,42.025017476783,51.7378000000026 2.85791935386057,42.0248934246505,50.3868999999977 2.85699533328461,42.0242823841044,50.3509000000049 2.85694939972916,42.024248353931,50.4327000000048 2.85655830020394,42.0238644626834,50.3892999999953 2.8562253710849,42.0236252431866,49.5454999999929 2.85577425691216,42.023338413904,48.5676999999996 2.85567115996194,42.0232983485254,48.4965999999986 2.85545742111146,42.0232664973388,48.5996000000014 2.85455200823827,42.0232393401673,50.1006999999954 2.85378640556264,42.0235114165306,50.7448000000004 2.85368448091387,42.0235451120982,50.7829999999958 2.85353008656767,42.0236104905107,50.8320999999996 2.85339044435507,42.0237454392962,50.8040000000037 2.85248938920933,42.0244434844801,50.601800000004 2.85216417122871,42.024714387215,50.3380000000034 2.85202838458532,42.02488537814,50.5497999999934 2.85177944255547,42.0252243423527,50.3669999999984 2.85178950099171,42.0252893860493,51.4726999999984 2.85173719748261,42.0254343929943,52.9755000000005 2.85100545769993,42.0260643765983,53.7143000000069 2.85051545096696,42.0266043387008,57.1468000000023 2.85034714261531,42.0267974581258,57.1373000000021 2.85006433769252,42.0272214146141,54.0636999999988 2.8498264584154,42.027525342357,54.2522000000026 2.84899949990755,42.0281554940822,51.2103999999963 2.84894635916862,42.0282203699612,51.2758000000031 2.84874837856481,42.0283434160152,49.2354999999952 2.84846222023105,42.0285194364714,50.1815999999963 2.84825200187816,42.0287274750628,50.1156999999948 2.84816147774868,42.0287844718274,48.9948000000004 2.84818008545146,42.02878547808,49.5146999999997 2.84810531867037,42.0288744933411,50.4306999999972 2.84796634660097,42.0289640122696,50.1012999999948 2.84721650217206,42.0294870431536,50.917100000006 2.84699622538293,42.029622494596,52.4277000000002 2.84673823013164,42.0297044696896,53.2608999999939 2.84561723506502,42.0298933979495,52.483699999997 2.84343441965445,42.03006237716,51.3086999999941 2.8421214779678,42.0301523988658,51.2119999999995 2.841081283666,42.0301644682985,52.0877999999939 2.8401882756286,42.0301864292153,54.363400000002 2.83907331544402,42.0301674856563,55.6974000000046 2.83867215748253,42.0301473697124,56.3986000000004 2.83781938229177,42.0302144248358,53.3654999999999 2.83746818054154,42.0306061947471,53.1665000000066 2.83709602468901,42.0306284904743,56.5455999999976 2.83676343064159,42.0304363775706,58.1661000000022 2.83661942890491,42.0303404883832,58.2140999999974 2.83660417461306,42.0303104810284,58.1162999999942 2.8363590872541,42.0301834118584,58.0718999999954 2.83632639756092,42.0301773764769,57.9918000000034 2.83600101249364,42.0301094832328,57.2407999999996 2.83543204923708,42.029864060985,56.5823999999993 2.83524345602801,42.0297862771938,56.2986999999994 2.83504547542424,42.02970849264,56.0522999999957 2.83369615646016,42.0293324807971,57.0019999999931 2.83271312734979,42.0289633416588,63.4630000000034 2.83173244463894,42.028383481551,60.522100000002 2.83099148454819,42.0281194514537,62.0696999999927 2.83082049382715,42.0280993348616,63.7612999999983 2.82996118069771,42.0276983449345,65.8787000000011 2.82908342785045,42.0271444690463,59.7712999999931 2.82886918594339,42.0269853800695,59.0210999999981 2.82839326209911,42.0265404687953,59.2133000000031 2.82771835063965,42.025698422899,60.3653999999951 2.82711334517725,42.0248493363268,60.7201999999961 2.82677823674535,42.0243423984848,60.1261999999988 2.82651605085327,42.0239623629528,60.5568999999959 2.82644128407218,42.0238713354935,60.6404000000039 2.82640339762506,42.0238264082966,60.6205000000045 2.82622436069398,42.0237754464132,60.8315000000002 2.82611321663547,42.0237363869752,60.9545999999973 2.82592847899561,42.0234213947632,61.3264000000054 2.8262744839919,42.0232482250581,61.0491000000038 2.82629342766462,42.0230291221128,60.9282999999996 2.8259930202538,42.0221523751144,61.2048000000068 2.82587517027169,42.0214303574688,60.777700000006 2.82584818038899,42.0211983469358,59.1646000000037 2.82579923029082,42.0207584644349,60.5236000000004 2.82581213818315,42.0204793469525,61.2599000000046 2.82584449280474,42.0200314183592,62.3524000000034 2.82574843595141,42.0193843348945,63.3521000000037 2.82567148985743,42.0191184614996,63.9578000000038 2.82556537546616,42.0187454663204,64.0984000000026 2.82558834179473,42.0186993662481,64.0357999999978 2.82552413650645,42.0184764074978,64.1423000000068 2.82550049913635,42.0182904965998,64.085500000001 2.825473342167,42.0177004107975,64.1098999999958 2.82531039765592,42.01722549243,64.1901999999973 2.82574743073659,42.016748394116,63.3424999999988 2.8257284870639,42.0165604719481,64.0369000000064 2.82560946388201,42.0163093504638,64.7122999999992 2.82455937912894,42.0159750800107,65.1882000000041 2.82468644941916,42.0151563352962,64.165399999998 2.8246971779986,42.0148664891055,63.6912000000011 2.82458737512478,42.014633304651,63.6159000000043 2.82439626753124,42.0145674231134,63.5859999999957 2.82422242645577,42.0144614759002,63.5372000000061 2.82306622731146,42.0141313965399,63.959600000002 2.82191522402277,42.0139181609478,64.2957000000024 2.82144701131688,42.0138284746665,64.4109999999928 2.82125841810785,42.013754378185,64.6548000000039 2.82040614597359,42.0130673979678,64.6322999999975 2.81999442741763,42.0127183752958,64.7706999999937 2.8192811273528,42.011931482247,64.7571000000025 2.81886303794483,42.0113595010113,65.0752999999968 2.81868919686939,42.011116425934,65.3644000000058 2.81865449584828,42.0110694873387,65.3000999999931 2.8183452040993,42.0106493865698,65.0175000000017 2.81809307664345,42.010312433843,65.1055999999953 2.81745336926164,42.0094383689932,64.7661999999982 2.81729025766394,42.0092184274997,65.1012999999948 2.81709646770096,42.0091773566739,65.2057999999961 2.81705405554143,42.009191437874,65.267200000002 2.81691139588781,42.0092333477149,65.3187000000034 2.81654527401902,42.0090353670602,65.0390999999945 2.81654410081928,42.0089844053377,65.0117999999929 2.81662540553901,42.0088393982585,65.0777999999991 2.81670838561676,42.0087490413344,65.0243000000046 2.81667603189346,42.0081834300652,64.7611999999936 2.81648509228487,42.006993367923,65.8846000000049 2.81631024509629,42.0059154550578,67.3138999999937 2.81619340212562,42.0051560546206,67.4588999999978 2.81616523904315,42.0049904282856,67.6333000000013 2.81596038453079,42.0036944180335,68.7243000000017 2.81586902227316,42.0027764323208,70.5338999999949 2.81589316180146,42.002672496824,70.5584999999992 2.81590539955059,42.002621367122,70.5516000000061 2.8159414417564,42.0024223805822,70.9373999999953 2.81601101178358,42.0020763756036,70.5875999999989 2.81605744749724,42.0018393351694,70.9934999999969 2.8161253403698,42.0015434542828,71.3549000000057 2.8164892829257,42.0006953736546,72.5809000000008 2.8170735013724,41.999883166806,73.7526999999973 2.81712245236887,41.9997463742622,74.0519000000058 2.81723141711452,41.999623495844,74.1711000000068 2.81748823826771,41.9995554344564,74.2189999999973 2.81782401684284,41.9994343995372,74.2670000000071 2.81792644454815,41.9993473958877,74.2017000000051 2.81853245612367,41.998793351833,73.9563999999955 2.81896730899312,41.9981754379397,72.4909000000043 2.81925112002906,41.9972123571746,71.6987999999983 2.81923519469568,41.9967124606549,71.6845999999932 2.81936125797446,41.9964794439852,71.852899999998 2.81943200120141,41.9964874900842,71.704899999997 2.8199962716589,41.9965092830435,69.4043999999994 2.82034847862392,41.9965154858539,68.5194000000047 2.82101701923143,41.996539457898,67.3479999999981 2.8210570849914,41.9965434816114,67.2069000000047 2.82124618035872,41.9966683714875,66.4134999999951 2.82149948191264,41.9969233491886,65.2712999999931 2.82165018867459,41.9970634945256,62.1383999999962 2.82180508607734,41.99696542667,61.292300000001 2.82197423255714,41.9963404716999,62.5385999999999 2.82219216204842,41.9956933888908,63.2688000000053 2.82226508458827,41.9954784765067,63.9465000000055 2.82233649885672,41.9953153646356,63.3012000000017 2.82244445748923,41.9949884706731,64.0650000000023 2.82252425303931,41.9947614891053,63.4835000000021 2.82254721936786,41.9943274738989,63.8454999999958 2.82225402093722,41.9935953980963,65.2234999999928 2.8220831973028,41.9931504868994,64.2131999999983 2.82172327830107,41.9925593953986,63.652900000001 2.8215023313687,41.992224454665,64.354600000006 2.82107703387892,41.9919094626169,65.4906000000046 2.82046632860607,41.9914060452242,67.6082000000024 2.820207160155,41.9912714317606,65.8221999999951 2.8193671257699,41.9909772270047,67.3056999999972 2.81915104051986,41.9909064836721,67.3608999999997 2.81914919627859,41.9909173801068,67.4159999999974 2.81913846769915,41.990932467526,67.4140000000043</coordinates>
</LineString>
</Placemark>
</Folder>
</Document></kml>
