<?xml version="1.0" encoding="UTF-8"?>

<kml xmlns:xsd="http://www.w3.org/2001/XMLSchema" xmlns:gx="http://www.google.com/kml/ext/2.2" xmlns:atom="http://www.w3.org/2005/Atom" xmlns="http://www.opengis.net/kml/2.2">
<Document>
<name>ES24a_04a_girona-amer</name>
<visibility>1</visibility>
<Schema name="ES24a_04a_girona-amer" id="kml_schema_ft_ES24a_04a_girona-amer">
<SimpleField type="xsd:string" name="id">
<displayName>id</displayName>
</SimpleField>
<SimpleField type="xsd:string" name="nombre">
<displayName>nombre</displayName>
</SimpleField>
<SimpleField type="xsd:double" name="longitud">
<displayName>longitud</displayName>
</SimpleField>
<SimpleField type="xsd:string" name="_formato">
<displayName>_formato</displayName>
</SimpleField>
</Schema>
<Folder id="kml_ft_ES24a_04a_girona-amer">
<name>ES24a_04a_girona-amer</name>
<Placemark id="kml_1">
<name>&lt;img height='20' src='https://nco.ign.es/iconos/icono_todos_caminos_azul.png' /&gt;&lt;img height='20' src='https://nco.ign.es/iconos/Camino Santiago_20.png' /&gt;&lt;img height='20' src='https://nco.ign.es/iconos/icono_todos_caminos_azul.png' /&gt;  Camino de Santiago </name>
<visibility>1</visibility>
<description><![CDATA[<!DOCTYPE html>
<html>
<head>
<style>
#nco {
  border-collapse: collapse;
  overflow:hidden;
}
#nco th, #nco td {
  padding: 4px;
  text-align: left;
}
#nco th {
  color: #364B5F;
  padding-right: 5px;
}
#nco td {
  color: rgb(51, 51, 51);
  font-size: 12px;
  padding-right: 5px;
}
</style>
</head>
<body>
<table id="nco">
<tr>
<td>Caminos del Nordeste</td>
</tr>
<tr>
<th><b>Camino: </b></th>
<td>ES24a Camí Catalá de Sant Jaume</td>
</tr>
<tr>
<th><b>Etapa: </b></th>
<td>04a Girona-Amer</td>
</tr>
<tr>
<th><b>Longitud: </b></th>
<td>26.87 km</td>
</tr>
</table>
</body>
</html>]]></description>
<Style>
<IconStyle>
<scale>0.8</scale>
</IconStyle>
<LabelStyle>
<color>ffffffff</color>
<scale>0.75</scale>
</LabelStyle>
<LineStyle>
<color>ffff0000</color>
<width>3.0</width>
<gx:labelVisibility>1</gx:labelVisibility>
</LineStyle>
<PolyStyle>
<color>66ff0000</color>
</PolyStyle>
</Style>
<ExtendedData>
<SchemaData schemaUrl="#kml_schema_ft_ES24a_04a_girona-amer">
<SimpleData name="id">ES24a_04a</SimpleData>
<SimpleData name="_formato">kml</SimpleData>
</SchemaData>
</ExtendedData>
<LineString>
<extrude>0</extrude>
<tessellate>1</tessellate>
<coordinates>2.59836601064903,42.0097429671155,208.996499999994 2.59886708103305,42.0097759918235,203.505900000004 2.59921291804438,42.0093280632663,198.943100000004 2.60149765720539,42.0100774051522,187.562099999996 2.60196872026567,42.0096467430161,185.545700000002 2.60249108072191,42.0091790327213,184.248300000007 2.60313196130349,42.0091870792169,183.275399999999 2.6032077332994,42.009124382605,183.233200000002 2.60293599202762,42.008970994246,183.614300000001 2.60293398069972,42.0087740193441,183.825100000002 2.60317806194557,42.0085150181132,183.601500000004 2.6030109267937,42.008307985378,183.860100000005 2.60348651556636,42.007991484966,183.934599999993 2.60416997629239,42.0071499417041,184.067299999995 2.60470407054288,42.0062889526901,184.017600000006 2.60370092456005,42.0063719331017,189.376099999994 2.60310765379023,42.0066124937799,194.224600000001 2.60235998777588,42.0069259772518,201.101699999999 2.6032526607417,42.0055895667615,199.544899999994 2.60384006461441,42.0047699841182,199.495999999999 2.60391566862535,42.0045262383587,200.395300000004 2.60390477295926,42.0042273393623,200.351800000004 2.60388901471254,42.0035819328395,200.134399999995 2.60424306591883,42.0023100633656,199.576499999996 2.60500162849758,42.0012775804071,198.810500000007 2.60487841467489,42.0002975681517,199.923699999999 2.60479006895998,41.9993009599793,203.995800000004 2.60526699981567,41.9982599276875,210.522599999997 2.60585691807285,41.9976780558333,216.5337 2.60560998737094,41.9973830128032,214.661699999997 2.60580394442055,41.9972120220356,214.760699999999 2.60601097734747,41.9967545376081,215.931200000006 2.60600192502435,41.996561921792,216.420700000002 2.60588642234005,41.996058839623,220.167000000001 2.60565005223259,41.995757761787,222.385999999999 2.6055726039804,41.9954149418668,224.145799999998 2.60568005955636,41.9954260057714,222.858800000002 2.60625991937731,41.9950910654351,222.714699999997 2.60652797306484,41.9946439741845,222.038400000005 2.60650634792098,41.9941221175081,222.943100000004 2.60652797306484,41.9934399980656,222.310800000007 2.6061789506275,41.9931330525472,220.464399999997 2.60643107808335,41.9928460563705,221.021800000002 2.6061680540631,41.9926710421407,220.324200000003 2.6061150804108,41.9924430541601,219.905400000003 2.60628607113185,41.9922360212045,220.856199999995 2.6061943729043,41.9916645432444,215.1495 2.60609412541014,41.9915091425056,212.097299999994 2.60622706259747,41.991490031858,210.481499999994 2.60665286314384,41.991353742055,207.263099999996 2.60681698085466,41.9911909654665,205.023400000005 2.60693030422606,41.990441120714,202.676399999997 2.60690851109728,41.9899133960218,197.618499999997 2.60672595366861,41.9895209554329,193.436799999996 2.60585205639056,41.9894530621817,196.149900000004 2.60600192502435,41.9891699213582,190.921499999997 2.60579539425567,41.9885357463773,184.580600000001 2.6057020206701,41.9882249452682,181.875599999999 2.60580394442055,41.9879659445201,180.023300000001 2.60509600819629,41.9873160115767,178.807100000005 2.60439796332161,41.987009066574,176.635800000004 2.60420501238509,41.9862709558581,166.398100000006 2.604039050433,41.9861200818073,166.732799999998 2.60302517587073,41.9859779245551,173.596900000004 2.60324578773144,41.9853496171886,168.575400000002 2.60342113707827,41.985231432516,174.5913 2.60391348931246,41.9853048577595,173.562999999995 2.60432805822282,41.9852379702921,173.214600000007 2.60446367777958,41.9851643773702,173.637100000007 2.60494798380377,41.9848938096539,176.256599999993 2.60531762617012,41.9844485625269,177.8174 2.60666811833398,41.9838172378721,176.065499999997 2.60774401977,41.9833835580419,174.149300000005 2.60872000788515,41.9828486251565,174.544699999999 2.60974813242278,41.9824194715026,173.603600000002 2.61108018486878,41.9817306471171,173.337799999994 2.61241827129856,41.9811108887813,173.952699999994 2.61411376324392,41.9803348923858,173.344599999997 2.6153562958769,41.9796851272874,173.080900000001 2.6171565610288,41.9789337733471,173.543000000005 2.61868206746787,41.978151573869,173.349000000002 2.62021780032813,41.9774376034927,171.826300000001 2.6213738323858,41.9768612638466,168.672699999996 2.62187222040039,41.9764964835849,167.989000000001 2.62231746677769,41.9759836788341,166.197799999994 2.62267688272288,41.9751848833963,164.195800000001 2.62282289578747,41.9741131730303,162.157600000006 2.6230129972679,41.9729133874783,158.381500000003 2.62327736247284,41.9716069843787,156.020600000003 2.62339521155666,41.9708392020256,154.646599999993 2.62349059826679,41.9693893004384,155.323000000004 2.62262390907058,41.9693629811893,156.470100000006 2.62262608838344,41.9689832810976,156.174100000004 2.62300897371373,41.9688168165808,155.430300000007 2.62335028501269,41.9686216857159,155.256699999998 2.62362638491018,41.9684213579173,155.303 2.62370064863473,41.9683750898025,155.234100000001 2.62377575048743,41.9679903604409,155.082200000004 2.62395696673137,41.9668889786622,154.879400000005 2.62393936514171,41.9667017267778,155.597699999998 2.62391723694131,41.9665372741136,155.818499999994 2.62397473720432,41.9665044166591,155.790099999998 2.6241913255109,41.9659520491403,154.717499999999 2.62468736622764,41.9651733705959,152.640400000004 2.62551248049421,41.9645663532532,151.807499999995 2.62660816283279,41.9638282428955,151.455300000001 2.6277204415462,41.9630634781721,151.4084 2.62871738556031,41.9623664387738,151.184399999998 2.62966437246483,41.9617233792338,151.607000000004 2.6300692189089,41.9614593489965,150.904800000004 2.63053508431691,41.9611433517274,149.736000000004 2.63073239477751,41.9609884543051,152.101899999994 2.63107940588692,41.9608114280277,151.538199999995 2.63141149687777,41.9605584626397,151.731899999999 2.63156823852182,41.9604094321191,151.259099999996 2.63189245038932,41.9601973698689,151.378700000001 2.63244347608627,41.9598203519446,151.762799999997 2.6331002820012,41.9593863370233,151.786999999997 2.63341007770505,41.9591464468881,151.870699999999 2.63340840144873,41.9591583494317,151.934200000003 2.63340538400768,41.9591504702927,151.867800000007 2.63340119246856,41.9591464468881,151.806400000001 2.63368047779209,41.9589923876382,152.017399999997 2.63399546935152,41.9587873661798,151.947499999995 2.63429034493678,41.9585412732922,151.726800000004 2.63419311488371,41.9585116014784,151.463199999998 2.63421708732535,41.9584163834402,151.753700000001 2.63430811451144,41.9584130306757,151.765400000004 2.63447390847857,41.958293001723,151.837100000004 2.63454331052079,41.958252433115,151.971600000004 2.63472603593442,41.9582043212376,151.696400000001 2.63474548266369,41.9584354939943,151.536500000002 2.63518134164628,41.9584133660189,151.399099999995 2.6354763843182,41.9584140360374,151.052500000005 2.636271491261,41.9583893936473,150.326000000001 2.63676216813717,41.9583754795673,149.684899999993 2.63739131402621,41.9583823527719,149.177200000006 2.63886904356691,41.9584103479295,148.253800000006 2.64035146680496,41.9584064928178,147.303799999994 2.64066545314957,41.9584083365379,147.080000000002 2.64187647018748,41.9584083365379,146.319499999998 2.6421634666494,41.9584123599891,144.1639 2.64229137416942,41.9583964345221,146.213300000003 2.64319242931515,41.9584044807579,145.6158 2.64453537742725,41.9584113539593,144.721799999999 2.64590011866814,41.9584074981796,143.854000000007 2.64695037140616,41.9584014633361,143.184699999998 2.64711113660435,41.9584173888019,143.113800000006 2.64749821257543,41.9583644152362,142.736199999999 2.64796340873857,41.9582884752483,142.329199999993 2.64819441320884,41.9582490803419,142.164300000004 2.64921147409541,41.9584133660189,141.925000000003 2.64949947577215,41.958466339544,141.886700000003 2.64977708483933,41.9585204867244,141.792300000001 2.64989308968188,41.9585754715469,141.732999999993 2.65035543549063,41.958682424977,141.455600000001 2.65058811711551,41.9587873661798,141.138399999996 2.65076715494488,41.9588554270658,140.903000000006 2.65102347393986,41.9589263382739,140.862899999993 2.65175739303539,41.9590914618902,140.1783 2.65217933801258,41.9591873509341,139.993000000002 2.65359621477761,41.9595043538956,138.744699999996 2.65427548396452,41.9597284865535,138.3511 2.6543604771668,41.9598014088059,138.532999999996 2.65483137224212,41.9597754249399,138.358900000007 2.65504343393796,41.9598175022578,138.296600000001 2.65638638294839,41.9600944403225,137.761400000003 2.65740847170562,41.9603244399042,137.617800000007 2.65822235523448,41.9604991182047,136.987699999998 2.65964543486657,41.9608063987359,136.675700000007 2.65993947142537,41.9609373245196,136.5674 2.66024507559007,41.9610404217051,136.667100000006 2.66038119820338,41.9610204729405,136.736399999994 2.66101202034873,41.961125414301,136.318499999994 2.66118803983876,41.9611684973816,136.214300000007 2.66285838524437,41.9615404861114,134.752299999993 2.66437232497584,41.9618703980709,133.858300000007 2.66500549352068,41.962026468988,133.478499999997 2.66641918575803,41.9623533632005,132.862099999998 2.66774738173653,41.9626242664881,132.428599999999 2.66802012912142,41.9627084206736,131.984800000006 2.66829740221869,41.9626894777255,132.278099999996 2.66930943343801,41.9629023779966,132.106599999999 2.67003949696434,41.9630973406851,132.141000000003 2.67118547148408,41.9637893510466,131.920199999993 2.67214620530742,41.964878495525,131.412899999996 2.67277820065251,41.9655644704103,130.975099999996 2.67291449035248,41.9657084713239,130.828999999998 2.67300317024068,41.9658254825971,130.877800000002 2.67320936503944,41.9665070990645,130.181200000006 2.67317047337754,41.9668103564221,131.086500000005 2.67304206280091,41.9671184748173,130.258300000001 2.67298439545124,41.9672193932582,131.763999999996 2.67293427125503,41.9673853549975,133.262400000007 2.67292236947582,41.9677663964391,131.906099999993 2.6728564870329,41.9688354244225,129.315499999997 2.67286419906961,41.9693753860887,131.799100000004 2.67296729601983,41.9697443574398,132.097099999999 2.67309034275585,41.9699093134319,131.835200000001 2.67323518172239,41.9700114049469,131.684800000003 2.67333006447765,41.970079465866,131.591899999999 2.67430437723478,41.9708083564545,130.810500000007 2.67450520729465,41.9709243618787,130.807499999995 2.67466647554941,41.9709863881707,130.511100000003 2.67500812191995,41.9712103528738,129.988299999997 2.67515547616926,41.9713474805742,129.337400000004 2.67533149565929,41.9715404318219,128.365300000005 2.67537508191689,41.9715784854294,128.108900000007 2.67630748467277,41.9721043664983,126.669999999998 2.67666740367451,41.972192376465,126.736199999999 2.67734415847694,41.9722743514446,125.7641 2.67772536755092,41.9723164285227,125.578200000004 2.67804035911035,41.9723373835678,125.224700000006 2.67938347520741,41.9722912825931,123.571899999995 2.68111148886099,41.97233436547,122.713499999998 2.68260749013455,41.9723643727954,122.504499999995 2.68391121151313,41.9723663844144,122.030400000003 2.68554434151313,41.9723943801067,121.713300000003 2.68580233676442,41.9724074556229,121.802100000001 2.68690438905668,41.972426399021,120.450200000007 2.68743647287756,41.9725584977429,122.024699999994 2.68757125340784,41.9726193503397,121.485400000005 2.68890833462279,41.9732764919016,120.921199999997 2.68989639340044,41.9735204047631,120.957800000004 2.69144520123969,41.973891053124,120.896399999998 2.69175550000005,41.9739904621778,118.767399999997 2.69311739088654,41.9746613498552,120.922500000001 2.69417736698918,41.9752254519087,117.549899999998 2.69424945140087,41.9752514354843,117.764299999995 2.69462646893572,41.9753694530226,120.163199999995 2.69502829793871,41.9755634098665,120.214399999997 2.69602306174163,41.9761073956037,119.169500000004 2.69699133961669,41.9763164404156,118.402499999997 2.69817536677188,41.9767343616931,116.806599999996 2.69859831786215,41.9768614314697,117.528300000005 2.69932435783434,41.9771083624979,117.533100000001 2.69996423230281,41.977638433847,116.501300000004 2.7009573207477,41.9784712598716,115.153399999996 2.70140340525319,41.978684495395,115.775800000003 2.70183725290785,41.9787813907101,116.3033 2.70257636875733,41.9788704065063,115.467799999999 2.70445944779861,41.9789334381118,114.708499999993 2.70595628809867,41.9787822288002,114.632500000007 2.70689439066503,41.9785944736278,115.012499999997 2.70805545149166,41.9782824994019,114.157000000007 2.70871041316532,41.9777943372488,113.396200000003 2.70962823177255,41.9770654471337,113.123800000001 2.71049039435808,41.9763623728559,112.632299999997 2.71165916722143,41.9754254437585,112.114600000001 2.71289315058787,41.9744393968188,111.640400000004 2.71412948125213,41.9734474821837,110.861900000004 2.71501008445381,41.9727554725429,110.375 2.71588347867532,41.9720644685444,109.985400000005 2.71705141251217,41.9711404471399,109.316900000005 2.71804517110027,41.9703414847647,109.109599999996 2.71980822084658,41.9689361745033,109.3848 2.7200663831845,41.9687774215045,109.442999999999 2.72042546405807,41.9685133911107,109.433399999994 2.72113407042556,41.9683071967117,108.558699999994 2.72143330463657,41.9682481881062,108.304499999998 2.72163530789621,41.968213486762,108.051000000007 2.72255044413401,41.9681804618582,106.808900000004 2.72417217451307,41.9683323422104,105.858800000002 2.72435305658373,41.9683474296384,105.770000000004 2.72514548115712,41.9683844779452,105.048999999999 2.72645926097193,41.9683943683547,104.099499999997 2.72716049127259,41.9683854838176,103.716799999995 2.72774739208875,41.9683834720728,103.598499999993 2.72935017969342,41.9683724074758,102.667499999996 2.72979844351177,41.9683864896899,102.258900000001 2.73113317742891,41.9683724074758,102.066900000005 2.73122336738509,41.9683730780575,102.091799999995 2.73262146846239,41.9683804544557,101.800799999997 2.73342143708751,41.9683834720728,101.377399999998 2.73368244977985,41.9684114675119,101.306700000001 2.73522740204985,41.9683730780575,100.194099999993 2.73678341886924,41.9683564818263,99.2602000000043 2.73750744751353,41.9683543031031,98.7866999999969 2.73796811706596,41.9683613435447,98.161500000002 2.73973334612513,41.9683633552901,98.8424999999988 2.74007448943909,41.9683764309658,98.9435999999987 2.74089021631093,41.9683730780575,98.4943999999959 2.74277513869519,41.9683784427108,97.642399999997 2.74462100143259,41.9683683846533,97.4904999999999 2.74529239149616,41.968342232628,97.4692000000068 2.74604760066394,41.9683356951209,97.4615000000049 2.74738300562257,41.9682624373255,96.6143000000011 2.74769246535651,41.9682988144314,97.9361000000063 2.74815095559605,41.9683222841457,97.9391000000032 2.74863190910758,41.9683155783231,98.1486000000004 2.74916667529789,41.9682988144314,98.099000000002 2.74979364097574,41.9684175020753,98.963499999998 2.75043636579859,41.9687916706054,96.358699999997 2.75164537150854,41.96963706926,98.5103999999992 2.75216672585169,41.9698876883581,97.6092999999964 2.75285873584427,41.9701150057337,97.4529000000039 2.75416664786368,41.9707332547999,93.2477000000072 2.75589130810629,41.9716354826474,89.3102000000072 2.75766424830384,41.9721043664983,90.3505000000005 2.75809826304517,41.9721873474036,90.3736999999965 2.75827025987936,41.9722163483186,90.2939000000042 2.75913443379279,41.9723583379381,90.1009999999951 2.75987941743768,41.9725893431344,89.5527000000002 2.76125941386874,41.9731123741118,89.9049999999988 2.76201395289331,41.9733997056906,89.1052000000054 2.7623599578896,41.9736570299387,89.2124999999942 2.76263538764393,41.9739852656278,88.4186999999947 2.76277637104126,41.9740700900209,89.2367999999988 2.76302715731238,41.9741364749757,89.4094999999943 2.76341825683763,41.9742073858733,89.5114999999932 2.76383416693272,41.9744588431686,89.3053000000073 2.76445895419597,41.9747595856421,88.5964999999997 2.76467017866198,41.9748732444201,88.3329999999987 2.76497125621597,41.9748931928544,88.1255999999994 2.76573082400953,41.9751471645273,87.8684000000067 2.76670329252538,41.9756163838253,87.8693999999959 2.76830608013005,41.9761863529721,86.8873000000021 2.76896439521467,41.9764564180868,86.3151000000071 2.77027616280325,41.9766684803134,85.6049999999959 2.77173545172777,41.9768312566363,85.8263000000006 2.77306130130675,41.9769315045579,85.5475000000006 2.77455344790944,41.977238784638,85.1478000000061 2.77506122331873,41.9773658547437,85.078800000003 2.77522316171669,41.9774627493939,84.5648999999976 2.77486642814094,41.9777764005035,84.0602999999974 2.77470616599933,41.9781676673604,83.0240000000049 2.77453416916513,41.9785569230611,82.8099999999977 2.77552742469669,41.9789377968378,82.2185000000027 2.77664205070795,41.9791181751763,81.8329999999987 2.77800846820515,41.9794757469484,81.6206999999995 2.77867801492575,41.9794784294754,81.4747999999963 2.77970479827867,41.9792033353128,83.6450999999943 2.7800159342689,41.9791530442071,82.0197999999946 2.78050493488875,41.9794016511951,80.6983000000037 2.78093073543511,41.9793651061355,80.4949999999953 2.78313500800455,41.978523060084,79.7452000000048 2.78326811227852,41.978502440976,79.5385999999999 2.7835054884991,41.9784293504717,79.3144999999931 2.78418039906026,41.9783834175188,79.039499999999 2.78471348809593,41.9784514788413,78.8432999999932 2.78545511922821,41.978634371498,78.8032999999996 2.78694240414857,41.9791253833809,78.4875999999931 2.78789140327933,41.9795164830147,78.175900000002 2.7882283550542,41.9794014835787,77.7724000000017 2.78850143751068,41.9794063451218,77.6677000000054 2.78870344166862,41.9794894934789,77.5056999999942 2.78971312559009,41.9799434572061,77.4710999999952 2.79077745942019,41.9803414299969,77.3626999999979 2.79134240002088,41.9803724432396,77.2587000000058 2.7917381932435,41.9800450458208,76.8380999999936 2.79187012431771,41.9800193974271,77.4906999999948 2.79217120277,41.9802170429821,77.9597999999969 2.79251804589448,41.9803553439543,77.290399999998 2.79318943595805,41.9806433466981,76.0583999999944 2.7936524528083,41.9807000079236,76.647100000002 2.79418202134638,41.9807573402178,75.8157000000065 2.794885262975,41.9810062828446,75.360400000005 2.79531005740821,41.9812743362149,75.1981999999989 2.79539035601486,41.9813315003807,74.8892999999953 2.79577123001722,41.9815774257742,74.8813999999984 2.79611639688535,41.9818384384568,74.9015999999974 2.79636315960233,41.9819423739231,74.710500000001 2.79707411326764,41.9820453035632,75.1258999999991 2.79805948967582,41.9823973431764,73.2550000000047 2.79950201513884,41.9827453602645,74.372199999998 2.80041212260769,41.9826835016798,74.3524999999936 2.80158827063954,41.9825834217402,73.8499000000011 2.80274815826639,41.9824853536103,72.7394000000058 2.80358534319543,41.9825472117196,71.9700000000012 2.80376706249594,41.9825401708428,71.8928000000014 2.80406042891155,41.9824893768767,72.0650000000023 2.80455445830035,41.9825071466895,71.9513000000006 2.80469242515494,41.9825163664766,71.9036999999953 2.80483743210644,41.9825401708428,71.6612000000023 2.80627107233297,41.9828343758615,72.3028999999951 2.8073124398345,41.9831183548504,71.331600000005 2.80824718988823,41.9834524573908,72.4631999999983 2.80884549032533,41.9835833827089,71.9303000000073 2.80934136395545,41.9838073471865,71.888300000006 2.80952710681009,41.9839754879658,72.2339000000065 2.80956013157489,41.9840594750547,72.2927999999956 2.8096089136881,41.984375472838,72.7152999999962 2.8097103352803,41.9844224110942,72.8310999999958 2.80971435793613,41.9844733731245,72.7774999999965 2.80969608530494,41.9845120974293,72.8055000000022 2.8095544317644,41.984653416603,72.809500000003 2.80946943946046,41.9850210467761,73.1174000000028 2.80959131209841,41.9852294206356,70.8505000000005 2.80949944588587,41.9861834487786,66.5546000000031 2.80936734772502,41.9875644511489,73.9064000000071 2.8092302198969,41.9889323781489,73.8680000000022 2.8091730547055,41.9896594244838,71.1738000000041 2.80913718048462,41.9901083588312,75.9418000000005 2.80895445507099,41.9904593930724,76.2933000000048 2.80882319414001,41.9906944214572,76.5001000000047 2.80925134198418,41.9909123511887,76.3150000000023 2.80935326573462,41.9909004492365,76.4864999999991 2.80958829465736,41.9909183862909,76.5276000000013 2.81025918166439,41.9912824963855,75.9328999999998 2.81030813266085,41.9913094855962,75.8880000000063 2.81097315277074,41.9917725020413,74.0089000000007 2.81132737196199,41.992140467665,73.8760000000038 2.81131949283861,41.9922454091682,73.906799999997 2.81141236426597,41.9924864725885,74.149900000004 2.81179826703728,41.9925194975744,74.5026999999973 2.81207101442217,41.9924153937662,74.2492999999959 2.81310148535932,41.9923873988634,73.3280999999988 2.81348235936167,41.9923813639006,73.2133999999933 2.81448718160083,41.9923934338258,72.9581000000035 2.81464627054269,41.9923914221717,72.9150999999983 2.81524406702492,41.992383375555,72.7406999999948 2.81623011447463,41.9923354309976,72.3516999999993 2.81642507763739,41.9923263782118,72.2609999999986 2.81645927560192,41.9923144758564,72.2421999999933 2.81649347356649,41.9923154820184,72.2443999999959 2.8167672270645,41.9923213494052,72.1578000000009 2.81793348464504,41.9923754965194,71.8834999999963 2.81822215736328,41.9923714732101,71.8021000000008 2.81824512369184,41.9923475009314,71.8031000000046 2.81834637729908,41.9922093668844,72.1587 2.81833749296092,41.9921763424052,72.1756000000023 2.81842835216201,41.9917971448716,71.8782999999967 2.81846238303992,41.9915324440944,72.2118000000046 2.8184754589172,41.9915064604854,72.3662999999942 2.81869221520874,41.9913844201053,71.8001999999979 2.8187393210656,41.9913964902195,71.6923999999999 2.818878293135,41.9914194566801,70.550900000002 2.81913846769915,41.990932467526,67.4140000000043</coordinates>
</LineString>
</Placemark>
</Folder>
</Document></kml>
