<?xml version="1.0" encoding="UTF-8"?>

<kml xmlns:xsd="http://www.w3.org/2001/XMLSchema" xmlns:gx="http://www.google.com/kml/ext/2.2" xmlns:atom="http://www.w3.org/2005/Atom" xmlns="http://www.opengis.net/kml/2.2">
<Document>
<name>ES24a_09a_lestany-artes</name>
<visibility>1</visibility>
<Schema name="ES24a_09a_lestany-artes" id="kml_schema_ft_ES24a_09a_lestany-artes">
<SimpleField type="xsd:string" name="id">
<displayName>id</displayName>
</SimpleField>
<SimpleField type="xsd:string" name="nombre">
<displayName>nombre</displayName>
</SimpleField>
<SimpleField type="xsd:double" name="longitud">
<displayName>longitud</displayName>
</SimpleField>
<SimpleField type="xsd:string" name="_formato">
<displayName>_formato</displayName>
</SimpleField>
</Schema>
<Folder id="kml_ft_ES24a_09a_lestany-artes">
<name>ES24a_09a_lestany-artes</name>
<Placemark id="kml_1">
<name>&lt;img height='20' src='https://nco.ign.es/iconos/icono_todos_caminos_azul.png' /&gt;&lt;img height='20' src='https://nco.ign.es/iconos/Camino Santiago_20.png' /&gt;&lt;img height='20' src='https://nco.ign.es/iconos/icono_todos_caminos_azul.png' /&gt;  Camino de Santiago </name>
<visibility>1</visibility>
<description><![CDATA[<!DOCTYPE html>
<html>
<head>
<style>
#nco {
  border-collapse: collapse;
  overflow:hidden;
}
#nco th, #nco td {
  padding: 4px;
  text-align: left;
}
#nco th {
  color: #364B5F;
  padding-right: 5px;
}
#nco td {
  color: rgb(51, 51, 51);
  font-size: 12px;
  padding-right: 5px;
}
</style>
</head>
<body>
<table id="nco">
<tr>
<td>Caminos del Nordeste</td>
</tr>
<tr>
<th><b>Camino: </b></th>
<td>ES24a Camí Catalá de Sant Jaume</td>
</tr>
<tr>
<th><b>Etapa: </b></th>
<td>09a L'Estany-Artes</td>
</tr>
<tr>
<th><b>Longitud: </b></th>
<td>23.93 km</td>
</tr>
</table>
</body>
</html>]]></description>
<Style>
<IconStyle>
<scale>0.8</scale>
</IconStyle>
<LabelStyle>
<color>ffffffff</color>
<scale>0.75</scale>
</LabelStyle>
<LineStyle>
<color>ffff0000</color>
<width>3.0</width>
<gx:labelVisibility>1</gx:labelVisibility>
</LineStyle>
<PolyStyle>
<color>66ff0000</color>
</PolyStyle>
</Style>
<ExtendedData>
<SchemaData schemaUrl="#kml_schema_ft_ES24a_09a_lestany-artes">
<SimpleData name="id">ES24a_09a</SimpleData>
<SimpleData name="_formato">kml</SimpleData>
</SchemaData>
</ExtendedData>
<LineString>
<extrude>0</extrude>
<tessellate>1</tessellate>
<coordinates>2.11413189750434,41.8698230191133,871.243300000002 2.11349939910267,41.8696806947873,872.395499999999 2.11268803085659,41.8695428962281,873.611300000004 2.11226575080785,41.8693058557084,873.772599999997 2.11193902455584,41.8691209509301,872.990099999995 2.11183995026149,41.8692170080161,874.135299999994 2.1118355916357,41.8694750029318,876.632899999997 2.11176954210615,41.8697175749866,882.160999999993 2.11153468116838,41.8698278809859,885.377699999997 2.11116101614616,41.8699640032339,888.555500000002 2.11064167313094,41.870368010786,897.174100000004 2.11044805115292,41.8708270040101,903.247000000003 2.11008494762351,41.8709961505532,907.273499999996 2.10935706251171,41.8711984895298,912.955700000006 2.10897803275063,41.8713379648634,916.782800000001 2.10838342079608,41.8718303175955,925.985199999996 2.10797555780933,41.8720004702143,925.218800000002 2.10731506341182,41.872236169597,922.874800000005 2.10703091730432,41.8723810087072,921.226800000004 2.10702370832415,41.8726728665976,920.6198 2.10709311036637,41.8728862700636,918.762600000002 2.10714658707525,41.8732019320501,918.416899999997 2.10712194449037,41.8735348615609,918.493900000001 2.10709277529479,41.8735491105412,918.252600000007 2.10679354108374,41.8737383737811,918.132400000002 2.10625391410943,41.8739418866911,916.836800000005 2.10598334693573,41.8741777534969,913.387499999997 2.10563600075471,41.8744860399057,908.472399999999 2.10579006002933,41.8746957550713,904.129000000001 2.10605325203453,41.8750015266379,899.199600000007 2.10625307598127,41.8752930494911,898.791899999997 2.10617914822664,41.8753493756095,899.918600000005 2.10589131363656,41.8754387271431,899.911200000002 2.10551664250123,41.875549703523,899.597699999998 2.10527105298402,41.8756920281591,898.911699999997 2.1052257904701,41.8759795272379,898.414000000004 2.10526769957306,41.8762628358599,896.090500000006 2.10515923788398,41.8764276236871,894.467199999999 2.10498707396315,41.876532062132,894.950400000002 2.10457619263702,41.8766549411775,895.056400000001 2.10429690821182,41.8767335635497,894.180200000003 2.10412256407981,41.8769364054122,895.413100000005 2.10397806018488,41.8770579432716,892.9516 2.10398392708199,41.8771979208454,892.435899999997 2.10411401481323,41.8773107409041,891.574500000002 2.10493292621278,41.8780049303,884.225000000006 2.10535470410327,41.8781610011299,882.606499999994 2.10574446244379,41.8783118759249,880.697199999995 2.10564170056519,41.8785163942702,879.830700000006 2.10536643879582,41.8788793307037,877.9614 2.10434300795556,41.8789839363667,869.028099999996 2.10420688624059,41.8789369980437,868.600699999995 2.10340993505648,41.8786840322744,867.857000000004 2.10275463741291,41.8786419549332,868.281900000002 2.10221903399274,41.8786320646471,867.993400000007 2.10164353279754,41.8791009482698,868.133700000006 2.10148008522992,41.8792550072168,869.192899999995 2.10133725759131,41.8792987609441,869.602499999994 2.10111413134612,41.8792690890486,869.2111 2.10071917625166,41.8790483094604,866.268200000006 2.10029304063372,41.8786840322744,866.931299999997 2.09997134315069,41.8787197387994,864.602899999998 2.0996979247243,41.8787747242005,861.886299999998 2.09942014857045,41.8788630696802,861.570099999997 2.09906995293333,41.8788600518393,861.501699999993 2.09891254114611,41.8787701981017,861.104699999996 2.09812246297224,41.878089923201,861.402300000002 2.09775935854453,41.8779278170967,860.807000000001 2.09727622572011,41.8779035094728,860.456000000006 2.09666434634916,41.8778636114265,857.069000000003 2.09609806546204,41.877836956754,855.300900000002 2.09592925405385,41.877910047557,854.3894 2.0957725124098,41.8782882386386,852.743499999997 2.09564946567377,41.878776233123,851.131899999993 2.09547009277278,41.8792042132065,849.307100000005 2.09534134712457,41.8793007728243,848.960800000001 2.09508368784323,41.8793500585177,847.670100000003 2.09471203414891,41.8792114213394,845.621700000003 2.09447918453907,41.8791457073763,845.563299999994 2.09426930215609,41.8790112614136,844.579100000003 2.09390535960019,41.8789760573552,843.372000000003 2.09312282457977,41.8788608905744,840.781900000002 2.09264170398159,41.8785155561994,837.651899999997 2.09218388388525,41.8784568825258,834.272200000007 2.09187526227951,41.8783013147276,832.909700000004 2.09159262444334,41.8779036766873,829.870599999995 2.09137419279381,41.8774674829604,827.596999999994 2.09128165643807,41.8773876869674,826.645900000003 2.09088385098922,41.8775179419137,822.267600000006 2.09041077660104,41.8775965638931,818.656700000007 2.09013149127754,41.8776041079755,817.294299999994 2.08963528257584,41.8774758644736,814.743700000006 2.08917511607998,41.8775685687112,810.9666 2.08880061292961,41.877692285183,810.241500000004 2.08826098595526,41.8777529701499,810.497900000002 2.08795957243136,41.8776109811896,810.475900000005 2.08786401863457,41.8775660537929,811.7785 2.08770928921678,41.8772805664373,813.229500000001 2.08759495973226,41.8770420175557,815.213799999998 2.08727393329076,41.8768549332399,817.510599999994 2.08704393313698,41.8765005462083,818.156099999993 2.08687897729801,41.8765392705663,817.233399999997 2.08672961261908,41.8766785777301,817.157000000007 2.08636198158064,41.8768869519779,816.066600000006 2.08599016079969,41.8769699330745,816.184399999998 2.08574574448223,41.8769300351142,814.671400000007 2.08541013299379,41.8768331401553,814.386599999998 2.08463044832776,41.8764831120458,809.372199999998 2.08411395566693,41.8762559625008,807.627800000002 2.08403734464457,41.8760911742311,804.315000000002 2.0836351814683,41.8751713443983,809.908599999995 2.08324743445569,41.8751411695903,806.140499999994 2.08199903402723,41.8753210450009,801.230899999995 2.08140492423092,41.8753810593219,798.765299999999 2.0809695683049,41.8753389824815,798.986600000004 2.08018837536751,41.8752788002308,798.295599999998 2.0791679619683,41.8752809794588,797.580700000006 2.07866219788695,41.8750256668058,795.827300000004 2.07788770997483,41.8745544362382,794.684599999993 2.0774464871517,41.8743638316051,795.373399999997 2.07646999508164,41.8743660108643,800.043600000005 2.0752199183969,41.8746020453347,801.876900000003 2.07391150332095,41.874319742727,796.125400000004 2.07295110456923,41.8742186571887,790.684200000003 2.0721325282413,41.8739370251314,785.767999999996 2.07072906152684,41.8732646286685,774.116399999999 2.07055807080576,41.8732279164045,772.722399999999 2.07067592078788,41.873108054903,771.352199999994 2.07117279963278,41.873214002475,769.607099999994 2.07129182281467,41.8731451030274,768.374899999995 2.070901058361,41.8729960729265,765.441800000001 2.07044508340427,41.872385032234,758.731 2.07024760585704,41.8723045656614,757.532999999996 2.06960907167501,41.8720930064685,752.914099999995 2.06944243957968,41.8719020667241,750.605800000005 2.0691009611941,41.8717133064278,749.005799999999 2.06868102754485,41.8712310114593,745.774300000005 2.06824265417777,41.8711549035092,745.754199999996 2.06716205904442,41.8709550795733,738.200400000002 2.06710958844869,41.8708546643346,736.630699999994 2.06655839476675,41.8705267639642,734.986199999999 2.0663406323621,41.8705148616035,734.062099999996 2.06557502968647,41.8704280250752,731.227499999994 2.06495795356161,41.8700880555171,726.712499999994 2.06443207350608,41.8702439583773,723.849400000006 2.06404818206267,41.8701619833281,720.651700000002 2.06342892752328,41.8699239376786,716.6538 2.06321401547301,41.8699992069051,716.876300000004 2.06258704889687,41.8700719621675,711.966799999995 2.06211581785163,41.8699427128502,710.880300000004 2.06138005451483,41.8701559488312,707.504300000001 2.06103891120083,41.8703525877816,706.222500000003 2.06082198782266,41.870524081535,704.904299999995 2.06053046475004,41.8704394244124,703.507700000002 2.05950535855176,41.8702218305762,699.701100000006 2.05911593528282,41.8703559404926,698.109599999996 2.05902071655765,41.87051201194,697.044399999999 2.05875098661381,41.8709510559564,694.231599999999 2.05845963242447,41.8710217993326,692.220499999996 2.05797465535875,41.8709535704662,689.519199999995 2.05760266659288,41.8708553346039,687.092199999999 2.05656934530134,41.8702387620673,685.088499999998 2.05565957380241,41.8698018972561,682.305500000002 2.05488877347454,41.8695775970845,680.396399999998 2.05445475873322,41.8691891797458,679.876600000003 2.05366602174408,41.868558022626,680.959700000007 2.05314047676016,41.8684760474218,680.700200000007 2.05170800883505,41.868099029834,672.140700000004 2.05107701960307,41.8677785053713,670.319600000003 2.05071039467774,41.8674851386896,667.457599999994 2.05060796787072,41.8671719912271,667.242299999998 2.05023782334613,41.8669393096377,666.859599999996 2.04988393922646,41.8667250681617,668.979699999996 2.04936308793989,41.8666449369797,667.0916 2.04866604917832,41.8665609503861,668.982600000003 2.04792374700454,41.8667193684967,668.441500000001 2.04740758941533,41.8666202939218,669.914499999999 2.04732913504999,41.8666791350019,669.185100000002 2.04699989441354,41.8664997624256,671.192200000005 2.04662153479566,41.8664814899827,668.901700000002 2.04599859177368,41.8661916435445,668.051099999997 2.0458651524281,41.8660412726479,667.701799999995 2.0457913908618,41.8657393563939,661.614499999996 2.04577010168789,41.8654972870403,660.614700000006 2.0455717851142,41.8650305822055,663.941900000005 2.045346815526,41.864767893746,664.130099999995 2.04508798214659,41.864462959648,664.114499999996 2.04455103754167,41.8642639737906,659.089200000002 2.04444894580628,41.8639119333919,655.530299999999 2.04405197848558,41.8636319779486,653.200200000007 2.04377353218854,41.8632231089379,650.105299999996 2.04354420307629,41.8630781018952,649.121499999994 2.04335426868252,41.8630546329185,646.988800000006 2.04272193826581,41.863178182132,641.479999999996 2.0420507152889,41.863170470432,640.008100000006 2.04163463810719,41.8626455956376,641.922300000006 2.04135401159895,41.8623140076664,642.985799999995 2.04152600843311,41.8616509991746,643.9041 2.04146096501668,41.8614189879315,642.816999999995 2.04118821763178,41.8612340830894,641.591199999995 2.04057315373315,41.861045657924,641.725000000006 2.03979514532347,41.8609071891118,645.896500000003 2.03935777806952,41.8607791134897,646.676699999996 2.03892895918381,41.8603159295035,647.1872 2.03814910743115,41.8600599462406,643.443299999999 2.03749515097229,41.8599628838708,643.221699999995 2.0370220765841,41.8597575273875,642.128599999996 2.03662225980735,41.8594023022479,642.065900000001 2.03572254584632,41.8580923786087,646.435400000002 2.0357262343289,41.8573386777305,645.6351 2.03538408490179,41.8569661856725,646.133799999996 2.03461077108778,41.8564647801981,652.431899999996 2.03378716509256,41.8559226387503,663.297999999995 2.03325625536975,41.8558233969005,667.821500000005 2.03298367596985,41.8558413344995,669.849700000006 2.03236240920419,41.8557809846858,671.4372 2.03214883833863,41.8554457085411,671.659899999999 2.03196628001166,41.854988392049,668.588000000003 2.03203165939805,41.8548433850673,667.654999999999 2.03228630123837,41.8546978752624,665.4853 2.03252166523269,41.854655295026,663.848400000003 2.03271092858496,41.8545273875403,663.688399999999 2.03280178868438,41.8542636924203,663.015899999999 2.03272970427273,41.8541644506728,661.854999999996 2.03222075476533,41.8531527548385,654.016300000003 2.0316316746363,41.8520161690015,636.890899999999 2.03145783356083,41.8518190266764,634.371400000004 2.03145984578707,41.851515601955,633.260200000004 2.03146940116676,41.8512686710094,631.292499999996 2.03111032029318,41.8506430454479,628.9522 2.0307810787584,41.8500640240305,624.786300000007 2.03042769769531,41.8497411527785,623.164900000003 2.03010013331517,41.8495166852041,620.967900000003 2.0296490191424,41.8490330497572,616.728099999993 2.02960560086978,41.8483784227361,615.199299999993 2.02960107515737,41.8478939489108,614.724100000007 2.03018495853249,41.8475878422549,613.097599999994 2.03046407587107,41.847386006058,611.822400000005 2.03107075758975,41.8473211299784,611.252500000002 2.03130109191682,41.8471650588027,612.802800000005 2.03136496213351,41.8468418523807,611.981499999994 2.03136898568768,41.8462333261447,611.032800000001 2.03152656545985,41.8451515580715,607.809299999994 2.03150812574204,41.8444657504334,607.748399999997 2.03167190748294,41.8440119544636,610.186300000001 2.031803000429,41.8437628443657,609.999800000005 2.03181775256257,41.8433271531623,610.732499999998 2.03196510681188,41.8431367164283,611.164499999999 2.03233558640813,41.842703539259,609.605299999996 2.03229937711566,41.8421774913026,609.290999999997 2.03254815205884,41.8418237746884,611.810400000002 2.0326100100493,41.8416440667057,613.647800000006 2.03310906910539,41.8414640235988,617.571599999996 2.03316958591116,41.8405757090709,620.620999999999 2.03328324525248,41.8400275328107,617.307499999995 2.03406125276386,41.8392498602652,613.129400000005 2.03418178511541,41.8390153343138,613.851999999999 2.03414993355039,41.8388500431429,615.047300000006 2.03350553247121,41.8382654891997,621.501699999993 2.03237313778363,41.83727843657,623.080600000001 2.0323689471428,41.8371840562516,624.626499999998 2.03234463962954,41.8369019210685,621.451300000001 2.0324857901135,41.8365052898262,625.745899999994 2.03251915084821,41.836129947735,624.385699999999 2.03253507618156,41.8360560193983,624.074500000002 2.03210592312256,41.8358209911469,620.828200000004 2.03170392703292,41.8359210712008,615.770300000004 2.0318479278713,41.8355249418793,612.586500000005 2.03147359180755,41.8351643528824,610.5628 2.03131634710696,41.8349253008272,608.383499999996 2.03122129636674,41.8343566728215,604.888500000001 2.03084528404671,41.8339952446121,602.090800000005 2.03027632079015,41.8336639920254,590.437000000005 2.03001497302623,41.8335422866729,593.803499999995 2.02901903512524,41.8333102758751,586.963199999998 2.02868895636059,41.8334269517062,582.264999999999 2.02823532780337,41.8338705219328,573.400599999994 2.02779795965109,41.8338130221009,571.122399999993 2.02772369592658,41.8337364118009,572.0622 2.02726755298485,41.8334807639181,567.415200000003 2.02644595831757,41.8329699704319,559.243199999997 2.02589895617476,41.8326990674519,555.513500000001 2.02569527576051,41.8324105625295,550.015100000004 2.02558295760392,41.8320479613609,545.620200000005 2.02550617949489,41.8314258560132,542.1927 2.02524516770088,41.83104263536,544.434200000003 2.02520845445354,41.8308144803309,544.402600000001 2.02476739871704,41.8303519669266,546.611499999999 2.02453069353799,41.8301573388873,547.141900000002 2.02457143033946,41.8299930536437,547.969700000001 2.02466044619761,41.8298918003035,548.712599999999 2.02532747763543,41.8297632221396,550.923699999999 2.02564632476404,41.8297342207133,552.448399999994 2.02580139015177,41.8295821730228,548.548800000004 2.02560139822007,41.8293540174738,549.231199999995 2.02560994748661,41.8291739739284,550.588600000003 2.02604815376705,41.8288209284429,554.3073 2.02634638186495,41.8285622628024,555.507899999997 2.02637705933193,41.8283134881637,556.511400000003 2.02649138881645,41.8282170958642,557.808199999999 2.02659348055185,41.8281461853166,556.919699999999 2.02704409166805,41.8282204487761,554.377800000002 2.02709153259653,41.8282799604238,554.709900000002 2.02726704992831,41.8282660460853,554.520799999998 2.02737165604819,41.8280251502318,556.769899999999 2.02739093479249,41.8274870324241,558.142800000001 2.02756796039564,41.8272230022745,558.056299999997 2.02848376677668,41.8269686952736,553.774600000004 2.0292978173922,41.8265019911131,550.514999999999 2.0295690556074,41.8265150670827,548.720400000006 2.02977810076052,41.8256634653909,541.101999999999 2.02976200744222,41.8253840126148,537.827799999999 2.02996183228727,41.8253561846841,536.3024 2.03007297634581,41.8252520817015,535.325400000002 2.03012377068523,41.8249914047875,532.439799999993 2.03019451391218,41.8247629135671,526.198699999994 2.03011136495114,41.8245305677031,522.916500000007 2.03004347118028,41.8243156553289,516.708899999998 2.02936973381889,41.8238075447262,507.245599999995 2.02915901330775,41.8235944762017,507.063200000004 2.02916102463566,41.8233929753539,506.522700000001 2.02864738143096,41.8230820072341,501.430500000002 2.02826734645505,41.8229313000152,497.812600000005 2.02786803273484,41.8226340778598,494.467999999993 2.02772771948071,41.8221001509652,489.931299999997 2.02763702736628,41.8219620169219,488.085600000006 2.02725782962024,41.8216768643948,486.438599999994 2.02681694186866,41.821228935902,483.794500000004 2.02664645420415,41.8209035506242,481.123399999997 2.02655257666371,41.820773128134,481.309399999998 2.02634034698288,41.8206247679524,483.771500000003 2.02617807351334,41.8203310664921,485.045700000002 2.02610280367568,41.8197823867944,485.799400000004 2.02589392650751,41.8190880299288,485.520000000004 2.02615695052775,41.8185760631553,487.034799999994 2.0272189379583,41.8179440678122,493.316300000006 2.02724659798423,41.8175960511927,491.999100000001 2.02752839769224,41.817307043037,491.156300000002 2.02759394416525,41.8169890337419,490.908599999995 2.02762227523268,41.816841512376,489.045400000003 2.02721809983014,41.8166011191794,487.250100000005 2.02709555615066,41.8163275338664,486.982300000003 2.02694451431712,41.8161783358793,484.268400000001 2.0265198869705,41.8161721335995,482.216199999995 2.02646791943132,41.8161050781069,481.099600000001 2.02614421062039,41.8159531982311,481.360100000005 2.02598495369356,41.8159622506177,481.855299999996 2.02590499105686,41.8158499329125,477.935100000002 2.02608201666001,41.8154219532632,470.320600000006 2.02647898308237,41.8150419181079,460.3649 2.02630195747922,41.8142820144389,452.213300000003 2.02517006584818,41.8138500111632,438.905199999994 2.02505707754839,41.8135229493804,433.590200000006 2.02462306280707,41.8133229567668,428.192200000005 2.02434612478138,41.8133412296654,422.986000000004 2.02390892461405,41.8137070159494,416.214200000002 2.02263537764588,41.8138372707188,408.495599999995 2.02254703282926,41.8137499314192,406.741899999994 2.02244996986282,41.8132470169229,402.688699999999 2.02183105039501,41.8131038543181,406.281700000007 2.02179282887627,41.8129984097505,407.386599999998 2.0220689287738,41.8123669170958,415.727599999998 2.02165100735081,41.8118430482605,421.861099999995 2.02167196235144,41.8115190039444,422.548800000004 2.02145135049069,41.8114392080152,425.355899999995 2.02093284560366,41.8114970433015,422.004000000001 2.02070418753291,41.8114482603702,421.546300000002 2.02066747428557,41.8113478454443,422.752399999998 2.02070418753291,41.8111805424579,421.143700000001 2.02062606823919,41.8111399740693,421.75 2.02010404285454,41.8110983999812,423.7022 2.01973021074566,41.8110140779899,424.076799999995 2.01915269732424,41.8107728467275,422.762000000002 2.01925797358734,41.810432038496,426.097999999998 2.0191830397196,41.8098280385246,433.029399999999 2.01946718582712,41.8096171498135,435.004400000005 2.01983045823982,41.8092449932645,437.644199999995 2.01981101151052,41.8089239663212,437.093699999998 2.01949568487951,41.8087459350034,434.388699999996 2.01932301700382,41.8084810669291,433.967099999994 2.01914045957514,41.8085055422229,433.661600000007 2.01883401728226,41.8087050316214,436.297699999996 2.01869538028447,41.8092086158671,437.101800000004 2.01834602277552,41.8096280464268,438.466499999995 2.01824627833793,41.8097076745412,438.2307 2.01810495897072,41.8096719676475,438.609899999996 2.01749911538016,41.809309031468,433.150399999999 2.01742401352745,41.8088730046267,433.756800000003 2.01783707326815,41.8083570150183,440.549400000004 2.01652195316693,41.8074849614787,430.218999999997 2.01602105076787,41.8074282997179,432.721000000005 2.01531982046721,41.807173993115,432.036399999997 2.0145270599239,41.8073570534469,432.800799999997 2.01379196762859,41.8071034174987,431.270300000004 2.01275898140868,41.8069604219551,429.967999999993 2.01249897482945,41.8068449192436,428.947799999994 2.01234659181118,41.8067991540113,428.526100000003 2.01221181038257,41.8064796361537,424.5864 2.01181199360582,41.8061929750336,421.518500000006 2.01055001424354,41.8055514239725,421.662599999996 2.01018439632965,41.8054620732341,420.595700000005 2.00959112466151,41.8052723066268,421.588300000003 2.00910061577029,41.8049214402185,422.0196 2.00809160289035,41.804670821327,421.723400000003 2.00805187220195,41.8043806399217,420.8995 2.00817441588143,41.8038631409405,418.253100000002 2.00808405883859,41.803762055206,417.319699999993 2.00779471507882,41.8036530903953,416.215500000006 2.00698217363299,41.8037717782789,413.488800000006 2.00646366964423,41.8036408528272,412.969299999997 2.00602395419413,41.8032980332306,413.733399999997 2.00545113536836,41.8032329899176,417.420700000002 2.00496532017451,41.8030899944409,422.113700000002 2.00472107184204,41.8029900820374,423.537299999996 2.00449492815576,41.8025629405761,424.382599999997 2.00405487763408,41.8024417379379,424.325500000006 2.0036589164265,41.80203689221,423.256599999993 2.00335297719019,41.8019109956521,422.967600000004 2.00179193160185,41.8017629714717,421.290099999998 2.00106203516212,41.8019629640144,418.206999999995 2.00072407727413,41.8015869513207,415.382100000003 1.99989795689447,41.8012030605509,413.1152 1.99935765977693,41.8011923312589,411.703399999999 1.99878199059677,41.8010858813434,409.820900000006 1.9979327359036,41.8011953487469,407.346699999995 1.99772452977694,41.8012593869606,406.646500000003 1.99713494659134,41.8011710414239,408.384900000005 1.99674049365516,41.8010250285374,408.4709 1.9955100307863,41.8000029397306,401.779999999999 1.99258592021337,41.7993789908137,390.270000000004 1.99200907693514,41.7990918264688,389.747799999997 1.99169006182158,41.7987200052337,388.137100000007 1.99087500599124,41.7986599906375,386.429699999993 1.98950204965706,41.7977279235815,382.446899999995 1.98956105819147,41.797043959844,385.501799999998 1.98899192694995,41.7964280574788,381.661999999997 1.98749491956327,41.7970560299068,389.590599999996 1.98512401400017,41.7964760019862,391.550799999997 1.98462244145794,41.7964811989302,392.220600000001 1.98257977131651,41.7961755951347,384.839600000007 1.9802796098787,41.7961940349946,368.076400000005 1.9799914393187,41.7961595012728,367.112999999998 1.97955122260869,41.7960530517033,364.5484 1.97882099109737,41.795740070943,362.328099999999 1.97866592570964,41.7952359836903,357.936499999996 1.97840424287413,41.7952071494613,359.397599999997 1.97801683093313,41.7957826515357,359.907399999996 1.97778733473422,41.7958889334557,361.096000000005 1.9751180339866,41.79511310494,357.483999999997 1.97474302688135,41.7949074130853,357.436900000001 1.97403324731412,41.7948219171848,356.315600000002 1.97173627130232,41.7940754248603,347.9522 1.97144625739935,41.794070228391,347.823999999993 1.97113797086519,41.7940869925118,347.501099999994 1.9701950066165,41.7936920369387,344.648700000005 1.96900544673749,41.7937751855768,343.590500000006 1.9680390131037,41.7937079626461,342.072499999995 1.96743249936994,41.793866380323,343.555200000003 1.96658089737892,41.7940881658862,343.815499999997 1.96609692642634,41.7940519560234,344.885599999994 1.96494307368155,41.7946440536281,350.678799999994 1.96448240412912,41.7951302036497,351.203800000003 1.96417596183624,41.7956919591254,348.312999999995 1.9633287193693,41.7961648656706,351.230200000005 1.96232004066264,41.7965879846518,349.643100000001 1.96124698958101,41.7965199235168,342.427100000001 1.95968979956188,41.7969881366949,331.741899999994 1.95861188679796,41.7975700083467,334.235799999995 1.95678949344566,41.79856544289,322.872499999998 1.95625305189736,41.7986199252915,321.828500000003 1.95547839600028,41.7985079434976,317.224300000002 1.95542693151767,41.7984335116427,316.338099999994 1.95534596186952,41.798055990851,313.007700000002 1.9550643301465,41.7979875944192,312.654399999999 1.95452453608553,41.7982568213615,312.188699999999 1.95407509816911,41.7980494533096,311.633100000006 1.95365684077618,41.7978561662626,311.024900000004 1.95210015381359,41.7972411021324,308.907699999996 1.95186110223502,41.7971301258315,308.506399999998 1.95165976911858,41.797065082285,308.332800000004 1.95137696329749,41.7969440473894,307.9133</coordinates>
</LineString>
</Placemark>
</Folder>
</Document></kml>
