<?xml version="1.0" encoding="UTF-8"?>

<kml xmlns:xsd="http://www.w3.org/2001/XMLSchema" xmlns:gx="http://www.google.com/kml/ext/2.2" xmlns:atom="http://www.w3.org/2005/Atom" xmlns="http://www.opengis.net/kml/2.2">
<Document>
<name>FR04a_15a_angles-boissezon</name>
<visibility>1</visibility>
<Schema name="FR04a_15a_angles-boissezon" id="kml_schema_ft_FR04a_15a_angles-boissezon">
<SimpleField type="xsd:string" name="id">
<displayName>id</displayName>
</SimpleField>
<SimpleField type="xsd:string" name="nombre">
<displayName>nombre</displayName>
</SimpleField>
<SimpleField type="xsd:double" name="longitud">
<displayName>longitud</displayName>
</SimpleField>
<SimpleField type="xsd:string" name="_formato">
<displayName>_formato</displayName>
</SimpleField>
</Schema>
<Folder id="kml_ft_FR04a_15a_angles-boissezon">
<name>FR04a_15a_angles-boissezon</name>
<Placemark id="kml_1">
<name>&lt;img height='20' src='https://nco.ign.es/iconos/icono_todos_caminos_azul.png' /&gt;&lt;img height='20' src='https://nco.ign.es/iconos/Camino Santiago_20.png' /&gt;&lt;img height='20' src='https://nco.ign.es/iconos/icono_todos_caminos_azul.png' /&gt;  Camino de Santiago </name>
<visibility>1</visibility>
<description><![CDATA[<!DOCTYPE html>
<html>
<head>
<style>
#nco {
  border-collapse: collapse;
  overflow:hidden;
}
#nco th, #nco td {
  padding: 4px;
  text-align: left;
}
#nco th {
  color: #364B5F;
  padding-right: 5px;
}
#nco td {
  color: rgb(51, 51, 51);
  font-size: 12px;
  padding-right: 5px;
}
</style>
</head>
<body>
<table id="nco">
<tr>
<td>Via Tolosana Arles</td>
</tr>
<tr>
<th><b>Camino: </b></th>
<td>FR04a Via Tolosana Arles</td>
</tr>
<tr>
<th><b>Etapa: </b></th>
<td>15a Angles-Boissezon</td>
</tr>
<tr>
<th><b>Longitud: </b></th>
<td>20.16 km</td>
</tr>
</table>
</body>
</html>]]></description>
<Style>
<IconStyle>
<scale>0.8</scale>
</IconStyle>
<LabelStyle>
<color>ffffffff</color>
<scale>0.75</scale>
</LabelStyle>
<LineStyle>
<color>ffff0000</color>
<width>3.0</width>
<gx:labelVisibility>1</gx:labelVisibility>
</LineStyle>
<PolyStyle>
<color>66ff0000</color>
</PolyStyle>
</Style>
<ExtendedData>
<SchemaData schemaUrl="#kml_schema_ft_FR04a_15a_angles-boissezon">
<SimpleData name="id">FR04a_15a</SimpleData>
<SimpleData name="_formato">kml</SimpleData>
</SchemaData>
</ExtendedData>
<LineString>
<extrude>0</extrude>
<tessellate>1</tessellate>
<coordinates>2.55907919242129,43.563363756454,750.319900000002 2.55870468927092,43.5634923346458,747.757899999997 2.55824737223112,43.5636465617191,743.745599999995 2.5581053827207,43.5636695283926,741.669699999999 2.55804235153046,43.5634180713839,741.461899999995 2.55792399849177,43.563218078652,740.128599999996 2.55775049338625,43.563046585109,737.285300000003 2.55748243969873,43.5630408855301,735.391099999993 2.55678053925484,43.5631894128924,730.5432 2.55631534399,43.5632123790892,729.501199999999 2.55566088447459,43.5631837133269,731.276700000002 2.55507733706942,43.5628579922909,728.4571 2.5544071193073,43.5626238019501,723.4274 2.55413102030807,43.5624695748623,722.984899999996 2.55383145102544,43.5623609458471,722.679199999999 2.55345292432093,43.5623723451331,723.924700000003 2.55274331184033,43.5623324469717,725.257599999997 2.55229370683725,43.5622752825392,726.176000000007 2.55160773172673,43.5620752905702,729.377500000002 2.5508664365644,43.5617666685016,737.303100000005 2.55041699864795,43.5615266108078,741.257599999997 2.54979472576917,43.5613413708445,747.617100000003 2.54835739706009,43.5614716256459,756.367100000003 2.54506347703415,43.5617971784217,765.997399999993 2.5434764476762,43.5621009390823,768.153200000001 2.54299733750762,43.5622744441254,765.606599999999 2.54248822091362,43.5610594036042,768.262900000002 2.54185941099451,43.5605819707426,768.816900000005 2.5413204541634,43.5597357334726,761.474799999996 2.54045192162421,43.5594752238939,758.898499999996 2.53943385552282,43.5591064200677,757.372300000003 2.53895474625257,43.5589327470624,755.608600000007 2.53847563608399,43.5579346298957,762.163400000005 2.53748741021971,43.5571750618633,755.111600000004 2.53724785558457,43.5567410474258,756.668900000004 2.53766711819229,43.5561985700652,752.675000000003 2.53769712551604,43.5552002858667,740.649000000005 2.53751741754346,43.5546794340415,737.197700000004 2.53682876006351,43.554440717871,734.339300000007 2.53619978215944,43.5542672124038,733.403999999995 2.53515187671926,43.5549181505683,732.103499999997 2.53416364995668,43.5562419883807,736.943700000003 2.53338513938873,43.5560248971417,731.997799999997 2.53257662059874,43.5561117339915,731.339300000007 2.53140868586355,43.5554824204951,727.901299999998 2.53101943057957,43.5557861804419,728.957399999999 2.53113929188962,43.5564807052278,733.408100000001 2.53158839383613,43.5574571970107,738.890299999999 2.53179794204582,43.5582167647415,746.540399999998 2.53149853984986,43.5588242854817,747.539000000004 2.5315285471736,43.5592366751442,745.963499999998 2.53209751132845,43.5596271040849,748.221000000005 2.53257662059874,43.5610376109108,749.078599999993 2.53275616058636,43.561688549496,752.525899999993 2.53254124853609,43.5627756820153,758.448999999993 2.5327283334738,43.5636428735633,764.162400000001 2.53175586495791,43.5651335112717,788.6253 2.53149401413745,43.566190469693,792.7114 2.53100769588702,43.5681959239404,809.162299999996 2.53022231141055,43.5685752885372,811.688899999994 2.52910031023078,43.5681146194071,808.282600000006 2.52838952455043,43.5676809395697,802.272100000002 2.52730490676121,43.5677080970472,804.289600000004 2.5255096703783,43.5679520100113,798.088499999998 2.52393873433868,43.5677350865845,788.009300000005 2.52203118069745,43.5678707057997,774.549400000004 2.52098394540047,43.5679520100113,768.054099999994 2.51956271000969,43.5679248526438,745.202099999995 2.51918854193093,43.5686565930995,739.734500000006 2.5188145418371,43.569388333127,743.303700000004 2.51799177397008,43.5699844540192,744.928700000004 2.51746807232911,43.5703096718116,745.677500000005 2.51533621924291,43.5703638190666,756.294299999994 2.51421405007822,43.5702825148563,749.923800000004 2.51283019807798,43.5704451238181,741.217999999993 2.5124935804764,43.5706348898004,738.286300000007 2.51234404781252,43.5712310107211,744.9614 2.51223172965589,43.5717729843578,751.049700000003 2.51152111196051,43.5720438879926,749.687999999995 2.5109975783045,43.5722064967548,747.941099999996 2.51036172739019,43.5723691057287,742.286300000007 2.50927694161605,43.5726130186918,733.238400000002 2.50763190893851,43.5722774077989,738.702000000005 2.50637093568934,43.5719325759154,743.760299999994 2.50579979311993,43.5719153091797,744.651899999997 2.50451501451574,43.5722428738692,742.7399 2.50311121362797,43.5722428738692,750.624800000005 2.49828139275684,43.5727255042585,750.885999999999 2.49390335709994,43.5726738713308,770.072400000005 2.4930468943249,43.5725186384051,775.646699999998 2.49207140836799,43.5724152061882,781.166400000002 2.49159548452371,43.5727082370993,783.084000000003 2.48757451751416,43.5727082370993,797.324099999998 2.48495735229069,43.5720705423587,790.423899999994 2.48136453312532,43.5712085474309,795.556299999997 2.47969904940203,43.5704156192919,792.571200000006 2.47884258662701,43.5689675614051,784.214099999997 2.47896144182394,43.5682780660433,777.216499999995 2.47834285742772,43.5673126389928,766.705400000006 2.47705807882354,43.5658471469032,760.618900000001 2.4762966667887,43.5649162522378,768.121700000003 2.4755352547539,43.5645886880583,772.940400000007 2.47279906634853,43.5646748538388,771.387100000007 2.47208526322714,43.5647439205933,767.083499999993 2.47153809309937,43.5646059542909,764.297500000001 2.47049119287401,43.5653127167092,766.724400000006 2.46963473009896,43.5653817833832,767.056899999996 2.46892092787589,43.5651749183427,768.236300000004 2.46668430068486,43.5660712787024,769.658899999995 2.46566120491618,43.5664850097276,767.0723 2.46463811004584,43.5665540763594,757.8024 2.46397191673621,43.5668125740098,753.540999999997 2.46280616131388,43.5677091026625,748.662200000006 2.46228262765791,43.5677263693024,747.812900000004 2.4613547515127,43.5673815380484,745.881099999999 2.46030785128734,43.5673126389928,748.865099999995 2.45916573323511,43.5670539729549,748.571800000005 2.45778573680408,43.5666229756318,742.121100000004 2.45678644639045,43.5661919784794,735.338900000002 2.45609644772578,43.5656575480901,730.5196 2.45559688651144,43.5653127167092,729.289600000004 2.45528759476246,43.5650714852306,726.163100000005 2.45490688874506,43.5655541151558,727.946100000001 2.45421689008038,43.5658300476579,726.730500000005 2.45290830701948,43.5668471077987,720.828699999998 2.45202787180279,43.5678814349366,710.924400000004 2.4516709711404,43.5686227300972,699.404200000004 2.4514568972183,43.5690537274307,681.235700000005 2.45067167982845,43.5690364611713,676.566800000001 2.45024336489761,43.5687088959652,679.041500000007 2.44995787760538,43.5682262659323,680.722999999998 2.44971999922656,43.5690709943361,665.3269 2.44979141259671,43.5694501913561,658.641000000003 2.45045760680467,43.5697604897331,653.623000000007 2.45131406957972,43.5701571214834,648.776500000007 2.45079070301034,43.5701914873863,649.235799999995 2.44962478050139,43.5700364218414,650.227799999993 2.44883973109649,43.5693123933423,648.210200000001 2.44841141616565,43.5689159291608,644.381200000003 2.44705522419135,43.568950295121,641.275200000004 2.44617478897462,43.5689848283351,640.994999999995 2.44531832619961,43.5686745305182,645.551399999997 2.44474735071682,43.5681055669771,654.638699999996 2.44339115874248,43.5682607995615,651.875700000004 2.4429152348982,43.5682435330748,652.177299999996 2.4425345288808,43.5683642324044,651.188999999998 2.44227284604529,43.568795229635,652.024099999995 2.44120214136318,43.568950295121,652.075700000001 2.43944143891475,43.5692605928191,646.263300000006 2.43815666031057,43.5691571602137,647.046300000002 2.43760932219784,43.5690193615295,648.396200000003 2.43682427369128,43.568795229635,649.088699999993 2.43601525184471,43.5686745305182,651.435500000007 2.43489693824919,43.5687606963121,658.207399999999 2.43365976945674,43.568588364601,654.339399999997 2.43268428349984,43.5683296988344,652.060599999997 2.43197048127674,43.5677609025674,643.675199999998 2.43104260423327,43.566967807323,628.567200000005 2.43030499665515,43.5665022760675,622.669399999999 2.42973402117236,43.5661919784794,620.194000000003 2.42904402340598,43.5660712787024,619.423299999995 2.42863951293186,43.5662954109694,619.568199999994 2.42697402831028,43.5660885458118,626.002800000002 2.42492783856959,43.5660541795207,623.791299999997 2.42335740468822,43.5659851129666,624.513600000006 2.422405723188,43.5656748146672,621.935200000007 2.42147784704283,43.5652092838336,620.615300000005 2.41981236242124,43.5654161494071,620.320800000001 2.4185274167304,43.5660885458118,614.471300000005 2.41764714949866,43.5668989077941,600.8416 2.41686193300711,43.5677263693024,593.511899999998 2.41541069029259,43.568433131559,594.298899999994 2.4145778639893,43.5688468619828,581.662899999996 2.41345955039379,43.569139893333,563.489400000006 2.41231760032651,43.5694330924826,552.2935 2.41184167558394,43.5697261235843,547.431800000006 2.4109614083522,43.5703467198017,532.187300000005 2.41029521414424,43.5705017851985,524.986399999994 2.41003336422207,43.5702605543241,523.558699999994 2.40946238873928,43.5707604507489,508.933499999999 2.40946238873928,43.5711569145043,500.776299999998 2.40965265820464,43.5713981456935,502.217900000003 2.40943858428257,43.5719671093722,497.028600000005 2.40886760879978,43.5723635736452,503.308699999994 2.40770168629082,43.572742770762,494.973499999993 2.40694027425599,43.5735529657732,486.158100000001 2.40629788450475,43.5744147930786,490.812099999996 2.40456098651301,43.574845790616,468.568299999999 2.40401381638524,43.5749664897308,465.280199999994 2.40365691482456,43.5748285234138,464.1921 2.40270523332433,43.5748285234138,465.551300000006 2.40232452730693,43.5747941575536,465.779500000004 2.40199143110127,43.5746043916605,465.774000000005 2.40063523912696,43.5748630571624,465.767099999997 2.39885073132345,43.5747423578402,467.447199999995 2.39701878259153,43.5747768909874,474.414399999994 2.3951628614179,43.5746561914926,471.6976 2.39285498884167,43.5743631602976,447.795899999997 2.3921411857203,43.5744665930738,437.426399999997 2.39102287212479,43.5748285234138,422.528399999996 2.39123694604686,43.5751733549855,422.886499999993 2.3912845549603,43.5753973193178,427.565300000002 2.39097526321135,43.5753973193178,420.866399999999 2.39042809218528,43.575259521244,409.870599999995 2.39002358171113,43.5752249877228,404.230899999995 2.38961907123701,43.5752077206293,399.137400000007 2.38964287569373,43.5748803237038,399.157200000001 2.39035667881512,43.5743976936622,406.844500000007 2.39085640801442,43.5738805306669,406.9179 2.39109428639324,43.5733979004224,399.476500000004 2.38945260622834,43.5736218648496,370.231199999995 2.38847712027143,43.5742079271706,353.053599999999 2.38628810289214,43.5751733549855,344.184299999994 2.38574093186607,43.5754663861429,338.3514 2.38436093543501,43.5758455838973,310.045299999998 2.38386120623572,43.5758283169818,308.183799999999 2.38317120846937,43.5752938868386,312.353300000002 2.38238599107952,43.5748285234138,307.209499999997 2.38160094257296,43.5745011263792,303.7402 2.38098235817673,43.5741908283462,306.675399999993 2.38017333633016,43.5746043916605,294.104900000006 2.37938811983861,43.5750008554926,284.084000000003 2.37917404591654,43.5756903506869,276.757899999997</coordinates>
</LineString>
</Placemark>
</Folder>
</Document></kml>
