<?xml version="1.0" encoding="UTF-8"?>

<kml xmlns:xsd="http://www.w3.org/2001/XMLSchema" xmlns:gx="http://www.google.com/kml/ext/2.2" xmlns:atom="http://www.w3.org/2005/Atom" xmlns="http://www.opengis.net/kml/2.2">
<Document>
<name>FR04a_18a_dourgne-revel</name>
<visibility>1</visibility>
<Schema name="FR04a_18a_dourgne-revel" id="kml_schema_ft_FR04a_18a_dourgne-revel">
<SimpleField type="xsd:string" name="id">
<displayName>id</displayName>
</SimpleField>
<SimpleField type="xsd:string" name="nombre">
<displayName>nombre</displayName>
</SimpleField>
<SimpleField type="xsd:double" name="longitud">
<displayName>longitud</displayName>
</SimpleField>
<SimpleField type="xsd:string" name="_formato">
<displayName>_formato</displayName>
</SimpleField>
</Schema>
<Folder id="kml_ft_FR04a_18a_dourgne-revel">
<name>FR04a_18a_dourgne-revel</name>
<Placemark id="kml_1">
<name>&lt;img height='20' src='https://nco.ign.es/iconos/icono_todos_caminos_azul.png' /&gt;&lt;img height='20' src='https://nco.ign.es/iconos/Camino Santiago_20.png' /&gt;&lt;img height='20' src='https://nco.ign.es/iconos/icono_todos_caminos_azul.png' /&gt;  Camino de Santiago </name>
<visibility>1</visibility>
<description><![CDATA[<!DOCTYPE html>
<html>
<head>
<style>
#nco {
  border-collapse: collapse;
  overflow:hidden;
}
#nco th, #nco td {
  padding: 4px;
  text-align: left;
}
#nco th {
  color: #364B5F;
  padding-right: 5px;
}
#nco td {
  color: rgb(51, 51, 51);
  font-size: 12px;
  padding-right: 5px;
}
</style>
</head>
<body>
<table id="nco">
<tr>
<td>Via Tolosana Arles</td>
</tr>
<tr>
<th><b>Camino: </b></th>
<td>FR04a Via Tolosana Arles</td>
</tr>
<tr>
<th><b>Etapa: </b></th>
<td>18a Dourgne-Revel</td>
</tr>
<tr>
<th><b>Longitud: </b></th>
<td>17.26 km</td>
</tr>
</table>
</body>
</html>]]></description>
<Style>
<IconStyle>
<scale>0.8</scale>
</IconStyle>
<LabelStyle>
<color>ffffffff</color>
<scale>0.75</scale>
</LabelStyle>
<LineStyle>
<color>ffff0000</color>
<width>3.0</width>
<gx:labelVisibility>1</gx:labelVisibility>
</LineStyle>
<PolyStyle>
<color>66ff0000</color>
</PolyStyle>
</Style>
<ExtendedData>
<SchemaData schemaUrl="#kml_schema_ft_FR04a_18a_dourgne-revel">
<SimpleData name="id">FR04a_18a</SimpleData>
<SimpleData name="_formato">kml</SimpleData>
</SchemaData>
</ExtendedData>
<LineString>
<extrude>0</extrude>
<tessellate>1</tessellate>
<coordinates>2.13662439978007,43.4855957882903,257.770099999994 2.13576341039431,43.4850960589284,261.284 2.1342516499757,43.4846933925071,257.841100000005 2.13150540403243,43.4861734691155,249.762400000007 2.12964210679199,43.4853302493089,245.969299999997 2.12937187379161,43.4855223630603,244.385399999999 2.12927900236425,43.4854913498275,243.983999999997 2.12877474745259,43.4854765976308,242.136199999994 2.12880358067826,43.4855295709966,242.164999999994 2.12816555045106,43.4861372590473,239.581099999996 2.12727824222411,43.4872512139878,237.069399999993 2.12678974466083,43.4875911840589,235.358800000002 2.12639110198215,43.4877791064056,235.120299999995 2.12626134932249,43.487945570772,235.1057 2.12240114840946,43.4864131913816,233.828999999998 2.12108720060969,43.4852041858151,236.601899999994 2.12037943326869,43.4844446179759,238.124299999996 2.1199207750442,43.4838369298441,238.850200000001 2.11859492546522,43.4833450798172,239.984700000001 2.11723906946079,43.4828532296965,240.787800000006 2.11656114056028,43.4823035441259,246.695800000001 2.11628185613508,43.4821804980495,249.499400000001 2.11619216923543,43.481999616727,252.354900000006 2.1161423810091,43.4818621532863,252.642600000006 2.11588639798407,43.4815545376592,256.809899999993 2.11462693300627,43.4813993047154,257.007700000002 2.11362009854088,43.4813196762624,249.699999999997 2.11294217053867,43.4810085400018,245.597200000004 2.11071895429654,43.4797427050512,238.140899999999 2.10979174829457,43.4791784356042,241.036999999997 2.10947273318097,43.4787878390429,243.284400000004 2.10928330184374,43.4783826574637,244.893200000006 2.10913376917986,43.4769067724633,240.904500000004 2.10898423561766,43.4761689973392,239.921799999996 2.10883470295378,43.4758072340111,240.975999999995 2.10869505984288,43.4758794859397,240.907600000006 2.10825651849085,43.4755250994968,243.461200000005 2.10796734361437,43.4753152162685,245.223899999997 2.10714977250122,43.4749680376684,249.525399999999 2.10441827779322,43.4740492138014,251.523499999996 2.10401946712959,43.4738899576259,251.9329 2.10352091113004,43.4737018675609,252.841700000004 2.10326174267901,43.473549987374,253.069600000003 2.10304247200299,43.4732388515217,253.073300000004 2.10091078690175,43.4713195633019,256.920199999993 2.09838666019226,43.4745628565506,243.263099999996 2.09812749174122,43.4750330814127,242.059399999998 2.0973000301768,43.4760603673322,237.640100000004 2.09578458217397,43.4779992691559,228.427899999995 2.09557520194923,43.4781077314107,227.531499999997 2.09549540639919,43.4780787298962,227.555600000007 2.09520639860933,43.4777025498338,228.4231 2.09485737617199,43.4774712097929,229.707399999999 2.09449846328338,43.4774204150427,231.2503 2.09396017749377,43.4774856262821,232.596099999995 2.09253458347724,43.4773119535096,237.946500000005 2.09202613702641,43.4772397013382,239.7598 2.09019167390998,43.4768923551841,240.048200000005 2.0895038545582,43.4769791919098,239.6728 2.08764944255425,43.4774856262821,236.108300000007 2.08732053609105,43.4772757433448,235.868400000007 2.08712104721592,43.4771816987657,235.626499999998 2.08669239631517,43.4769067724633,236.243799999997 2.08619384121395,43.4764799655683,237.878500000006 2.08531659052493,43.4760097408832,237.296100000007 2.08461318180968,43.4729392821559,239.699500000002 2.0849486253132,43.4724242983133,240.129300000001 2.0845994348909,43.4718905381016,238.227499999994 2.08399711179794,43.4714266841539,237.944799999997 2.08378370891736,43.4706364379208,240.703099999999 2.08301911145655,43.47019605254,245.963199999998 2.08238845729616,43.4699005068577,251.776400000002 2.08209676623858,43.4697467825547,255.488100000002 2.08124717737208,43.4695001872114,262.608999999997 2.08003951194854,43.4699424167829,262.179000000004 2.07875942794002,43.4707333331481,262.301600000006 2.07809340171702,43.4713269391734,259.1158 2.07799483047921,43.4714114284977,258.7497 2.07782635504094,43.4710099356101,261.169099999999 2.07741228828883,43.4707244479845,259.158899999995 2.07726828745044,43.4705345141806,258.968599999993 2.07717122538233,43.469935710936,257.115399999995 2.07699973160468,43.4696146841087,257.910900000003 2.07668406900375,43.4696235687834,256.706300000005 2.07528848231096,43.469975776502,255.525399999999 2.07483116527117,43.4699821465959,257.012799999997 2.07343423739365,43.4699181092254,259.126099999994 2.06795012589036,43.4665718858686,254.296400000007 2.06557201224545,43.4643176566526,251.203299999994 2.06380058121756,43.4628556851255,256.873000000007 2.06605732438273,43.4614114832618,259.230500000005 2.06668831451304,43.4611824894709,259.7071 2.07143196808381,43.4571578348413,279.216899999999 2.07148913327524,43.4568503868931,280.3649 2.07089787383333,43.4564358175406,276.796600000001 2.07074163524585,43.4563219914568,275.519700000004 2.07078102996433,43.4560365035821,276.044500000004 2.07060668583232,43.4559248566848,275.161399999997 2.07025984270784,43.4556081883831,275.236499999999 2.07014568120827,43.4553260534808,275.628100000002 2.06956163074653,43.4549585912385,274.318199999994 2.06897154450439,43.4548372208139,274.152600000001 2.06861699024152,43.4546214711461,273.977899999998 2.06856837521497,43.4545156912387,274.721900000004 2.0682535507422,43.4542588700027,275.319300000003 2.06796169259796,43.4538991183721,277.070999999996 2.06767050549524,43.4537407005447,276.754799999995 2.06854406770171,43.4532297397403,280.025999999998 2.06786463052981,43.452630936586,281.372799999997 2.06765357404875,43.4524240714667,281.774300000005 2.06748643889688,43.4524812356863,281.069699999993 2.06711880875677,43.4521846838905,279.974100000007 2.0667193270516,43.4512817852417,277.521900000007 2.066562082351,43.4510033388947,276.483800000002 2.06636024617802,43.4509220341613,276.004100000006 2.06570645770411,43.4511389578399,274.052100000001 2.06548014693121,43.4512390374211,273.832200000004 2.06512609482663,43.4513746571419,272.685200000007 2.06459518510381,43.4510247963664,271.226899999994 2.06406578455066,43.4507833972511,269.368199999997 2.0638575775257,43.4508035139896,268.944099999993 2.06138558723865,43.4500412638098,264.156199999998 2.06089725676199,43.4499609653621,263.244300000006 2.06037607040383,43.4500038803854,261.442800000004 2.06007532792143,43.450111839202,260.117700000003 2.05810977185897,43.4482971576395,257.525399999999 2.05792721353197,43.4481689142801,257.704199999993 2.05754365805848,43.4480975005329,257.741299999994 2.05662952703546,43.4479801539605,257.058300000004 2.05473672642619,43.4470288075144,254.350200000001 2.05269522948454,43.4464125705046,255.831399999995 2.05201864266706,43.4460422574828,261.623800000001 2.04981051363008,43.4466412282638,259.465200000006 2.0488398893555,43.4468526204353,256.474300000002 2.04617058860787,43.4475749725895,256.8747 2.04515151639337,43.4478919764354,257.990000000005 2.04625105519945,43.450785073918,245.7503 2.03840022877389,43.449983261222,239.595600000001 2.03779019454254,43.4498682615036,240.542100000006 2.03544560782063,43.449615295657,242.253500000006 2.03514453026665,43.4495348290387,243.451000000001 2.03451085866524,43.4494082623999,245.652000000002 2.03083774089325,43.4505005922554,238.722899999993 2.02986778676187,43.4506273261668,238.680800000002 2.02693864741998,43.4513173249286,236.904599999994 2.02649256201619,43.4509230397678,238.837700000004 2.02228317068086,43.4482332870805,254.786099999998 2.02183691819041,43.4478953286251,257.738299999997 2.02146844902381,43.4478812474709,255.8272 2.02127365384604,43.4479625517268,254.200100000002 2.01896611634143,43.4503316130764,240.616200000004 2.01848113927571,43.4513454875902,235.748699999996 2.01793799180381,43.4529648717238,230.755300000004 2.01756097337062,43.4535293089703,229.781900000002 2.01665773981033,43.4537113638887,228.585500000001 2.01586229689762,43.4541338117978,225.601699999999 2.01479461055489,43.4548856687197,225.270799999998 2.01447911593888,43.4547270826257,225.826499999996 2.01013544533319,43.4561716202185,218.733200000002 2.00616326223344,43.4575554720887,217.421499999997 2.00676457921329,43.458287715396,217.558600000004 2.00517402935775,43.4587804038367,218.096399999995 2.00439803317427,43.4589493828831,218.590500000006 2.00346697160309,43.4578793492524,215.554600000003</coordinates>
</LineString>
</Placemark>
</Folder>
</Document></kml>
