<?xml version="1.0" encoding="UTF-8"?>

<kml xmlns:xsd="http://www.w3.org/2001/XMLSchema" xmlns:gx="http://www.google.com/kml/ext/2.2" xmlns:atom="http://www.w3.org/2005/Atom" xmlns="http://www.opengis.net/kml/2.2">
<Document>
<name>FR04a_01a_arles-saint_gilles</name>
<visibility>1</visibility>
<Schema name="FR04a_01a_arles-saint_gilles" id="kml_schema_ft_FR04a_01a_arles-saint_gilles">
<SimpleField type="xsd:string" name="id">
<displayName>id</displayName>
</SimpleField>
<SimpleField type="xsd:string" name="nombre">
<displayName>nombre</displayName>
</SimpleField>
<SimpleField type="xsd:double" name="longitud">
<displayName>longitud</displayName>
</SimpleField>
<SimpleField type="xsd:string" name="_formato">
<displayName>_formato</displayName>
</SimpleField>
</Schema>
<Folder id="kml_ft_FR04a_01a_arles-saint_gilles">
<name>FR04a_01a_arles-saint_gilles</name>
<Placemark id="kml_1">
<name>&lt;img height='20' src='https://nco.ign.es/iconos/icono_todos_caminos_azul.png' /&gt;&lt;img height='20' src='https://nco.ign.es/iconos/Camino Santiago_20.png' /&gt;&lt;img height='20' src='https://nco.ign.es/iconos/icono_todos_caminos_azul.png' /&gt;  Camino de Santiago </name>
<visibility>1</visibility>
<description><![CDATA[<!DOCTYPE html>
<html>
<head>
<style>
#nco {
  border-collapse: collapse;
  overflow:hidden;
}
#nco th, #nco td {
  padding: 4px;
  text-align: left;
}
#nco th {
  color: #364B5F;
  padding-right: 5px;
}
#nco td {
  color: rgb(51, 51, 51);
  font-size: 12px;
  padding-right: 5px;
}
</style>
</head>
<body>
<table id="nco">
<tr>
<td>Via Tolosana Arles</td>
</tr>
<tr>
<th><b>Camino: </b></th>
<td>FR04a Via Tolosana Arles</td>
</tr>
<tr>
<th><b>Etapa: </b></th>
<td>01a Arles-Saint Gilles</td>
</tr>
<tr>
<th><b>Longitud: </b></th>
<td>20.49 km</td>
</tr>
</table>
</body>
</html>]]></description>
<Style>
<IconStyle>
<scale>0.8</scale>
</IconStyle>
<LabelStyle>
<color>ffffffff</color>
<scale>0.75</scale>
</LabelStyle>
<LineStyle>
<color>ffff0000</color>
<width>3.0</width>
<gx:labelVisibility>1</gx:labelVisibility>
</LineStyle>
<PolyStyle>
<color>66ff0000</color>
</PolyStyle>
</Style>
<ExtendedData>
<SchemaData schemaUrl="#kml_schema_ft_FR04a_01a_arles-saint_gilles">
<SimpleData name="id">FR04a_01a</SimpleData>
<SimpleData name="_formato">kml</SimpleData>
</SchemaData>
</ExtendedData>
<LineString>
<extrude>0</extrude>
<tessellate>1</tessellate>
<coordinates>4.62779039527487,43.6766354547682,23.1114999999991 4.62779676522856,43.6767435812538,23.1376000000018 4.62781554091629,43.6768009137325,23.1958000000013 4.62781101430558,43.6769449145324,23.2712000000029 4.62775988489455,43.6769777719086,23.1331000000064 4.62732771439451,43.6769817948618,21.703800000003 4.62714951469329,43.6769854832183,21.7085999999981 4.62705295568171,43.6769373708406,21.3488999999972 4.62696645420807,43.6769486028912,21.0298000000039 4.62658977174481,43.676926474684,20.5466000000015 4.62627444421546,43.676875345039,20.5924999999988 4.62600991102553,43.6769122254111,20.5473999999958 4.6258258444272,43.6765762782655,19.5498999999982 4.6254149639994,43.6767291643136,18.7697999999946 4.62515160400924,43.676852881558,18.0622000000003 4.62495429444697,43.6769591637975,17.2793999999994 4.6247755925875,43.6770144845949,17.0378000000055 4.62424099438214,43.6773928434888,15.4977000000072 4.62406095133795,43.6779244240887,3.88000000000466 4.62373573335733,43.6782999329134,0.467199999999139 4.6233588829091,43.6787156755657,0.467199999999139 4.62269235362956,43.6794006447287,0.467000000004191 4.62189808481489,43.6801608830689,12.9021999999968 4.62158577472659,43.6802423551905,12.0651000000071 4.62132392480442,43.6802772240762,11.752800000002 4.6210067530338,43.6803063934245,11.0883999999933 4.62107833438888,43.6800986897367,11.917100000006 4.62127715312085,43.6798911535946,12.7860999999975 4.61976103497478,43.6791330941065,9.77099999999336 4.61940899509642,43.6794311547831,9.94939999999769 4.61949767588295,43.6795567154282,10.0541999999987 4.61798172482354,43.6795138005578,8.19460000000254 4.61756179117432,43.6792103752544,8.12200000000303 4.61746573432099,43.6786606902742,8.38869999999588 4.6171608011978,43.6781619670777,8.37729999999283 4.61562272193798,43.6768661244551,7.93330000000424 4.61468914508403,43.6763248213334,7.29320000000007 4.61052183083657,43.6745057805561,5.69779999999446 4.60670974099522,43.673615790114,3.5280000000057 4.60617581383136,43.673758450354,4.16340000000491 4.60218988381284,43.6729066811856,5.03160000000207 4.59608316435916,43.6720237318193,4.75209999999788 4.5918239838992,43.6699746918887,5.87450000000536 4.58983177302564,43.6686451542547,5.24730000000272 4.58639016367879,43.6674549236883,3.44400000000314 4.58023298495729,43.6660801242458,3.98600000000442 4.57860069308542,43.6658529747755,4.66700000000128 4.57341179223901,43.6657877631325,3.34810000000289 4.5727707445708,43.6656060437797,3.65640000000712 4.57261886460908,43.6651564386609,4.77220000000671 4.56677282187783,43.6645997126415,3.29739999999583 4.56201676257297,43.6643901649336,2.31029999999737 4.54961590455462,43.6620794419609,1.25089999999909 4.54761095377369,43.6618791141925,1.25960000000487 4.54563986498737,43.6620408849238,1.40069999999832 4.54429071400825,43.6606959247704,2.15760000000591 4.54382870327112,43.6605490736025,2.22809999999299 4.5421699245731,43.6605427034822,1.42110000000685 4.53619815453299,43.6585880441303,1.83100000000559 4.5281587357967,43.6562246825956,1.54450000000361 4.5272549982815,43.6559738956128,2.02449999999953 4.52625822315068,43.6558183277229,2.84789999999339 4.52589025704061,43.6559100257426,2.71349999999802 4.52541718265243,43.6558230215231,1.66409999999451 4.52493371475643,43.6556847199954,1.22699999999895 4.52397851275862,43.6553636935428,0.150800000003073 4.50632907431796,43.649770784797,-0.46469999999681 4.50596982635776,43.6496355009205,0.295700000002398 4.50368391309865,43.6497317252083,2.39549999999872 4.50255956462106,43.6500348146525,1.86229999999341 4.49618345119346,43.6537900745033,0.848499999992782 4.49397683132617,43.6544800727528,2.20759999999427 4.49314400592122,43.6545164508306,1.70630000000529 4.49200876087924,43.6541649134471,1.51210000000719 4.48901072165337,43.6519859539923,1.72520000000077 4.48716469093105,43.651192690711,2.87080000000424 4.48521422207378,43.6538257815981,2.51210000000719 4.48237577484635,43.656080681475,2.3405999999959 4.48089167445367,43.6581721340958,3.46309999999357 4.47999263153416,43.6588577731713,4.01200000000244 4.47647910576062,43.6604439645808,1.99880000000121 4.47060422980367,43.6642107918213,2.49079999999958 4.46118649089263,43.6672470527025,7.28879999999481 4.46029767349602,43.6673627228057,10.1524999999965 4.45761412367134,43.6664735706169,9.96630000000005 4.4568307514211,43.6660682221462,8.34279999999853 4.45657711479559,43.6654221450073,8.03140000000712 4.45593891658344,43.6651177139943,8.71219999999448 4.45446370142724,43.6648617304012,8.58169999999518 4.453976377962,43.6650595437692,8.67230000000563 4.45321731232672,43.6655974940332,0.490699999994831 4.45236302886456,43.6662378716805,2.83749999999418 4.45184117146487,43.6666616607141,4.09020000000601 4.45209564621857,43.6667137958743,4.20190000000002 4.45315646044937,43.6669107707317,3.21959999999672 4.45421073584323,43.6674237434437,1.54009999999835 4.45442866533451,43.6675573510417,2.05060000000231 4.45424728110562,43.6676948142691,3.1698999999935 4.45432506532775,43.667819704185,2.97779999999329 4.45562174571115,43.6685366921795,2.85199999999895 4.45400638528578,43.6704707326451,2.28819999999541 4.45293970415783,43.6714281136829,3.08090000000084 4.45626882826143,43.6736119345676,2.2048000000068 4.45652263197359,43.6740030341093,2.00689999999304 4.45371838271074,43.6737019563782,1.85109999999986 4.45313349322251,43.673922064857,1.7497000000003 4.4505223628811,43.6755560334898,2.28459999999905 4.44802723828053,43.6775837833649,0.776800000006915 4.44734780110866,43.6778598830494,1.17500000000291 4.44345591571721,43.678676783583,2.29439999999886 4.44253407445413,43.6786072134988,2.3073000000004 4.4413537348832,43.6782736140692,2.79589999999735 4.43987114366016,43.6780479731976,2.42179999999644 4.43959789321873,43.6779535926317,1.51979999999458 4.43915432309775,43.678182083393,2.05319999999483 4.43859005353856,43.6783587737772,2.97830000000249 4.4378237798214,43.6783879434084,3.86680000000342 4.43678475871938,43.6788578325225,12.2715999999928 4.4360384347881,43.6791538812138,20.2364999999991 4.43578513323417,43.6790521252794,22.7777999999962 4.43523209531096,43.6784276730238,21.5255999999936 4.43418385479917,43.6777577916279,25.3904000000039 4.43422878134317,43.6776012179331,25.1713000000018 4.43388143516215,43.6771268022629,23.5962 4.43364942457876,43.6771770935812,24.3366999999998 4.43344322978003,43.6772766703582,24.5108999999939 4.43311499435836,43.6770097905023,23.0283999999956 4.43179283326196,43.677133843063,21.4343999999983 4.43155897753898,43.6768540549218,19.5776000000042 4.43128824238035,43.6769413944462,19.5915999999997 4.4307950511197,43.6768776917657,18.4217000000062 4.4306024352548,43.6768567368962,17.7774999999965 4.43011058517884,43.677069972964,15.7603999999992 4.42970104503744,43.6771358545344,11.7958000000071</coordinates>
</LineString>
</Placemark>
</Folder>
</Document></kml>
