<?xml version="1.0" encoding="UTF-8"?>

<kml xmlns:xsd="http://www.w3.org/2001/XMLSchema" xmlns:gx="http://www.google.com/kml/ext/2.2" xmlns:atom="http://www.w3.org/2005/Atom" xmlns="http://www.opengis.net/kml/2.2">
<Document>
<name>FR04a_32a_anoye-morlaas</name>
<visibility>1</visibility>
<Schema name="FR04a_32a_anoye-morlaas" id="kml_schema_ft_FR04a_32a_anoye-morlaas">
<SimpleField type="xsd:string" name="id">
<displayName>id</displayName>
</SimpleField>
<SimpleField type="xsd:string" name="nombre">
<displayName>nombre</displayName>
</SimpleField>
<SimpleField type="xsd:double" name="longitud">
<displayName>longitud</displayName>
</SimpleField>
<SimpleField type="xsd:string" name="_formato">
<displayName>_formato</displayName>
</SimpleField>
</Schema>
<Folder id="kml_ft_FR04a_32a_anoye-morlaas">
<name>FR04a_32a_anoye-morlaas</name>
<Placemark id="kml_1">
<name>&lt;img height='20' src='https://nco.ign.es/iconos/icono_todos_caminos_azul.png' /&gt;&lt;img height='20' src='https://nco.ign.es/iconos/Camino Santiago_20.png' /&gt;&lt;img height='20' src='https://nco.ign.es/iconos/icono_todos_caminos_azul.png' /&gt;  Camino de Santiago </name>
<visibility>1</visibility>
<description><![CDATA[<!DOCTYPE html>
<html>
<head>
<style>
#nco {
  border-collapse: collapse;
  overflow:hidden;
}
#nco th, #nco td {
  padding: 4px;
  text-align: left;
}
#nco th {
  color: #364B5F;
  padding-right: 5px;
}
#nco td {
  color: rgb(51, 51, 51);
  font-size: 12px;
  padding-right: 5px;
}
</style>
</head>
<body>
<table id="nco">
<tr>
<td>Via Tolosana Arles</td>
</tr>
<tr>
<th><b>Camino: </b></th>
<td>FR04a Via Tolosana Arles</td>
</tr>
<tr>
<th><b>Etapa: </b></th>
<td>32a Anoye-Morlaas</td>
</tr>
<tr>
<th><b>Longitud: </b></th>
<td>14.87 km</td>
</tr>
</table>
</body>
</html>]]></description>
<Style>
<IconStyle>
<scale>0.8</scale>
</IconStyle>
<LabelStyle>
<color>ffffffff</color>
<scale>0.75</scale>
</LabelStyle>
<LineStyle>
<color>ffff0000</color>
<width>3.0</width>
<gx:labelVisibility>1</gx:labelVisibility>
</LineStyle>
<PolyStyle>
<color>66ff0000</color>
</PolyStyle>
</Style>
<ExtendedData>
<SchemaData schemaUrl="#kml_schema_ft_FR04a_32a_anoye-morlaas">
<SimpleData name="id">FR04a_32a</SimpleData>
<SimpleData name="_formato">kml</SimpleData>
</SchemaData>
</ExtendedData>
<LineString>
<extrude>0</extrude>
<tessellate>1</tessellate>
<coordinates>-0.138265025201947,43.3941299460457,246.649799999999 -0.138589069084495,43.3938679277693,247.328500000003 -0.13926900931294,43.3933049993405,248.242499999993 -0.140480026350822,43.3931889937059,253.730899999995 -0.141398012943048,43.393710012714,259.279599999994 -0.143016054839525,43.392446022072,269.769 -0.143452919935236,43.3923739374465,273.599900000001 -0.144884045777325,43.391544967229,271.415200000003 -0.145958941100196,43.3911800192859,281.015199999994 -0.146259684480897,43.3911496770328,285.639899999995 -0.148483067809722,43.3913790057561,314.161500000002 -0.149799529095636,43.3911630879176,320.420599999998 -0.150899906029874,43.3911230223684,332.377200000003 -0.151706915650212,43.3908298235497,333.811400000006 -0.152485929274707,43.3905919450582,332.916899999997 -0.154200028922845,43.3905540588136,335.793999999994 -0.154879968252993,43.390443417814,336.3698 -0.154875945597123,43.3902970698972,336.499599999996 -0.155318006548447,43.3899460354319,336.044099999999 -0.158370025539733,43.3897829236362,337.738200000007 -0.161457918751872,43.3893720426962,335.598499999993 -0.161524973496245,43.3884989839129,334.499500000005 -0.165829919526697,43.3883350339207,327.626199999999 -0.167184937402931,43.3879709238055,318.892800000001 -0.167744011106541,43.3876349770483,307.583899999998 -0.168371982897468,43.386491014777,304.804199999999 -0.16927404325802,43.3861540622747,305.962400000004 -0.173661969366189,43.3858489615482,320.615600000005 -0.176225993850701,43.3850530155094,328.436000000002 -0.176543835764555,43.385020158658,328.904500000004 -0.17792902894949,43.3841509550281,328.650899999993 -0.179152954778029,43.3830849450051,324.075899999996 -0.180363971815911,43.3810449573458,317.5821 -0.181121025224962,43.3792279280592,302.598800000007 -0.181372985594186,43.3790359826048,300.261599999998 -0.181729384098326,43.3781106203223,295.680399999997 -0.181955527784566,43.377782049945,296.240000000005 -0.182181503485883,43.3775356222995,296.079700000002 -0.182709060696026,43.3773493761994,295.971699999995 -0.183153636930155,43.3772725979318,297.531300000002 -0.183409787940139,43.3773329476472,300.2503 -0.183681026155341,43.377245273127,304.117100000003 -0.184532627248065,43.3764456392444,316.117800000007 -0.184834040771968,43.3761552900763,319.669999999998 -0.18490931060963,43.375980108577,319.936400000006 -0.184916853763091,43.3757883304447,318.442200000005 -0.184901766557872,43.3755638634158,317.326300000001 -0.185183063209308,43.3752579238819,320.429799999998 -0.187660921291799,43.3735979714119,337.299199999994 -0.188425015696066,43.3732430816842,338.804900000003 -0.190310106065283,43.3716349300112,338.667199999996 -0.190370455784387,43.3714682975955,338.898000000001 -0.190557539823766,43.3711787865607,339.132899999997 -0.191806946365308,43.3700589646352,338.847500000003 -0.192035939507641,43.3698980319962,338.5147 -0.192675981961066,43.369938935681,336.9761 -0.19288804365694,43.3698120334727,336.546700000006 -0.193989928862538,43.3684560089555,318.093099999998 -0.193969979975028,43.3677480734703,310.792799999996 -0.193243939104506,43.3670399703788,320.876499999998 -0.193248130643629,43.3668723327032,323.721900000004 -0.193205047442602,43.3668389722933,324.674700000003 -0.193459187124685,43.3666267429984,323.720799999996 -0.19407106559731,43.3657489896318,324.651199999993 -0.194231494825581,43.3656794202046,321.960699999996 -0.194490831261572,43.3655872187785,317.435599999997 -0.195154510186758,43.3656135385471,309.898400000005 -0.196264442500655,43.3657276998073,300.176399999997 -0.196487735832539,43.3658153746524,299.387799999997 -0.197851135888689,43.3664029460528,287.366500000004 -0.198254976219607,43.3665769542526,282.717799999999 -0.199201964022461,43.3668909400509,278.049100000004 -0.199770927279017,43.3665570054371,276.747099999993 -0.20035464356747,43.3659776484062,277.058199999999 -0.201073978514394,43.3653119576705,280.172200000001 -0.200894940685016,43.3648549757977,280.424299999999 -0.200970042537721,43.3646320173933,280.945900000006 -0.201395004955891,43.3636290389348,284.108900000007 -0.201663896771575,43.3633680264988,285.103600000002 -0.202110316348648,43.3630697985297,288.228700000007 -0.202064048619944,43.363015986434,288.092099999994 -0.202894527625383,43.3603986530985,297.551399999997 -0.204095989283606,43.3592149609285,302.910300000003 -0.204209647726597,43.3591750630211,302.989100000006 -0.204167403552059,43.3587276373498,303.059200000003 -0.204179473316227,43.3586310774145,302.9617 -0.204310063205711,43.3585120545425,303.104000000007 -0.20492747440216,43.3583678861498,304.455100000006 -0.205935985123861,43.3579100662342,307.517500000002 -0.20603153892065,43.3579776243916,307.438999999998 -0.206568483525528,43.3574732018327,308.365000000005 -0.20729301522636,43.3570789167619,309.762700000007 -0.207545812825412,43.3569555349437,310.037899999996 -0.207817219025571,43.3569994564465,310.078800000003 -0.208685919549712,43.3566747415987,310.231100000005 -0.208945423072363,43.3567230211828,309.981799999994 -0.209403913311902,43.3566090271689,309.634300000005 -0.209940690830153,43.3566003100899,309.056200000006 -0.21009106162219,43.3564140643619,309.544399999999 -0.21044142524423,43.356301914302,311.7261 -0.210827663985487,43.3560343641517,314.755000000005 -0.212396923768784,43.3553750437921,312.026299999998 -0.212448053179813,43.3552900508167,312.026299999998 -0.211549010260311,43.3546830337079,313.932000000001 -0.212296005233162,43.3539040194459,312.490099999995 -0.212474540005965,43.3537052006496,311.752500000002 -0.212782155498595,43.3537797996604,311.150399999999 -0.214270614517067,43.3540770216617,309.891099999993 -0.215376354393543,43.3540560673989,308.812900000004 -0.216755010538167,43.3541330128795,307.741999999998 -0.217029266194419,43.3542446600757,307.7739 -0.216896496992043,43.3540560673989,307.542100000006 -0.217071008210713,43.3536899460103,306.424100000004 -0.218182950954247,43.3529119373393,302.004300000001 -0.217973068571265,43.3524779228134,303.535699999993 -0.216442030306671,43.3510799889122,305.922399999996 -0.216972940029481,43.3503080152726,303.997099999993 -0.217485074064525,43.3499009900322,303.7307 -0.218783933760778,43.3493310210298,308.369099999996 -0.219670068787953,43.3484500830417,310.059699999998 -0.222972035023901,43.3471949764764,308.380900000004 -0.222953930377666,43.3464250151437,311.443799999994 -0.223832018296542,43.3459559635222,310.452399999995 -0.226387996571052,43.3453660454615,306.2068 -0.227128956661802,43.3456790258852,305.509399999995 -0.227459035426451,43.3456449953173,305.528099999996 -0.229332056031499,43.3450689905044,306.547399999996 -0.23045506332435,43.3465059839848,306.976999999999 -0.233239028628111,43.3465589575541,307.042600000001 -0.235544051748249,43.3457360224052,308.606100000005 -0.238896981206863,43.3442450493366,306.579199999993 -0.240760948590497,43.3460590613406,305.626000000004 -0.241515990671646,43.3475999901927,305.728900000002 -0.241506937450198,43.3490039592041,304.953599999993 -0.241465531403819,43.3491969103212,304.907600000006 -0.242069028594825,43.3497509540822,304.141300000003 -0.242092329995003,43.3498848969923,303.996199999994 -0.242399778400972,43.3499623455241,303.764200000005 -0.242623071732856,43.349899984054,303.125499999995 -0.245682969847484,43.3494389797358,298.580499999996 -0.246937070086393,43.3489920564763,291.132599999997 -0.247363038617712,43.3484549445146,290.028300000005 -0.248156972360766,43.3480199234627,286.702099999995 -0.248372722539189,43.3479582328479,285.976500000004 -0.24857506176871,43.3473840725796,284.318199999994 -0.249165147112552,43.3473735113297,279.753800000006 -0.249567311187152,43.3471842479585,278.319600000003 -0.250100065151237,43.3466900507711,276.183699999994 -0.250470042589203,43.3462939220076,273.858200000002 -0.250385049386925,43.345174938145,282.196299999996 -0.251202955571654,43.3443600491262,297.145399999994 -0.252199061457602,43.3437349269263,292.929000000004 -0.253865048237431,43.3430809711701,295.111699999994 -0.254239049229563,43.3429438427449,295.320800000001 -0.255011021858842,43.3428829903921,294.786200000002 -0.256676003423885,43.34280403283,293.020799999998 -0.259029138514002,43.3428491274638,288.523199999996 -0.259277578385601,43.3429954755705,288.739400000006 -0.26052296137301,43.3430370493937,289.855100000001 -0.262173022819495,43.3438090227397,292.134900000005 -0.262620951566259,43.3442140368356,293.668399999995 -0.262695718347347,43.3441823527323,293.615399999995 -0.26322495181384,43.3443989415588,294.896200000003</coordinates>
</LineString>
</Placemark>
</Folder>
</Document></kml>
