<?xml version="1.0" encoding="UTF-8"?>

<kml xmlns:xsd="http://www.w3.org/2001/XMLSchema" xmlns:gx="http://www.google.com/kml/ext/2.2" xmlns:atom="http://www.w3.org/2005/Atom" xmlns="http://www.opengis.net/kml/2.2">
<Document>
<name>FR04a_37a_borce-col_du_somport</name>
<visibility>1</visibility>
<Schema name="FR04a_37a_borce-col_du_somport" id="kml_schema_ft_FR04a_37a_borce-col_du_somport">
<SimpleField type="xsd:string" name="id">
<displayName>id</displayName>
</SimpleField>
<SimpleField type="xsd:string" name="nombre">
<displayName>nombre</displayName>
</SimpleField>
<SimpleField type="xsd:double" name="longitud">
<displayName>longitud</displayName>
</SimpleField>
<SimpleField type="xsd:string" name="_formato">
<displayName>_formato</displayName>
</SimpleField>
</Schema>
<Folder id="kml_ft_FR04a_37a_borce-col_du_somport">
<name>FR04a_37a_borce-col_du_somport</name>
<Placemark id="kml_1">
<name>&lt;img height='20' src='https://nco.ign.es/iconos/icono_todos_caminos_azul.png' /&gt;&lt;img height='20' src='https://nco.ign.es/iconos/Camino Santiago_20.png' /&gt;&lt;img height='20' src='https://nco.ign.es/iconos/icono_todos_caminos_azul.png' /&gt;  Camino de Santiago </name>
<visibility>1</visibility>
<description><![CDATA[<!DOCTYPE html>
<html>
<head>
<style>
#nco {
  border-collapse: collapse;
  overflow:hidden;
}
#nco th, #nco td {
  padding: 4px;
  text-align: left;
}
#nco th {
  color: #364B5F;
  padding-right: 5px;
}
#nco td {
  color: rgb(51, 51, 51);
  font-size: 12px;
  padding-right: 5px;
}
</style>
</head>
<body>
<table id="nco">
<tr>
<td>Via Tolosana Arles</td>
</tr>
<tr>
<th><b>Camino: </b></th>
<td>FR04a Via Tolosana Arles</td>
</tr>
<tr>
<th><b>Etapa: </b></th>
<td>37a Borce-Col du Somport</td>
</tr>
<tr>
<th><b>Longitud: </b></th>
<td>18.59 km</td>
</tr>
</table>
</body>
</html>]]></description>
<Style>
<IconStyle>
<scale>0.8</scale>
</IconStyle>
<LabelStyle>
<color>ffffffff</color>
<scale>0.75</scale>
</LabelStyle>
<LineStyle>
<color>ffff0000</color>
<width>3.0</width>
<gx:labelVisibility>1</gx:labelVisibility>
</LineStyle>
<PolyStyle>
<color>66ff0000</color>
</PolyStyle>
</Style>
<ExtendedData>
<SchemaData schemaUrl="#kml_schema_ft_FR04a_37a_borce-col_du_somport">
<SimpleData name="id">FR04a_37a</SimpleData>
<SimpleData name="_formato">kml</SimpleData>
</SchemaData>
</ExtendedData>
<LineString>
<extrude>0</extrude>
<tessellate>1</tessellate>
<coordinates>-0.573705565349745,42.9100741997496,653.824500000002 -0.573165770390443,42.9099352280375,642.668900000004 -0.57280233089112,42.9090896617784,647.464099999997 -0.572485160018798,42.9083361287566,649.371299999999 -0.572138819950924,42.9076912250979,644.909700000004 -0.572034213831017,42.9071971957347,646.088499999998 -0.571420993275361,42.9070384419696,634.042000000001 -0.57116014856801,42.9067415550465,633.592499999999 -0.570550449408242,42.9064917745035,625.918300000005 -0.570470150801629,42.9060165204942,627.818299999999 -0.570616834009447,42.9054366605552,634.753100000002 -0.570651199958941,42.9045630989297,642.365300000005 -0.570560171874561,42.9037232317401,633.677500000005 -0.570373758876714,42.9029908214468,634.506899999993 -0.569923482832101,42.9022708155363,644.716899999999 -0.56908495761666,42.9015425961417,632.2785 -0.568467378435255,42.9008147116456,637.126000000004 -0.568250119985472,42.9000858209471,631.956699999995 -0.568240396620855,42.8997031037018,633.496599999999 -0.568106956376948,42.8993177037955,636.714200000002 -0.568144675737439,42.8991118439643,641.8848 -0.567906629373658,42.8987378433648,650.877999999997 -0.567351579224214,42.897735200248,672.308600000004 -0.567007586454156,42.8970358139798,675.335300000006 -0.566371735539854,42.8958128948998,682.051200000002 -0.566278361055957,42.8954172687604,692.228900000002 -0.56548174494347,42.8948903823542,674.497499999998 -0.564738605539862,42.894504144204,668.744600000005 -0.564728379118671,42.89355598345,686.726599999995 -0.564292855207659,42.8929278437257,678.844800000006 -0.564197637380818,42.8925218242497,676.951199999996 -0.564520676048547,42.8919697919001,685.979399999997 -0.564493686165854,42.8912336932557,700.843200000003 -0.564031507443733,42.8905700138647,710.840899999996 -0.56349640708013,42.8901448843414,709.292199999996 -0.563221648367336,42.8892911031994,723.469200000007 -0.563210751802945,42.8882271043224,742.009399999995 -0.563004557004214,42.887683789381,742.976599999995 -0.563362128708097,42.8870673846612,768.643400000001 -0.563563964881077,42.8863430204835,787.835999999996 -0.563307311712816,42.8859368332588,771.469599999997 -0.563478805490469,42.8853576441001,791.580700000006 -0.563194826469567,42.8850237085369,784.3318 -0.563160460520074,42.8846404884004,780.099300000002 -0.562833231211518,42.8841417648446,761.7451 -0.562622006745506,42.8838457161738,747.481100000005 -0.562251527149296,42.8838197320045,741.574500000002 -0.561960507133211,42.88372971082,742.301000000007 -0.561275873207432,42.8830935241533,732.263900000005 -0.560895670246573,42.8826528040403,730.508300000001 -0.560463666833186,42.8821517335707,723.514800000004 -0.559573006093601,42.8813946801041,715.857399999994 -0.558761302775896,42.8799928906832,722.481700000004 -0.557848680922569,42.878643739267,728.395600000003 -0.557637456456556,42.8783478584077,728.559200000003 -0.557351801179371,42.878050300785,731.483699999997 -0.556333064934777,42.8771839472805,733.133700000006 -0.556213036538101,42.8767873155727,736.544500000004 -0.555962920410151,42.876217346363,738.174400000004 -0.555899050193455,42.8756911300269,740.132299999997 -0.55571531866671,42.8751162995325,747.342699999994 -0.555598307711051,42.8746512710676,755.054000000004 -0.555341820731153,42.8738036935889,757.517300000007 -0.555366799285945,42.8732553489647,745.515100000004 -0.555302929069216,42.8721179247267,758.900800000003 -0.555293876746098,42.8720877498146,759.0144 -0.555319357459134,42.8721470936627,758.583599999998 -0.555141828799447,42.8715808125086,760.914999999994 -0.554831362952394,42.8711322131757,767.234899999996 -0.554634723533356,42.8709882120123,771.113500000007 -0.554600860640403,42.8711719433645,768.422000000006 -0.554478652930835,42.8712167027522,773.4234 -0.554384105247162,42.8711174612455,775.900999999998 -0.554194338838349,42.8710678397739,780.944799999997 -0.553625374683463,42.8707302170429,784.263200000001 -0.553110391192327,42.8705117843829,786.371899999998 -0.552900340824387,42.8702040013213,787.058399999994 -0.552378483424728,42.8697671361125,789.841400000005 -0.551605671768927,42.8687837716973,805.137900000002 -0.551199820110108,42.8682878978824,808.691900000005 -0.550644099817462,42.8678808728222,815.409400000004 -0.550332460770666,42.8675531402723,815.811400000006 -0.550210587234385,42.8671360571801,815.273700000005 -0.550183430265032,42.8666941630506,799.883600000001 -0.55022416616821,42.8662971959501,793.602199999994 -0.55010229353026,42.8658403826283,804.103900000002 -0.55011251905312,42.8644709469027,818.595600000001 -0.550109501612103,42.8639244466147,829.696899999995 -0.550757758260454,42.8620298016947,844.534299999999 -0.550924725427366,42.8613359473271,835.296900000001 -0.550848785446536,42.8609368011303,835.865300000005 -0.550594646662751,42.8605881139438,839.134000000005 -0.549840107638175,42.8600935821245,845.728300000002 -0.549203418595715,42.8599158857102,852.787899999996 -0.548746939684078,42.8595601574949,859.517099999997 -0.54865356520018,42.8587930456045,855.302899999995 -0.548686757949931,42.8577278734779,868.930699999997 -0.549042820484157,42.8571528750262,858.088399999993 -0.54899688782707,42.8567307623838,859.215700000001 -0.548590869081558,42.8560407640474,883.138600000006 -0.549009293561119,42.8554308965391,874.781000000003 -0.549251697652354,42.8543281736714,865.918799999999 -0.549513213401237,42.8534215868811,861.764999999999 -0.549798868678423,42.8528472589151,855.710699999996 -0.549917556788696,42.8517442008017,855.154800000004 -0.550446287198648,42.8518199731011,853.818799999994 -0.550749208993911,42.8520561748139,855.310700000002 -0.550999325121827,42.8524150882585,860.370500000005 -0.551287326798565,42.8524211233215,865.0959 -0.551258157602947,42.8519433544621,864.930699999997 -0.551415067231956,42.8518613792622,869.754700000005 -0.551632996723237,42.8521770419617,875.579100000003 -0.551890488917987,42.8519847611989,882.836800000005 -0.551980845960834,42.8521279242146,885.896399999998 -0.551875401712769,42.8523659700422,888.5 -0.552023928263531,42.8524963923082,891.243100000007 -0.552501864334038,42.852068412285,899.731400000004 -0.552379321552886,42.8517690110769,894.003200000006 -0.553075522186259,42.8511619931877,912.875100000005 -0.553341228575968,42.8507578181675,916.048999999999 -0.55363543311973,42.8506086200294,921.710200000001 -0.553688741843617,42.8502280819752,911.110199999996 -0.553533844440873,42.8497724419124,896.101200000005 -0.553213321055917,42.8496242496982,890.271599999993 -0.553254056959095,42.8490738936294,892.806200000006 -0.554121081226919,42.8485270581619,912.744699999996 -0.554173215852767,42.8481748511148,912.291299999997 -0.554124600826213,42.8479475336943,915.269100000005 -0.55434202815925,42.8477968271339,915.475999999995 -0.554584265163825,42.8479857554408,925.338799999998 -0.554848797455428,42.8480901936708,936.506099999999 -0.555066391875125,42.847444787163,938.710099999997 -0.555151552164063,42.8472345687164,939.707999999999 -0.555502250857721,42.8471148754343,942.996899999998 -0.555799472842533,42.8468808526435,960.715700000001 -0.555927548347542,42.8465584844236,962.198600000003 -0.555880442490645,42.8462889226331,959.189599999998 -0.555641054942164,42.8460294189263,954.099600000001 -0.555535945765716,42.8457727653515,950.148400000005 -0.555197149749566,42.8455959070054,944.980299999996 -0.555509626924521,42.8454612937559,946.158299999996 -0.556050427098608,42.8453880355771,961.419800000003 -0.556550491369517,42.8453704334997,971.053199999995 -0.556576978195668,42.8451872049612,969.061400000006 -0.556682422443701,42.8449491591292,962.410300000003 -0.557307880748482,42.844679764857,984.350300000006 -0.557638965626247,42.8445597359844,992.931700000001 -0.558317229598341,42.8444045034955,1023.8312 -0.558792818371032,42.8445277172242,1031.42359999999 -0.559329092832709,42.8445674474098,1033.909 -0.559823624379761,42.8437158461241,1063.4691 -0.560178514612542,42.843483164656,1073.33040000001 -0.560382698083371,42.8431765542879,1072.92200000001 -0.560712776847986,42.8430845208883,1080.08010000001 -0.560782011803548,42.8427893106883,1079.30319999999 -0.560618732220887,42.8425453967707,1077.4506 -0.560589898096887,42.842304501233,1076.84600000001 -0.560833476286194,42.8419705658803,1084.3909 -0.561318621336842,42.8413590227337,1095.51730000001 -0.561521462724641,42.8410805756766,1092.77899999999 -0.561650544342765,42.8407300446862,1093.5356 -0.561807453971741,42.840648572333,1096.20879999999 -0.562141388305566,42.8404578003097,1098.0242 -0.562093947377085,42.8402023197729,1092.6765 -0.562451519081002,42.8398988950418,1096.2126 -0.562444478085819,42.8395879260603,1080.68120000001 -0.562783442086892,42.8392699166217,1069.8999 -0.563186947346226,42.8392643848399,1075.5809 -0.563030540773791,42.8388511570926,1079.1591 -0.563110336323864,42.8382875577966,1083.0408 -0.563311502353643,42.8380515234444,1091.36169999999 -0.563206896233736,42.8377807882461,1089.3495 -0.563066750964592,42.8374384712408,1082.9893 -0.562922414156292,42.8367146101399,1080.7904 -0.562512538943307,42.8363949239303,1072.5913 -0.561908539594023,42.8361275416851,1060.5616 -0.561690442117785,42.8358120466306,1059.35000000001 -0.561892278290765,42.8355619307819,1065.3012 -0.561993866969622,42.8349279234647,1077.36109999999 -0.562046840621925,42.8345616344682,1080.8947 -0.561855230870136,42.8340629107322,1074.15150000001 -0.561935864548333,42.832990362741,1082.5993 -0.562007110831863,42.8326384907075,1084.5868 -0.561562701684394,42.8317386095184,1071.4026 -0.561675522897557,42.8308221321089,1082.518 -0.561292972638849,42.8302910542816,1074.03909999999 -0.561056770516375,42.8299467259707,1077.7142 -0.560807324531627,42.8294609112079,1080.0962 -0.560664832862965,42.8291752558603,1083.7316 -0.560999941294862,42.8289561524376,1092.1336 -0.560814365526843,42.8283020288295,1096.397 -0.560502223423472,42.8279419422523,1085.2038 -0.560432989366208,42.8277426209565,1085.4051 -0.560531057547473,42.8272076875446,1095.76210000001 -0.560809671829476,42.8269590805202,1116.3939 -0.560380518770479,42.8266390592287,1087.1421 -0.560128726386246,42.8262095705241,1089.8942 -0.559982378250045,42.8260228216242,1082.53939999999 -0.560347829077303,42.8255217520035,1104.2787 -0.560563747240649,42.8253990406317,1113.50199999999 -0.560845546050363,42.8250659435616,1120.6278 -0.560996085725654,42.8246592535958,1109.7467 -0.561432614851451,42.8243010110365,1107.0212 -0.561367739419936,42.823508083538,1080.1667 -0.561484918360553,42.8229734857471,1074.8355 -0.561820696935652,42.8222456007531,1085.2594 -0.562337022509818,42.8213237595413,1099.836 -0.562574565817025,42.8206503574402,1090.923 -0.562645644115598,42.819817866347,1079.79790000001 -0.562296621678258,42.8194146973572,1070.4816 -0.561954137179526,42.8193367451586,1068.5226 -0.561195742585775,42.8190943404982,1067.36199999999 -0.560946296601027,42.8190891436172,1069.6078 -0.560837331855403,42.8191253537515,1070.50380000001 -0.560592245394736,42.8191253537515,1074.1439 -0.560075416763994,42.8203031790365,1066.5349 -0.55993912706406,42.8207623394941,1068.2457 -0.559748522527056,42.8213012958794,1068.3912 -0.559421964260032,42.821740507649,1071.2657 -0.559231694794645,42.822179719593,1070.7132 -0.558850653705627,42.8222196170089,1078.9405 -0.558578409377309,42.8227785227224,1076.602 -0.558197368288325,42.8230980408527,1087.4788 -0.557992681760921,42.8233937542859,1092.80710000001 -0.557752121012697,42.8236571132253,1099.06170000001 -0.557740889376687,42.8242398231676,1096.77069999999 -0.557558499034642,42.8244557412474,1101.38499999999 -0.557230431597961,42.8245566594366,1109.97689999999 -0.557045694856398,42.8249459148013,1117.94289999999 -0.556861125201494,42.8245566594366,1117.6755 -0.556791890245933,42.8236084985803,1135.162 -0.556584187175809,42.8233545270415,1140.2216 -0.556953493572276,42.8226605050327,1145.0108 -0.556976459900836,42.8222880137429,1155.0061 -0.557276532240005,42.8218308643411,1146.6605 -0.557299666553523,42.8213230887876,1153.82030000001 -0.556953493572276,42.8207643511143,1173.5132 -0.556930359258758,42.820442821153,1179.82580000001 -0.556976459900836,42.8201212914962,1190.57919999999 -0.556884091530054,42.8196981733258,1200.0722 -0.557091794600145,42.819478399802,1198.1339 -0.5571839958843,42.8190554485507,1202.9926 -0.557507034552029,42.8189034011222,1194.4944 -0.557483900238512,42.8184462517339,1195.48510000001 -0.557483900238512,42.8181584171523,1202.2748 -0.557530168865547,42.8178875144207,1212.89380000001 -0.557691771293593,42.8177012681866,1210.9997 -0.558061078588357,42.8174642280915,1213.148 -0.558061078588357,42.8171594621434,1216.34050000001 -0.55822268101637,42.8167531076257,1221.8178 -0.558061078588357,42.8163128897989,1233.7917 -0.557691604206933,42.8159573295692,1239.94779999999 -0.557276029183464,42.8155511424338,1252.5251 -0.557045191799856,42.8151786511459,1261.5232 -0.557252894869947,42.8148740525122,1249.8609 -0.556768085789214,42.8145184919171,1261.2179 -0.556214041752886,42.8141292367987,1274.8417 -0.555890835998496,42.8138583335488,1282.003 -0.555867701684979,42.8133336266245,1271.5429 -0.555382892604246,42.8131306167016,1283.71890000001 -0.554828848567918,42.8129951650148,1294.92479999999 -0.554228704787843,42.8128429498006,1306.2271 -0.553605425795953,42.8124028998584,1312.82889999999 -0.552843678689535,42.8118781924478,1323.9951 -0.551966428898851,42.8111670716689,1335.39750000001 -0.551504753233305,42.8106931592671,1344.6404 -0.550950710095274,42.8104732179827,1366.8505 -0.551089179108133,42.8102702085558,1356.5401 -0.550835207411008,42.8100164043172,1363.9638 -0.551042910481098,42.8097964632624,1356.8533 -0.55062733545763,42.8094072074204,1381.0506 -0.550073292319632,42.8089332947147,1397.32150000001 -0.549888554679772,42.8084084201317,1397.90609999999 -0.549726952251725,42.807917575721,1398.46189999999 -0.549311377228257,42.8075283199176,1399.8435 -0.548618864179103,42.8073083792422,1419.5493 -0.548064820142775,42.8067496414725,1432.3713 -0.547972451771993,42.8061741402083,1429.0606 -0.548130031544203,42.8056705549098,1424.60060000001 -0.548043530070532,42.8051414893217,1418.4616 -0.547841526810925,42.8047391578915,1415.9182 -0.5481011983185,42.8042947498292,1412.7858 -0.547524187953645,42.8042734597258,1414.6018 -0.547195449475432,42.804105318862,1417.70419999999 -0.546728409969317,42.804183270488,1420.40360000001 -0.546452310071791,42.803684714911,1428.9041 -0.546154920102054,42.8033420627638,1437.35739999999 -0.546409897912295,42.8029680617885,1431.40670000001 -0.54526342123431,42.8022203964445,1442.6899 -0.544869639339626,42.8018814317649,1446.63959999999 -0.544031784267387,42.8017374306153,1453.0001 -0.542503092402311,42.8012544656298,1466.74189999999 -0.541823655230407,42.8006001741753,1468.84020000001 -0.541122927986294,42.8003041256619,1475.07550000001 -0.539827756772589,42.8001483898393,1490.4952 -0.538659654950777,42.8000548475758,1493.5621 -0.53817149245908,42.7998835215744,1492.6412 -0.537541005385347,42.7995742291246,1494.1712 -0.536992829144459,42.7994260371497,1498.6577 -0.536358151429934,42.7991083628908,1503.149 -0.535838809313014,42.7991931882819,1510.6381 -0.535219888946874,42.7990889172271,1516.9687 -0.534944292105922,42.7984735176748,1522.1682 -0.534194111707097,42.7982406685182,1533.87390000001 -0.533328428624007,42.7981350564845,1546.3279 -0.53266474969882,42.7981985916752,1551.405 -0.532289575506946,42.7980503990422,1556.05160000001 -0.532174240807604,42.7980081546478,1557.8431 -0.531770233390059,42.7978175502708,1563.73179999999 -0.531673505495197,42.7976524265687,1566.6551 -0.53172061225039,42.7975067492522,1568.6453 -0.531540904277778,42.7974304739967,1569.62790000001 -0.531408470147019,42.7973610715927,1571.30959999999 -0.531370583699934,42.7972500952132,1571.30959999999 -0.531247537862208,42.7971322456645,1572.5974 -0.53107721728433,42.7970561380312,1573.97749999999 -0.530802961628078,42.7970217724672,1575.4278 -0.530642196429893,42.7969245421272,1577.35060000001 -0.530424602010196,42.7967929459435,1580.715 -0.53043030182068,42.7967185147849,1582.3303 -0.530575811828722,42.7964880128781,1587.2448 -0.530887618860475,42.7964410742075,1586.3985 -0.531912557972094,42.796602844715,1583.20389999999 -0.532037616036052,42.7963497114537,1590.5629 -0.531918257782577,42.7962107393533,1590.50539999999 -0.531657413075193,42.796142678294,1593.37760000001 -0.530916117014528,42.7960511476723,1602.8107 -0.530252606074332,42.7958300330881,1602.8502 -0.529303438958587,42.7952139630467,1613.2228 -0.528744533239968,42.7950620831013,1620.2926 -0.528037939098744,42.79507616502,1622.8704 -0.527191199688345,42.7955091737217,1624.9632 -0.52666733006242,42.7956533429526,1630.5646 -0.525647755689668,42.795716039595,1632.14019999999 -0.524944682046036,42.7956981023568,1629.5401</coordinates>
</LineString>
</Placemark>
</Folder>
</Document></kml>
