<?xml version="1.0" encoding="UTF-8"?>

<kml xmlns:xsd="http://www.w3.org/2001/XMLSchema" xmlns:gx="http://www.google.com/kml/ext/2.2" xmlns:atom="http://www.w3.org/2005/Atom" xmlns="http://www.opengis.net/kml/2.2">
<Document>
<name>FR04a_04a_gallargues_le_montueux-vendargues</name>
<visibility>1</visibility>
<Schema name="FR04a_04a_gallargues_le_montueux-vendargues" id="kml_schema_ft_FR04a_04a_gallargues_le_montueux-vendargues">
<SimpleField type="xsd:string" name="id">
<displayName>id</displayName>
</SimpleField>
<SimpleField type="xsd:string" name="nombre">
<displayName>nombre</displayName>
</SimpleField>
<SimpleField type="xsd:double" name="longitud">
<displayName>longitud</displayName>
</SimpleField>
<SimpleField type="xsd:string" name="_formato">
<displayName>_formato</displayName>
</SimpleField>
</Schema>
<Folder id="kml_ft_FR04a_04a_gallargues_le_montueux-vendargues">
<name>FR04a_04a_gallargues_le_montueux-vendargues</name>
<Placemark id="kml_1">
<name>&lt;img height='20' src='https://nco.ign.es/iconos/icono_todos_caminos_azul.png' /&gt;&lt;img height='20' src='https://nco.ign.es/iconos/Camino Santiago_20.png' /&gt;&lt;img height='20' src='https://nco.ign.es/iconos/icono_todos_caminos_azul.png' /&gt;  Camino de Santiago </name>
<visibility>1</visibility>
<description><![CDATA[<!DOCTYPE html>
<html>
<head>
<style>
#nco {
  border-collapse: collapse;
  overflow:hidden;
}
#nco th, #nco td {
  padding: 4px;
  text-align: left;
}
#nco th {
  color: #364B5F;
  padding-right: 5px;
}
#nco td {
  color: rgb(51, 51, 51);
  font-size: 12px;
  padding-right: 5px;
}
</style>
</head>
<body>
<table id="nco">
<tr>
<td>Via Tolosana Arles</td>
</tr>
<tr>
<th><b>Camino: </b></th>
<td>FR04a Via Tolosana Arles</td>
</tr>
<tr>
<th><b>Etapa: </b></th>
<td>04a Gallargues le Montueux-Vendargues</td>
</tr>
<tr>
<th><b>Longitud: </b></th>
<td>24.23 km</td>
</tr>
</table>
</body>
</html>]]></description>
<Style>
<IconStyle>
<scale>0.8</scale>
</IconStyle>
<LabelStyle>
<color>ffffffff</color>
<scale>0.75</scale>
</LabelStyle>
<LineStyle>
<color>ffff0000</color>
<width>3.0</width>
<gx:labelVisibility>1</gx:labelVisibility>
</LineStyle>
<PolyStyle>
<color>66ff0000</color>
</PolyStyle>
</Style>
<ExtendedData>
<SchemaData schemaUrl="#kml_schema_ft_FR04a_04a_gallargues_le_montueux-vendargues">
<SimpleData name="id">FR04a_04a</SimpleData>
<SimpleData name="_formato">kml</SimpleData>
</SchemaData>
</ExtendedData>
<LineString>
<extrude>0</extrude>
<tessellate>1</tessellate>
<coordinates>4.17405283107957,43.7217669740884,52.6444999999949 4.17362200086596,43.7220251371138,54.7887999999948 4.1734748146016,43.7220631907693,54.203800000003 4.17204570008744,43.7219341094776,46.4560999999958 4.17140197004977,43.7216749410711,40.1392999999953 4.16979297957808,43.7209390100901,33.9214000000065 4.1693950070426,43.7198860751037,28.527700000006 4.16909191726238,43.7195719214848,27.0752000000066 4.16880207134437,43.718678075051,24.7464000000036 4.16734898438857,43.7175669699739,18.6319999999978 4.16714698112893,43.7169919715915,16.5951999999961 4.16691899320141,43.7172340410681,16.1638999999996 4.16628096297422,43.7167919797247,15.2084000000032 4.16248798389222,43.7149600304112,11.9977000000072 4.16181307243273,43.7150349649656,11.716499999995 4.1603249493842,43.7147910517056,12.6978999999992 4.15798405204318,43.7138090275178,12.728099999993 4.15734669195922,43.7136764260961,12.755799999999 4.15683807842177,43.7143139537949,12.2082999999984 4.15587600341373,43.715603928209,11.5696999999927 4.15568606901992,43.7156780243837,11.7786000000051 4.15365798392547,43.7191600348207,13.0669999999955 4.15166996459103,43.7230450465768,12.4103000000032 4.15142605043181,43.7230420290823,10.2786999999953 4.15114207230924,43.7233940692985,12.2458000000042 4.15128892260368,43.7237870132193,17.0614999999962 4.15125204226971,43.7244089502174,16.9655000000057 4.15076706520399,43.7257029483587,16.6831999999995 4.1503719430229,43.72618406937,17.403999999995 4.14895104270374,43.7261500392857,15.4271000000008 4.14794605247963,43.7274819234455,14.8242999999929 4.14664903612632,43.7323940539733,15.8300000000017 4.14517600118131,43.7342709299353,11.8598000000056 4.14467794823834,43.7355059192599,12.320000000007 4.14386607693568,43.7366889412222,12.2568000000028 4.14077298696963,43.7352650237852,16.6808000000019 4.13905302042435,43.7340239988555,24.1554999999935 4.13950396661216,43.7337100128442,24.4909999999945 4.14007896564908,43.7336659242306,24.6931999999942 4.14029706312535,43.7333970325753,24.7529000000068 4.14059294392543,43.7333090223204,24.4361999999965 4.14085797927358,43.7329640233405,23.5807000000059 4.14061607823895,43.732358011956,23.5059999999939 4.13861799956991,43.7312859665495,22.6674000000057 4.138029925554,43.730796965971,22.6726999999955 4.13719592605097,43.7291730565637,23.1934999999939 4.1367280484167,43.7286230356165,23.627800000002 4.13489107001749,43.7267860580475,27.8932999999961 4.13421297403032,43.7266970422613,29.9579999999987 4.13399705676524,43.7265389591327,30.3965999999928 4.13248898482921,43.7248089343702,29.4340999999986 4.13221606945939,43.7241839795434,28.8249000000069 4.13164308264867,43.7214429297258,32.5391999999993 4.12926496900376,43.7177329321795,30.1818000000058 4.12853205602131,43.7171659798018,30.3401000000013 4.12680705980878,43.7163879717309,33.8329999999987 4.12452902657137,43.714943937098,36.5835999999981 4.123354050841,43.7144529253465,42.4079000000056 4.12196801952787,43.7134009964335,48.729600000006 4.12066597530391,43.7115340115934,52.7284000000072 4.12051208311595,43.7108939693184,53.7179000000033 4.12093503420625,43.7099089280491,56.8040000000037 4.12096101797583,43.7088499582743,55.882500000007 4.12080796391603,43.7083829190822,55.0179999999964 4.11991897943279,43.7070570696694,45.9676999999938 4.11934901006309,43.7065799712311,41.806700000001 4.11766592385184,43.708406053235,38.9967000000033 4.11727298008532,43.7081659955423,38.2712999999931 4.11955202033417,43.7057810082405,38.5607000000018 4.1191560591266,43.7052889908338,38.2393000000011 4.11737205437966,43.7039919749494,33.2262999999948 4.1159900466207,43.7034459777865,33.6202000000048 4.11109702657438,43.7022490418388,35.2551999999996 4.10128802105146,43.6993009594514,47.4312999999966 4.09900495814674,43.6984500283115,38.2532000000065 4.0970350425602,43.6980720042062,24.7229999999981 4.0951569940845,43.697428944883,19.3986000000004 4.09498197980928,43.6972519190274,19.4953999999998 4.09466396991051,43.6958529797431,18.1223000000027 4.0944713540456,43.6948483242704,16.6551999999938 4.09431042176076,43.6939749300287,16.6578000000009 4.09427002092916,43.693829252775,16.525999999998 4.09302178758736,43.6938000835068,17.0334000000003 4.09269304910915,43.6943599947098,17.8086999999941 4.09230094436908,43.6948759848714,19.1869000000006 4.09083394340784,43.6956549989827,22.2805999999982 4.09010807052227,43.6959069587946,22.196299999996 4.08962896125202,43.6958670608441,23.145399999994 4.08505093276513,43.6943849730463,30.5769 4.08053694337818,43.6931219877153,37.1830000000045 4.08037601019504,43.6929560262089,37.2690000000002 4.08047307316149,43.6927389351267,37.6784000000043 4.08030107632729,43.6926760702278,37.9247000000032 4.07976094629641,43.6928770687946,36.7872999999963 4.07948099082967,43.6928049839577,36.373900000006 4.07526221120131,43.6916095568671,27.7122999999992 4.07244304181989,43.6907370007967,24.4450999999972 4.07091904455048,43.6901609967228,22.6282999999967 4.06855903555181,43.6895930391274,26.4282999999996 4.066940992757,43.6889610433289,31.8889999999956 4.06605402049997,43.6889010286922,34.6573000000062 4.06388696243782,43.6880869787239,39.4192000000039 4.0618580392152,43.6877000698662,39.6659000000072 4.06115295334531,43.6873969802286,39.5617000000057 4.05537463729826,43.6856015765804,34.5430999999953 4.05166229189446,43.6845575266492,37.5678000000044 4.04929004604499,43.6837540372097,34.3678000000073 4.04966505225194,43.6832670491076,33.7951999999932 4.0501230394349,43.682972006211,31.8957999999984 4.05004207068509,43.6828139233701,31.5874999999942 4.04862603204822,43.6835629298757,32.2618999999977 4.04681906097276,43.6830739295997,29.3625999999931 4.04440691734824,43.6820360826829,26.2684000000008 4.04360896005105,43.6824050537541,27.9180000000051 4.04339907676974,43.6823569418242,28.3435999999929 4.04141994177342,43.6813499397975,34.1588000000047 4.03986895462132,43.6809930387364,33.9023000000016 4.03782041758278,43.680387697735,29.9847000000009 4.03466094301556,43.6794335014099,31.3233999999939 4.02985543055599,43.6780065664794,27.1826000000001 4.02598097876927,43.676782976061,26.7284999999974 4.0249369288983,43.676577955157,29.2553999999946 4.02439998429342,43.6772699648193,27.777700000006 4.02301998786236,43.6800309637617,28.8711999999941 4.02185792092261,43.6783669884167,28.6456999999937 4.02112500704187,43.6776620702861,35.1858000000066 4.02107002206166,43.6771539590733,33.148199999996 4.02057113099053,43.6768859059582,31.5280000000057 4.02018707246046,43.6768290770808,30.4026000000013 4.01918392647763,43.6757129425767,27.2017000000051 4.01882702491694,43.6750819531496,28.2434999999969 4.01869492585777,43.6749423101247,28.6631000000052 4.01869207640171,43.6745740098094,28.297900000005 4.0176280776432,43.6743569184696,28.8940000000002 4.0144870427938,43.6735140338843,34.5429000000004 4.01307905126523,43.6729549611806,36.4752000000008 4.01035694395196,43.6723320178729,34.4514999999956 4.00982603422915,43.6719779662802,34.7682000000059 4.00532193439519,43.6705280646192,43.321100000001 4.00466093783943,43.6698920459713,42.4159999999974 4.00405006458163,43.6704330140061,43.0950000000012 4.0021530724332,43.6696070615512,45.4158000000025 3.9986050127252,43.6686329167211,43.6549999999988 3.99869201725542,43.6683809567027,43.1634000000049 3.99826705483721,43.668547923853,44.136599999998 3.99461103559834,43.6673739546989,48.6107999999949 3.99345802188005,43.6673679199527,49.868100000007 3.99155398873644,43.6667179871673,46.925900000002 3.991118967882,43.6667669375485,46.4633000000031 3.99104705055697,43.6670609742993,46.1603999999934 3.98968599779867,43.666783030798,44.6024999999936 3.98947292909135,43.6666420467417,44.0586000000039 3.98921996350734,43.6657840753873,44.4924000000028 3.98894805425064,43.6656199578283,43.9581999999937 3.98821514126819,43.6655649722341,43.9548000000068 3.98720998305912,43.6652030418327,46.084600000002 3.98667773215161,43.6653636391164,47.2854999999981 3.98613307640832,43.6653198855651,46.4214000000065 3.985527902961,43.6652060589898,44.4977000000072 3.98527359619225,43.6653022836721,43.2796999999991 3.984953071909,43.6652139381684,41.9489999999932 3.98447480076687,43.6654600312014,41.5164999999979 3.98407900664596,43.6654850092256,40.8937000000005 3.98359503569338,43.6651780636912,40.1340999999957 3.98236205844006,43.6639320098223,43.6098999999958 3.98195100912896,43.6637060336426,43.9545999999973 3.98079497707132,43.6633672370638,44.1833999999944 3.97925605968335,43.6627580407211,43.3748000000051 3.97830504922466,43.6624480775949,43.1998000000021 3.97657033054581,43.6619397992259,42.9106999999931 3.97470619517722,43.6614231384282,43.7206000000006 3.97112092006364,43.6603059986373,43.125</coordinates>
</LineString>
</Placemark>
</Folder>
</Document></kml>
