<?xml version="1.0" encoding="UTF-8"?>

<kml xmlns:xsd="http://www.w3.org/2001/XMLSchema" xmlns:gx="http://www.google.com/kml/ext/2.2" xmlns:atom="http://www.w3.org/2005/Atom" xmlns="http://www.opengis.net/kml/2.2">
<Document>
<name>FR04a_14a_la_salvetat_sur_agout-angles</name>
<visibility>1</visibility>
<Schema name="FR04a_14a_la_salvetat_sur_agout-angles" id="kml_schema_ft_FR04a_14a_la_salvetat_sur_agout-angles">
<SimpleField type="xsd:string" name="id">
<displayName>id</displayName>
</SimpleField>
<SimpleField type="xsd:string" name="nombre">
<displayName>nombre</displayName>
</SimpleField>
<SimpleField type="xsd:double" name="longitud">
<displayName>longitud</displayName>
</SimpleField>
<SimpleField type="xsd:string" name="_formato">
<displayName>_formato</displayName>
</SimpleField>
</Schema>
<Folder id="kml_ft_FR04a_14a_la_salvetat_sur_agout-angles">
<name>FR04a_14a_la_salvetat_sur_agout-angles</name>
<Placemark id="kml_1">
<name>&lt;img height='20' src='https://nco.ign.es/iconos/icono_todos_caminos_azul.png' /&gt;&lt;img height='20' src='https://nco.ign.es/iconos/Camino Santiago_20.png' /&gt;&lt;img height='20' src='https://nco.ign.es/iconos/icono_todos_caminos_azul.png' /&gt;  Camino de Santiago </name>
<visibility>1</visibility>
<description><![CDATA[<!DOCTYPE html>
<html>
<head>
<style>
#nco {
  border-collapse: collapse;
  overflow:hidden;
}
#nco th, #nco td {
  padding: 4px;
  text-align: left;
}
#nco th {
  color: #364B5F;
  padding-right: 5px;
}
#nco td {
  color: rgb(51, 51, 51);
  font-size: 12px;
  padding-right: 5px;
}
</style>
</head>
<body>
<table id="nco">
<tr>
<td>Via Tolosana Arles</td>
</tr>
<tr>
<th><b>Camino: </b></th>
<td>FR04a Via Tolosana Arles</td>
</tr>
<tr>
<th><b>Etapa: </b></th>
<td>14a La Salvetat sur Agout-Angles</td>
</tr>
<tr>
<th><b>Longitud: </b></th>
<td>19.11 km</td>
</tr>
</table>
</body>
</html>]]></description>
<Style>
<IconStyle>
<scale>0.8</scale>
</IconStyle>
<LabelStyle>
<color>ffffffff</color>
<scale>0.75</scale>
</LabelStyle>
<LineStyle>
<color>ffff0000</color>
<width>3.0</width>
<gx:labelVisibility>1</gx:labelVisibility>
</LineStyle>
<PolyStyle>
<color>66ff0000</color>
</PolyStyle>
</Style>
<ExtendedData>
<SchemaData schemaUrl="#kml_schema_ft_FR04a_14a_la_salvetat_sur_agout-angles">
<SimpleData name="id">FR04a_14a</SimpleData>
<SimpleData name="_formato">kml</SimpleData>
</SchemaData>
</ExtendedData>
<LineString>
<extrude>0</extrude>
<tessellate>1</tessellate>
<coordinates>2.7029569076881,43.6019164874185,686.222099999999 2.70288482327645,43.6017657813667,687.114799999996 2.70266873802641,43.6017020789463,686.507100000003 2.70263655138977,43.6016325087954,687.421400000007 2.70259665361476,43.6014990687457,689.3747 2.70232893499885,43.6012499586974,688.744000000006 2.70228199622861,43.6011024372364,690.756200000003 2.70234838172811,43.6010005132485,693.162200000006 2.70245432813439,43.6010003454133,694.065199999997 2.70244443768311,43.6008498068537,695.539000000004 2.70276781142246,43.6006712724776,698.658500000005 2.70254837365982,43.6004555220786,697.900099999999 2.70259665361476,43.6002873807264,700.005499999999 2.70275205407407,43.6001490795127,699.753100000002 2.70271131727257,43.6000233508608,699.802599999995 2.70254837365982,43.5998200058242,695.319199999998 2.70228199622861,43.5996384537966,693.614700000006 2.70210513861042,43.5996263843535,693.5579 2.70198494222879,43.5997083593287,693.097099999999 2.70198812675647,43.599725123035,693.1682 2.70188402369313,43.5997308223949,692.381800000003 2.70185703381041,43.5996825427304,692.067500000005 2.70205216495812,43.5995454150009,693.396900000007 2.70205216495812,43.5994584104753,692.319699999993 2.70195795234606,43.5994575725791,691.647299999997 2.70164396600145,43.5995569822438,689.979600000006 2.70156031488217,43.5994897593636,688.487399999998 2.70166257370423,43.5993601748753,688.290500000003 2.70127885024578,43.5987871881435,690.279999999999 2.70105890942656,43.5985375750507,698.996599999999 2.70011242468028,43.5989526469333,702.443599999999 2.69985660874188,43.5991229667847,703.292499999996 2.69988024611194,43.5991487829726,701.425700000007 2.69917616635519,43.5996676232881,695.247499999998 2.69864173613479,43.5997713912047,696.215100000001 2.69832942604646,43.599667120422,696.341400000005 2.69805064467783,43.5996639353867,697.012000000002 2.69698144826712,43.5995194311439,698.959199999998 2.69653636987474,43.5994379587793,695.004199999996 2.69580479717873,43.599208294695,696.041100000002 2.69475135991302,43.5985058912831,703.995500000005 2.69446956020505,43.5981560305481,712.074800000002 2.69436746846961,43.5977317386506,710.690400000007 2.69412154298249,43.5975409664237,714.529800000004 2.69388869427095,43.5974672057453,714.3361 2.69327044494634,43.5976636777617,720.904500000004 2.69218331187435,43.5981318910647,725.453399999999 2.69174275919438,43.5982671744441,725.076100000006 2.69097531227748,43.5982634864568,722.211500000005 2.69040735423574,43.5981967669615,726.253899999996 2.69003385719848,43.5980633270983,725.841 2.68962716651317,43.5978060025369,728.667400000006 2.68953898878319,43.5978408711545,729.244500000001 2.68931485732318,43.5978524380745,729.903300000005 2.68917873470984,43.5977422998273,729.694000000003 2.68647322466974,43.5979337427906,708.983399999997 2.6861049234881,43.5978819421679,706.837700000004 2.68301988063035,43.5974113822922,700.135599999994 2.6816283165934,43.5972372062541,696.187300000005 2.68077906190019,43.5970630303623,693.831900000005 2.68041579038582,43.5969259025179,695.055999999997 2.68009576915911,43.5967099845035,697.091700000004 2.67990432649398,43.5965257505412,698.269799999995 2.67954356936409,43.5957990394238,710.481700000004 2.67940074172548,43.5955638432085,712.391000000003 2.67930049423136,43.5954957824698,714.078099999999 2.67914995545436,43.5954505200679,715.397500000006 2.67878383358557,43.595325294259,719.340899999996 2.67865374675267,43.5953325027426,719.314100000003 2.6783233320181,43.5953623424721,719.465599999996 2.67792955012342,43.5955143898013,716.652799999996 2.67768898937519,43.5955661905105,717.161399999997 2.67718154903748,43.5955896596222,717.937900000004 2.67668114969499,43.5955698780125,719.702099999995 2.67623020350721,43.5955990475246,719.170700000002 2.67601612958511,43.595658893904,719.146800000002 2.67550952737555,43.5959886383259,717.8842 2.67536116791145,43.5960627339124,717.396299999993 2.67511725465056,43.5961111817279,716.562000000005 2.67466546943629,43.5960848626419,715.909199999995 2.67375988857815,43.5957847904174,719.794699999999 2.67346099033705,43.5956092733753,724.043600000005 2.67244242117908,43.5949849890974,734.203999999998 2.67221996597539,43.5948436699683,738.226800000004 2.67224041702115,43.594832606027,738.210099999997 2.67209758938257,43.5946104855559,739.789699999994 2.67200505392513,43.5945102382115,741.606100000005 2.6718665849123,43.5944396623831,743.650599999994 2.6714731380892,43.5946621178892,743.912400000001 2.67128672419302,43.5947461047505,743.088000000003 2.67093585841274,43.5948252302818,747.898100000006 2.67073821288055,43.5948027666854,749.962799999994 2.6702758670718,43.5948066220866,751.335600000006 2.66992315615192,43.5947461047505,751.212100000004 2.66865380072283,43.5949730865728,741.963199999998 2.66733733943688,43.5952795294768,730.503299999997 2.66680441838617,43.5955065112389,728.915900000007 2.66598366184705,43.5959292945213,728.673299999995 2.66484539936403,43.5961193959087,728.680200000003 2.66456142034312,43.5961405181757,728.824399999998 2.66405783557466,43.5959951759841,729.259399999995 2.66360973974127,43.5960441260998,730.589300000007 2.66350932426215,43.596029206406,730.745800000004 2.66296517067713,43.5959589661057,733.046400000007 2.66299216055983,43.5958816851559,732.134399999995 2.66345065079937,43.5957562917439,729.762799999997 2.6636856797221,43.5953703889042,724.426399999997 2.66362298270518,43.5948481961256,719.508400000006 2.66341930229092,43.5942807413892,719.840100000001 2.66327831889359,43.5940083295179,719.462 2.66329776472456,43.5935875580695,722.508000000002 2.66349775755456,43.5932477557597,724.081900000005 2.6635291051647,43.5928958833406,724.339200000002 2.66337772825955,43.5923284284122,726.598100000003 2.66257306593706,43.5921581081966,729.268400000001 2.66166949640685,43.5917665055915,733.758300000001 2.66143480345404,43.5916258575066,734.819099999993 2.661146800879,43.5914543635234,734.982900000003 2.65989303571168,43.5912047505918,737.479500000001 2.65961039787554,43.5910347655246,739.097999999998 2.65935491790706,43.5909977179005,739.516799999998 2.65921929835029,43.5910230313829,739.763699999996 2.65901159528017,43.591240457792,739.529599999994 2.65897974371515,43.5912288909022,739.745200000005 2.65865016710878,43.5913475786148,740.186700000006 2.65834925664142,43.5912694589379,741.357999999993 2.65804382046168,43.5909549700631,743.413199999995 2.6575580052678,43.5906371281198,746.3753 2.65686063053632,43.5904317714716,749.948099999994 2.65590459130868,43.5903751099756,755.339500000002 2.65517586806872,43.5903987470247,756.674599999998 2.65456465973933,43.5904782074946,759.320200000002 2.6541428827471,43.5906334403155,758.2788 2.6540474969353,43.5907506190793,758.465400000001 2.65407884454545,43.5910910919752,758.417799999996 2.65465870526473,43.5917948369925,762.637199999997 2.65542665523817,43.5920786479927,758.956900000005 2.65562564105676,43.5922865188654,759.443400000004 2.65561457740574,43.5924873493567,762.042799999996 2.6543537712432,43.5922372338776,772.990000000005 2.65232300377931,43.5916163024243,773.522400000002 2.65112573276192,43.5911422217881,775.668000000005 2.65060739585982,43.5908290738555,780.3413 2.64998445283784,43.5904369681178,783.522599999997 2.64955144331134,43.5899516558976,780.208599999998 2.64920443310023,43.588935266377,787.280299999999 2.6489613579675,43.5887104642549,786.485100000005 2.6489578374699,43.588309976564,787.088199999998 2.64882137978498,43.5877616327339,787.354300000006 2.64873135871205,43.5875695191031,790.2258 2.64862138785327,43.5874865385729,790.551900000006 2.6483114250628,43.5873851172634,787.8514 2.64790138186485,43.5873271144678,785.578899999993 2.64762142639812,43.5869214303834,792.161399999997 2.64640152412374,43.5866969629969,792.358300000007 2.64581227690809,43.5864726632997,793.139599999995 2.64569660623884,43.5864614318957,793.364400000006 2.64537272944295,43.5864558998055,789.885699999999 2.64515982961892,43.5862012571801,788.501499999998 2.64486394792054,43.5857801507022,788.341 2.64484852564374,43.5854172144998,788.680600000007 2.64492144818355,43.5850889790303,790.167799999996 2.64534154891943,43.5846180835672,794.481899999999 2.64564145327364,43.5840965614222,801.993700000006 2.64568151903365,43.5837416715154,804.094200000007 2.64550147598946,43.5834954116076,801.169800000003 2.64506142546774,43.5831911484665,791.524799999999 2.64494156505602,43.582886885089,792.505300000004 2.64483142621229,43.5823725716474,794.137900000002 2.64520140365025,43.5818366326275,792.169800000003 2.64542687719333,43.5813831716215,788.690499999997 2.64595141606412,43.5807645873504,783.691800000001 2.64613615370398,43.580502737072,781.090299999996 2.64622148107958,43.580264690672,777.045400000003 2.6461438648424,43.580150864328,774.474499999997 2.64601143071164,43.5800908502522,769.860799999995 2.64544146134197,43.5800112218419,756.286600000007 2.64545772264523,43.5799833937818,756.468399999998 2.64522638130675,43.5797989921305,753.998099999997 2.645151447439,43.5795837447693,750.833899999998 2.64520140365025,43.5790332214428,751.892200000002 2.64513149855149,43.5788563631322,752.982199999999 2.64497961858976,43.5787210797196,753.307000000001 2.64494156505602,43.578736167046,753.045499999993 2.64474039902624,43.5786483248352,754.732300000003 2.6444215509993,43.5786493302679,756.778699999995 2.64411142112216,43.5790550147842,753.732999999993 2.64396155248837,43.57937369424,751.757899999997 2.64389147940465,43.5797285845161,751.957500000004 2.64377145100798,43.5799314260831,753.035300000003 2.64348143710501,43.5801922708363,754.437300000005 2.64334514740504,43.5803017390455,755.660199999998 2.6430814523433,43.5803443187471,757.169999999998 2.64275304983497,43.5802383718143,760.920100000003 2.64246152676234,43.5800038455819,767.771999999997 2.64228215475968,43.579879793477,772.321500000005 2.64202147713895,43.5798227966716,777.522700000001 2.64110164720378,43.5800112218419,787.4712 2.64106158144377,43.5799460107262,787.972399999999 2.64127163181171,43.5794679069508,790.286600000007 2.64167161657345,43.5791274340356,787.987999999998 2.64158159460219,43.5786927486726,794.1054 2.64135159534674,43.5783740688666,799.047500000001 2.64117155230254,43.5783378587987,801.599400000006 2.6406815464679,43.5786203288984,804.130499999999 2.64065455658517,43.5785982009059,804.633900000001 2.64007922247664,43.57856735524,808.914600000004 2.6398396678415,43.5785326544164,809.323300000004 2.63950154196855,43.5783522759295,813.235000000001 2.63919157917807,43.5779900101452,815.303899999999 2.63852169738589,43.5782798557458,813.552800000005 2.63817166883544,43.5782074361257,812.5236 2.63729173667528,43.5778669632414,807.064700000003 2.63692310042202,43.5776264028833,809.157800000001 2.63641163742847,43.5774394865638,803.874100000001 2.63565173366503,43.577207643012,804.138999999996 2.6349917423241,43.5765701156611,814.086599999995 2.63466417794396,43.5763585564996,817.845100000006 2.63425178834646,43.5762370187014,817.440499999997 2.63372171675185,43.5760920117621,813.100399999996 2.63352306600484,43.5760402112127,813.819399999993 2.63306172541091,43.5760485934344,811.967099999994 2.63238983229076,43.5761686224255,808.049700000003 2.63238212115238,43.5761798537974,807.776400000002 2.6317318531761,43.5760775947409,807.975999999995 2.63162657601469,43.5759843880596,807.115300000005 2.63164199918979,43.5759954522117,807.241399999999 2.6315618676698,43.5757009118268,809.914699999994 2.63124100831496,43.5753029394898,809.623600000006 2.63124100831496,43.5753084713033,809.547900000005 2.63112533854404,43.575090709453,810.565600000002 2.63106180339893,43.5750923859239,810.0334 2.63104839245006,43.5749175393935,811.298699999999 2.63087874291368,43.574872947466,811.268800000005 2.62959111485344,43.5750124222468,807.804799999998 2.6293676535366,43.5749230712424,811.380900000004 2.62881327442868,43.5743443850257,824.056400000001 2.62884328175243,43.5743143773794,824.414300000004 2.62843474772417,43.5738897501397,830.169500000004 2.62769496083317,43.5733574993185,835.154599999994 2.6273015140101,43.5727727778898,840.643299999996 2.62694260112148,43.5722333189643,841.874500000005 2.62687738972005,43.5719124598098,844.125599999999 2.62683112199135,43.5714992314167,843.933199999999 2.62692701085972,43.5711093057201,841.087700000004 2.62687604853532,43.570719211532,831.731799999994 2.62667622458857,43.570223506281,833.493300000002 2.62628445402182,43.5698148041022,841.341 2.62597097073375,43.5693833038887,848.571899999995 2.62579863882797,43.5690766939954,850.180999999997 2.62570559941566,43.5689744345928,849.592600000004 2.62559479132706,43.5689177730773,848.980100000001 2.62552421518676,43.5689506303192,848.1774 2.62513495990279,43.569270483392,846.922500000001 2.62490009896501,43.5696463278638,847.230899999995 2.62482667336866,43.5702479810844,844.865900000004 2.62473279582819,43.5706664060019,841.4516 2.6245229134452,43.5709401588234,840.139899999995 2.62440254907861,43.5713483574224,838.396200000003 2.62431772386126,43.57161641098,839.297000000006 2.62415595344829,43.5717449891294,837.547500000001 2.62387063324269,43.5719013955583,836.314599999998 2.62333100626838,43.5720465700912,820.546799999996 2.62307586137148,43.5722551115126,815.844899999996 2.62297628491885,43.5730073036508,807.961899999995 2.62287603652643,43.573230765142,807.037200000006 2.62259088430579,43.5736161649696,803.760200000004 2.62237396092759,43.5737437378909,803.444099999993 2.62192301473981,43.5737437378909,806.578999999998 2.62108365049788,43.573562185947,821.2791 2.62097083018304,43.5737710624982,824.188699999999 2.62093327970584,43.5739065145298,825.109500000006 2.62075776237405,43.5740795169832,830.821299999996 2.62059498584797,43.5742429637028,831.443199999994 2.62057201951941,43.5743230950096,831.674100000004 2.62084560503242,43.5744880509482,829.049700000003 2.62087058268892,43.574651329952,825.185599999997 2.6207078061628,43.5750325392694,832.302299999996 2.62078676358468,43.5751745283834,833.485000000001 2.6208818143249,43.5751901190182,832.776899999997 2.6212589998447,43.5753321084114,825.001300000004 2.62120887654683,43.5756678871077,834.015299999999 2.62128012283032,43.5758112179668,832.178499999995 2.62144692201228,43.5759220269692,830.681299999997 2.62172251975156,43.5761580613677,827.885699999999 2.62197313803772,43.5762941829004,821.273499999996 2.62214446472871,43.5765493281896,820.354500000001 2.62222358923725,43.5767660845075,820.716 2.6221124451787,43.576907906187,820.013999999996 2.62182276724568,43.5771472934531,823.8217 2.62095641312106,43.577458932474,830.106599999999 2.62038040886929,43.5775670591948,835.928799999994 2.61964280129121,43.5778007463088,842.079899999997 2.61953433960209,43.5779429033027,841.343099999998 2.61949243049914,43.5781547979018,840.976699999999 2.61919185510339,43.5785722171152,841.276400000002 2.61807689402051,43.5791711878877,836.1823 2.61796491183384,43.5792015302071,835.323300000004 2.61798905226047,43.5793436871476,834.789499999999 2.61808929975459,43.5794343793103,834.426600000006 2.61782627573435,43.5797153410243,828.774699999994 2.61750675756421,43.5799414847497,826.212199999994 2.61714968801854,43.5803510240452,817.909400000004 2.61698691149245,43.5806051636637,814.093999999997 2.61675456493916,43.5807372626627,813.331999999995 2.61637302079356,43.5808229257448,812.665200000003 2.61598460363778,43.5808138732727,811.9611 2.61540541396003,43.5808490771064,809.741899999994 2.61501984626031,43.5808323133476,803.256399999998 2.6145727556417,43.5807372626627,802.636299999998 2.61424116770739,43.5805977874765,801.516900000002 2.61371696390818,43.5802149019223,795.561000000002 2.6137670872061,43.5799880876488,795.199699999997 2.6137670872061,43.579761105928,795.358999999997 2.61352904174064,43.579543343911,793.260899999994 2.61321589352416,43.5793346344531,792.451100000006 2.61301539853591,43.5790350657003,792.978600000002 2.61278992499284,43.5787266112191,793.029200000004 2.6126020028253,43.5784634199565,793.252699999997 2.61227913214253,43.5781162410211,793.3079 2.61211149393408,43.5778388003431,793.717099999994 2.6118560139656,43.5774917896116,796.045499999993 2.61140909043365,43.5773472854926,794.827600000004 2.61112175890015,43.5771680807183,797.357999999993 2.61089963876804,43.5770750410235,798.246100000004 2.6105789464998,43.5770177090131,799.179699999993 2.61020377320626,43.5769887075085,801.1391 2.60980043593188,43.5769060618643,803.695399999997 2.60909417686224,43.5767208223374,806.522299999997 2.60868731909027,43.5765840295054,809.027400000006 2.60809706486318,43.5762896566495,810.551800000001 2.60716483009225,43.5757859045953,812.017600000006 2.60676384011573,43.575386590869,813.141099999993 2.60654021081393,43.5750516501418,815.029299999995 2.60629277705545,43.5749187127962,814.631200000003 2.60622471529963,43.5747592892504,815.539600000004 2.60614123216534,43.5745660023677,816.136700000003 2.60614994941687,43.5744607260154,816.129499999995 2.60596554684859,43.5740801873224,817.905599999998 2.60567402467426,43.5737346850052,817.826400000005 2.60394098225173,43.5731266618458,821.384600000005 2.60349405961812,43.5731447671477,821.956000000006 2.60310564156397,43.5732354588847,823.490699999995 2.60261714489898,43.5734805456748,827.022599999997 2.60229142386182,43.5737165805315,830.4476 2.6018654553305,43.5742065864948,835.3508 2.60145205961989,43.5745152079597,845.433600000004 2.6009355669591,43.574799354899,851.414300000004 2.6003620770918,43.5750234865775,857.318499999994 2.60001121131152,43.5756010000377,863.901400000002 2.59948499528607,43.5767660845075,862.384900000005 2.59905349492923,43.5776017599241,858.217199999999 2.59887931878218,43.5783764155375,852.864600000001 2.59873414384572,43.578792828435,852.177899999995 2.59846759932788,43.5792095768476,851.848700000002 2.59777793663312,43.5796182783939,851.154800000004 2.59712984796972,43.580007031007,850.477100000004 2.59657496580524,43.5802197636644,849.216 2.59538993253693,43.5804869786188,845.656400000007 2.59543854756349,43.5804871465112,845.936499999996 2.59433599221469,43.5806051636637,843.985000000001 2.5940853730302,43.5804599889393,840.612500000003 2.59383492183066,43.5804328320059,837.886899999998 2.59345907749559,43.5804509364126,836.664699999994 2.59294543429085,43.5806868033873,838.109299999996 2.59253187149358,43.5808593028602,840.155199999994 2.59215166763443,43.580844550547,843.485799999995 2.59180700382284,43.5806742303721,844.303799999994 2.59141691041073,43.5804328320059,846.036500000002 2.5911664592112,43.580305761967,845.5285 2.59083520634848,43.5802541296819,844.820999999996 2.5906487924523,43.5802152377085,844.684699999998 2.59048987149539,43.5802693845171,847.326499999996 2.5897946769751,43.5805563812471,850.114199999996 2.58975394107192,43.5806060018224,850.295400000003 2.58936217050517,43.5808785810761,850.900800000003 2.58911171930564,43.5810953374272,851.871499999994 2.58888641374752,43.5810591276944,852.705300000001 2.5883120857521,43.5808217518063,853.914900000003 2.58748797670035,43.5805910822058,855.300700000007 2.58739225581693,43.5805852144427,855.163400000005 2.58607093284866,43.5803221907375,852.1299 2.58569156711766,43.5802784370711,852.004199999996 2.5850696302088,43.5801805365332,855.903600000005 2.58468925926299,43.5798791232022,863.153000000006 2.58465170878582,43.5792620475552,863.938999999998 2.58424753338328,43.5787002923399,868.924299999999 2.58382441520635,43.5783071808979,866.093699999998 2.58324187211764,43.5779254690891,860.572899999999 2.58277248621204,43.577655571981,852.905599999998 2.58187696379013,43.5773588524468,851.929600000003 2.58091120029954,43.577098678089,848.916500000007 2.58087616420681,43.5771244946139,849.299599999998 2.58037643500752,43.5770292760306,845.550600000002 2.57962608752207,43.5769830079472,845.924599999998 2.57879594358822,43.5770581096137,850.404999999999 2.578376009939,43.5770638098187,851.392900000006 2.57776631077923,43.5771333790883,853.064899999998 2.57726322816897,43.5768934893612,848.843399999998 2.57687145850052,43.5767345682441,847.954500000007 2.57641749487172,43.5765781620025,845.396099999998 2.57605656975684,43.5765075866231,845.491699999999 2.57527604696269,43.576410524028,839.054999999993 2.57445378215221,43.5761944386984,827.634900000005 2.57401507371352,43.5760578132261,823.6587 2.57328065156141,43.5757802049201,820.519700000004 2.57278762738739,43.5756407299653,821.610100000005 2.5721388685808,43.5738193427745,822.561499999996 2.57196368632059,43.5735251379824,821.710000000006 2.5714183595358,43.5729506420243,818.794800000003 2.57134694616564,43.572527523559,816.138500000001 2.57204247665585,43.5715941150999,802.515400000004 2.57259970521985,43.5709299326867,800.543999999994 2.57267480707256,43.5705669961287,801.557400000005 2.57243676070878,43.5702310497076,799.398400000005 2.57176034187625,43.5700040676549,794.475000000006 2.57055418562237,43.5689506303192,786.024900000004 2.57001623490437,43.5683667467407,780.363400000002 2.56926588741889,43.5678983663231,776.702499999999 2.56806761028837,43.5671542204634,778.958499999993 2.56763761820289,43.5671812102489,777.6155 2.56665593027726,43.5676264573007,768.112899999993 2.56622593819177,43.5676105314548,768.278000000006 2.56610523875356,43.5675686222729,768.3609 2.56595553810473,43.5674472522377,768.236399999994 2.56564222280165,43.5667300966506,766.683600000004 2.56541071437651,43.5660882099468,761.635299999994 2.5651314299513,43.5657874674565,759.267800000001 2.56420556423573,43.5649430744394,758.787200000006 2.56326377408512,43.5638557740374,761.049100000004 2.56290452522659,43.5636532675747,761.482799999998 2.56207739963212,43.5633867225844,761.215800000005 2.56172435364061,43.5633034066915,760.428400000004 2.56108732862823,43.5633701264609,758.686900000001 2.56050411629465,43.5634757385514,757.272899999996</coordinates>
</LineString>
</Placemark>
</Folder>
</Document></kml>
