<?xml version="1.0" encoding="UTF-8"?>

<kml xmlns:xsd="http://www.w3.org/2001/XMLSchema" xmlns:gx="http://www.google.com/kml/ext/2.2" xmlns:atom="http://www.w3.org/2005/Atom" xmlns="http://www.opengis.net/kml/2.2">
<Document>
<name>ES10b_03a_villaharta-alcaracejos</name>
<visibility>1</visibility>
<Schema name="ES10b_03a_villaharta-alcaracejos" id="kml_schema_ft_ES10b_03a_villaharta-alcaracejos">
<SimpleField type="xsd:string" name="id">
<displayName>id</displayName>
</SimpleField>
<SimpleField type="xsd:string" name="nombre">
<displayName>nombre</displayName>
</SimpleField>
<SimpleField type="xsd:double" name="longitud">
<displayName>longitud</displayName>
</SimpleField>
<SimpleField type="xsd:string" name="_formato">
<displayName>_formato</displayName>
</SimpleField>
</Schema>
<Folder id="kml_ft_ES10b_03a_villaharta-alcaracejos">
<name>ES10b_03a_villaharta-alcaracejos</name>
<Placemark id="kml_1">
<name>&lt;img height='20' src='https://nco.ign.es/iconos/icono_todos_caminos_azul.png' /&gt;&lt;img height='20' src='https://nco.ign.es/iconos/Camino Santiago_20.png' /&gt;&lt;img height='20' src='https://nco.ign.es/iconos/icono_todos_caminos_azul.png' /&gt;  Camino de Santiago </name>
<visibility>1</visibility>
<description><![CDATA[<!DOCTYPE html>
<html>
<head>
<style>
#nco {
  border-collapse: collapse;
  overflow:hidden;
}
#nco th, #nco td {
  padding: 4px;
  text-align: left;
}
#nco th {
  color: #364B5F;
  padding-right: 5px;
}
#nco td {
  color: rgb(51, 51, 51);
  font-size: 12px;
  padding-right: 5px;
}
</style>
</head>
<body>
<table id="nco">
<tr>
<td>Caminos Andaluces</td>
</tr>
<tr>
<th><b>Camino: </b></th>
<td>ES10b Camino Mozárabe de Córdoba</td>
</tr>
<tr>
<th><b>Etapa: </b></th>
<td>03a Villaharta-Alcaracejos</td>
</tr>
<tr>
<th><b>Longitud: </b></th>
<td>33.82 km</td>
</tr>
</table>
</body>
</html>]]></description>
<Style>
<IconStyle>
<scale>0.8</scale>
</IconStyle>
<LabelStyle>
<color>ffffffff</color>
<scale>0.75</scale>
</LabelStyle>
<LineStyle>
<color>ffff0000</color>
<width>3.0</width>
<gx:labelVisibility>1</gx:labelVisibility>
</LineStyle>
<PolyStyle>
<color>66ff0000</color>
</PolyStyle>
</Style>
<ExtendedData>
<SchemaData schemaUrl="#kml_schema_ft_ES10b_03a_villaharta-alcaracejos">
<SimpleData name="id">ES10b_03a</SimpleData>
<SimpleData name="_formato">kml</SimpleData>
</SchemaData>
</ExtendedData>
<LineString>
<extrude>0</extrude>
<tessellate>1</tessellate>
<coordinates>-4.90352265546821,38.1408344946559,593.0 -4.90386463691033,38.140981178063,594.920899999997 -4.90454910285118,38.1412120158624,596.304399999994 -4.90486878900628,38.1412913089153,597.0 -4.90518495466378,38.1414136844686,598.0 -4.90529576275242,38.1414778896909,598.439199999993 -4.90539969872909,38.1415627144556,599.0 -4.90548620020276,38.141663632772,599.338199999998 -4.90581778813703,38.1421303371918,603.142399999997 -4.90630511160228,38.1428503422883,608.158500000005 -4.9066987264103,38.1434866969887,612.925000000003 -4.90704942510396,38.1441280798705,616.719700000001 -4.90750137740489,38.1449337487118,624.839200000002 -4.9078079867844,38.1454701903587,629.699200000003 -4.90798752767035,38.1456054739612,632.0 -4.90821098898716,38.1457776387278,632.537100000001 -4.90828407951193,38.1462349554211,636.568799999994 -4.90842254852479,38.1467988893945,642.101200000005 -4.90845674648933,38.1470116219821,645.020699999994 -4.90839052987311,38.1472293839348,646.909 -4.90825289898841,38.1475034724054,648.962599999999 -4.90839773795495,38.1477145286425,651.007400000002 -4.90880593691162,38.1480783034609,654.097999999998 -4.90907868339819,38.1483314369119,655.695699999997 -4.90916367660046,38.1486464286508,658.020000000004 -4.90890467523609,38.149437345222,653.694000000003 -4.90824786932113,38.1501471246817,645.057799999995 -4.90806095326671,38.1503650538812,643.288499999995 -4.908181316735,38.1506408189268,641.0 -4.90821920318212,38.150792531431,639.759699999995 -4.90799657999347,38.150948434825,637.088499999998 -4.90762375309941,38.1511341778125,640.823300000004 -4.90695621860505,38.151894919103,651.846600000004 -4.90667927968104,38.1521413467713,647.093599999993 -4.90662898839816,38.1524104062302,650.042799999996 -4.9066149073061,38.1528923652121,652.281099999993 -4.90615993756415,38.153866509982,657.0 -4.90609891680355,38.15433237626,660.0 -4.90622296965268,38.1547486216286,662.270499999999 -4.90583488756848,38.15631234944,675.976299999995 -4.90586455892231,38.1569778725715,676.307000000001 -4.90612791891247,38.1575765081154,680.0 -4.90652572346299,38.158164414899,686.004400000005 -4.90644274248694,38.1584773955758,689.072700000004 -4.90678790935507,38.1595774364698,695.0 -4.90718118819322,38.1600883967874,693.9274 -4.90750741228696,38.1604323905519,696.4133 -4.90791292887419,38.1608456182845,692.763600000006 -4.90802993982985,38.1614973953082,686.033299999996 -4.9082498815474,38.1619501855457,681.551800000001 -4.90854894777345,38.1625013790674,677.509600000005 -4.90896921649428,38.1625826838576,673.0 -4.90934271353154,38.1626924867115,670.0 -4.90981075915078,38.1631144315621,666.794899999994 -4.91061491931502,38.1635973969094,662.0 -4.91092471412054,38.1636693137593,658.424899999998 -4.91125177634244,38.163646347019,654.794099999999 -4.91196876399151,38.1640456608755,648.468900000007 -4.9126498774197,38.1641961998843,641.856899999999 -4.91316469382421,38.1646895588851,638.527700000006 -4.91376400037442,38.1648582029619,634.567999999999 -4.91402685640971,38.1652176185442,632.110400000005 -4.91459397632332,38.1653886097895,629.0 -4.91431284675851,38.1660174197585,625.758799999996 -4.91436682652393,38.1663645983863,622.582999999999 -4.914838894799,38.1670634813813,616.231899999999 -4.91489488589235,38.1675746102953,608.870800000004 -4.91557683834703,38.1681568167844,602.734599999996 -4.91578605058681,38.1683591559919,601.135899999994 -4.91595519706658,38.1683298196102,601.0 -4.91647303091214,38.168625868064,599.0 -4.91688558849456,38.1689230905129,596.082899999994 -4.91749612578248,38.1691544310129,592.9709 -4.91817556295435,38.1694677465906,589.0 -4.91880588204313,38.1695988393339,585.527700000006 -4.91879280616585,38.1698735987042,584.0 -4.91901291497002,38.1702372050797,581.200599999996 -4.91950795047197,38.1706516067879,577.979600000006 -4.92007171697459,38.1710425388959,574.025599999994 -4.92019794913665,38.1713394259206,572.2163 -4.92038117760682,38.1715231571995,572.0 -4.92069985675051,38.1716775515685,571.268200000006 -4.9209739453201,38.172068651197,567.911699999997 -4.92146009558556,38.1724538836178,565.0 -4.92205772587946,38.1727504350928,561.195099999997 -4.92356998845632,38.1739974948571,554.4084 -4.92352187648631,38.1742424142493,555.452600000004 -4.9239107966987,38.1744883391458,555.0 -4.92399176544852,38.1748516110691,556.4424 -4.92431597821432,38.174945487806,556.035699999993 -4.92547335145673,38.1762932977867,556.697100000005 -4.92646794727466,38.1770825381715,559.0 -4.92700589799268,38.1772671073163,560.0 -4.92738073711297,38.177296947129,561.0 -4.92755424221853,38.1773360066457,560.122000000003 -4.92795053849769,38.17726425793,555.951000000001 -4.92822613533864,38.1772340826742,554.0 -4.92860365682837,38.1773360066457,550.9859 -4.92889434087453,38.1773586378804,549.312399999995 -4.9289642459733,38.1773529384086,549.0 -4.92896609021457,38.1776831850305,552.446200000006 -4.92916239456206,38.1779834246887,551.452900000004 -4.92931159215432,38.1780211435452,547.856499999994 -4.92939457313037,38.1780759613369,546.122600000002 -4.92941921571524,38.1781948164043,547.164099999995 -4.92954377072266,38.178353402511,548.562900000004 -4.92965692610911,38.1784798009894,547.028200000001 -4.92967771402311,38.1786818050678,548.766900000002 -4.92959473304703,38.1788271476381,553.267500000002 -4.92968341293526,38.1790554703918,557.131200000003 -4.9298155119944,38.1792311554277,560.845499999996 -4.92991927998615,38.1795198276898,566.931899999996 -4.92983814325138,38.1796822692848,568.111199999999 -4.92984954287232,38.1798559424216,570.417100000006 -4.93001936039365,38.1800239158815,571.309699999998 -4.93037324361498,38.1807062022644,571.0 -4.93067918374959,38.1812612520628,570.604300000006 -4.93103776156663,38.181782103593,574.320099999997 -4.93150211870328,38.182269259639,574.445399999997 -4.93170596620419,38.1824692520756,569.966899999999 -4.93212120615607,38.1829525523894,559.365099999995 -4.93226839242043,38.1833186743389,550.620200000005 -4.93275169322981,38.1840245977091,535.2837 -4.93324253719264,38.1846891151547,512.153900000005 -4.9337784756844,38.1848098143448,499.621499999994 -4.93380881807973,38.1851496173004,491.973499999993 -4.93348410315568,38.1853383771279,491.0 -4.93280449889715,38.1854215261671,491.260800000004 -4.93232136607274,38.1855573125241,490.423699999999 -4.93231382202098,38.1858518527023,491.1106 -4.9325780201393,38.1860934193135,495.8413 -4.93306886410213,38.1864483087141,504.624400000001 -4.93311127626163,38.1865849340953,507.672200000001 -4.93328578748029,38.1866498098616,509.812600000005 -4.93340849914473,38.186803198504,512.263300000006 -4.93353942410584,38.1869259100326,514.484100000001 -4.93355199692655,38.1870749402139,517.708499999993 -4.93342375343658,38.1874828032976,523.803599999999 -4.93390688715933,38.1880566286413,532.998500000002 -4.93396824209321,38.1881977796856,534.768899999995 -4.93417493994852,38.1883736319001,536.210300000006 -4.93437191443918,38.1885736245242,539.363400000002 -4.93447769465716,38.1886510734006,540.324200000003 -4.93462823343415,38.1886001115804,542.4326 -4.93483107572025,38.1885354027687,545.396699999998 -4.93504783111346,38.1885003667302,546.915500000003 -4.93532862470835,38.1885340619638,547.426200000002 -4.93542116106409,38.1885592075238,548.293099999995 -4.93557237088258,38.1887157814035,551.733900000007 -4.93565635797178,38.1889213057327,554.7019 -4.93584595639563,38.1890976610283,558.440300000002 -4.93608903152836,38.1892892715445,561.0 -4.93598660472135,38.1895502840455,564.658500000005 -4.93617435890393,38.1899070177393,566.589500000002 -4.93596062095177,38.1904312218663,575.0 -4.93593044564304,38.1906350694571,577.592699999994 -4.93633814154317,38.1910427657511,582.629499999995 -4.93685161676294,38.1916241344991,588.953599999993 -4.93712570533253,38.1922683670879,597.970600000001 -4.93738001210128,38.1925377613685,604.8603 -4.93753105393481,38.1927265218193,607.872099999993 -4.93770120652773,38.1928602972383,607.764599999995 -4.93766281792237,38.1932686637902,613.626600000003 -4.93757832777667,38.1934272495615,614.0 -4.93745578409718,38.193610477537,612.588399999993 -4.9373707917932,38.1939690551994,608.892500000002 -4.93753591561714,38.1946377638115,604.0 -4.93763264261367,38.194869104571,603.203699999998 -4.93758352453057,38.1950300371161,603.907500000001 -4.93748310994979,38.195192646041,605.104000000007 -4.93744740281556,38.1952944022779,605.0 -4.93745377276925,38.1954335413398,605.0 -4.9371781759283,38.1956813107641,606.0 -4.93703484523311,38.1960105515802,608.061199999996 -4.93692772472876,38.1966006376512,613.341199999995 -4.93702562492504,38.1971960878764,617.3897 -4.93710961201423,38.1977940528345,620.0 -4.93739023762414,38.1981115594229,617.0 -4.937656782142,38.19854456847,614.818100000004 -4.93776490875947,38.199091572111,616.565199999997 -4.93800379325141,38.1993431963029,614.0 -4.93835566604314,38.1995535821807,612.589900000006 -4.93845993619313,38.1998065481972,613.0 -4.93989290627646,38.2005431494462,619.0 -4.94191696871508,38.2012884685973,627.0 -4.94385201439722,38.2025095440764,617.0 -4.94539579346751,38.2035016265722,623.0 -4.9468539091923,38.2044135775539,625.903699999995 -4.94745975368115,38.2048194291347,630.636400000003 -4.94820473732607,38.2057972620967,633.933000000005 -4.94867395614504,38.2060346373388,634.0 -4.94913596688217,38.20607436757,635.0 -4.95125005039372,38.2078256823441,642.0 -4.95250096520665,38.2088846525254,649.0 -4.9531889516451,38.2092848040867,652.707599999994 -4.95561417204517,38.210392723979,660.0 -4.957262724322,38.2113293183541,655.738200000007 -4.96060978598517,38.2139044061983,670.0 -4.96342225034132,38.2156620915303,662.0 -4.96501179408374,38.2167039622669,646.962299999999 -4.96751898934677,38.2182755688794,635.1345 -4.9679032158618,38.2186294531084,633.6158 -4.96887082269533,38.2189623822108,626.0 -4.96984195002649,38.2194364623858,621.0 -4.97027395254158,38.219667802684,619.0 -4.97125195378129,38.2203933407674,613.894899999999 -4.97207673297624,38.2210984262541,611.0 -4.97281383749782,38.2212705905572,609.0 -4.97410079451656,38.2211046290259,605.0 -4.97475575619022,38.2212095700497,606.666599999997 -4.97507477220211,38.2220514485286,607.029800000004 -4.97536160067907,38.2228809219066,608.0 -4.97567072534136,38.2237186088448,611.383799999996 -4.97608177375412,38.224012478785,613.173800000004 -4.97618788814539,38.2243566393469,611.441699999996 -4.97581187672365,38.2255775473065,612.904599999994 -4.97598789621368,38.2260204477124,615.115900000004 -4.97534768667363,38.2282835612238,616.0 -4.97458392734098,38.228998537772,616.4427 -4.97471770265644,38.2295981792221,620.0 -4.97452676304788,38.230004365971,621.684200000003 -4.97234897730456,38.2320964888065,625.258400000006 -4.97124474480115,38.232773579334,629.791200000007 -4.97068684519561,38.2332994597224,628.0 -4.97057670725021,38.2339096619842,629.0 -4.96977690571172,38.2349376185899,637.484200000006 -4.96996499586425,38.2355295489343,645.119300000006 -4.97023975457704,38.2358395117504,647.943100000004 -4.97029172301452,38.2366064556947,653.339399999997 -4.97027495865469,38.2375755716384,663.0 -4.96993498854047,38.2385735206164,675.779899999994 -4.97010597926155,38.2392294882619,682.119500000001 -4.97061291744101,38.2399563672384,687.595000000001 -4.97085984814292,38.2407114088367,694.0 -4.97039599316452,38.2412170051888,695.931599999996 -4.96998176022405,38.2417759109161,699.204800000007 -4.96959786878067,38.241999539877,702.006800000003 -4.96862774756263,38.2437884056948,709.0 -4.96767472487768,38.2447476305664,713.301200000002 -4.96764270622603,38.2457184229204,725.749599999996 -4.96743600837073,38.2464067444039,734.028600000005 -4.96738873452891,38.2469254169505,740.388900000005 -4.96802793795584,38.2478913476637,749.0 -4.96807537978262,38.2483022280746,748.897200000007 -4.968028776084,38.2487270230607,747.934800000003 -4.96838249221867,38.250252529468,745.0 -4.96858483144823,38.2506888909922,744.107699999993 -4.9687888469341,38.2514546617414,743.0 -4.96929896964121,38.2525025676834,741.0 -4.96937692184831,38.2532158677254,740.0 -4.96945068251631,38.2534456995989,740.0 -4.96921213309595,38.2537965656115,739.0 -4.96900677642538,38.254249356275,739.0 -4.96895648514251,38.2547698725402,737.898400000005 -4.96908573474559,38.2553185514213,737.0 -4.96893284867075,38.2563535492505,734.3073 -4.96857292966902,38.2571235110081,727.0 -4.9687558230676,38.2578473718769,721.503599999996 -4.9685866756895,38.2587824573166,707.863899999997 -4.96855465703783,38.2599316159028,690.999100000001 -4.96850570693969,38.2608655276083,679.898700000005 -4.96794076633897,38.2612266199781,674.949299999993 -4.96773071597103,38.2615464736813,674.133400000006 -4.96691901265336,38.2619768001618,671.653000000006 -4.96641777428438,38.2622485419333,670.892699999997 -4.96579935787311,38.2622624555338,663.228700000007 -4.96544044498449,38.2623308519225,661.719899999996 -4.96518077347688,38.2624384758222,661.777000000002 -4.9648319181262,38.2631767536731,660.1397 -4.96448574604325,38.2637475615378,654.803899999999 -4.96361570433438,38.2644283395324,650.225900000005 -4.96306199536967,38.2656862953466,652.154899999994 -4.96272688693777,38.2663033711926,651.892500000002 -4.96219279268728,38.2666116574732,648.294399999999 -4.9620057086479,38.2670728297185,649.0 -4.96166590562031,38.26765252255,645.0 -4.96194485587223,38.26824663172,642.0 -4.96193714473384,38.2687183650343,639.0 -4.96203705625805,38.2690811336037,637.0 -4.96178710811509,38.2694321681367,634.0 -4.96157672267553,38.2699957669646,631.148799999995 -4.96126340737242,38.2705082369154,628.0 -4.96114455127719,38.2706964939594,626.409299999999 -4.96092796297061,38.2714468422275,623.072199999995 -4.96059989553389,38.2719046620467,626.0 -4.96027685686617,38.2720795080056,627.168600000005 -4.95978668304653,38.2729596082449,628.0 -4.95946867404605,38.2732512981547,625.732499999998 -4.95963798851081,38.2740554579062,621.0 -4.95961150168466,38.2744819295726,621.736799999999 -4.95945844762486,38.2750798940194,620.0 -4.95928980420163,38.2758835511566,618.853000000003 -4.95891077444055,38.2765814287321,612.0 -4.95890993631239,38.2768583667957,608.463000000003 -4.95916189668158,38.2772373960571,606.0 -4.95850173735572,38.2780822920824,615.0 -4.95830928947577,38.2784767444196,620.422600000005 -4.95802531045487,38.2788192290377,626.929900000003 -4.95760386853429,38.2795020186653,625.930699999997 -4.95743019544378,38.2801713973108,630.762900000002 -4.95701763786133,38.280765171363,637.0 -4.95681898711436,38.281346037582,638.2546 -4.95644666237854,38.2825966171809,628.909 -4.95617341283541,38.2833390866648,625.0 -4.95578600089441,38.2840300901723,624.176500000001 -4.95541669449797,38.2849784192133,629.0 -4.95518635927258,38.2860670603351,622.0 -4.95509918765574,38.2870194121691,627.864300000001 -4.95484756325646,38.2877256713526,623.0 -4.95489416605675,38.2882051166246,617.626000000004 -4.95481872913246,38.288757316574,612.0 -4.95466601104257,38.2893733862397,610.0 -4.95455436392748,38.2898374083867,610.204700000002 -4.95445713387441,38.2904165979773,615.995800000004 -4.95450742515728,38.2906115607748,617.0 -4.95442427709457,38.290879614377,617.1492 -4.95438085882193,38.2910506051836,614.960900000005 -4.95433744054932,38.2913126232522,610.479500000001 -4.95409520354474,38.2914192410908,607.022100000002 -4.95392270365401,38.291766419551,605.011899999998 -4.95378490568268,38.2924084729862,596.300300000003 -4.95397081562399,38.2928483553995,596.0 -4.95381273369353,38.2931973777599,599.475699999995 -4.95355859401145,38.2934506794208,603.003100000002 -4.95318995775822,38.2936154675851,600.327399999995 -4.95319850702476,38.2940022084523,597.262600000002 -4.95311804133152,38.2942251669322,594.759900000005 -4.95292106684083,38.2944104069926,593.0 -4.95284747325952,38.2946276661757,593.0 -4.9529250894967,38.294831011005,593.354900000006 -4.95303019867315,38.2949885906765,593.948000000004 -4.95296230580058,38.2951490204168,595.850900000005 -4.95309591313112,38.2952946979167,596.785000000003 -4.95323639347188,38.2954289756401,597.563099999999 -4.95328098494427,38.2956985378128,597.0 -4.95320605107652,38.29618519135,590.175700000007 -4.9531183764031,38.296953811519,587.301300000006 -4.95302248753473,38.2974158224712,587.0 -4.95290279420964,38.2976503479639,588.0 -4.95228873552582,38.2981946689396,588.897899999996 -4.95162505660067,38.2984959144298,584.1774 -4.95140025409913,38.2986311978895,583.0 -4.95130738267181,38.2987783841234,581.569799999997 -4.95113303853976,38.2988368903887,579.348100000003 -4.9508866108944,38.2991528878416,573.425700000007 -4.95073070737854,38.2992538056462,572.163 -4.95047807686611,38.299341145339,570.083700000003 -4.95044656127101,38.2994732442302,567.075100000002 -4.95036173605365,38.2995848913954,564.092499999999 -4.95014615386022,38.299741129742,557.860700000005 -4.94973376426273,38.3001017193229,556.130000000005 -4.94959479219332,38.3001665953802,556.403699999995 -4.94947291955538,38.3002101811509,556.518700000001 -4.94943352393857,38.3003841891093,558.0 -4.94939396123516,38.300551324591,558.7016 -4.94926521558695,38.3006715213847,558.374200000006 -4.94920905650864,38.3008735246409,556.2546 -4.94915105408739,38.3010062939854,554.205499999996 -4.94897922523815,38.3011548218848,552.741699999999 -4.94880722840396,38.3012964760813,550.071500000005 -4.94877906532149,38.3015603379906,546.771099999998 -4.94871284780694,38.3017043389123,545.0 -4.94881091598821,38.3019552936804,544.0 -4.94900336476645,38.3020624140246,544.0 -4.94926806504301,38.3021066704795,545.402300000002 -4.94940368459978,38.3021846223723,548.315000000002 -4.9491730143028,38.3028288549692,548.776800000007 -4.9487130157919,38.3037094579643,554.294299999994 -4.94849558935716,38.3041288886312,560.132199999993 -4.94807884113392,38.304648231104,565.505099999995 -4.94741767659324,38.3051776319771,573.0 -4.94697276528752,38.3053622018887,575.0 -4.94685072466462,38.305396064339,576.0 -4.94660278784956,38.3053311887287,577.0 -4.94637798534802,38.3053395702841,576.777799999996 -4.94582695875274,38.3058104662222,575.529399999999 -4.9447037834749,38.3063723890227,570.439400000003 -4.94447797575857,38.3071904625695,568.0 -4.94483353613456,38.3075423349434,571.355500000005 -4.94520988352621,38.3078061966906,574.590100000001 -4.94611864891203,38.3082692134977,570.0 -4.94788270477142,38.3091114271023,559.754700000005 -4.94827380429667,38.3094451943558,557.0 -4.94830984650251,38.3097224680224,557.0 -4.94798060496773,38.3101920216136,560.230800000005 -4.94769880525972,38.310679345535,564.0 -4.94770366694204,38.3108736385341,565.0 -4.94793768975166,38.3112104229696,568.0 -4.94817875355646,38.3113520772655,569.0 -4.94838997712417,38.3115755385645,569.0 -4.94829073574313,38.3121994879356,568.0 -4.94838176292921,38.3126023223537,569.0 -4.94882482999365,38.3138212184734,572.0 -4.94900168851014,38.3141925368959,574.0 -4.94905382403428,38.314504511214,575.0 -4.9495496976644,38.3149516018847,572.337899999999 -4.94991129292245,38.3153343193346,573.068799999994 -4.94988497318292,38.3156674165576,572.810400000002 -4.95010072336134,38.3158511478188,569.215700000001 -4.95036592669448,38.3160816498004,567.0 -4.95082223762113,38.3162065403279,564.0 -4.95141517331936,38.3163562409303,562.0 -4.95184181289221,38.3165736676843,561.581699999995 -4.95188288386697,38.3167573987634,562.0 -4.95174508499735,38.31719627579,566.0003 -4.95177576336262,38.3176877906323,569.694900000002 -4.95181633128084,38.3182207119454,573.327499999999 -4.9516701511296,38.3186735019335,576.880699999994 -4.95173871504366,38.3188753380587,576.620899999994 -4.95193669564747,38.3189765920964,576.485400000005 -4.95249325406824,38.3188817086837,575.320000000007 -4.95286239337808,38.3188823789419,575.0 -4.95320873344595,38.3190485083489,576.0 -4.95403971550796,38.319629541747,580.0 -4.95428211959917,38.3200293585934,575.968800000002 -4.95443282636112,38.3204424188324,573.317800000004 -4.95430223647163,38.3207842332031,571.973400000003 -4.95402730977388,38.3210172496343,573.005900000004 -4.95375942407131,38.3211951142189,576.804300000003 -4.95363084640809,38.3213585609088,578.0196 -4.95367778428,38.3215823578491,578.418999999994 -4.9543788465957,38.3221146084965,576.0 -4.95458688563574,38.3225459410841,575.0 -4.95467271696617,38.3228010868008,575.0 -4.95475368571599,38.3230562316193,575.145099999994 -4.95452703897317,38.3232746643969,574.706699999995 -4.95393091784897,38.3236895680843,574.595199999996 -4.95349673512269,38.3245249089871,575.0 -4.95306205023817,38.3250380489223,572.691200000001 -4.95305836175562,38.325232341502,572.0 -4.95291687530174,38.3254522821851,575.0 -4.95257187641853,38.3258095191137,577.099199999997 -4.95246056437506,38.3262190587492,575.723199999993 -4.95254941314655,38.3265848450639,572.341400000005 -4.95257271454669,38.3270835681906,572.089699999997 -4.95235562318357,38.3272324309815,572.022400000002 -4.95217859758042,38.327519594876,573.263200000001 -4.95220206696552,38.3277410451479,574.981100000005 -4.95201280361325,38.3278967809903,576.966799999995 -4.9518151580811,38.3280734715712,578.0 -4.95173687080239,38.3283115172804,579.0 -4.95130201793291,38.3286156129194,581.102799999993 -4.95087655245816,38.3291493721144,582.0 -4.95076138484548,38.3294492769679,583.0 -4.95037732631541,38.3298782629954,585.0 -4.95019275666051,38.3302140416579,587.779999999999 -4.94989151112156,38.3307871960575,593.0 -4.94968967494858,38.3313754378777,597.0 -4.9495597552023,38.3321945174667,601.5674 -4.94970291881082,38.33284327725,601.887400000007 -4.94961507615245,38.3332714243795,600.0 -4.94944509154449,38.3334960597148,600.0 -4.94944190611848,38.333800657857,601.001799999998 -4.94945749638024,38.3346180611757,602.0 -4.94952170166856,38.3347211584029,602.0 -4.94944978524186,38.334992732139,602.0 -4.94941625742049,38.3353883583507,603.444499999998 -4.94947677512455,38.3357724166249,606.0 -4.94924476364287,38.3362625907391,606.0 -4.9495180140843,38.336889724608,607.0 -4.94961792560851,38.3372764658459,609.0 -4.94985966045484,38.3375005976503,608.840899999996 -4.95009250916638,38.3379887596927,609.0 -4.95048394466155,38.3384881533329,610.0 -4.95091091840766,38.3388874673516,612.0 -4.95116472211982,38.3391754693296,613.455499999996 -4.95137829298539,38.3397063795894,615.0 -4.95170904279153,38.3402341040505,617.808900000004 -4.95187735204148,38.340612463346,620.0 -4.95198396948929,38.340942374563,619.036399999997 -4.9520709740195,38.341274297954,619.472599999994 -4.95203761418309,38.3420023503266,622.0 -4.95197474918121,38.3426130555527,619.0 -4.95206376503933,38.3433154592229,618.0 -4.95216116307739,38.3439881910544,618.0 -4.95233885972207,38.3443871696888,618.0 -4.95248788932937,38.3447035026916,616.866099999999 -4.95258344312616,38.3453185666544,612.551600000006 -4.95270313734955,38.3458501469915,609.226699999999 -4.95289223271686,38.3463458524936,608.0 -4.9529963357802,38.3469466676811,610.1198 -4.95298812158524,38.3476257691114,613.0 -4.95295258243597,38.3479451194787,613.0 -4.95307881369967,38.348383661122,614.0 -4.95305635042768,38.3491903352514,612.091 -4.95285250202847,38.3497896410676,614.0 -4.9527544338472,38.3504010175296,617.044399999999 -4.95272509756499,38.3509488587392,619.293600000005 -4.95241915832868,38.3516742284493,620.0 -4.95212981456891,38.3523648972879,623.0 -4.95206996790638,38.3526624545784,624.0 -4.95354233270819,38.3538721313202,628.993799999997 -4.95464974973931,38.3548305175252,622.0 -4.95779581335767,38.3573477708569,624.0 -4.95837919457454,38.3581066684552,628.600200000001 -4.95938753731128,38.3592950546215,632.0 -4.96049696567034,38.3608224053314,636.9372 -4.9615203965106,38.3627155418462,636.0 -4.9620414148838,38.3637736733096,633.0 -4.96233813471037,38.3643438102937,631.0 -4.96272068496904,38.3649303758669,630.0 -4.96374579116732,38.3660238790431,628.0 -4.96600387641552,38.3681163373531,624.0 -4.96800681586856,38.3706356021804,623.4323 -4.96867971510178,38.3727473389267,626.0 -4.96923476435293,38.377036023532,633.0 -4.96980289037963,38.3791745819263,636.0 -4.96984882303675,38.3800223275961,638.0 -4.96984195002648,38.3814380312382,641.0 -4.96988821775522,38.3822470523648,633.505600000004 -4.97003188352196,38.3829568322047,625.388699999996 -4.97015878582722,38.3833903438629,622.0 -4.96984496746754,38.3840994533917,615.018299999996 -4.96995493742798,38.3843644890621,614.0 -4.96970180385901,38.3849316084915,611.0 -4.96929829949801,38.3855148216357,608.922000000006 -4.96889680646494,38.3863674282956,606.0 -4.96846195269713,38.3867541693351,607.0 -4.96848408089753,38.3869104084869,606.740900000004 -4.96808795260333,38.3872939639665,607.0 -4.96795384221625,38.3876803698175,607.0 -4.96796406773915,38.3880568849418,607.0 -4.96852833819663,38.3882179853302,605.132700000002 -4.96866496296822,38.3882657618696,605.0 -4.96896754969186,38.3884312209779,605.0 -4.96931690720082,38.3884912349113,605.0 -4.96949175349107,38.3882873874447,604.0</coordinates>
</LineString>
</Placemark>
</Folder>
</Document></kml>
