<?xml version="1.0" encoding="UTF-8"?>

<kml xmlns:xsd="http://www.w3.org/2001/XMLSchema" xmlns:gx="http://www.google.com/kml/ext/2.2" xmlns:atom="http://www.w3.org/2005/Atom" xmlns="http://www.opengis.net/kml/2.2">
<Document>
<name>ES10b_07c_variante-villanueva_de_la_serena</name>
<visibility>1</visibility>
<Schema name="ES10b_07c_variante-villanueva_de_la_serena" id="kml_schema_ft_ES10b_07c_variante-villanueva_de_la_serena">
<SimpleField type="xsd:string" name="id">
<displayName>id</displayName>
</SimpleField>
<SimpleField type="xsd:string" name="nombre">
<displayName>nombre</displayName>
</SimpleField>
<SimpleField type="xsd:double" name="longitud">
<displayName>longitud</displayName>
</SimpleField>
<SimpleField type="xsd:string" name="_formato">
<displayName>_formato</displayName>
</SimpleField>
</Schema>
<Folder id="kml_ft_ES10b_07c_variante-villanueva_de_la_serena">
<name>ES10b_07c_variante-villanueva_de_la_serena</name>
<Placemark id="kml_1">
<name>&lt;img height='20' src='https://nco.ign.es/iconos/icono_todos_caminos_azul.png' /&gt;&lt;img height='20' src='https://nco.ign.es/iconos/Camino Santiago_20.png' /&gt;&lt;img height='20' src='https://nco.ign.es/iconos/icono_todos_caminos_azul.png' /&gt;  Camino de Santiago </name>
<visibility>1</visibility>
<description><![CDATA[<!DOCTYPE html>
<html>
<head>
<style>
#nco {
  border-collapse: collapse;
  overflow:hidden;
}
#nco th, #nco td {
  padding: 4px;
  text-align: left;
}
#nco th {
  color: #364B5F;
  padding-right: 5px;
}
#nco td {
  color: rgb(51, 51, 51);
  font-size: 12px;
  padding-right: 5px;
}
</style>
</head>
<body>
<table id="nco">
<tr>
<td>Caminos Andaluces</td>
</tr>
<tr>
<th><b>Camino: </b></th>
<td>ES10b Camino Mozárabe de Córdoba</td>
</tr>
<tr>
<th><b>Etapa: </b></th>
<td>07c Variante-Villanueva de la Serena</td>
</tr>
<tr>
<th><b>Longitud: </b></th>
<td>13.3 km</td>
</tr>
</table>
</body>
</html>]]></description>
<Style>
<IconStyle>
<scale>0.8</scale>
</IconStyle>
<LabelStyle>
<color>ffffffff</color>
<scale>0.75</scale>
</LabelStyle>
<LineStyle>
<color>ffff0000</color>
<width>3.0</width>
<gx:labelVisibility>1</gx:labelVisibility>
</LineStyle>
<PolyStyle>
<color>66ff0000</color>
</PolyStyle>
</Style>
<ExtendedData>
<SchemaData schemaUrl="#kml_schema_ft_ES10b_07c_variante-villanueva_de_la_serena">
<SimpleData name="id">ES10b_07c</SimpleData>
<SimpleData name="_formato">kml</SimpleData>
</SchemaData>
</ExtendedData>
<LineString>
<extrude>0</extrude>
<tessellate>1</tessellate>
<coordinates>-5.86172606836455,38.9544339844899,277.0 -5.8609180526311,38.9544950046812,278.0 -5.85860900595683,38.9544100123073,281.0 -5.85545891878431,38.9543540210647,285.060899999997 -5.85277805132906,38.954470026577,289.005699999994 -5.85275206755949,38.9545610545257,290.0 -5.85279196533451,38.9553040261596,290.0 -5.85250094531842,38.9553159282732,290.010399999999 -5.85247999031779,38.9547099168878,290.0 -5.8522810044992,38.954546972746,290.0 -5.85222098985172,38.9543359161652,289.0 -5.84914298709085,38.9543649173939,282.314700000003 -5.84743995199207,38.9550069714477,279.018500000006 -5.8457989428687,38.9558000669466,276.873800000001 -5.8446890114531,38.9561430546022,274.0 -5.84366407234148,38.9563899855461,273.0 -5.84167504689389,38.9568350645779,272.0 -5.8393059855721,38.9573879350616,275.0 -5.83818700183338,38.9575570819996,274.208700000003 -5.83655806247418,38.9575939621438,270.0 -5.83461295835577,38.9581679545891,268.0 -5.83413502228527,38.9580970435063,268.5573 -5.83394307656356,38.9582750754966,268.0 -5.83299692688887,38.9585890614643,269.0 -5.83037104441389,38.9594530678833,271.015299999999 -5.82902206141973,38.9600339340367,272.761199999994 -5.82606794352304,38.9616620352006,276.103499999997 -5.82447404025654,38.9623550508934,278.0 -5.81903904683635,38.9647839585222,285.0 -5.81533307228456,38.9665770151306,292.998200000002 -5.81438994005092,38.9674259341503,297.0 -5.81306392338531,38.9680329521878,300.691099999996 -5.81188492499907,38.9687910111325,306.030700000003 -5.81035908348839,38.9696000328166,308.976699999999 -5.81017702821796,38.9694030579975,310.0 -5.80985767803278,38.9697810817132,309.217000000004 -5.80795146557631,38.969626351446,310.0 -5.80759506707217,38.9696563591275,310.0 -5.80756204230737,38.9698989309383,308.828299999994 -5.80582045061827,38.9698462924754,306.0 -5.80564694461441,38.9714019741417,304.0 -5.80554200342292,38.9718800776808,304.0 -5.80538995547624,38.9721199677135,304.0 -5.80510597645537,38.9720140207942,303.0 -5.80509994157327,38.9720589473358,303.0 -5.80537201881496,38.9721699240405,304.0 -5.80514604221535,38.9725030207256,304.0 -5.80545902244684,38.9726270727309,304.0 -5.80541392791792,38.9726740116484,304.0 -5.80507697524474,38.972514923442,303.933999999994 -5.80480305466008,38.9726289171844,303.0 -5.80413702843707,38.9731360220497,301.0 -5.80311594489466,38.9733839588069,298.0 -5.80207306912177,38.9737490747501,298.0 -5.8016420718215,38.9739090010331,297.0 -5.80098208048056,38.9739539284678,296.0 -5.80009393412545,38.9741680022639,294.0 -5.79998094582566,38.9738560275347,293.937900000004 -5.79946897887724,38.973796012924,292.0 -5.79939907377845,38.9736979448593,292.0 -5.79926194595032,38.9729900094138,291.424700000003 -5.79917008063612,38.9721479636541,291.049599999998 -5.79921701940635,38.9715939197945,292.0 -5.79938197524533,38.9706130691478,292.0 -5.79933805391614,38.9704110657719,292.0 -5.79920193220113,38.970105964377,291.974100000007 -5.79908207089112,38.9699619632251,292.0 -5.79931793704367,38.9699780561796,290.413400000005 -5.79942505844635,38.9695799161664,293.0 -5.79926496339137,38.9686210263548,293.0 -5.79910503721964,38.9680399924365,294.0 -5.79929094805928,38.9680069682165,293.243600000002 -5.79937107868094,38.9675989369687,294.668699999995 -5.79976301633435,38.967384024741,295.0 -5.80023005584046,38.9672579611107,297.0 -5.80035595203258,38.9671040690554,297.075100000002 -5.79964499926557,38.9668539535041,296.0 -5.79933403036201,38.9667119642627,295.0 -5.79928692450511,38.9665429844576,295.0 -5.79915499343093,38.9664549745503,295.542499999996 -5.79902004491569,38.9663760171931,296.0 -5.79892700550338,38.9663290782926,295.949600000007 -5.79847807064354,38.9640409864028,298.173500000004 -5.7997779364529,38.9615540763223,300.800000000003 -5.80013500510025,38.9611760520105,300.0 -5.80031001937546,38.96058496064,300.125700000004 -5.80033600314507,38.9556490252732,302.0 -5.80007800789378,38.9554510448545,302.344700000001 -5.79994892717398,38.9538249553925,299.976500000004 -5.80011807365375,38.9465560014495,295.0 -5.8001990433019,38.9462740344899,295.0 -5.80053398374884,38.9461689250292,294.0 -5.80086406341179,38.944669067603,291.0 -5.80091804227891,38.9434099377346,289.421799999996 -5.80140000190355,38.9424800491826,289.0 -5.80148197676648,38.938931989679,290.0 -5.80116095032498,38.9384460071333,291.0 -5.80112004643685,38.9379439308125,290.0 -5.8017669619005,38.9354999359298,292.0 -5.80162396627693,38.9344059295058,293.0 -5.80235403070159,38.9336490442114,293.847699999998 -5.80259693784936,38.9321659500763,294.673599999995 -5.80321501918904,38.9311140208684,296.0 -5.80248696699059,38.9288390046818,299.659799999994 -5.80159999473358,38.9271629596857,305.0 -5.8022430537297,38.9271049566241,299.0 -5.80205395836242,38.9265710297812,299.881599999993 -5.80216795187703,38.9258339250866,299.332999999999 -5.80209100578304,38.9251239781367,300.0 -5.80221991941621,38.9249199623548,300.8079 -5.80272518133933,38.9220976081329,302.0 -5.80270908802103,38.9219113620636,302.0 -5.80146906887419,38.9195161490876,304.0 -5.80083405608804,38.9195929277125,307.165500000003 -5.80082600897971,38.919486980541,307.0 -5.80051001130716,38.9188219604252,306.0 -5.79992093117814,38.9189149995115,310.155899999998 -5.79980794377665,38.9187790444822,310.445399999997 -5.79955900084847,38.9188269891714,312.122799999997 -5.79896505903713,38.9189009176407,315.0 -5.79847203576143,38.9188990738856,316.0</coordinates>
</LineString>
</Placemark>
</Folder>
</Document></kml>
