<?xml version="1.0" encoding="UTF-8"?>

<kml xmlns:xsd="http://www.w3.org/2001/XMLSchema" xmlns:gx="http://www.google.com/kml/ext/2.2" xmlns:atom="http://www.w3.org/2005/Atom" xmlns="http://www.opengis.net/kml/2.2">
<Document>
<name>ES10b_04a_alcaracejos-hinojosa_del_duque</name>
<visibility>1</visibility>
<Schema name="ES10b_04a_alcaracejos-hinojosa_del_duque" id="kml_schema_ft_ES10b_04a_alcaracejos-hinojosa_del_duque">
<SimpleField type="xsd:string" name="id">
<displayName>id</displayName>
</SimpleField>
<SimpleField type="xsd:string" name="nombre">
<displayName>nombre</displayName>
</SimpleField>
<SimpleField type="xsd:double" name="longitud">
<displayName>longitud</displayName>
</SimpleField>
<SimpleField type="xsd:string" name="_formato">
<displayName>_formato</displayName>
</SimpleField>
</Schema>
<Folder id="kml_ft_ES10b_04a_alcaracejos-hinojosa_del_duque">
<name>ES10b_04a_alcaracejos-hinojosa_del_duque</name>
<Placemark id="kml_1">
<name>&lt;img height='20' src='https://nco.ign.es/iconos/icono_todos_caminos_azul.png' /&gt;&lt;img height='20' src='https://nco.ign.es/iconos/Camino Santiago_20.png' /&gt;&lt;img height='20' src='https://nco.ign.es/iconos/icono_todos_caminos_azul.png' /&gt;  Camino de Santiago </name>
<visibility>1</visibility>
<description><![CDATA[<!DOCTYPE html>
<html>
<head>
<style>
#nco {
  border-collapse: collapse;
  overflow:hidden;
}
#nco th, #nco td {
  padding: 4px;
  text-align: left;
}
#nco th {
  color: #364B5F;
  padding-right: 5px;
}
#nco td {
  color: rgb(51, 51, 51);
  font-size: 12px;
  padding-right: 5px;
}
</style>
</head>
<body>
<table id="nco">
<tr>
<td>Caminos Andaluces</td>
</tr>
<tr>
<th><b>Camino: </b></th>
<td>ES10b Camino Mozárabe de Córdoba</td>
</tr>
<tr>
<th><b>Etapa: </b></th>
<td>04a Alcaracejos-Hinojosa del Duque</td>
</tr>
<tr>
<th><b>Longitud: </b></th>
<td>21.47 km</td>
</tr>
</table>
</body>
</html>]]></description>
<Style>
<IconStyle>
<scale>0.8</scale>
</IconStyle>
<LabelStyle>
<color>ffffffff</color>
<scale>0.75</scale>
</LabelStyle>
<LineStyle>
<color>ffff0000</color>
<width>3.0</width>
<gx:labelVisibility>1</gx:labelVisibility>
</LineStyle>
<PolyStyle>
<color>66ff0000</color>
</PolyStyle>
</Style>
<ExtendedData>
<SchemaData schemaUrl="#kml_schema_ft_ES10b_04a_alcaracejos-hinojosa_del_duque">
<SimpleData name="id">ES10b_04a</SimpleData>
<SimpleData name="_formato">kml</SimpleData>
</SchemaData>
</ExtendedData>
<LineString>
<extrude>0</extrude>
<tessellate>1</tessellate>
<coordinates>-4.96951622898932,38.3882689472997,604.0 -4.97027479156806,38.3875898454963,604.0 -4.97069975398627,38.3876392982662,604.0 -4.97231997519564,38.3874062813746,605.0 -4.97301969632663,38.3874394738873,604.0 -4.9737388641869,38.3875248019523,604.0 -4.97466288476286,38.3878553837939,603.161699999997 -4.9765079093721,38.3887202285225,602.0 -4.97694175702676,38.3885703605938,602.433799999999 -4.97799167379488,38.3885661697006,602.838499999998 -4.97904779432831,38.3887242518278,604.0 -4.97992672037534,38.3890560075716,606.0 -4.98079173241694,38.389242421258,604.0 -4.9821797759563,38.3892275011961,602.0 -4.98291319199529,38.3894043597093,601.0 -4.98415773775283,38.3895264003579,600.0 -4.98558299579948,38.3901154803296,597.0 -4.98666593823068,38.3908802451303,595.0 -4.98743271410606,38.3911261701812,594.157999999996 -4.98937647793806,38.3914183635125,591.743499999997 -4.99137639995004,38.3917625241237,590.0 -4.99325042576988,38.3919714016136,591.0 -4.99490719313996,38.3922183318997,590.414199999999 -4.99565267894312,38.3923361820532,587.151599999997 -4.99761471540628,38.3924733096483,582.0 -4.99842189211328,38.3927152111268,581.0 -4.99908875646444,38.3928414431703,582.0 -4.99961195504883,38.3928189797012,582.0 -4.99992694660827,38.3928481487662,581.406700000007 -5.00051267422466,38.3931224045709,580.0 -5.00187674532234,38.3929733737544,577.0 -5.00366175528406,38.3930722803462,572.0 -5.00396819757694,38.3931229072774,572.0 -5.00411370758499,38.3932454506928,572.0 -5.00543972514892,38.3933574328738,569.826499999996 -5.00706229365611,38.3938809664552,565.0 -5.00846173591814,38.3942901711686,563.0 -5.00958993996493,38.3946764093866,561.0 -5.01050423807457,38.3949084199939,558.320500000002 -5.01098485651451,38.3951033833805,557.0 -5.01157443970011,38.3954056348717,556.0 -5.01223811862526,38.3960404804081,557.0 -5.01289576266835,38.3965252893988,558.006999999998 -5.01355357469639,38.3965678695833,558.0 -5.01426469544836,38.396714217655,556.0 -5.01453995721772,38.3968741441403,556.0 -5.01539474373642,38.3975742007291,554.236300000004 -5.0162513735981,38.3978206289198,554.0 -5.01709828189179,38.3981361236742,552.0 -5.01755693921795,38.3982293304897,550.323300000004 -5.01805013047863,38.3984566472665,549.0 -5.01852488112313,38.3988883158339,548.0 -5.01889569668926,38.3993805006474,547.0 -5.01916693490446,38.4005004906717,546.0 -5.01962793952847,38.4015602983899,546.323499999999 -5.01979976927604,38.4017182134236,545.906700000007 -5.02018818643183,38.401869758451,546.0 -5.02058465069598,38.4020005159143,545.225600000005 -5.02101078631392,38.4022544876702,546.0 -5.02145217712204,38.4024326870814,546.0 -5.0219492239519,38.4027267241954,545.110799999995 -5.02233076809746,38.4029471680009,545.0 -5.02271398939767,38.4030923430099,545.0 -5.02290090545209,38.4033567078798,544.0 -5.02343751498539,38.4038148627999,543.447400000005 -5.02379491960264,38.4043834910386,543.0 -5.02424435662073,38.4045707430458,540.831099999996 -5.0246438383259,38.4048973019857,540.0 -5.02474928257397,38.4051464119147,540.0 -5.02512294759618,38.405547402534,538.0 -5.02506192773388,38.4063368096213,538.742299999998 -5.0251983854188,38.4068501174459,536.264899999995 -5.02525538172694,38.4070139001923,536.0 -5.02552276437293,38.4072088633131,535.0 -5.02588905422668,38.4071959552815,535.883100000006 -5.02619415533484,38.4071771792548,536.0 -5.02698574178004,38.4073835421131,538.0 -5.02774061677453,38.4075644235235,541.785300000003 -5.02817463151585,38.4080572792323,545.0 -5.02920778482243,38.4088404841392,545.0 -5.0298798459275,38.4092312489196,543.0 -5.03049792726718,38.4098962692218,542.0 -5.03146134345992,38.4103574411456,539.924700000003 -5.03219475949891,38.4106184535123,543.936300000001 -5.03267688710854,38.4110112295657,545.0723 -5.0332089700311,38.4111694801215,545.821599999996 -5.03549890594605,38.4124363209742,553.0 -5.03589537021017,38.4130773687237,557.0 -5.03648478541081,38.4135911798019,557.382599999997 -5.0372175313066,38.4138241960633,558.0 -5.03802588211164,38.4143116878644,560.0 -5.03896968448848,38.4149822401888,557.0 -5.04112869544233,38.4154932011939,558.890400000004 -5.04314689008551,38.4163634101186,558.546700000006 -5.04364075148936,38.4167702676498,558.0 -5.04403319219935,38.4173752737068,561.0 -5.04429554607639,38.4183120348411,564.616399999999 -5.04474464802289,38.4193763687218,565.568400000004 -5.04490172473853,38.419683146983,563.857099999994 -5.04498671704251,38.42018824018,561.869999999995 -5.0453131091212,38.4203359290348,563.0 -5.04628222422613,38.420944623405,562.0 -5.04672897977312,38.4213011893165,561.0 -5.04695193803338,38.4214733538776,560.0 -5.04755593828096,38.4214062984047,559.0 -5.04781678298832,38.4217724202333,560.0 -5.04843084167213,38.4218763554166,561.0 -5.04918990640912,38.4221122220433,557.0 -5.05035901434408,38.4230384227715,553.0 -5.05178594954534,38.4243771803384,547.0 -5.05283385498552,38.4251112675408,545.049100000004 -5.05419155612951,38.4266374440083,542.221399999995 -5.05441870503057,38.4272144543391,541.0 -5.05419490864215,38.427588287109,542.0 -5.05555076554487,38.4285334308823,539.0 -5.05582770357056,38.429274390579,538.0 -5.05650982221356,38.4299823266375,536.0 -5.05722580464782,38.4309112088813,534.840500000006 -5.05813892955772,38.4316442902348,530.072 -5.05950467691172,38.43312419884,527.6921 -5.05998747466455,38.4333982870365,526.498200000002 -5.06045384312913,38.433520830421,524.0 -5.06150694532322,38.433926179743,522.0 -5.06240950874035,38.434407468152,524.0 -5.06277361928117,38.434613998109,525.0 -5.06410885625489,38.4347264833473,516.0 -5.06596812994115,38.4360489802667,505.074200000003 -5.06630474664441,38.4362151096401,503.118900000001 -5.06653005220249,38.4364586878677,505.838799999998 -5.06706448242289,38.4368206184731,510.0 -5.06733303916699,38.4370494441942,511.0 -5.06773855575423,38.4374891591231,513.0 -5.06804114247791,38.4379925762824,515.454400000002 -5.06837960342244,38.4382203963177,517.331399999995 -5.06894487909474,38.4389932074756,516.0 -5.06956983344465,38.4395189202724,514.821200000006 -5.07006553908981,38.4400354133085,513.0 -5.07036561142898,38.4401579566853,514.310100000002 -5.0706189129829,38.4401606388563,514.477599999998 -5.07108444331933,38.4405509007102,513.0 -5.07181786025665,38.4411497037252,514.0 -5.07262285765072,38.4417765021154,515.0 -5.07269276274952,38.4421102700638,515.0 -5.07301982497142,38.4425513254618,516.0 -5.07360018784894,38.4432901065465,519.0 -5.07412573283285,38.4439774226995,521.0 -5.07437232846317,38.4449322891078,524.0 -5.0746066872427,38.4460363530347,529.813699999999 -5.07606429991094,38.4475754383076,538.395499999999 -5.07661281122341,38.4481226090305,539.002099999998 -5.0773638297504,38.4490234960418,540.744000000006 -5.07802616838918,38.4495753602285,544.0 -5.07858691745078,38.4502390396547,546.383400000006 -5.07921354805697,38.4507662611772,546.0 -5.07959408698775,38.4512383297411,545.501799999998 -5.07967924727668,38.4514706765131,544.0 -5.07994679700934,38.4517534817607,543.0 -5.08073268454239,38.451990354582,543.005900000004 -5.0818256845115,38.4527111978317,544.0 -5.08229188588945,38.4526887346834,544.0 -5.08280988771994,38.4528203301798,545.832599999994 -5.08315840710074,38.4530446302991,547.0 -5.08400330316816,38.4535589435347,547.0 -5.08505808161856,38.4543855666231,547.0 -5.08647378518385,38.45540530948,551.0 -5.08772486798171,38.4561744327175,554.0 -5.09027799590186,38.4573924909682,559.0 -5.0917677952067,38.4583832316192,564.0 -5.09230071715575,38.4589624213858,562.0 -5.09313186630439,38.4604161782796,561.843999999997 -5.09418496849847,38.462706450049,555.621700000003 -5.09485987905967,38.463403321052,555.0 -5.09655671218973,38.4647150893862,557.0 -5.09783998162422,38.4654498467898,558.0 -5.09926322834294,38.466236907592,559.0 -5.10001759938255,38.466910476909,558.0 -5.10151544579573,38.4681102625619,560.0 -5.10349374266388,38.4697442308961,560.659199999995 -5.10397855174462,38.4700778307979,560.549499999994 -5.10447291620504,38.4703403518482,561.0 -5.10487608639276,38.4706615467342,560.0 -5.10522678508642,38.471149373597,559.927599999995 -5.10570991791083,38.4714333521806,559.0 -5.10633068161992,38.4722083430513,557.0 -5.10691255366713,38.4724950040597,556.120800000004 -5.10756399484316,38.4729632170507,555.0 -5.1082467845277,38.4732703302411,555.0 -5.11029984817694,38.4738082808381,554.635200000004 -5.11080292988887,38.4739353501569,554.0 -5.11126829313866,38.4739653571345,554.0 -5.11164564664343,38.4738277266499,553.0 -5.11235794059514,38.4737660359365,551.0 -5.11262146767195,38.4737670416339,550.604000000007 -5.11284660524508,38.473643324583,550.876300000004 -5.11335169918327,38.4740815309363,549.0 -5.11571824522225,38.4762846300813,549.281900000002 -5.11732673263737,38.4777734237402,550.572100000005 -5.11778991657427,38.4779564847057,551.0 -5.11909095558342,38.4789222473922,551.0 -5.11923193898076,38.4789934934549,552.0 -5.11956034238738,38.4789029689178,552.0 -5.12011103301275,38.4787621530578,553.895399999994 -5.12049626564085,38.4786573792409,555.0 -5.12078544141566,38.4788268612989,556.0 -5.12122532395243,38.4791680049424,555.273400000005 -5.12173980438699,38.4796876824826,554.0 -5.12228982486915,38.480214401857,553.0 -5.12249199701205,38.4805002244401,553.0 -5.12259995564459,38.4810624825238,555.0 -5.12283984535131,38.4813164540197,555.0 -5.12356169558101,38.4817573421753,555.0 -5.12481495769176,38.482959307506,557.0 -5.12724973257322,38.4843133195646,558.0 -5.12794375389374,38.4849803513563,558.0 -5.12903876608911,38.485664482963,556.0 -5.13035003062115,38.4861821490252,553.0 -5.13088597001121,38.4864644511237,553.0 -5.13217560939942,38.4874139533459,552.0 -5.13382332354805,38.4889592413,550.581000000006 -5.13458607676759,38.4896596329815,551.0 -5.13502445103299,38.4901804843279,552.0 -5.13570690564591,38.4909804529813,552.895699999994 -5.13652380571749,38.4918707790888,551.0 -5.13780841633672,38.4933418028377,547.0 -5.13863554193123,38.4942730326698,546.980299999996 -5.13917097826474,38.4949005014479,544.831600000005 -5.13966048104284,38.4952074473503,544.820099999997 -5.14009298751281,38.495403248026,545.0 -5.14208972409878,38.4959834439281,550.0 -5.14198528596383,38.4961887999755,550.0 -5.14196500200474,38.4963540913208,550.0 -5.14325732376235,38.4971949641529,551.0 -5.1443696024758,38.4979070905224,551.0 -5.14552898704611,38.4987474601286,547.0 -5.14663606900562,38.4996074429823,548.0 -5.14753226157073,38.500389474737,547.936499999996 -5.14807574411425,38.5008483004768,548.0</coordinates>
</LineString>
</Placemark>
</Folder>
</Document></kml>
