<?xml version="1.0" encoding="UTF-8"?>

<kml xmlns:xsd="http://www.w3.org/2001/XMLSchema" xmlns:gx="http://www.google.com/kml/ext/2.2" xmlns:atom="http://www.w3.org/2005/Atom" xmlns="http://www.opengis.net/kml/2.2">
<Document>
<name>ES10b_09a_san_pedro_de_merida-merida</name>
<visibility>1</visibility>
<Schema name="ES10b_09a_san_pedro_de_merida-merida" id="kml_schema_ft_ES10b_09a_san_pedro_de_merida-merida">
<SimpleField type="xsd:string" name="id">
<displayName>id</displayName>
</SimpleField>
<SimpleField type="xsd:string" name="nombre">
<displayName>nombre</displayName>
</SimpleField>
<SimpleField type="xsd:double" name="longitud">
<displayName>longitud</displayName>
</SimpleField>
<SimpleField type="xsd:string" name="_formato">
<displayName>_formato</displayName>
</SimpleField>
</Schema>
<Folder id="kml_ft_ES10b_09a_san_pedro_de_merida-merida">
<name>ES10b_09a_san_pedro_de_merida-merida</name>
<Placemark id="kml_1">
<name>&lt;img height='20' src='https://nco.ign.es/iconos/icono_todos_caminos_azul.png' /&gt;&lt;img height='20' src='https://nco.ign.es/iconos/Camino Santiago_20.png' /&gt;&lt;img height='20' src='https://nco.ign.es/iconos/icono_todos_caminos_azul.png' /&gt;  Camino de Santiago </name>
<visibility>1</visibility>
<description><![CDATA[<!DOCTYPE html>
<html>
<head>
<style>
#nco {
  border-collapse: collapse;
  overflow:hidden;
}
#nco th, #nco td {
  padding: 4px;
  text-align: left;
}
#nco th {
  color: #364B5F;
  padding-right: 5px;
}
#nco td {
  color: rgb(51, 51, 51);
  font-size: 12px;
  padding-right: 5px;
}
</style>
</head>
<body>
<table id="nco">
<tr>
<td>Caminos Andaluces</td>
</tr>
<tr>
<th><b>Camino: </b></th>
<td>ES10b Camino Mozárabe de Córdoba</td>
</tr>
<tr>
<th><b>Etapa: </b></th>
<td>09a San Pedro de Mérida-Mérida</td>
</tr>
<tr>
<th><b>Longitud: </b></th>
<td>16.67 km</td>
</tr>
</table>
</body>
</html>]]></description>
<Style>
<IconStyle>
<scale>0.8</scale>
</IconStyle>
<LabelStyle>
<color>ffffffff</color>
<scale>0.75</scale>
</LabelStyle>
<LineStyle>
<color>ffff0000</color>
<width>3.0</width>
<gx:labelVisibility>1</gx:labelVisibility>
</LineStyle>
<PolyStyle>
<color>66ff0000</color>
</PolyStyle>
</Style>
<ExtendedData>
<SchemaData schemaUrl="#kml_schema_ft_ES10b_09a_san_pedro_de_merida-merida">
<SimpleData name="id">ES10b_09a</SimpleData>
<SimpleData name="_formato">kml</SimpleData>
</SchemaData>
</ExtendedData>
<LineString>
<extrude>0</extrude>
<tessellate>1</tessellate>
<coordinates>-6.18587303888035,38.9490310100616,281.740000000005 -6.18642406547563,38.9489119866651,284.601699999999 -6.18643596725484,38.9492650321901,286.0 -6.18645306668625,38.949558063866,286.855200000005 -6.18680493947798,38.9496559641472,288.0 -6.18731304995889,38.9499880551957,290.878800000006 -6.18775796126461,38.9503389219797,293.0 -6.18810597848713,38.950548972589,295.0 -6.18841694649243,38.9505729446803,296.0 -6.18888096855749,38.9506683306646,298.527199999997 -6.18929905796544,38.9507060492307,300.740399999995 -6.18955504188879,38.9507290159719,301.727100000004 -6.18975603993361,38.9507519820071,302.0 -6.19027705830682,38.9507930531453,302.533100000001 -6.19075901793149,38.9508240664149,303.0 -6.1913390457374,38.9508770403704,304.0 -6.19179401547934,38.9508919598098,305.0 -6.19209693727464,38.9509000063576,306.0 -6.19255391924282,38.9508800576519,307.0 -6.19298592175787,38.9508089792954,308.0 -6.19335891663689,38.9507429294471,308.0 -6.19397096309447,38.950677047902,307.0 -6.19455602056766,38.9506109986294,306.0 -6.19503093919712,38.9505650657616,305.638600000006 -6.1958760023512,38.9504839284974,306.0 -6.19660807810379,38.950425926345,308.0 -6.19731802475768,38.9503560212008,311.0 -6.19790006389152,38.9503040528574,313.0 -6.19861805855201,38.9502289513103,315.055699999997 -6.19913002460209,38.9501789948804,317.705100000006 -6.1994480345009,38.9501439587108,319.739499999996 -6.19998095555161,38.9500339884375,323.452300000004 -6.20025705544914,38.9499969401844,326.0 -6.20057707667585,38.9499900672078,327.798699999999 -6.20149891793893,38.9500690246615,332.925499999998 -6.20200199965088,38.9501060728769,336.0 -6.20239192597636,38.9501230037882,336.0 -6.20298603577267,38.9501270271058,336.0 -6.20329700377793,38.9501689369425,336.502600000007 -6.20359607000402,38.9502690167496,337.993199999997 -6.20391206857489,38.9503389219797,338.0 -6.20415396960952,38.9503300370339,338.603300000002 -6.20435697988061,38.9502859483206,337.846600000004 -6.20460491669563,38.9502239219958,336.710699999996 -6.20485905547942,38.9500670126517,335.0 -6.20505703608319,38.9499620715925,333.491299999994 -6.20532307754448,38.9498940103376,331.734599999996 -6.2056100740064,38.9498789230202,331.0 -6.20621306814086,38.9498420423541,330.0 -6.20790906224444,38.9497610733277,332.0 -6.20866008077142,38.9497220136111,331.847399999999 -6.2092419528186,38.9496879832259,331.0 -6.20972994732534,38.9496630055233,330.0 -6.21044995241547,38.9496499294797,329.0 -6.21095605156844,38.9496380271133,328.0 -6.2117310425371,38.9497099435884,326.0 -6.21235800911324,38.9497769990111,324.0 -6.21287601094373,38.9498390250284,322.0 -6.21328907068442,38.9498960223523,321.0 -6.21381897519241,38.9499649212453,320.0 -6.21452204883604,38.9500370057549,318.216199999995 -6.21530894158392,38.9501260218004,316.0 -6.21595904247354,38.9501739662609,314.812099999996 -6.21649598707845,38.9502319686194,314.0 -6.21695598558935,38.9502760573662,313.0 -6.21728405392436,38.9503280257301,312.868100000007 -6.2178520110678,38.9503850226608,313.0 -6.21822198850577,38.950478061567,314.589800000002 -6.2186570093602,38.9507749487334,318.0 -6.21901407800755,38.9509300135877,319.0 -6.21940601655929,38.9509410781087,319.0 -6.21976107387869,38.9508699991148,317.290500000003 -6.22013205653148,38.9507330392552,315.0 -6.22041402422441,38.9507100725152,313.773799999995 -6.22074997078447,38.9507350505474,311.040900000007 -6.22127400749705,38.9508059613123,310.0 -6.2220560385626,38.9508679878264,309.0 -6.22290395207107,38.9510190292103,308.0 -6.223739962902,38.9511449254271,305.895900000003 -6.22435603291375,38.9512770243128,303.865699999995 -6.22512498900034,38.9514159964901,300.473299999998 -6.2266810049214,38.9516969579725,295.1584 -6.22793795551473,38.9519400327889,293.989400000006 -6.22915802487573,38.9521400251866,294.0 -6.22989697363855,38.9522610600002,294.0 -6.23150294666922,38.9524327215291,290.0 -6.23304605469795,38.9525800752162,288.209400000007 -6.23443996513445,38.9526870285262,283.0 -6.23575994781629,38.9528390761907,277.0 -6.23708596448193,38.9530010141046,277.0 -6.23861096786442,38.9531409923557,274.299700000003 -6.23954605298977,38.9532330251772,273.0 -6.24056596333244,38.9532940457039,271.848899999997 -6.24139392705507,38.9533359550651,270.438999999998 -6.24202793462639,38.9533429960756,267.838099999994 -6.24278901158961,38.9533709917526,264.929499999998 -6.24364698263602,38.9534209480285,261.0 -6.24404093251566,38.9534269823748,261.945800000001 -6.24440906571235,38.9534310062035,262.0 -6.24480703824783,38.9534410643771,262.0 -6.24514801447517,38.953438046506,262.0 -6.24551095091795,38.9534859915205,262.006999999998 -6.246188040792,38.9535979732375,265.0 -6.24659808309165,38.9536610053579,266.721799999999 -6.24713100504069,38.9536640232194,269.8698 -6.24741699538949,38.9537000649995,269.991999999998 -6.24754104734034,38.9536529591235,270.0 -6.24803692097042,38.9550929697378,265.0 -6.24928900988143,38.9546839329199,270.531499999997 -6.24959796655876,38.9545464697753,270.987500000003 -6.25027589456097,38.9543199908077,268.0 -6.25085542020863,38.9541292187593,267.0 -6.25104116306331,38.9540234391368,267.234700000001 -6.25141700739839,38.9539129656204,266.0 -6.2516760078645,38.953823949441,265.0 -6.25185018401155,38.9537533742187,264.0 -6.25211957798548,38.9536648608158,262.534700000004 -6.25230649493823,38.953598643874,261.0 -6.25253196848127,38.9535409767948,261.0 -6.25344106893871,38.9531959771991,261.0 -6.25389905612167,38.9530580109815,260.0 -6.25531794511296,38.9528617069191,256.4516 -6.25717202204529,38.9525770580071,253.017099999997 -6.25730864681687,38.9524645723902,254.0 -6.25746002462032,38.9523410229926,254.0 -6.25757334709343,38.9521837788188,254.0 -6.25773344214841,38.9519921682943,254.383900000001 -6.258074920534,38.9516265496932,255.109700000001 -6.25841556079142,38.9511561575795,257.570699999997 -6.25858873172369,38.9508508887288,259.0 -6.25907873755833,38.9507538263316,261.0 -6.25950403504815,38.9507087311875,262.0 -6.25958332754165,38.9506582720975,263.0 -6.25988826156314,38.9506190452091,262.0 -6.26020727667674,38.9505910498423,261.004400000005 -6.26042269178355,38.9505328794127,261.0 -6.26066727608597,38.9504874494937,262.0 -6.26087363797132,38.9504203940446,262.0 -6.26119047377206,38.9504676676398,262.0 -6.26150764554268,38.9504557654107,262.0 -6.26180335835781,38.9505608748024,260.131200000003 -6.26233041251141,38.9503117648368,260.0 -6.26278806462279,38.9500869615863,259.0 -6.26327086237562,38.9498700380167,257.178899999999 -6.26363195457709,38.949705082604,256.0 -6.26391459241326,38.9495612488723,254.8842 -6.26406479611867,38.9495111250016,254.0 -6.26438666158663,38.9495111250016,253.736199999999 -6.26467097567911,38.9495111250016,253.208100000003 -6.26490164507776,38.9494861472368,252.856499999994 -6.2650089335671,38.9494110455216,252.0 -6.26510549347701,38.9492650321901,251.948000000004 -6.26523977184904,38.9491232109993,251.0 -6.26535946517413,38.9490489472491,251.0 -6.26561444208604,38.9489550695137,250.028000000006 -6.26607025085448,38.9488258208894,250.0 -6.26685881985864,38.9486172791023,250.0 -6.26737665370419,38.9485024467908,252.0 -6.26750808172184,38.9484816597528,252.0 -6.26767437874555,38.9484627163941,252.1005 -6.26781385387149,38.9484481324846,253.0 -6.26799356184407,38.9484531612266,253.0 -6.26818802195025,38.9484613757225,253.113200000007 -6.26853922370048,38.9484697571902,254.0 -6.26879956535129,38.9484947353132,254.0 -6.2690342592024,38.9485240721784,253.678 -6.2695217506526,38.9485678259469,252.972599999994 -6.26993212892216,38.9486117466607,252.0 -6.2713166510656,38.9487842462983,250.0 -6.27143852370355,38.9487968194901,250.0 -6.27156743823505,38.9487842462983,249.972899999993 -6.27178603786953,38.9487770378629,249.0 -6.27203933852516,38.9487946397737,249.0 -6.27319805295227,38.9488677300981,249.0 -6.27442667247814,38.9489136633672,248.0 -6.27501675872028,38.9489314329142,247.933900000004 -6.27557063477165,38.9489453467424,246.0 -6.27579862269916,38.9489557401942,245.563099999999 -6.27599710635951,38.9489537288514,246.0 -6.27679606887151,38.9489071249274,247.0 -6.27757374220961,38.9488528102326,248.574399999998 -6.27827916315109,38.9487912870624,250.957800000004 -6.27905432120641,38.9487359669538,252.0 -6.2799501795982,38.9486858431982,252.009900000005 -6.2803632393389,38.9486692465865,252.0 -6.28139320721946,38.9486316960048,251.310599999997 -6.28208924076624,38.9485805661494,248.923299999995 -6.28236617879193,38.9485597791343,247.0 -6.28264043444815,38.9485284309291,246.0 -6.28287646948399,38.9485059671869,245.0 -6.28311250362155,38.9484627163941,244.0 -6.28350276501864,38.9483866089632,243.5818 -6.28375086892032,38.948325086087,243.0 -6.28399612426424,38.9482501515121,242.661200000002 -6.28420265413459,38.9481772289214,242.0 -6.28439979661021,38.9480917336398,242.0 -6.28462308994206,38.9479847803819,241.178799999994 -6.28483029085394,38.9478610638864,241.0 -6.28514427719855,38.9476171499892,241.0 -6.28535617180776,38.9475492569507,240.0 -6.28571273739856,38.9474773403794,240.0 -6.28651069469575,38.9473187545033,239.066999999995 -6.28704596304431,38.947186320577,239.0 -6.28744946830364,38.9471884996442,239.0 -6.287747193345,38.9470956282866,240.0 -6.28819780446119,38.9470101330977,241.0 -6.28872904925559,38.9469610148694,242.0 -6.28918217475626,38.9469536385738,239.198699999994 -6.28937462353454,38.9469323487555,238.0 -6.28956187555888,38.9468942949274,239.0 -6.29044415411854,38.9467596818265,244.0 -6.29097120827215,38.9466971528828,245.0 -6.29140974962417,38.9466596019551,246.0 -6.29167394684419,38.9466455200027,246.0 -6.29193814496251,38.9466190335446,246.762900000002 -6.29247324532611,38.946571424127,247.966700000004 -6.29299493474085,38.946511577133,250.0 -6.29353271837222,38.9464562566425,251.9902 -6.29423612708743,38.9463808198581,253.0 -6.29494490143988,38.9463085674473,254.0 -6.29615457729306,38.9461124312321,255.0 -6.29689620842531,38.9459732914592,255.0 -6.29762845126452,38.9458152087443,254.328099999999 -6.29841567908398,38.9456628260271,252.0 -6.2992364356231,38.9455106106606,253.475399999996 -6.29975678385313,38.9454147216867,254.773400000005 -6.30022617065706,38.9453270467436,256.0 -6.30050998169297,38.945281952339,256.0 -6.30072858222579,38.9452485919351,256.0 -6.30124708621452,38.9451880745055,256.982600000003 -6.30150323722453,38.9451567262066,257.0 -6.30219809667321,38.9451146492206,255.506599999993 -6.30233086677388,38.9451099556003,255.0 -6.30269061779065,38.9451035851874,254.0 -6.30303897008479,38.945076930474,253.0 -6.30303930515641,38.9450294890975,253.0 -6.30303192908961,38.9448910200139,250.130300000004 -6.30289949495885,38.9444749425138,250.0 -6.30287904301477,38.9443619542708,250.0 -6.30304969866426,38.944337479132,250.926800000001 -6.30371488586077,38.9443393229246,253.0 -6.30433715873955,38.9443352999771,256.0 -6.3050613553688,38.9443311086497,258.0 -6.30545295795059,38.9443311086497,258.297500000001 -6.3058522716708,38.9443428435275,257.428199999995 -6.30623834242706,38.9443468671733,256.0 -6.30653874983788,38.9443720130327,256.0 -6.30712715892537,38.9444201248739,258.0 -6.30766343338705,38.9444660575316,260.0 -6.30804447447607,38.9445222165808,261.0 -6.3083728778827,38.9445540675032,262.0 -6.30863573391798,38.9445832369214,262.482799999998 -6.30981305604787,38.9447342784224,264.9948 -6.31052384172825,38.9448447522718,265.0 -6.31114611370869,38.9449719890139,265.0 -6.31136404320001,38.9450050141891,265.0 -6.31149714837227,38.9447827260764,264.0 -6.31183611237337,38.9441468744461,261.0 -6.3121687064208,38.9434459798381,258.0 -6.31239401197891,38.9430037504994,256.195800000001 -6.31281243645847,38.9423362161622,254.0 -6.31307294609421,38.9419020337589,252.0 -6.3134860058349,38.9412809345209,247.640299999999 -6.31398187946498,38.94076729163,242.859599999996 -6.31446467721781,38.9402583424535,237.502299999993 -6.31485091506074,38.9398327093846,232.911999999997 -6.31518401216474,38.9395140294787,229.483399999997 -6.31592379905571,38.9391234328769,226.2785 -6.31662117288886,38.9387561373375,224.264599999995 -6.31681965654921,38.9386518663829,224.0 -6.31698595357292,38.9385643598547,224.0 -6.31709123073432,38.9384850667744,223.853799999997 -6.31728166728637,38.9382837334177,223.764299999995 -6.31748283241782,38.9380865911863,224.0 -6.31760085038492,38.9379833261223,224.007899999997 -6.31767394001136,38.9379231441723,224.0 -6.31787225568675,38.9378051271711,225.0 -6.31805347282902,38.9376800688052,224.578200000004 -6.31830543319821,38.9375756306675,224.418699999995 -6.31858455053679,38.9374557691163,224.743700000006 -6.31889166297285,38.9373253466057,224.232399999994 -6.31934277714562,38.9371255220342,224.0 -6.31971275458358,38.9369565429474,223.0 -6.32006697377483,38.9367813613938,222.0 -6.32076468357793,38.9364447441725,221.865300000005 -6.32111739359948,38.9362997368876,221.0 -6.32149692641714,38.9361503711923,221.0 -6.32183236992066,38.9360189435704,220.087 -6.32209237649985,38.9359084699441,220.0 -6.32246587443541,38.9357358027196,220.0 -6.32273007165543,38.9356147676408,220.0 -6.3229206761924,38.9355166998325,219.6247 -6.32373556493608,38.9349722109134,219.0 -6.32399842186969,38.9348136257145,219.0 -6.3243977355899,38.9344176646289,218.0 -6.32483761722833,38.9338084677489,217.163700000005 -6.32517037926071,38.9331157871444,216.743799999997 -6.32557807516084,38.932456466912,216.0 -6.32571754938849,38.9321726556736,216.0 -6.32573364270679,38.9321267227388,216.0 -6.32579265124119,38.9318472699571,215.330499999996 -6.32593313248025,38.9311795676991,215.0 -6.32602969149182,38.9306746419153,215.0 -6.32607260760622,38.930228054112,215.0 -6.32614821161717,38.9298463420954,215.0 -6.32623404294761,38.929370417576,215.006999999998 -6.32634669527748,38.9289239976646,216.0 -6.32651282431624,38.9284316445076,215.597200000004 -6.32677031651099,38.927985056559,215.351899999994 -6.32701188337233,38.9275260635463,215.0 -6.32709067280929,38.9274519679567,215.0 -6.32715504608256,38.9273726750308,215.0 -6.32734514756295,38.9272033603251,215.0 -6.32763214402487,38.9269029529167,215.087899999999 -6.32785744958299,38.9267026258615,215.352299999999 -6.32793791617456,38.9266169628196,215.163199999995 -6.32793556887671,38.9264196525804,214.7408 -6.32795199726663,38.9261770800933,211.829199999993 -6.32804285736605,38.9259856375884,210.106899999999 -6.32811812720371,38.9258622558946,209.291500000007 -6.32815886310689,38.9257965420163,209.309099999999 -6.32818166145049,38.9257663669064,209.691999999995 -6.32843714231727,38.9255492759778,211.366899999994 -6.32850654435949,38.9254792030399,210.8698 -6.3286111504794,38.9253791231828,210.609500000006 -6.32869698091154,38.9253060331048,210.589000000007 -6.32864434233082,38.9252487008273,209.136100000003 -6.32857125270438,38.9251829863805,208.285600000003 -6.32838584492132,38.9249161067314,213.0 -6.32825709837478,38.9247377400663,213.0 -6.32819121683015,38.9245957503087,213.0 -6.3280626382686,38.9243689359462,213.0 -6.32798217257533,38.9242500808102,213.143599999996 -6.32782945448547,38.9240209192322,213.999800000005 -6.32780531405884,38.9239416266645,214.0 -6.32799575061085,38.9238581428683,214.0 -6.32791796728705,38.9237372755174,214.0 -6.32794462119982,38.923670220627,214.0 -6.32794059854399,38.923592101079,214.0 -6.32801838186783,38.9235639377934,214.0 -6.3280760501158,38.9236056802264,214.0 -6.32819943102511,38.9235879106221,214.0 -6.32830940188388,38.9235200169392,214.0 -6.32901733720984,38.9231235532108,214.0 -6.32945453737717,38.9228731014352,214.0 -6.32988100896503,38.9226456169261,214.0 -6.33051401042324,38.9223116820409,213.040399999998 -6.33067494270808,38.9222449619686,213.0 -6.33064275607145,38.922055027542,213.0 -6.33047914141717,38.9220424551993,213.0 -6.33045500188887,38.9219841166767,213.0 -6.33055692563931,38.9218944307055,213.0 -6.33088147257843,38.9218193284195,213.0 -6.33092623203577,38.9218677763536,213.152900000001 -6.33103234732534,38.9219406987453,213.0 -6.33109923408475,38.9219720468243,213.0 -6.33130325046892,38.9218947661737,213.0 -6.331536770222,38.921750764902,213.0 -6.33199794193267,38.9214451604738,213.0 -6.33264854587887,38.9211073696994,213.125899999999 -6.33307769893787,38.9207650526175,214.0 -6.33341029298529,38.9206482091811,214.0 -6.33413985345507,38.9205229835778,214.759900000005 -6.33493378719813,38.9202225758381,215.021500000003 -6.33574917899838,38.9199887213444,213.361099999995 -6.33611395968244,38.9199387652744,214.742199999993 -6.33702607847919,38.9199971026831,215.767300000007 -6.33818462492134,38.9200556084812,215.9614 -6.33916094900644,38.9201640701777,215.0 -6.33973594714506,38.9202559361341,215.527499999997 -6.34019175501517,38.9203186330679,215.909599999999 -6.34061034747969,38.9203853528549,216.0 -6.34101267864092,38.9203937348457,217.0 -6.3413345441089,38.9203727802164,218.932499999995 -6.3417100533724,38.9203102510683,220.754300000001 -6.34184047617525,38.9203005278636,221.0 -6.34182974669749,38.9204131805292,221.0 -6.34190484855019,38.9204089898845,221.0 -6.34189143760132,38.9202963372123,221.0 -6.34179236330694,38.9202442014638,221.0 -6.34187266191356,38.9199498290404,221.0 -6.34196922182346,38.9196785908486,221.763800000001 -6.34204432367613,38.9195074322127,222.066399999996 -6.34237406736916,38.9188373828443,224.0 -6.34251890723401,38.918532617159,226.0 -6.34261546624558,38.9183197165311,228.0 -6.34276566995099,38.9181319620412,229.633600000001 -6.3429319669747,38.9179901400866,230.0 -6.34306607736178,38.9178315546627,229.931200000006 -6.34321628106719,38.9177021381766,228.996599999999 -6.34354887511461,38.9175559575045,227.108800000002 -6.34380100257043,38.9173891579082,226.0 -6.3439780290719,38.9172909216194,225.449200000003 -6.34408531666291,38.9172345956263,225.0 -6.34422747415832,38.9171970444734,225.0 -6.34441791071033,38.9171199305612,224.680200000003 -6.34469417859282,38.9169717385367,223.0 -6.34486852182653,38.9168465134346,222.0 -6.34501872553194,38.9167714113972,222.0 -6.34513674260068,38.9166711640917,221.0 -6.34527085388609,38.9165752745636,221.0 -6.34546397280757,38.9164416670043,220.0 -6.34561954035351,38.9163561719014,219.215400000001 -6.34580461306499,38.916299678118,219.0 -6.34599504961701,38.9165627019489,219.0</coordinates>
</LineString>
</Placemark>
</Folder>
</Document></kml>
