<?xml version="1.0" encoding="UTF-8"?>

<kml xmlns:xsd="http://www.w3.org/2001/XMLSchema" xmlns:gx="http://www.google.com/kml/ext/2.2" xmlns:atom="http://www.w3.org/2005/Atom" xmlns="http://www.opengis.net/kml/2.2">
<Document>
<name>PT01a_11a_mealhada-agueda</name>
<visibility>1</visibility>
<Schema name="PT01a_11a_mealhada-agueda" id="kml_schema_ft_PT01a_11a_mealhada-agueda">
<SimpleField type="xsd:string" name="id">
<displayName>id</displayName>
</SimpleField>
<SimpleField type="xsd:string" name="nombre">
<displayName>nombre</displayName>
</SimpleField>
<SimpleField type="xsd:double" name="longitud">
<displayName>longitud</displayName>
</SimpleField>
<SimpleField type="xsd:string" name="_formato">
<displayName>_formato</displayName>
</SimpleField>
</Schema>
<Folder id="kml_ft_PT01a_11a_mealhada-agueda">
<name>PT01a_11a_mealhada-agueda</name>
<Placemark id="kml_1">
<name>&lt;img height='20' src='https://nco.ign.es/iconos/icono_todos_caminos_azul.png' /&gt;&lt;img height='20' src='https://nco.ign.es/iconos/Camino Santiago_20.png' /&gt;&lt;img height='20' src='https://nco.ign.es/iconos/icono_todos_caminos_azul.png' /&gt;  Camino de Santiago </name>
<visibility>1</visibility>
<description><![CDATA[<!DOCTYPE html>
<html>
<head>
<style>
#nco {
  border-collapse: collapse;
  overflow:hidden;
}
#nco th, #nco td {
  padding: 4px;
  text-align: left;
}
#nco th {
  color: #364B5F;
  padding-right: 5px;
}
#nco td {
  color: rgb(51, 51, 51);
  font-size: 12px;
  padding-right: 5px;
}
</style>
</head>
<body>
<table id="nco">
<tr>
<td>Caminos Portugueses</td>
</tr>
<tr>
<th><b>Camino: </b></th>
<td>PT01a Camihno Central Regiâo Centro e Norte</td>
</tr>
<tr>
<th><b>Etapa: </b></th>
<td>11a Mealhada - Agueda</td>
</tr>
<tr>
<th><b>Longitud: </b></th>
<td>25.77 km</td>
</tr>
</table>
</body>
</html>]]></description>
<Style>
<IconStyle>
<scale>0.8</scale>
</IconStyle>
<LabelStyle>
<color>ffffffff</color>
<scale>0.75</scale>
</LabelStyle>
<LineStyle>
<color>ffff0000</color>
<width>3.0</width>
<gx:labelVisibility>1</gx:labelVisibility>
</LineStyle>
<PolyStyle>
<color>66ff0000</color>
</PolyStyle>
</Style>
<ExtendedData>
<SchemaData schemaUrl="#kml_schema_ft_PT01a_11a_mealhada-agueda">
<SimpleData name="id">PT01a_11a</SimpleData>
<SimpleData name="_formato">kml</SimpleData>
</SchemaData>
</ExtendedData>
<LineString>
<extrude>0</extrude>
<tessellate>1</tessellate>
<coordinates>-8.44947991854124,40.381569005313,50.0157999999938 -8.44873007411233,40.3818509720625,50.3491999999969 -8.44890005872029,40.3821719992328,50.7067999999999 -8.44877785101072,40.3821996592995,50.8093999999983 -8.44856226791893,40.38308311197,53.2213000000047 -8.44816999519393,40.3847390407075,57.0350000000035 -8.44798995214973,40.3851390251089,57.0840999999928 -8.44703005645459,40.3853909855632,58.3539000000019 -8.44721998995003,40.3856010355949,58.3880000000063 -8.44717757779053,40.3857299491247,58.3804999999993 -8.44701748363385,40.3856820046406,58.3916000000027 -8.44698881749484,40.3857411810298,58.3197999999975 -8.44683760767631,40.3858100804988,58.0979999999981 -8.44680927660888,40.3860276743766,57.8614999999991 -8.44690382519086,40.3873820228457,55.6686000000045 -8.44718478587237,40.3879447836882,55.4030999999959 -8.44749122816523,40.3884886013484,54.976999999999 -8.44821441957966,40.3895338245173,52.2749999999942 -8.44899158896288,40.3905881004984,48.0847999999969 -8.44934815545197,40.3908273200218,47.278999999995 -8.44894984694659,40.3912395419625,49.1624000000011 -8.44871968060447,40.3918009617267,52.4382000000041 -8.44848180222568,40.3918354952618,52.8806999999942 -8.44701999801832,40.3924099908699,56.051999999996 -8.44637006511365,40.3927310176609,55.3098999999929 -8.44529164929316,40.3934776780378,53.9915000000037 -8.44436394023464,40.3937847906728,54.9051999999938 -8.44427710368939,40.3937978664264,55.0430999999953 -8.44421004894498,40.39452005157,56.9453999999969 -8.44364007957531,40.3951679726712,59.1094000000012 -8.44328451919933,40.3954536275177,59.5923999999941 -8.44254288806708,40.3956450702432,61.3055000000022 -8.44231992980681,40.3958019795728,62.305600000007 -8.44262000214602,40.3964810815842,62.5149999999994 -8.44315007284234,40.396931022104,64.1545999999944 -8.44308000065692,40.3973310066162,64.9072000000015 -8.44277523462038,40.3976200140797,63.9927000000025 -8.44259250920675,40.397785975925,63.918399999995 -8.44260793148355,40.3979376884603,64.2792000000045 -8.44298830242933,40.3984382555807,65.0592999999935 -8.44313783599154,40.3986486411828,65.327099999995 -8.44343019629403,40.3989294350105,65.3043000000034 -8.44341997077114,40.399310979138,68.5167999999976 -8.44393663141692,40.3996893386485,68.4741000000067 -8.44411097465064,40.3998616705481,69.0641000000032 -8.44402749061801,40.4002132075387,71.2407999999996 -8.44414953124092,40.4003503357948,71.0831000000035 -8.44450257723243,40.4004767344004,69.1209999999992 -8.44475151926227,40.4007209831435,67.4853000000003 -8.44480734326897,40.4009032057463,66.8196999999927 -8.4448388588641,40.4009672435982,66.4260999999969 -8.44481807184843,40.4011494662185,65.7155999999959 -8.44518955755776,40.4012751949692,62.7725000000064 -8.44548761856903,40.4015088819463,60.053899999999 -8.44579808441605,40.4016552303934,58.4235999999946 -8.44663124489262,40.4020416358847,56.8110000000015 -8.44746205986797,40.4024350824126,56.988400000002 -8.44804108156076,40.4025500824578,55.241399999999 -8.44832003091435,40.4025420356762,54.4082000000053 -8.44809874891043,40.4030605397781,55.2312999999995 -8.44809774279732,40.4034331997784,52.9860999999946 -8.44801157729356,40.4035441758136,52.3628999999928 -8.44783723316155,40.4035953055849,53.1394 -8.44710968401967,40.4036585049492,56.9067000000068 -8.44642320675091,40.4038573238469,56.1103000000003 -8.44617543702252,40.4039835551134,54.6147999999957 -8.44611458514517,40.4041434822334,52.1373000000021 -8.4460877623491,40.4054788870012,46.3690000000061 -8.44585793107861,40.405604950372,46.7183999999979 -8.44545627006055,40.4058528873323,47.2917000000016 -8.44540832607553,40.4061197671664,47.6560999999929 -8.44573689656878,40.4068800055309,48.9130000000005 -8.44579037237933,40.407714005189,53.2654999999941 -8.4457427634659,40.4082209423817,57.3608999999997 -8.4453746302692,40.4091012102772,59.3551000000007 -8.44507304965867,40.4099853333115,62.527900000001 -8.44477850914499,40.4108649303899,64.1190000000061 -8.44459611880295,40.4114682591207,63.948000000004 -8.44437198734294,40.4122809685527,65.2902999999933 -8.44422999783249,40.4129099464746,66.0991000000067 -8.44425749077176,40.4134832691393,66.9519 -8.44452738780226,40.4139943972668,69.2005999999965 -8.44486618381841,40.4143291705607,69.9208000000071 -8.44375994088536,40.4146349425982,67.2832000000053 -8.44346003563282,40.4152109466844,65.3643000000011 -8.44334000723611,40.4156679283639,63.7641000000003 -8.44314001530443,40.4168279836157,58.7740000000049 -8.44254003861099,40.4181100797746,57.1543999999994 -8.44245001663976,40.4184420032391,56.9532999999938 -8.44220995894804,40.4190099606971,56.7722000000067 -8.44202790367761,40.4192059295454,57.3099999999977 -8.44116959755962,40.4195636690373,60.7265000000043 -8.44056610036861,40.4199859495666,65.1005000000005 -8.43951148900484,40.4210031770996,70.4535000000033 -8.43888653465493,40.4234163271051,78.5866999999998 -8.43841010685578,40.424204896423,80.7140000000072 -8.43820642644152,40.4246642248519,83.3815999999933 -8.43779554601372,40.4251017600671,86.1376000000018 -8.43781432170149,40.4253252215393,85.2130999999936 -8.43820458309858,40.4252571605541,82.8156000000017 -8.4388662497975,40.4252482760421,78.2108000000007 -8.4391852658094,40.4253032612504,76.8218999999954 -8.44025580250655,40.4256408839143,75.071299999996 -8.44058990482533,40.4257979612973,77.1981999999989 -8.4406893141913,40.4259458181293,77.5997000000061 -8.4407699478695,40.4265209841049,75.9633000000031 -8.4413399172392,40.4280280500558,66.363400000002 -8.44177996776089,40.4290310285379,67.965200000006 -8.44166798557421,40.4293750219443,66.5997999999963 -8.4410619739987,40.4296759321625,61.4480999999942 -8.44089215647739,40.4298717338631,60.7918999999965 -8.44140395544085,40.4311848426982,53.088499999998 -8.44211105263865,40.433005894835,66.6152000000002 -8.44267699845416,40.4344640106946,51.5274999999965 -8.44258496515499,40.4347719619431,50.7660999999935 -8.44182003262257,40.4353219823405,58.210699999996 -8.44165692102486,40.435589029729,62.0979999999981 -8.44173001154963,40.4359400642078,64.0705000000016 -8.44251003128724,40.4366189977943,64.0393999999942 -8.44283994296523,40.4372409355593,66.6542000000045 -8.44283994296523,40.4374689232673,68.0405000000028 -8.44271890845541,40.4378521434754,69.6931999999942 -8.4425445643234,40.4387810263816,68.3695000000007 -8.4422999809193,40.4401590112669,67.3188999999984 -8.44228506080075,40.4408870633825,67.5602000000072 -8.44222135856901,40.4409960277775,68.1236000000063 -8.44282753723115,40.4424643696644,67.0203000000038 -8.44303004444566,40.4429280568573,63.9257000000071 -8.44308000065692,40.4432410366404,61.2148000000016 -8.4430099275732,40.4445499547829,52.9076000000059 -8.44295008091063,40.4448200200472,51.2369000000035 -8.44246996552727,40.4454920808923,51.7312999999995 -8.44240995087975,40.4459800750053,46.9349999999977 -8.44217006117302,40.4463500526333,46.2274999999936 -8.44212999541305,40.4465409923521,43.7768999999971 -8.44225170096437,40.4468041839643,37.8279999999941 -8.44202304289362,40.4472098680875,35.9416999999958 -8.44165457372701,40.4475300565135,35.4176000000007 -8.44102593179289,40.447804312672,35.2502999999997 -8.44085091751764,40.4479365791515,34.7453999999998 -8.4402454089987,40.4479260179957,35.3503999999957 -8.43958977628352,40.4477223375535,37.7330999999976 -8.43926640254417,40.4474985410196,40.3421999999991 -8.43914000329551,40.4474909972878,40.1582999999955 -8.43891000404006,40.4476200787271,37.9260000000068 -8.43857992437712,40.4480510755371,34.4953999999998 -8.4382900784591,40.4485209655342,33.4033000000054 -8.43808002809116,40.4490200236487,32.7934999999998 -8.43808991854244,40.4496689506109,31.8735000000015 -8.43834003467036,40.4507409964179,32.9388000000035 -8.4382900784591,40.4515689604788,37.0338000000047 -8.43852996816583,40.4518589743165,38.3377999999939 -8.43854991705334,40.4520909858527,39.3123000000051 -8.43788003526116,40.4530409902627,37.7485000000015 -8.43765992645695,40.4532889273951,37.5060999999987 -8.43716003017104,40.4536020749362,37.4382000000041 -8.4372299352698,40.4538000558535,37.9091999999946 -8.43748994184902,40.4545289458926,39.3184000000037 -8.43751994917277,40.4550700812871,39.6119999999937 -8.43733403833313,40.4559020692834,40.5721000000049 -8.43709381265649,40.4564839407386,42.1287000000011 -8.43670673668541,40.45693103166,42.8904999999941 -8.43644438280837,40.4571492964934,43.1462999999931 -8.43625696369737,40.4572792158306,43.3225999999995 -8.43599377169217,40.4574756876438,43.9260999999969 -8.43643214595757,40.4575663800508,43.4766999999993 -8.436710257183,40.4577247977279,43.7853000000032 -8.43711292341584,40.4583212545079,45.8459000000003 -8.437530007609,40.458920057241,48.3482999999978 -8.43774240437646,40.4590484680846,48.5320999999967 -8.43807566946541,40.4593626215486,48.7749999999942 -8.43791825677986,40.459668561354,49.8025000000052 -8.43786997682489,40.4597699823373,50.1186000000016 -8.43796452540686,40.4598593333681,49.8343000000023 -8.43911619883879,40.4600623434278,48.0476999999955 -8.43979077432834,40.460218917317,48.7514999999985 -8.44048496363384,40.4610110069184,54.3144999999931 -8.44118434969322,40.4618128198364,53.238400000002 -8.44201130820107,40.4626838670205,54.5117000000027 -8.4423712272028,40.4630365773243,58.1953000000067 -8.44294471707006,40.4637495424848,61.9581999999937 -8.44348970788498,40.4644226093716,62.2430000000022 -8.44348702551551,40.4644226093716,62.2535000000062 -8.44371199600201,40.4646640076855,61.3726000000024 -8.44436226397829,40.4654710175858,57.5056999999942 -8.44459796304422,40.4656604486268,57.2621999999974 -8.44529768417522,40.4659901923423,57.381899999993 -8.44686543568719,40.4667083543395,58.1656999999977 -8.44757186274179,40.4670359189519,56.4856 -8.44768501812824,40.4671794171462,55.7338000000018 -8.44778878611996,40.4677440222358,54.0197999999946 -8.44814686088041,40.4687964537312,56.4575999999943 -8.44839446262386,40.4695203153018,54.3571999999986 -8.44876444006182,40.4704369598385,51.3901999999944 -8.44893174230035,40.4709055083046,50.2324999999983 -8.44912871679101,40.4712803469106,47.4146000000037 -8.44966717056557,40.4717359874299,39.0503000000026 -8.45039824020505,40.4723362990423,34.6064999999944 -8.45129946243741,40.4729915965951,32.2834000000003 -8.45215743438211,40.47360045803,26.6668000000063 -8.45260988884129,40.4740653182597,25.1998000000021 -8.45298003426421,40.4745410752836,23.8827000000019 -8.4533597341685,40.4750463361752,22.9986000000063 -8.45376944139656,40.4751475897551,21.8144999999931 -8.45379794044894,40.4761981770921,21.7764000000025 -8.45363734323571,40.4763604505641,21.9557999999961 -8.45323601728927,40.4768291667945,22.3231999999989 -8.45304105412652,40.4773979628363,22.9180000000051 -8.45335638165586,40.4775372699967,22.3942999999999 -8.45340147618482,40.477754529005,22.043399999995 -8.45342863315418,40.4780574509154,21.7636999999959 -8.45335118490195,40.4792481839334,24.8699000000051 -8.45331748909563,40.4801014616066,27.0725999999995 -8.4534531086524,40.4802265200704,27.0280999999959 -8.45339611144592,40.480942837343,28.459600000002 -8.45340633786711,40.4817387828456,28.2902000000031 -8.45349116218614,40.483002438891,26.4851999999955 -8.4536075029986,40.484000555667,26.3184000000037 -8.45408426586933,40.4847810783674,26.3234999999986 -8.45484031406359,40.4859865639291,23.1708000000071 -8.4552101235166,40.4871244906664,22.7590999999957 -8.45549879623484,40.4880614204299,22.3594000000012 -8.45563257155033,40.4885244363188,21.9324999999953 -8.45564514437104,40.4887452158188,21.582699999999 -8.45549276135277,40.4892925542773,19.9425999999949 -8.45515212019702,40.490476581387,18.4955999999947 -8.45484919840175,40.4914451942565,19.9964999999938 -8.4546044470127,40.4925524440523,21.357799999998 -8.45435751631076,40.4937232282027,21.602899999998 -8.45424586919567,40.4942841451901,22.2608999999939 -8.45419842736889,40.4946511044271,22.5464000000065 -8.45385476967045,40.4951761471136,22.6913000000059 -8.4538148718954,40.4953305419196,22.6698999999935 -8.45387471855796,40.4956170351905,22.6367999999929 -8.45397496605209,40.4964547229574,21.9437999999936 -8.45419876244051,40.4970345824207,20.7550000000047 -8.4545865094531,40.4979403314782,20.8828000000067 -8.4550146572973,40.4985599214942,20.5617999999959 -8.45529444477905,40.49891581716,20.3512999999948 -8.45587078500074,40.4997177977185,22.0736000000034 -8.45567096015566,40.5002366373079,21.7835999999952 -8.45476839673856,40.5010889090715,25.0981000000029 -8.4539551842512,40.5020628865323,28.9888000000064 -8.45296042044828,40.5033335826096,34.7927999999956 -8.45289235959079,40.5035479917737,34.6981999999989 -8.45280216963457,40.5038457174673,34.4361999999965 -8.45274517332644,40.5047759406316,36.604600000006 -8.452713656833,40.505248344878,33.0093000000052 -8.45276629541372,40.5056600636867,28.4060000000027 -8.45282765124594,40.5061567752305,25.2648000000045 -8.45310073370242,40.50659263449,21.6367999999929 -8.45350474111996,40.5071007454287,17.4986999999965 -8.45361823247636,40.5072430699508,18.5282000000007 -8.45368646042048,40.5077384406424,22.4048999999941 -8.45334464696331,40.5086572652537,26.6359999999986 -8.45297634578166,40.5093377076355,29.2492000000057 -8.4528667108928,40.5096513587696,30.559699999998 -8.45288665978032,40.5098424661808,31.3684999999969 -8.45307743140394,40.5102935797403,32.9219000000012 -8.45316175356472,40.5107292714224,33.8145999999979 -8.45321908584278,40.5112455965154,33.7655999999988 -8.45354732126445,40.5120536118287,33.5069999999978 -8.45369718989824,40.5128656509279,34.3107000000018 -8.4537618982431,40.5131905337482,34.2217999999993 -8.45396105204664,40.5135628572334,34.0320999999967 -8.45443295323508,40.513989496452,34.0184000000008 -8.45471609412779,40.5148286928576,26.1214000000036 -8.4549851530301,40.5157683041334,16.6101000000053 -8.45532227278994,40.5170384974325,11.4382999999943 -8.45547281246526,40.5175789624532,12.0598999999929 -8.45550818362957,40.5177348661311,12.4765000000043 -8.45579903566066,40.5186119484241,14.4830999999976 -8.45607362728683,40.5188231722179,14.6830999999947 -8.45633765652189,40.5189482302229,14.8245000000024 -8.45690125593788,40.5193093230622,16.6472000000067 -8.45695003894939,40.5194699202893,17.7024999999994 -8.45701994404816,40.5198400646548,20.195000000007 -8.45701994404816,40.5202410553215,22.1766000000061 -8.45689002430187,40.520629975155,24.4076999999961 -8.45664007615891,40.5210990268232,27.6704999999929 -8.45653999575141,40.5216599436576,30.1950999999972 -8.45670998125767,40.5230709532912,36.0975000000035 -8.45672003969391,40.5235289401364,38.6824999999953 -8.45698004627313,40.5242809650353,40.9921999999933 -8.45689874155341,40.5247879019907,40.3724999999977 -8.4567706660484,40.5254810853875,44.2020000000048 -8.45652993731518,40.5261120753289,47.8270000000048 -8.45641996735474,40.5266490203582,48.482799999998 -8.45638006957972,40.5270610741293,47.7639999999956 -8.45647998110393,40.5276600455639,48.0192999999999 -8.45643606067304,40.5283694893894,46.4668999999994 -8.45636313813323,40.5291122935518,39.4098999999987 -8.45550583633172,40.529179683989,38.8233999999939 -8.45375569537607,40.529387723431,45.1928000000044 -8.45249287788563,40.5295484876913,45.3981000000058 -8.45200723067674,40.5297310459541,45.7571999999927 -8.45195643633729,40.5298242523885,45.9527999999991 -8.45198996326033,40.5299000252801,46.114499999996 -8.45217671222813,40.5304636241405,47.7777999999962 -8.45247795776707,40.531346238927,51.6569000000018 -8.45268432055079,40.5318094223838,52.2731000000058 -8.45294784762758,40.5323054636569,51.1404000000039 -8.45324154911476,40.532676949756,51.3225999999995 -8.45422893774921,40.5336464006578,57.2943999999989 -8.45464467985934,40.5340577839696,56.317200000005 -8.45520040015199,40.5347295102176,54.8904999999941 -8.45535160997048,40.535141564144,54.8962999999931 -8.45538530487847,40.5354500185147,54.7434999999969 -8.45531003593914,40.5362699360737,54.5571999999956 -8.45532998482665,40.5363810799108,54.6024999999936 -8.45543006433581,40.5364989298489,54.7520999999979 -8.45531657297945,40.5367104891518,54.7116999999998 -8.45529897138979,40.5376935186348,55.0853999999963 -8.45530081563107,40.5381795012071,55.1261999999988 -8.45504516767762,40.5391925384101,55.8745000000054 -8.45477526974882,40.5403031403859,60.2793999999994 -8.45455817838567,40.5412325259807,64.9902000000002 -8.45432432356101,40.5420626692703,67.6165000000037 -8.45397580418024,40.5434054500445,69.8513999999996 -8.45388008239849,40.5437579935026,69.1297999999952 -8.45363583406602,40.5445760666289,63.2032000000036 -8.45359845067548,40.5450422686685,61.8745000000054 -8.45367422356968,40.5455445118743,59.6613999999972 -8.45381135139781,40.5459260559613,59.831600000005 -8.45385728405493,40.5459983081425,60.5896999999968 -8.45324289029949,40.5461055968151,60.9419000000053 -8.45317667368328,40.5461600789958,61.2137999999977 -8.45297332834061,40.5467736342753,67.0559000000067 -8.45268113512478,40.5477016788911,65.3969999999972 -8.45250997731708,40.5482480113142,63.188599999994 -8.45220085265476,40.5492942403962,59.879700000005 -8.45191050278187,40.5503215261069,59.7930000000051 -8.45178494255967,40.550539791003,59.2728999999963 -8.45154605806773,40.550802815199,58.2416999999987 -8.45068674493833,40.5514509037196,58.9033999999956 -8.44979792844001,40.5521010042785,63.6738999999943 -8.44931898625639,40.552450865275,64.3828000000067 -8.44896074351098,40.5528778391707,64.4842000000062 -8.44886703395549,40.553047824203,64.2275999999983 -8.44888044490436,40.5532880491767,63.9906999999948 -8.44902344052793,40.5541270777356,60.4694000000018 -8.44918923449506,40.5552598085484,60.8133999999991 -8.44925679229601,40.5557015348801,62.7972000000009 -8.44917666167435,40.5560301051702,62.9919999999984 -8.44900282059889,40.5562696601385,62.5255000000034 -8.44851097052294,40.5566594185196,59.7566999999981 -8.44758527369066,40.5572850438626,59.902900000001 -8.44754487285907,40.5574910707023,60.3665999999939 -8.44710951693304,40.5584677306196,61.6640999999945 -8.44652161000376,40.5592648493577,67.3941999999952 -8.44618767477161,40.5597493234331,65.1137000000017 -8.44605373236949,40.5601704299896,59.8116000000009 -8.44592750110579,40.5611023304801,42.428700000004 -8.44586094851963,40.5615195815126,33.4903999999951 -8.44578785799486,40.5617852876195,28.5046000000002 -8.44580395131316,40.5633280605583,19.4842000000062 -8.44566045353138,40.5634490951093,18.7400000000052 -8.44556842023218,40.563704073183,17.4864999999991 -8.44576824417893,40.5639458069967,17.0503999999928 -8.44609027763187,40.5642758866218,16.7519999999931 -8.4463127328356,40.5647125833638,15.4517000000051 -8.44639571381165,40.5651087121235,15.3623999999982 -8.44674339506425,40.5656302345662,15.6306000000041 -8.44687700239479,40.5659296355428,15.5396000000037 -8.44711152826094,40.5667094879401,12.7314000000042 -8.44713214818999,40.5670119071274,11.2416999999987 -8.44730481516738,40.5678705489909,8.83830000000307 -8.44751436247874,40.5689047085569,10.1983000000037 -8.44784779465433,40.5702248580532,12.1169999999984 -8.44795877072792,40.5704444644212,12.5188000000053 -8.44854097784668,40.5708280201615,12.3132000000041 -8.44810931040321,40.5715560718257,13.6131000000023 -8.44796597970806,40.5719300723705,17.0075999999972 -8.44812355948027,40.5720070183576,17.3606 -8.44984000552793,40.5722199188985,17.1346000000049 -8.45048205930925,40.5722619958985,15.9397000000026 -8.45142602877276,40.5724070028703,15.1376000000018 -8.45341103156448,40.5730480506688,13.0939999999973 -8.45360146811653,40.5732798943675,14.3629999999976 -8.4538222479622,40.5738374587365,20.4916999999987 -8.45325127247941,40.5743142214352,25.9891000000061 -8.4531562217392,40.5743931789078,26.2032000000036 -8.45306603268131,40.5747334841525,27.7985999999946 -8.45259563976423,40.5752043793556,24.9667000000045 -8.45260687140024,40.5753862666515,24.8224999999948 -8.45269320488895,40.5755443495518,25.442200000005 -8.45281004875795,40.576198975923,27.573000000004 -8.45290225004207,40.5766309790815,29.2859000000026 -8.45288012184167,40.5769711166975,29.1693999999989</coordinates>
</LineString>
</Placemark>
</Folder>
</Document></kml>
