<?xml version="1.0" encoding="UTF-8"?>

<kml xmlns:xsd="http://www.w3.org/2001/XMLSchema" xmlns:gx="http://www.google.com/kml/ext/2.2" xmlns:atom="http://www.w3.org/2005/Atom" xmlns="http://www.opengis.net/kml/2.2">
<Document>
<name>PT01a_01a_lisboa-alverca_do_ribatejo</name>
<visibility>1</visibility>
<Schema name="PT01a_01a_lisboa-alverca_do_ribatejo" id="kml_schema_ft_PT01a_01a_lisboa-alverca_do_ribatejo">
<SimpleField type="xsd:string" name="id">
<displayName>id</displayName>
</SimpleField>
<SimpleField type="xsd:string" name="nombre">
<displayName>nombre</displayName>
</SimpleField>
<SimpleField type="xsd:double" name="longitud">
<displayName>longitud</displayName>
</SimpleField>
<SimpleField type="xsd:string" name="_formato">
<displayName>_formato</displayName>
</SimpleField>
</Schema>
<Folder id="kml_ft_PT01a_01a_lisboa-alverca_do_ribatejo">
<name>PT01a_01a_lisboa-alverca_do_ribatejo</name>
<Placemark id="kml_1">
<name>&lt;img height='20' src='https://nco.ign.es/iconos/icono_todos_caminos_azul.png' /&gt;&lt;img height='20' src='https://nco.ign.es/iconos/Camino Santiago_20.png' /&gt;&lt;img height='20' src='https://nco.ign.es/iconos/icono_todos_caminos_azul.png' /&gt;  Camino de Santiago </name>
<visibility>1</visibility>
<description><![CDATA[<!DOCTYPE html>
<html>
<head>
<style>
#nco {
  border-collapse: collapse;
  overflow:hidden;
}
#nco th, #nco td {
  padding: 4px;
  text-align: left;
}
#nco th {
  color: #364B5F;
  padding-right: 5px;
}
#nco td {
  color: rgb(51, 51, 51);
  font-size: 12px;
  padding-right: 5px;
}
</style>
</head>
<body>
<table id="nco">
<tr>
<td>Caminos Portugueses</td>
</tr>
<tr>
<th><b>Camino: </b></th>
<td>PT01a Camihno Central Regiâo Centro e Norte</td>
</tr>
<tr>
<th><b>Etapa: </b></th>
<td>01a Lisboa - Alverca do Ribatejo</td>
</tr>
<tr>
<th><b>Longitud: </b></th>
<td>26.31 km</td>
</tr>
</table>
</body>
</html>]]></description>
<Style>
<IconStyle>
<scale>0.8</scale>
</IconStyle>
<LabelStyle>
<color>ffffffff</color>
<scale>0.75</scale>
</LabelStyle>
<LineStyle>
<color>ffff0000</color>
<width>3.0</width>
<gx:labelVisibility>1</gx:labelVisibility>
</LineStyle>
<PolyStyle>
<color>66ff0000</color>
</PolyStyle>
</Style>
<ExtendedData>
<SchemaData schemaUrl="#kml_schema_ft_PT01a_01a_lisboa-alverca_do_ribatejo">
<SimpleData name="id">PT01a_01a</SimpleData>
<SimpleData name="_formato">kml</SimpleData>
</SchemaData>
</ExtendedData>
<LineString>
<extrude>0</extrude>
<tessellate>1</tessellate>
<coordinates>-9.13329066684371,38.709828760038,32.4731999999931 -9.13332419466505,38.7099642116442,34.6088000000018 -9.13325227823835,38.7100361281252,35.9897000000055 -9.13236161660047,38.7101264850405,40.7114000000001 -9.13131186781732,38.7104855661147,57.5844999999972 -9.13101414187766,38.7106548802535,60.9851000000053 -9.1308535446644,38.710762504011,61.5620000000054 -9.13074675923164,38.7108833709558,62.1440000000002 -9.13062488659369,38.7111073355065,62.773000000001 -9.13068456616959,38.7113866206153,64.7056000000011 -9.13067685413287,38.711477144755,64.7198000000062 -9.13050133769939,38.7118789731741,60.0660999999964 -9.13039756970767,38.7119785502274,58.1601999999984 -9.13031660005952,38.7120922093092,56.6487000000052 -9.13031442074666,38.7121832365408,56.422900000005 -9.13067350162024,38.7124717419526,61.1392999999953 -9.1306837271431,38.7125552250831,61.5767999999953 -9.13062706590658,38.7126762600282,61.4614000000001 -9.13058431777714,38.7128160703348,61.9177000000054 -9.13061013446008,38.7129835403746,64.0427000000054 -9.13054240867418,38.7131035694407,64.7160000000003 -9.13033688401865,38.7132896474246,65.0878999999986 -9.13014795663629,38.7132631609143,63.0059000000037 -9.12944052346858,38.7129178267255,54.168399999995 -9.12929199601952,38.712865355998,52.7476000000024 -9.1290373541792,38.7128408803464,50.9842000000062 -9.128990247424,38.7128630092293,51.0654000000068 -9.12877231793269,38.7128278048861,49.0304999999935 -9.12859210780186,38.712859320849,48.2929000000004 -9.1284435803528,38.7129040804738,48.1013999999996 -9.12824962330317,38.7129369373123,47.850099999996 -9.12800922964157,38.7129171559202,46.4499000000069 -9.12791686127079,38.7127589059885,42.0503000000026 -9.12783438335128,38.7127260483673,40.8549999999959 -9.12769021452797,38.7126024992025,37.1407000000036 -9.12749374309386,38.7126088694268,36.8430999999982 -9.1271318118659,38.7126584902861,37.1815999999963 -9.12677725760303,38.7127034175633,37.0918999999994 -9.12632497023051,38.7127924329992,36.3113000000012 -9.1261843219048,38.712787739457,34.6505999999936 -9.12598969381366,38.7129607421261,36.4274000000005 -9.12581216515397,38.7130889848955,36.226800000004 -9.12563480447921,38.7132113605418,35.5647000000026 -9.12546549001445,38.7133070819595,34.8374999999942 -9.12524906879453,38.7134219144071,33.8940000000002 -9.12501471091329,38.7135602155343,32.9949999999953 -9.12490088448535,38.7136373293643,32.9630999999936 -9.12483667919703,38.713726177515,33.4741999999969 -9.12457231399209,38.7138914683142,34.0216999999975 -9.12426939219679,38.7140886106008,35.3494999999966 -9.12402363469463,38.7142963139939,37.2798999999941 -9.12376748368465,38.7144892657025,37.8824000000022 -9.12354083694183,38.7146694768106,37.075800000006 -9.12341360046327,38.7148361091059,36.8877000000066 -9.12328049529102,38.7150731489413,37.4934999999969 -9.12324529121334,38.7151977038669,38.3451999999961 -9.1231103426981,38.7153971934419,38.9553000000014 -9.12298360837782,38.7156246785873,39.2626000000018 -9.12282636367723,38.7158156178805,38.7808999999979 -9.12242788808518,38.716107475826,35.5454000000027 -9.12216972574726,38.7163218852913,32.4890000000014 -9.121925979573,38.7165141656669,29.3420999999944 -9.12165608254253,38.7166630284197,27.2851999999984 -9.12149867075527,38.7167716580466,26.3386000000028 -9.12144150556388,38.7168534651922,26.5014999999985 -9.1214322861541,38.7169615919799,26.8251000000018 -9.12147503338522,38.717061671511,27.2198999999964 -9.12157528087934,38.7171729835934,28.3111999999965 -9.12170168012803,38.717289156966,29.6327000000019 -9.1217968988532,38.7173734783565,30.8365999999951 -9.12183478440199,38.717438522053,31.8220000000001 -9.12179304328399,38.7175835293315,33.2124999999942 -9.12165809387043,38.7176314736901,33.6067999999941 -9.1214586049953,38.7175930847028,32.8139999999985 -9.12111444424028,38.7175012190738,31.3089999999938 -9.12079744045462,38.7174229318974,30.2648999999947 -9.12049133323335,38.7174041561392,29.5947000000015 -9.12023199679732,38.7174011387564,28.998900000006 -9.12008011683563,38.7174259492793,28.5956000000006 -9.11988297435999,38.7175010508576,27.7646999999997 -9.11961928019654,38.7176152128154,25.8554000000004 -9.11936463745792,38.7177536817547,23.4909000000043 -9.11919264152202,38.7178703581286,22.2890000000043 -9.11898275824074,38.717990721727,20.5831000000035 -9.11877119870311,38.7181281848556,19.2810000000027 -9.11860255527988,38.7182943142571,17.925900000002 -9.11846190695417,38.7184706699804,16.6612000000023 -9.11836467690106,38.7186191971372,15.8410000000003 -9.11829980057125,38.7188327678147,15.2017000000051 -9.11816149954338,38.7191542980181,14.0626999999949 -9.11806745491628,38.7194645958473,13.1647999999986 -9.11799369334998,38.719626198662,13.0081999999966 -9.11781080084972,38.7197688591654,12.8343000000023 -9.11758180680905,38.7198915703096,12.5623999999953 -9.11739673499591,38.7199774004208,12.9011000000028 -9.11718903102749,38.7201378302128,13.9450999999972 -9.11705357945568,38.7203180410966,15.8791000000056 -9.11686683048792,38.7205964877212,19.0492999999988 -9.11669399552557,38.7208957217001,21.648000000001 -9.11654882148744,38.7211921061116,24.1312999999936 -9.11637883598118,38.7215092775547,25.0093000000052 -9.11622527976313,38.7217221779841,24.335500000001 -9.11607155556013,38.7219580441745,23.0672999999952 -9.11581540455015,38.7222971762828,21.5994999999966 -9.1155228762627,38.7227439314224,20.4608000000007 -9.11541441457362,38.7228061254854,19.8473999999987 -9.11525666681645,38.7228257387403,18.8353999999963 -9.11498676978598,38.7229484502424,17.7103999999963 -9.11481946664916,38.7230766933137,17.7247999999963 -9.1146687607855,38.7232414817096,17.8530000000028 -9.1144996134074,38.7234632664651,17.9703000000009 -9.1142033975357,38.7238461518143,17.1358999999939 -9.11401178688562,38.7240847008042,14.8081999999995 -9.11370735592067,38.7244030452186,11.6668999999965 -9.11344885851113,38.7246773010784,10.3705000000045 -9.11333117651397,38.7248471184358,9.81930000000284 -9.11327132985144,38.7250206238433,9.3524000000034 -9.11320393913712,38.7252068698364,8.54869999999937 -9.11309178896549,38.7253500329029,7.45669999999518 -9.11284888181771,38.7255714831292,5.97800000000279 -9.11265525983969,38.7257778454222,6.00960000000487 -9.11241318992174,38.7259498418108,6.51669999999285 -9.11193424863645,38.7262579607331,6.8012000000017 -9.11152990524896,38.7265146148751,6.76339999999618 -9.11108532901486,38.726797420219,8.25179999999818 -9.11077268385495,38.7270540738247,10.7473999999929 -9.11042567364384,38.7273442551028,15.652900000001 -9.11000372866669,38.7277648591636,20.1431000000011 -9.10947818278445,38.7283361696109,18.4866000000038 -9.10902690152505,38.7288353957907,14.7407999999996 -9.1089762751706,38.7289044627972,14.6897000000026 -9.10861702631206,38.7292147610366,14.0540000000037 -9.10838132724613,38.7294449282483,14.3444000000018 -9.10814512512362,38.7298439064916,16.2666000000027 -9.10790942605769,38.7302710480899,16.7753999999986 -9.10751346485015,38.730787876724,14.465400000001 -9.10718355317216,38.7311467895268,11.3834000000061 -9.1066152600588,38.7318676335026,12.9400000000023 -9.10634133947417,38.7321799426578,14.2177999999985 -9.10623606321106,38.7322677852962,14.2939000000042 -9.10585166871111,38.7326146286079,13.8499000000011 -9.10564798829683,38.7328960930963,14.5078999999969 -9.10548286537119,38.7334509748999,16.7862000000023 -9.10531422104966,38.733969646597,15.3145999999979 -9.10513065750787,38.734392765131,13.8628999999928 -9.10499755323391,38.7345667736079,13.0200999999943 -9.10474911336231,38.7348946734263,13.0445999999938 -9.10446463128487,38.7353028722225,15.4688000000024 -9.10409683405809,38.7360025938165,17.9829999999929 -9.10369500505508,38.7370412788875,14.889599999995 -9.1033689489463,38.738105445888,13.2523999999976 -9.10304440200717,38.7391209972669,14.0338999999949 -9.10280350618733,38.7400857538821,12.7165999999997 -9.10263787930682,38.740963674593,11.5733000000037 -9.10242414135467,38.7419589418311,12.0293999999994 -9.10229153923892,38.7420494664815,11.7848999999987 -9.10183656949697,38.7429547115779,10.8099999999977 -9.10158595031251,38.7435007088201,11.4349999999977 -9.10122687033724,38.7443033600798,13.3423000000039 -9.09739784904939,38.743368610316,3.69839999999385 -9.09580931052179,38.7491537994345,3.77740000000631 -9.0941181781005,38.7553228805696,6.88809999999648 -9.09314453638487,38.7587785712089,6.53310000000056 -9.09262385218492,38.7607501627996,6.88099999999395 -9.09244146184291,38.7625110328773,3.488400000002 -9.09328334046931,38.7625814409157,7.60370000000694 -9.09328652589529,38.762795682181,2.53489999999874 -9.09497765831657,38.7628779927841,8.00149999999849 -9.09483298643669,38.7648096863172,5.28680000000168 -9.09480197389813,38.7650576229997,4.68120000000636 -9.09457281187253,38.7673881275684,7.28720000000612 -9.09457800952478,38.7674129375395,7.21679999999469 -9.09212009943146,38.7673837689076,5.42680000000109 -9.09174358495319,38.7703581711274,4.40320000000065 -9.09183461213923,38.7707097075562,7.54339999999502 -9.09175733097367,38.7714339040352,10.1270999999979 -9.09170536343449,38.7716660831987,8.05400000000373 -9.09153755724108,38.7734155538876,6.24490000000515 -9.09202856918887,38.7734547813096,8.78519999999844 -9.09194927669538,38.7750934431004,4.24219999999332 -9.09141803190095,38.7752267154832,2.18260000000009 -9.09124888452285,38.7773288968365,4.46300000000338 -9.09087069288992,38.7815428144495,2.91139999999723 -9.09076189612922,38.78358263494,0.871799999993527 -9.09102139965187,38.7840278813768,0.88289999999688 -9.0912679952822,38.7843812621014,2.60700000000361 -9.09155281243122,38.7846799935339,2.15029999999388 -9.09182405064646,38.7849418442308,4.35060000000522 -9.09196604015688,38.7850625436448,5.50310000000172 -9.09219821872522,38.7852328637138,7.52909999999974 -9.09231439245102,38.7855553995073,10.8932999999961 -9.09235227889813,38.7858452457011,12.5693000000028 -9.09236518679043,38.786157388054,12.6968000000052 -9.09234037622063,38.7865332326008,10.1107000000047 -9.09231472752263,38.7867758043087,7.37020000000484 -9.09226259199849,38.7869659063826,5.80430000000342 -9.09212714042668,38.7873637110251,3.22440000000643 -9.09165021046929,38.7881725650771,2.96080000000075 -9.09123580864556,38.788627031832,2.761599999998 -9.09107957005809,38.7889971763412,3.30460000000312 -9.09087354324431,38.7898878375741,3.97419999999693 -9.09051446237074,38.7908547738448,3.34500000000116 -9.09067153908637,38.7920778613007,2.64139999999315 -9.09076994323755,38.7923708926391,2.30580000000191 -9.09063566486552,38.7939778706647,1.27920000000449 -9.09088712217814,38.7941835626424,1.98930000000109 -9.09094378341469,38.7944765944263,2.41680000000633 -9.09118115873694,38.7946824536993,3.10450000000128 -9.09143479536248,38.7955939016074,2.32670000000508 -9.09174257884007,38.7959618675409,2.22299999999814 -9.09271739465378,38.7959280043028,3.5627999999997 -9.09387376178304,38.7959908690562,2.71189999999478 -9.09303825311032,38.7960468598778,2.33289999999397 -9.09256819616319,38.7976649022449,3.50729999999749 -9.09251522251088,38.7978214763005,4.07009999999718 -9.09226309505503,38.7979056311865,4.6018999999942 -9.09210903578044,38.7979083133146,4.35619999999471 -9.09175364338942,38.7979093186751,3.3298000000068 -9.09144032718801,38.7979678248892,2.50969999999506 -9.09117579489637,38.7980984144057,1.80409999999392 -9.09097194649716,38.7982947186466,1.36729999999807 -9.09092869620951,38.7983604328495,1.36749999999302 -9.09092601384008,38.7984318465601,1.45200000000477 -9.09088896552111,38.7986947032027,1.91980000000331 -9.09092098507109,38.7989314079818,2.35959999999614 -9.09091930791647,38.7992103580588,2.7097999999969 -9.09088142236769,38.7994641616835,2.90649999999732 -9.09082509620271,38.7997508233074,3.03479999999399 -9.09074664093908,38.7999917188255,2.98249999999825 -9.09067120401479,38.8002128332142,2.82120000000577 -9.09061085429569,38.8003643785433,2.69449999999779 -9.09054195531,38.800676017668,2.41809999999532 -9.09054715206391,38.8009667019872,1.91109999999753 -9.09059945467472,38.8011965335408,1.50810000000638 -9.09067623278374,38.801447487779,1.31419999999343 -9.09078318620146,38.8017348197966,1.22609999999986 -9.09083481866903,38.8020167867087,1.04829999999492 -9.09084035049456,38.8021141840745,1.00470000000496 -9.09082610141754,38.8023614506232,0.948399999993853 -9.09075686736027,38.8026018437697,1.1085000000021 -9.09066215169167,38.8028429067659,1.48739999999816 -9.09055436014576,38.8030100424765,1.58419999999751 -9.09039812155828,38.8032110403887,1.5454000000027 -9.09021740747258,38.8033863897161,1.30070000000705 -9.09015303509765,38.8034239408138,1.27030000000377 -9.08998874940187,38.8036207477257,1.09429999999702 -9.08995756887835,38.8038505798196,0.98420000000624 -9.09001724755592,38.8039975978772,0.872199999997974 -9.09019008251828,38.8041945726166,0.778000000005704 -9.09031882906478,38.8044192078052,0.978600000002189 -9.09036207935247,38.8046513866763,1.357600000003 -9.09032268463399,38.8048642869979,1.4655000000057 -9.09016912841595,38.8051162468783,0.967300000003888 -9.09004155506921,38.8053447377745,0.308799999998882 -9.08994147556002,38.8056391097376,-0.282900000005611 -9.08986469745099,38.8058893937983,-0.514599999994971 -9.08978104633175,38.8061472212122,-0.576600000000326 -9.08968482149346,38.8063534156889,-0.564100000003236 -9.08959278819429,38.806518203674,-0.558799999998882 -9.0894496254841,38.8067128319607,-0.439700000002631 -9.08931635322518,38.8069483634677,-0.342900000003283 -9.08921057390554,38.8071659575654,-0.227400000003399 -9.08918291298128,38.8072628522786,-0.152700000006007 -9.08916229395056,38.8073074442289,-0.127999999996973 -9.08914234506305,38.8074296521126,0.0362000000022817 -9.08913245461178,38.8077013937628,0.507400000002235 -9.08915760025319,38.8079474859004,0.995599999994738 -9.0892166087876,38.8082019605157,1.36500000000524 -9.08924896251087,38.8085043798619,1.43739999999525 -9.08925047168055,38.8085214789467,1.4320000000007 -9.0892327021059,38.8085855163022,1.40129999999772 -9.08924242457222,38.8085965806097,1.40159999999742 -9.08919431260224,38.8087228120137,1.34249999999884 -9.08903958318446,38.8089724251384,1.11520000000019 -9.08889876687378,38.8092284087937,0.628899999996065 -9.0888359027702,38.8095269716959,-0.144599999999627 -9.08884294286705,38.8098096098663,-0.593399999997928 -9.08884897864745,38.8101509209244,-0.42269999999553 -9.08874487468582,38.8104015398293,-0.13640000000305 -9.08860087384747,38.8106434416194,0.27730000000156 -9.08850029128173,38.8108846727033,0.793499999999767 -9.08848335983524,38.8111121574244,1.30389999999898 -9.08847028395799,38.8113827251621,1.90499999999884 -9.08838897923822,38.8116375353946,2.35439999999653 -9.08826073664658,38.8118859749487,2.56110000000626 -9.0881241109767,38.8120744001135,2.46240000000398 -9.08804649473953,38.8123025551067,2.45219999999972 -9.08802956329306,38.8125481448719,2.61119999999937 -9.08805403879128,38.8126909724813,2.79720000000088 -9.08812109353569,38.8128668248503,3.074099999998 -9.08811489156696,38.8131112416329,3.27049999999872 -9.08807834630458,38.81320830395,3.34159999999974 -9.0880758319201,38.8132468606147,3.4094000000041 -9.08805890047361,38.8132894406323,3.46490000000631 -9.08791355755222,38.8134887625417,3.72870000000694 -9.08780073723736,38.8136047679974,3.9713999999949 -9.08770602156876,38.8137365313806,4.29760000000533 -9.08761499438271,38.8139487612944,4.65989999999874 -9.08761331812639,38.8142510127536,4.23919999999634 -9.08759772786463,38.8144944231598,3.41770000000542 -9.08753871933023,38.8147462152916,2.78220000000147 -9.0874346162669,38.8149542544304,2.38259999999718 -9.08743143084092,38.8149579424367,2.37519999999495 -9.08727133668424,38.8151798951065,1.99950000000536 -9.0871290121022,38.8153607767011,1.7158000000054 -9.0869746168577,38.8155693180003,1.49460000000545 -9.08684067445555,38.8158127288006,1.52300000000105 -9.08673439207936,38.81603401107,1.79240000000573 -9.08665694292881,38.816328383659,2.40959999999905 -9.0866334735437,38.8166120272361,2.87679999999818 -9.08664420212314,38.8168856124579,3.00759999999718 -9.08662592949195,38.8171063916486,2.91400000000431 -9.0865570305063,38.8173181187767,2.72289999999339 -9.08644538339121,38.8175303485169,2.58990000000631 -9.08633775983029,38.8178175120847,2.58490000000165 -9.08631613468642,38.8178751795509,2.58389999999781 -9.08629987428146,38.8181194286655,2.5564000000013 -9.08618722105329,38.8184146388264,2.21980000000622 -9.08604389035811,38.8186530201627,1.94689999999537 -9.08591296539704,38.8188994482149,1.99319999999716 -9.08582411662555,38.819166327979,2.2899999999936 -9.08578757226146,38.8194536599249,2.78690000000643 -9.08573744806525,38.8196767863108,3.17570000000705 -9.08561088172993,38.8199424922369,3.2667999999976 -9.08544357859308,38.8201604217848,2.7609999999986 -9.08529253675954,38.8203592408404,2.14539999999397 -9.08521022682499,38.8205654354726,1.92530000000261 -9.08515926450062,38.8208412003507,1.73119999999471 -9.08508885634529,38.8211025479549,1.36990000000515 -9.08496111591186,38.8213581961664,1.02379999999539 -9.08481460068903,38.8215928890851,0.674599999998463 -9.08463455764484,38.8218126626568,0.10120000000461 -9.08446306386722,38.8220015906656,-0.222200000003795 -9.0843157096179,38.8222310870085,0.0105000000039581 -9.08422937612922,38.8224335942005,-0.180600000006962 -9.08417858178977,38.8226627553137,-0.457599999994272 -9.08411806408571,38.822917733051,-0.274799999999232 -9.08400189125821,38.8231596343243,0.0144000000000233 -9.08387934757873,38.8233520832629,0.0206000000034692 -9.08371724209414,38.82351905048,-0.0231000000057975 -9.08353468376717,38.8236734450472,0.0292000000044936 -9.08333854740468,38.8238234812696,0.10580000000482 -9.08319270232502,38.8239974893264,0.251499999998487 -9.08313805241639,38.8241131599311,0.284299999999348 -9.08303679880915,38.8244330136005,0.264299999995274 -9.08299002802388,38.8246920140266,0.205100000006496 -9.08290687906288,38.8249469914955,0.107900000002701 -9.08279171234849,38.8252155478141,0.23399999999674 -9.08268475893077,38.825389555968,0.0589000000036322 -9.08253388508219,38.8255794899536,0.345300000000861 -9.08238552471975,38.8257553419914,0.559599999993225 -9.08225996449752,38.8259595257651,1.1533999999956 -9.08209936728429,38.8261479507872,2.13619999999355 -9.08195000170708,38.8263608512446,2.94419999999809 -9.08180013307328,38.8265715717946,3.21859999999288 -9.08167323076802,38.8267980511461,3.2222000000038 -9.08152990007286,38.8270265417759,3.00199999999313 -9.08139260515811,38.8271752363676,2.65549999999348 -9.08115556490744,38.8272500034412,2.03350000000501 -9.08089941389746,38.8273591359204,0.701400000005378 -9.0807381456427,38.8275445431114,-0.00350000000617001 -9.08066103246206,38.8277505706742,-0.105999999999767 -9.080637395092,38.8279696737103,0.00539999999455176 -9.08063085715336,38.8281787183419,0.122900000002119 -9.08056011392644,38.8283384773664,0.194900000002235 -9.08045634593469,38.8284492863253,0.262799999996787 -9.08029323433699,38.8285869167452,0.473599999997532 -9.08015727970864,38.8287490227118,0.865399999995134 -9.07996851941291,38.8289106258477,1.43110000000161 -9.0798310565132,38.8290636797923,1.94980000000214 -9.07964129010439,38.8291729795438,2.10300000000279 -9.07941430828996,38.82926870084,2.06190000000061 -9.07917810616748,38.8293842033257,1.96309999999357 -9.07901281525688,38.8295161348572,1.95600000000559 -9.07885959411042,38.829731717369,2.1304999999993 -9.07879454979566,38.8299833422582,2.58379999999306 -9.07875800543157,38.83020915015,3.19599999999627 -9.07866429497779,38.8304611106512,3.86650000000373 -9.07853202883199,38.8306441710649,3.95960000000196 -9.07851912093966,38.8306535587478,3.94990000000689 -9.07845843614894,38.8307060296793,3.8185999999987 -9.07827252530934,38.8309336820172,3.26369999999588 -9.07815467532719,38.8310498549956,2.84450000000652 -9.07792719045622,38.8311982150842,2.318299999999 -9.07772619241139,38.8313070119128,2.10910000000149 -9.07746098907829,38.8314573833389,1.96749999999884 -9.07722244055626,38.8316672665618,1.70919999999751 -9.07704927052233,38.8319033005621,1.41330000000016 -9.07693594715092,38.8321966670507,1.35450000000128 -9.0768973905606,38.832461702759,1.61930000000575 -9.07685866598533,38.8327089689291,2.02969999999914 -9.07674768901344,38.8329327661398,2.30419999999867 -9.07651098473272,38.8331689680858,2.22229999999399 -9.07627126211262,38.8334328301706,2.11109999999462 -9.07613430137115,38.8336799285234,2.44920000000275 -9.07603019830782,38.8339979380365,3.30250000000524 -9.07595375527042,38.8342631419762,4.10869999999704 -9.07584881407893,38.8344869384987,4.35649999999441 -9.07569659904558,38.8347462746147,4.42729999999574 -9.07552946389371,38.834985158972,4.2216000000044 -9.07531186947401,38.8352411421945,3.53369999999995 -9.07510433349055,38.8354594069749,2.75620000000345 -9.07492713990245,38.8356387794947,1.99439999999595 -9.07470284045748,38.8358265344374,1.34859999999753 -9.07446831459132,38.8360927433824,0.909400000004098 -9.07432716320903,38.8363168756222,0.606400000004214 -9.07423546498145,38.8365426837142,0.613899999996647 -9.07419271775034,38.8365872755251,0.57829999999376 -9.07416639890914,38.8367810652338,0.87050000000454 -9.07413555345724,38.8370139146098,1.30229999999574 -9.07414359966725,38.8371889288189,1.60890000000654 -9.074184838627,38.8374687163909,2.27899999999499 -9.07426832265962,38.8377471635984,3.43080000000191 -9.07431023176257,38.8379667697496,4.30310000000463 -9.0742686577312,38.8382524248747,4.69419999999809 -9.07419707637612,38.8384976788449,4.06470000000263 -9.07410202563591,38.8387249962903,3.16419999999925 -9.07391795903755,38.8389417523103,2.22030000000086 -9.07378183642424,38.8391776194465,1.48690000000352 -9.07366482546858,38.8393685592032,0.948699999993551 -9.07360464373443,38.8395997320236,0.593399999997928 -9.07353155320966,38.8398366045465,0.255900000003749 -9.07346148012591,38.8400986226992,0.255000000004657 -9.07343197585874,38.8403643286766,0.555300000007264 -9.07338688132978,38.8406447873631,0.934399999998277 -9.07337330239595,38.8407780596202,1.10779999999795 -9.07334245784235,38.8410472866882,1.46210000000428 -9.0732816050667,38.841312825397,1.92680000000109 -9.07316040257192,38.8415468480066,2.61609999999928 -9.07311212261698,38.8417577363047,3.30520000000251 -9.07313073031979,38.8419186689995,3.8576999999932 -9.07323148087046,38.842128049091,4.65720000000147 -9.07327054051735,38.842347822239,5.69640000000072 -9.07324640098902,38.8425590468049,5.82600000000093 -9.07312318716633,38.8428232442014,4.75750000000698 -9.07296795379367,38.8430884474388,3.82200000000012 -9.07294247308064,38.8431229809289,3.71540000000095 -9.07286770629952,38.8432130028727,3.44839999999385 -9.0727176705791,38.8434316028308,2.8975000000064 -9.07255388793986,38.8436503700362,2.39720000000671 -9.07236495965921,38.8438647790863,1.84649999999965 -9.07217971986111,38.8440578982948,1.7551999999996 -9.07221307969748,38.8441060102721,1.78810000000522 -9.07221458886717,38.844106848462,1.78859999999986 -9.07224375716443,38.844113553981,1.79399999999441 -9.07220855398507,38.844200055398,1.84649999999965 -9.07199431207804,38.8444369279994,2.18839999999909 -9.07184260010127,38.8446075833067,2.5914000000048 -9.07171754203731,38.8447535964895,2.88400000000547 -9.07162617888132,38.8448469704943,3.0286999999953 -9.07142283353868,38.8450581946375,3.22939999999653 -9.07122334466352,38.8452664012789,3.36139999999432 -9.07108554579389,38.8454417506111,3.61040000000503 -9.07095814133041,38.8456261521891,3.94439999999304 -9.07077826537285,38.8458300005057,4.0515000000014 -9.07077474487526,38.8458517936117,4.07670000000508 -9.07071691043896,38.8459285714215,4.09600000000501 -9.07058766083588,38.8461149852957,3.98070000000007 -9.07055782149709,38.8461486805502,3.94389999999839 -9.07040627660698,38.8463480021265,3.80220000000554 -9.07027317233302,38.8464931763741,3.77479999999923 -9.0701197832016,38.8467159675446,3.93349999999919 -9.06996874136807,38.846929706206,4.18009999999776 -9.06978920138041,38.8471711047053,4.40059999999357 -9.06965106743917,38.8473794793701,4.44670000000042 -9.06947202960979,38.8476413298224,4.24400000000605 -9.06929483602169,38.8478958046124,4.43330000000424 -9.06919190615813,38.8480974727113,4.88749999999709 -9.06915318248115,38.8483194256147,5.18979999999283 -9.06903851792504,38.8484595712055,4.59679999999935 -9.06885813891093,38.8486335792047,2.59759999999369 -9.06859662406038,38.8488820191016,2.35050000000047 -9.06846033436041,38.8490231703219,2.95179999999527 -9.06841758623097,38.8490592120868,2.57540000000154 -9.06839461990245,38.8490734617211,2.42819999999483 -9.0681637825188,38.8492957494894,2.26940000000468 -9.06794702622727,38.8495086499693,1.31320000000414 -9.06777000062412,38.8497341230665,1.36930000000575 -9.06761007355409,38.8499413239902,1.2329999999929 -9.06743539524879,38.8501696472777,1.01149999999325 -9.06726356639956,38.8503837204634,0.648600000000442 -9.06731452782563,38.8504911769214,0.693100000004051 -9.06743589830534,38.8506184142301,0.902000000001863 -9.06727731242004,38.8507956077873,0.819300000002841 -9.06704949247745,38.8508398639572,0.741500000003725 -9.06584300115198,38.8523162524744,2.43809999999939 -9.06587133221941,38.852514903367,2.66039999999339 -9.06562305943443,38.8528035761055,2.55250000000524 -9.06551660997158,38.8528210108406,2.33440000000701 -9.06480297483514,38.8536595359605,3.53740000000107 -9.06468227539694,38.8537924732331,3.50999999999476 -9.06457632809233,38.853865060493,3.46749999999884 -9.0642848050197,38.8540591851055,3.35940000000119 -9.06412772830407,38.8543064517833,3.54270000000542 -9.0640504471385,38.854556902675,3.82129999999597 -9.06381608925727,38.8547731557548,3.95590000000084 -9.06362816708973,38.8549987968459,4.23129999999946 -9.06338676821332,38.8552531033072,4.1024999999936 -9.06291285569698,38.8555489849382,3.78190000000177 -9.0626793350456,38.8558021183978,4.4210000000021 -9.06241228836952,38.8560973289848,4.49000000000524 -9.06228287167978,38.8562240630904,4.26510000000417 -9.06210282773729,38.8564218762164,3.86109999999462 -9.06188255184646,38.856643326063,3.38330000000133 -9.06168306207303,38.8568419774617,3.0911000000051 -9.06147971762866,38.8571112039004,3.01300000000629 -9.06119439742309,38.8572711309191,2.86669999999867 -9.06120160550493,38.8574040677369,3.19379999999364 -9.0610872769187,38.8574863782217,3.22960000000603 -9.06081017090806,38.8577187240349,3.66959999999381 -9.06066885243914,38.8579032938515,4.48780000000261 -9.0606328102333,38.8580070615675,5.16509999999835 -9.06025612687174,38.8579512383731,3.75759999999718 -9.06025545672853,38.8579514055587,3.75669999999809 -9.06017616423503,38.8579507354171,3.55539999999746 -9.06012218446962,38.8580192989863,3.68379999999888 -9.05998740304104,38.8581946483613,3.92489999999816 -9.05991163104514,38.8581917985203,3.73729999999341 -9.05952455507405,38.8584714188606,3.26750000000175 -9.05925918375596,38.8586293345133,3.06399999999849 -9.05899113006843,38.8587548952195,3.210699999996 -9.05891736940046,38.85873746054,3.10830000000715 -9.05883606557903,38.8586749316747,2.63820000000123 -9.05838260410844,38.858986738836,3.52049999999872 -9.05802151190696,38.8592579766366,3.02430000000459 -9.05800960922943,38.859328552829,3.09399999999732 -9.05803509084079,38.8593952725675,3.1594000000041 -9.05784616256014,38.8595191573037,2.6875 -9.0577366947579,38.8595169776427,2.31729999999516 -9.05758263548332,38.8595655926018,2.17560000000231 -9.05734173966348,38.8597307163125,2.08190000000468 -9.05685223598705,38.859982843694,2.37780000000203 -9.05670722903558,38.8600505694005,2.44490000000224 -9.05627354936588,38.8602136816241,2.35580000000482 -9.05585965149702,38.860412164963,2.37010000000009 -9.0555418095832,38.8606265738565,2.47620000000461 -9.05533913528206,38.8607129076005,2.29110000000219 -9.05501022971719,38.8608299189198,1.91650000000664 -9.0550873428978,38.8609273169862,2.17690000000584 -9.05518759039192,38.8610136503651,2.38520000000426 -9.05525447804967,38.8610413103479,2.46129999999539 -9.05536344279532,38.8610428191503,2.5451999999932 -9.05543033045307,38.8610392993109,2.58950000000186 -9.05552806356272,38.861076850084,2.62930000000051 -9.0555768456759,38.861135523346,2.61819999999716 -9.05562546070245,38.8612233652706,2.57080000000133 -9.05569855122722,38.8612558873202,2.57970000000205 -9.05577147376703,38.8612590727931,2.5795000000071 -9.05588446206686,38.8612416380281,2.57420000000275 -9.05596023406276,38.8612713103517,2.57919999999285 -9.05599845558146,38.8613304863852,2.59170000000449 -9.05604707060802,38.8613683727588,2.60199999999895 -9.05610876151182,38.8613940208772,2.61169999999402 -9.05615955585127,38.8614127965223,2.61999999999534 -9.056203980237,38.8614439775684,2.63199999999779 -9.05624907476595,38.8615385250868,2.78070000000298 -9.0561246868452,38.8616935905231,3.2835999999952 -9.05514434010426,38.8625654760767,5.18949999999313 -9.05455995367261,38.8631875804301,5.03789999999572 -9.05380038587905,38.8639270324969,5.18979999999283 -9.05323108665258,38.8645063895241,5.89999999999418 -9.05317962127164,38.8645236563183,5.89070000000356 -9.0531320123582,38.8644783937507,5.79979999999341 -9.05294157580618,38.864192403267,5.20909999999276 -9.05261719595372,38.8637302250943,3.92949999999837 -9.05217932564319,38.8630120636029,2.98990000000049 -9.05196776610559,38.8626829900678,2.99020000000019 -9.05198536769526,38.8625701695615,2.97590000000491 -9.05172854654207,38.8621416867086,1.92909999999392 -9.05172821147045,38.862157444599,1.94319999999425 -9.05131598895962,38.8622922259012,0.960900000005495 -9.05130425426707,38.8623854327915,1.07259999999951 -9.05115086603398,38.8625684936167,1.03900000000431 -9.0480731983447,38.8636769160738,3.57339999999385 -9.04405994337187,38.8655187554454,0.391300000002957 -9.04403865329966,38.8656215181355,0.255399999994552 -9.04379121954114,38.8657484199206,0.252200000002631 -9.04434777796194,38.8666040442163,0.268200000005891 -9.04483996310948,38.8673859083916,1.17280000000028 -9.0449294820242,38.867750353877,1.37660000000324 -9.04487667635686,38.8680658484612,1.2725999999966 -9.04457442470476,38.8685431142578,0.78179999999702 -9.04263602561166,38.8709545873386,1.76440000000002 -9.04279863505111,38.8710853451451,1.45190000000002 -9.04128989207355,38.8728846048985,4.16740000000573 -9.03872972315821,38.8760226217733,1.59799999999814 -9.0386038269661,38.876688312058,1.10540000000037 -9.03884505875585,38.8772495642892,0.12039999999979 -9.04048942039189,38.878457061319,2.47349999999278 -9.04236897803725,38.8798365547752,2.74709999999322 -9.04218608553699,38.879972006759,2.85039999999572 -9.04226537803049,38.8801272396807,2.97509999999602 -9.04269805158708,38.8804605037899,3.77349999999569 -9.04286904230815,38.880748002942,4.93409999999858 -9.04293995352004,38.8809344164559,5.51039999999921 -9.04286200221127,38.8811414495467,5.3914999999979 -9.04247710465475,38.8814286137807,4.42789999999513 -9.04179934373916,38.8821442606025,3.89699999999721 -9.04130296795083,38.882809448802,5.70249999999942 -9.040849004322,38.8832615683617,5.56479999999283 -9.04026143246434,38.8836687612545,4.42260000000533 -9.0398963167087,38.8841014351041,4.0454000000027 -9.03877096211797,38.8851724746505,3.01459999999497 -9.03851699042084,38.8853915777605,3.85559999999532 -9.03839997946518,38.885644543435,5.17630000000645 -9.0369829347152,38.8869594963381,7.0286999999953 -9.03627198194822,38.887613452481,5.06960000000254 -9.03436107579435,38.8893984626645,5.67179999999644 -9.0333642997652,38.8902785624509,6.44160000000556 -9.03310446027264,38.8903714340842,6.21469999999681 -9.03354400773781,38.8907144214508,6.54949999999371 -9.0336489489293,38.8907774535249,6.70840000000317 -9.03366101869344,38.8908654629849,6.71090000000549 -9.03433894759398,38.8914364387682,7.10030000000552 -9.03479006176672,38.8918845348376,6.99689999999828 -9.03506699979241,38.8921914803316,7.23519999999553 -9.03521703551283,38.8924925583656,7.56930000000284 -9.03527637911881,38.8928229726538,8.12600000000384 -9.0352792294732,38.8928229726538,8.11840000000666 -9.03505224765881,38.892969823732,9.19419999999809</coordinates>
</LineString>
</Placemark>
</Folder>
</Document></kml>
