<?xml version="1.0" encoding="UTF-8"?>

<kml xmlns:xsd="http://www.w3.org/2001/XMLSchema" xmlns:gx="http://www.google.com/kml/ext/2.2" xmlns:atom="http://www.w3.org/2005/Atom" xmlns="http://www.opengis.net/kml/2.2">
<Document>
<name>PT01a_09a_condeixa_a_velha-coimbra</name>
<visibility>1</visibility>
<Schema name="PT01a_09a_condeixa_a_velha-coimbra" id="kml_schema_ft_PT01a_09a_condeixa_a_velha-coimbra">
<SimpleField type="xsd:string" name="id">
<displayName>id</displayName>
</SimpleField>
<SimpleField type="xsd:string" name="nombre">
<displayName>nombre</displayName>
</SimpleField>
<SimpleField type="xsd:double" name="longitud">
<displayName>longitud</displayName>
</SimpleField>
<SimpleField type="xsd:string" name="_formato">
<displayName>_formato</displayName>
</SimpleField>
</Schema>
<Folder id="kml_ft_PT01a_09a_condeixa_a_velha-coimbra">
<name>PT01a_09a_condeixa_a_velha-coimbra</name>
<Placemark id="kml_1">
<name>&lt;img height='20' src='https://nco.ign.es/iconos/icono_todos_caminos_azul.png' /&gt;&lt;img height='20' src='https://nco.ign.es/iconos/Camino Santiago_20.png' /&gt;&lt;img height='20' src='https://nco.ign.es/iconos/icono_todos_caminos_azul.png' /&gt;  Camino de Santiago </name>
<visibility>1</visibility>
<description><![CDATA[<!DOCTYPE html>
<html>
<head>
<style>
#nco {
  border-collapse: collapse;
  overflow:hidden;
}
#nco th, #nco td {
  padding: 4px;
  text-align: left;
}
#nco th {
  color: #364B5F;
  padding-right: 5px;
}
#nco td {
  color: rgb(51, 51, 51);
  font-size: 12px;
  padding-right: 5px;
}
</style>
</head>
<body>
<table id="nco">
<tr>
<td>Caminos Portugueses</td>
</tr>
<tr>
<th><b>Camino: </b></th>
<td>PT01a Camihno Central Regiâo Centro e Norte</td>
</tr>
<tr>
<th><b>Etapa: </b></th>
<td>09a Condeixa a Velha - Coimbra</td>
</tr>
<tr>
<th><b>Longitud: </b></th>
<td>17.78 km</td>
</tr>
</table>
</body>
</html>]]></description>
<Style>
<IconStyle>
<scale>0.8</scale>
</IconStyle>
<LabelStyle>
<color>ffffffff</color>
<scale>0.75</scale>
</LabelStyle>
<LineStyle>
<color>ffff0000</color>
<width>3.0</width>
<gx:labelVisibility>1</gx:labelVisibility>
</LineStyle>
<PolyStyle>
<color>66ff0000</color>
</PolyStyle>
</Style>
<ExtendedData>
<SchemaData schemaUrl="#kml_schema_ft_PT01a_09a_condeixa_a_velha-coimbra">
<SimpleData name="id">PT01a_09a</SimpleData>
<SimpleData name="_formato">kml</SimpleData>
</SchemaData>
</ExtendedData>
<LineString>
<extrude>0</extrude>
<tessellate>1</tessellate>
<coordinates>-8.49094083492801,40.1008384483164,109.968800000002 -8.48920125546516,40.1019502238098,117.191300000006 -8.48906211541081,40.1022233064042,117.597299999994 -8.48864620531572,40.1022799682031,118.840700000001 -8.48778286953045,40.1028504403556,121.779699999999 -8.48756795748018,40.1029322478372,121.990399999995 -8.48762679802963,40.1032470717366,122.690300000002 -8.48619047543363,40.1037746289929,124.793600000005 -8.48572125661466,40.1042161877747,123.680800000002 -8.48519420246105,40.1044312669748,123.662899999996 -8.48418468652453,40.104657746439,122.014500000005 -8.48273260478352,40.1048743344699,120.457200000004 -8.48158009322344,40.1050109597008,117.087 -8.48105622449584,40.1051086926832,116.084099999993 -8.48119301725235,40.1055735528319,117.636899999998 -8.48137859212208,40.1064814805735,120.357799999998 -8.48063444750365,40.1065138349335,118.719400000002 -8.48006598640534,40.1067533900109,118.421700000006 -8.4797478094199,40.1069698105952,118.084900000002 -8.4787399697397,40.1082609591988,111.619699999996 -8.47852002802218,40.1087610229767,109.127200000003 -8.47828332374143,40.1090056069013,108.202900000004 -8.47805902339814,40.1097328210005,108.042300000001 -8.47771452757154,40.1106166085905,108.129000000001 -8.47742836923778,40.1115005646971,105.8894 -8.47709275774931,40.1124659920527,109.021099999998 -8.47687097268881,40.1129447660861,108.838900000002 -8.47646009136268,40.1132699840876,108.734299999996 -8.47624300089786,40.1138535325085,107.468099999998 -8.47606379508352,40.1141923287878,106.107000000004 -8.475941419389,40.1142139540834,105.837899999999 -8.4758049626024,40.1142751421323,105.499100000001 -8.4751335716405,40.1149324509289,103.646599999993 -8.47498487710478,40.1152340318951,103.225900000005 -8.4748221005787,40.1157213558533,102.819199999998 -8.47457550494837,40.1161416239089,102.132800000007 -8.47421625608981,40.1165823446811,102.609500000006 -8.47380436954888,40.1173559942639,106.079800000007 -8.47380436954888,40.1174500390584,106.397299999997 -8.47458288101514,40.1187547662087,111.544299999994 -8.47533524072685,40.1196881752797,109.881200000003 -8.4759722648409,40.120415221574,109.102100000004 -8.47619488802958,40.1207266927035,108.502800000002 -8.4766745012547,40.121653564059,106.245599999995 -8.47699284532676,40.1220726586018,106.045700000002 -8.47749760329504,40.1225236054752,104.738299999997 -8.47762701998475,40.1227876351123,102.204199999993 -8.47769692508355,40.1234432680079,97.4303999999975 -8.47797889277648,40.1244102038997,94.1229000000021 -8.47778711503973,40.1256973294222,90.6949000000022 -8.47766809185784,40.1258626202652,89.954700000002 -8.47743272786353,40.1260346166927,88.9260999999969 -8.47730079678931,40.1261021751917,88.368100000007 -8.47733482676892,40.1263573199493,85.8818000000028 -8.47749073028478,40.1267822829621,81.2955999999976 -8.47715880727889,40.1269142140836,78.1641999999993 -8.4770632534821,40.1268905768667,78.2963000000018 -8.47650283949212,40.1270555323646,73.8043999999936 -8.47596053014835,40.1270771576906,72.6560000000027 -8.47547823545209,40.127048324379,72.9670999999944 -8.47508411848582,40.1273966758185,68.936400000006 -8.47480667740356,40.1275633080926,69.4233999999997 -8.47456997222451,40.1276602029796,70.569399999993 -8.47277993349384,40.1281259014979,78.2575999999972 -8.4725551309923,40.1282427452975,79.5466000000015 -8.47207400949579,40.128348692642,81.6796999999933 -8.47162373345121,40.1286075256028,83.5850999999966 -8.4710960091544,40.1286985532968,86.1655000000028 -8.47091646826845,40.1288329993755,87.5066999999981 -8.47094848781846,40.1295092513637,91.0829999999987 -8.47101839291722,40.129675045321,92.3154000000068 -8.47141804170902,40.1301420844758,93.3574999999983 -8.47180327433716,40.1304614350329,94.4134999999951 -8.47183495791722,40.1306077831608,95.2651000000042 -8.47175113881302,40.1307112157672,96.3503999999957 -8.4717023558015,40.1309945244485,98.1248000000051 -8.47183277860436,40.1311933428538,99.0225000000064 -8.47203293852102,40.1314583786682,100.6921 -8.47206562731587,40.13161897619,101.858200000002 -8.47212262452234,40.1321879398942,103.592300000004 -8.47208222369075,40.1330705537826,103.644499999995 -8.47201215060702,40.1335184826941,104.360700000005 -8.47291890556324,40.1333500065287,102.681100000002 -8.47317103301909,40.1333540298245,102.111999999994 -8.47397653346974,40.1337982708167,101.953899999993 -8.47404811572315,40.1339746261842,102.1109 -8.47393998910565,40.1340788970526,102.367100000003 -8.47385700812961,40.1341400850814,102.506200000003 -8.47375860397843,40.1342512291363,102.703699999998 -8.47366623560764,40.1342683282583,102.802500000005 -8.47294656558914,40.1342869355762,103.580400000006 -8.47214810523537,40.1347392230791,103.954199999993 -8.47181802647076,40.1350272256399,103.917000000001 -8.47142692694551,40.1355472386376,103.902799999996 -8.47127454392724,40.1358075805092,103.918799999999 -8.47087036852471,40.1363572657624,104.4571 -8.47036762188436,40.1368045240141,105.034100000004 -8.46993846792707,40.137179195171,105.160300000003 -8.46984559649972,40.1375040781785,105.047399999996 -8.46968902284065,40.1378262785278,105.010299999994 -8.46957469335613,40.1380483985043,105.075899999996 -8.46957100577188,40.1380500748762,105.082699999999 -8.46951954039093,40.138154345672,105.057700000005 -8.46945600614415,40.1384664882033,104.918600000005 -8.46942348443594,40.1385972456508,104.995299999995 -8.46846057129974,40.1396780081262,102.599000000002 -8.46834490063048,40.1399197421362,101.638500000001 -8.46823375657196,40.1404461255898,100.679099999994 -8.46770837867468,40.1404444492771,103.389200000005 -8.46634296729059,40.1405389970953,112.5527 -8.46605211525947,40.1405103315633,114.808000000005 -8.46564844291351,40.1403415197514,117.7552 -8.46529120538288,40.1400297127203,119.672200000001 -8.46494318905865,40.1401081674742,121.241500000004 -8.4642149697736,40.140404216386,123.991899999994 -8.46357626850491,40.1404350616504,124.080499999996 -8.46214095112373,40.1404000252582,119.946200000006 -8.46030632002234,40.1404151127677,116.455799999996 -8.45947098023288,40.1402945808473,115.5478 -8.45919504742201,40.1403165418938,115.635299999994 -8.45722831815978,40.1407482100631,118.921600000001 -8.45725262567304,40.1408526484004,119.232699999993 -8.45673864739672,40.1408291787856,120.1014 -8.45587363445683,40.1407197114945,122.662800000006 -8.45535932110889,40.140765979171,125.307100000005 -8.4549167562027,40.1408430925818,126.664099999995 -8.45507835952904,40.1413847312903,126.575700000001 -8.45484182233495,40.1414792791735,126.682000000001 -8.45472263206644,40.1416036669867,126.707699999999 -8.45395300493834,40.1418692053947,129.4283 -8.45318002619591,40.1418180758189,133.681800000006 -8.45299998315172,40.1417999711809,134.612299999993 -8.45278993278378,40.1422080021558,136.235199999996 -8.45233999181078,40.1428720164652,140.511599999998 -8.45198996326033,40.1431390640998,143.922000000006 -8.45158997939692,40.143589004598,146.731199999995 -8.45151001586192,40.1440089376304,148.191099999996 -8.45152996474943,40.1443710362412,148.963600000003 -8.45164999404444,40.1447299487469,149.797999999995 -8.45151001586192,40.1454320169698,150.962499999994 -8.45129996549398,40.1459200116441,153.607799999998 -8.45128001660647,40.1465109355076,154.231700000004 -8.45116300475252,40.147015023367,157.654200000004 -8.45088992229601,40.1472889440037,161.872099999993 -8.45002004857212,40.1477809615129,169.085000000006 -8.44965593892956,40.1478919383709,169.239799999996 -8.44949500664475,40.148101988387,169.446100000001 -8.44921102762385,40.1484790067026,169.610400000005 -8.44899008069152,40.1488610539875,170.612899999993 -8.44887005139651,40.1493109943524,173.179999999993 -8.4486700594648,40.1497379685051,172.720499999996 -8.44835003823813,40.150710939979,170.388699999996 -8.4482700747031,40.1511189709885,171.412700000001 -8.44824492906168,40.151421054694,172.086200000005 -8.44790998861471,40.1517300114744,175.342900000003 -8.44752006228923,40.1521299961141,179.678 -8.44764998203551,40.1523019926642,178.2601 -8.44755006961297,40.1530910653697,171.7598 -8.44746993899132,40.1532779814139,172.207899999994 -8.44746993899132,40.1538809754802,173.616699999999 -8.447510003853,40.1541210330978,173.923599999995 -8.44772994557054,40.1547320740374,174.774000000005 -8.44764998203551,40.1555479685695,175.268500000006 -8.44749005496549,40.1564409764663,170.562399999995 -8.44813093554707,40.1570484971139,162.148400000005 -8.44818005363016,40.1578409220468,157.268599999996 -8.44837635797762,40.1586284858966,153.384399999995 -8.44816831893761,40.1591330763087,154.078899999993 -8.44758594383386,40.1604515495037,138.414300000004 -8.44720004106252,40.1609610013788,127.083199999994 -8.44649596130577,40.1620560136319,125.082800000004 -8.4473889693432,40.162478126119,125.171199999997 -8.44848230438393,40.1630058505666,128.691900000005 -8.44889486196635,40.1632640132918,129.354600000006 -8.44916040037107,40.1633961117967,130.238100000002 -8.44985073410736,40.1634851281251,130.663799999995 -8.45040410800049,40.1634507619749,131.707500000004 -8.45102420066807,40.1635830283084,133.011899999998 -8.45124146001615,40.1637399375521,134.976599999995 -8.45136702023835,40.1639352359018,136.726699999999 -8.45130247987846,40.1642016130864,138.639800000004 -8.45126174397528,40.1643394117564,139.372900000002 -8.45135511845918,40.1644426763088,139.251900000003 -8.45122000195895,40.1645390682693,140.005799999999 -8.45128001660647,40.1646609411275,139.890199999994 -8.45123324582119,40.1653628417688,141.172600000005 -8.45117239304555,40.1655006401411,141.550700000007 -8.45085438314674,40.1657894809105,141.664900000003 -8.45082001719724,40.1659700272196,142.798200000005 -8.45081029473092,40.1664841729455,144.696800000005 -8.45105437597677,40.1670859932718,151.069799999997 -8.45109997356228,40.1673999798606,155.316099999996 -8.45103006846348,40.1675909196589,157.348800000007 -8.4506099668293,40.1683080751942,165.050000000003 -8.45056001061805,40.1685100786706,166.933900000004 -8.4506099668293,40.1686099911349,167.884399999995 -8.45004016544459,40.1691834810301,171.744600000005 -8.4500299390234,40.1694490193853,174.917700000005 -8.45011007054335,40.1697690404809,176.895399999994 -8.45012214030752,40.1701418679661,177.677800000005 -8.4499600339246,40.1705279380293,178.512400000007 -8.44980597465002,40.1712846566318,176.776800000007 -8.4495288695377,40.1718752451588,179.625799999994 -8.44944605564828,40.1719350922121,180.949399999998 -8.44936994858076,40.1720700409871,182.346999999994 -8.44927640611194,40.1728829177216,185.585800000001 -8.44910759470372,40.1733455991093,188.868100000007 -8.44949819117243,40.1737053503305,188.326300000001 -8.44986649235408,40.1739336732891,184.604200000002 -8.44998115691019,40.1740419675427,182.808099999995 -8.45000546442348,40.1742573824908,181.596300000005 -8.44969684281773,40.1746471404331,184.396399999998 -8.44971545052051,40.175398159407,179.157999999996 -8.44985928427223,40.175685155636,176.936799999996 -8.4499021994883,40.1762638419677,176.393800000005 -8.44999909357146,40.176261327795,175.755699999994 -8.45056001061805,40.1758120574516,169.6149 -8.45088003184473,40.1760219407982,169.151400000002 -8.45027117081315,40.1768053128194,176.312999999995 -8.4503429192549,40.1769265157268,176.885899999994 -8.45064181839432,40.1770031261591,177.714399999997 -8.45081364724356,40.1771105822718,178.214900000006 -8.45114339183488,40.1774596042955,179.333899999998 -8.45122452856969,40.1775434236187,179.306200000006 -8.45126207904686,40.1776356246172,179.168699999995 -8.45133433144347,40.1776151725805,179.043799999999 -8.45162417736149,40.1776228837911,178.521299999993 -8.451789804242,40.1777343630214,178.605599999995 -8.45204126065632,40.178031082527,180.148300000001 -8.45209456938024,40.1781475913513,181.405499999993 -8.45207143596505,40.1785985373885,188.898400000005 -8.4520389142568,40.1791455407333,198.177100000001 -8.45201058318937,40.1795054595582,200.544200000004 -8.45185836815606,40.179748199364,202.117700000003 -8.4518809985147,40.179958585285,202.2736 -8.45193782863451,40.1800457569961,201.977199999994 -8.45210010210406,40.1801605890877,200.956399999995 -8.45219649402901,40.1803136426482,199.735100000005 -8.45203002902034,40.1805377746246,200.1486 -8.45185132716084,40.1808071689328,200.369900000005 -8.45184428616566,40.181176978425,199.262700000007 -8.45175577336409,40.1813355641652,198.960900000005 -8.45168503013713,40.1814624663945,198.335300000006 -8.4514069189117,40.1815638875304,197.082399999999 -8.45153516150334,40.1818160149196,195.461299999995 -8.45154957856536,40.1819833173872,193.927100000001 -8.45123089852335,40.1823536303956,186.5478 -8.45112947782948,40.182512718507,183.263200000001 -8.45091322459448,40.1827467410988,178.988100000002 -8.45040310188737,40.1828600649289,173.483600000007 -8.45023881619156,40.182752943916,172.494200000001 -8.45021031803751,40.1825155687381,173.882400000002 -8.44984520228183,40.1825073543345,169.673299999995 -8.44872353617368,40.1827153927739,158.134399999995 -8.44876326596375,40.1832964266841,154.745899999994 -8.44883082466302,40.184101089241,139.201799999995 -8.44888061288932,40.1847253732803,130.3802 -8.44893425668482,40.18524756629,126.211800000005 -8.44914849859189,40.1861881832588,119.890199999994 -8.4488596578887,40.1866138164994,119.402300000002 -8.44863954908452,40.1870583926681,119.791100000002 -8.44919594041867,40.1879690022109,112.726699999999 -8.44938855628357,40.1884345329642,111.119200000001 -8.44941001344244,40.1888288182755,109.622000000003 -8.44930238988151,40.1895994500208,105.828099999999 -8.44936994858076,40.1891290577064,107.919500000004 -8.44915419840237,40.1907268161457,100.452699999994 -8.44899695370178,40.1912879010227,97.6089000000065 -8.44868883515258,40.1922942319656,90.488400000002 -8.44848800419438,40.1926355432294,89.1079999999929 -8.44837434575139,40.1926965632214,89.4873999999982 -8.44848733405118,40.1930333483429,88.1095000000059 -8.44882629805228,40.1935426325112,85.1114999999991 -8.44926333023466,40.1942522443094,79.9036999999953 -8.44928059765103,40.194466486215,78.2097999999969 -8.44948595432163,40.1949388904469,76.2200000000012 -8.44941638429446,40.1951702304403,76.954700000002 -8.44927992660953,40.1952899238849,78.1052000000054 -8.44764998203551,40.1954119645266,87.8632000000071 -8.44731504069024,40.1955762499757,92.6567000000068 -8.44634257217438,40.1964389153104,100.116899999994 -8.44576405353814,40.19697518941,91.1877999999997 -8.44508813686386,40.1975894153322,89.325800000006 -8.44421759209844,40.1980586346601,99.7170000000042 -8.44298545297328,40.1987030348812,108.251900000003 -8.44250651078965,40.1989269997457,108.160799999998 -8.44162825488582,40.1989709209574,109.277100000007 -8.44142004875915,40.1990089749606,109.495599999995 -8.44126246898698,40.1990414966012,109.521200000003 -8.44103330785965,40.1992344476306,108.972599999994 -8.44081001362951,40.1995009922723,107.939599999998 -8.44070004277073,40.1994709848508,107.960900000005 -8.44044003619154,40.1996800299652,106.957999999999 -8.44001004500435,40.1996689653854,106.198099999994 -8.43981994352396,40.1997410497936,105.701400000005 -8.43983000106186,40.2000079300194,105.820900000006 -8.43972992155269,40.2000689502387,105.616299999994 -8.43972003110142,40.2001499195815,105.714699999997 -8.43952992962098,40.2001499195815,105.205799999996 -8.43811992586618,40.2001609833967,97.9900000000052 -8.43762740474873,40.2004994446999,93.9278000000049 -8.43734996366651,40.2009089843708,87.1750999999931 -8.43682693306704,40.201717502513,71.5323999999964 -8.43667857360294,40.2023922459709,62.6447000000044 -8.43684000894432,40.2030017779285,61.2244000000064 -8.43680178742562,40.203094649634,60.3809999999939 -8.43680161944066,40.2030899553491,60.3947000000044 -8.43673456469629,40.2030882792108,59.3451999999961 -8.43598002567168,40.202369950285,50.6426000000065 -8.43564994600874,40.2029300290596,41.0252000000037 -8.43535004165452,40.2030410056428,34.9260999999969 -8.43426777026482,40.2032307714057,24.8031999999948 -8.43338415052045,40.2035519662461,22.1570999999967 -8.43251997570869,40.2039599972911,22.2912000000069 -8.43184003637857,40.2045100179742,23.2293000000063 -8.42974003395909,40.2067109376698,19.7842999999993 -8.42955999091493,40.2068100117716,22.7828000000009 -8.42931993322321,40.206748991445,23.6858999999968 -8.42916000615319,40.2069020453832,26.6426999999967 -8.42925991857573,40.2070309586402,26.8102000000072 -8.42923007923694,40.207249056283,29.0789999999979 -8.42934004919738,40.207721962833,31.3632000000071 -8.42946007849239,40.2077410734808,30.3450000000012 -8.42954004202739,40.2080119767611,30.567200000005 -8.42936201031112,40.2081789443097,32.4364999999962 -8.42935698064384,40.2084049202255,33.1346000000049 -8.42957004935116,40.2093510699496,34.0647999999928 -8.4296600704241,40.2095109961834,32.6779999999999 -8.42980004860661,40.2097019361569,29.8475999999937 -8.4297599828466,40.2099419939165,29.8255999999965 -8.42983005593035,40.2100600113868,28.6447000000044 -8.42985000481787,40.2102579918692,28.0956000000006 -8.43006994563708,40.2105290620838,26.5590999999986 -8.42925002812445,40.2107699579751,30.4499999999971 -8.42903042237682,40.210819914666,31.8576999999932 -8.42905540003331,40.211099199749,31.2504000000044</coordinates>
</LineString>
</Placemark>
</Folder>
</Document></kml>
