<?xml version="1.0" encoding="UTF-8"?>

<kml xmlns:xsd="http://www.w3.org/2001/XMLSchema" xmlns:gx="http://www.google.com/kml/ext/2.2" xmlns:atom="http://www.w3.org/2005/Atom" xmlns="http://www.opengis.net/kml/2.2">
<Document>
<name>PT01a_19a_rubiaes-tui</name>
<visibility>1</visibility>
<Schema name="PT01a_19a_rubiaes-tui" id="kml_schema_ft_PT01a_19a_rubiaes-tui">
<SimpleField type="xsd:string" name="id">
<displayName>id</displayName>
</SimpleField>
<SimpleField type="xsd:string" name="nombre">
<displayName>nombre</displayName>
</SimpleField>
<SimpleField type="xsd:double" name="longitud">
<displayName>longitud</displayName>
</SimpleField>
<SimpleField type="xsd:string" name="_formato">
<displayName>_formato</displayName>
</SimpleField>
</Schema>
<Folder id="kml_ft_PT01a_19a_rubiaes-tui">
<name>PT01a_19a_rubiaes-tui</name>
<Placemark id="kml_1">
<name>&lt;img height='20' src='https://nco.ign.es/iconos/icono_todos_caminos_azul.png' /&gt;&lt;img height='20' src='https://nco.ign.es/iconos/Camino Santiago_20.png' /&gt;&lt;img height='20' src='https://nco.ign.es/iconos/icono_todos_caminos_azul.png' /&gt;  Camino de Santiago </name>
<visibility>1</visibility>
<description><![CDATA[<!DOCTYPE html>
<html>
<head>
<style>
#nco {
  border-collapse: collapse;
  overflow:hidden;
}
#nco th, #nco td {
  padding: 4px;
  text-align: left;
}
#nco th {
  color: #364B5F;
  padding-right: 5px;
}
#nco td {
  color: rgb(51, 51, 51);
  font-size: 12px;
  padding-right: 5px;
}
</style>
</head>
<body>
<table id="nco">
<tr>
<td>Caminos Portugueses</td>
</tr>
<tr>
<th><b>Camino: </b></th>
<td>PT01a Caminho Central Lisboa - Tui</td>
</tr>
<tr>
<th><b>Etapa: </b></th>
<td>19a Rubiaes-Tui</td>
</tr>
<tr>
<th><b>Longitud: </b></th>
<td>17.68 km</td>
</tr>
</table>
</body>
</html>]]></description>
<Style>
<IconStyle>
<scale>0.8</scale>
</IconStyle>
<LabelStyle>
<color>ffffffff</color>
<scale>0.75</scale>
</LabelStyle>
<LineStyle>
<color>ffff0000</color>
<width>3.0</width>
<gx:labelVisibility>1</gx:labelVisibility>
</LineStyle>
<PolyStyle>
<color>66ff0000</color>
</PolyStyle>
</Style>
<ExtendedData>
<SchemaData schemaUrl="#kml_schema_ft_PT01a_19a_rubiaes-tui">
<SimpleData name="id">PT01a_19a</SimpleData>
<SimpleData name="_formato">kml</SimpleData>
</SchemaData>
</ExtendedData>
<LineString>
<extrude>0</extrude>
<tessellate>1</tessellate>
<coordinates>-8.6245403249546,41.8972928635084,222.917100000006 -8.62423254147701,41.8979369292758,214.487099999998 -8.62408267374152,41.8985932320373,209.927500000005 -8.62412424777289,41.8994540535966,200.952699999994 -8.62462313884402,41.8996029163487,190.096600000004 -8.62411569760801,41.9002592193727,186.067599999995 -8.62381612922368,41.9005131909089,185.459700000007 -8.62331707016759,41.9008167835992,185.647599999997 -8.62288439661101,41.9011758638251,182.781600000002 -8.62277610200855,41.9016900099713,174.920800000007 -8.62294239903226,41.9018016568359,173.467399999994 -8.62296720960209,41.9016222838814,173.921100000007 -8.62301699782839,41.9014244714571,175.584900000002 -8.62324984743826,41.9011768700894,177.667000000001 -8.62347431486819,41.9009666514479,180.496199999994 -8.62407311836186,41.9008305297128,177.830600000001 -8.62458039071458,41.9008553401065,175.882500000007 -8.62497115516824,41.9013258999901,169.001699999993 -8.62496277298833,41.9016481002243,166.162800000006 -8.62500434701967,41.9019082749163,161.905599999998 -8.625137284207,41.9023419543241,159.294200000004 -8.6253783480118,41.9029548393695,156.511599999998 -8.62565277165301,41.9036111420407,155.273000000001 -8.62606029956814,41.9040200114255,155.584199999998 -8.62634293740431,41.9041500984175,155.484200000006 -8.62669212782661,41.9042925906752,161.734899999996 -8.62660059668569,41.9047261027902,161.411900000006 -8.62665038581032,41.9053207149781,156.909199999995 -8.62652549483298,41.906057484356,160.165299999993 -8.62674996226291,41.9064477461225,163.383400000006 -8.62660847580903,41.9071350617764,160.765899999999 -8.62688289945024,41.9075933844286,162.0965 -8.6270823892237,41.9080703146634,164.194900000002 -8.62697409462125,41.9083801095567,167.608500000002 -8.62645827210365,41.9088012166747,168.524000000005 -8.62630840346986,41.909346040369,174.661200000002 -8.62610036532815,41.9098414107636,172.497000000003 -8.62597547435082,41.9100519645297,172.012900000002 -8.62601704928049,41.9106462409898,180.777400000006 -8.62619156049916,41.9112098400609,188.157800000001 -8.62649096179683,41.9117298537523,192.957200000004 -8.62694006374334,41.9122374618967,196.391199999998 -8.62748891102576,41.9128257035868,203.234700000001 -8.62738899860322,41.9135316273701,194.125899999999 -8.62733066111034,41.9143798760513,195.985499999995 -8.62724734506268,41.9148256255559,198.776400000002 -8.62725555925764,41.9151848743273,201.358200000002 -8.62752998289885,41.9156926495175,203.472899999993 -8.62757155693019,41.9163984058958,201.758100000006 -8.62774606814886,41.9168131425931,199.451100000006 -8.62811202203269,41.9175931625836,210.057700000005 -8.62823674412673,41.9184410758746,214.9764 -8.62831151090782,41.9188683851451,211.224400000006 -8.62848602212649,41.9192521089342,211.3557 -8.62868551189995,41.919549498464,207.930699999997 -8.62869372609491,41.9202738629525,202.310100000002 -8.62868534391499,41.9209177604002,207.4372 -8.62821947760866,41.9214129634528,207.782999999996 -8.62800305728703,41.9219145364958,208.745599999995 -8.62794471889586,41.9222303666314,211.581000000006 -8.62801110349703,41.9225337912151,215.235199999996 -8.6282937413332,41.9230043517247,217.169200000004 -8.62823540384033,41.9235367700307,219.731299999999 -8.62818544762904,41.9241248440811,225.914999999994 -8.62839331868412,41.9247129187266,226.679699999993 -8.62870093417675,41.9253876616748,231.214699999997 -8.62825166424529,41.9255921803427,235.837100000004 -8.6277526060875,41.9257966990235,241.352499999994 -8.62734491018737,41.9257966990235,242.773799999995 -8.62702036234995,41.925617325986,244.082299999995 -8.62678734565345,41.9256052561052,244.604600000006 -8.62664585919958,41.9258716330785,244.988899999997 -8.62670402960582,41.9262431186749,246.309800000003 -8.62666228758949,41.9266702607433,250.417700000005 -8.62675365074549,41.9271098077316,255.675399999993 -8.62682841752658,41.9274068625603,253.716100000005 -8.62677007913537,41.9279144703255,253.077000000005 -8.62719420342542,41.9287067280014,251.353199999998 -8.62764330537193,41.929498817447,255.866800000003 -8.62809240821676,41.9302910754959,269.559500000003 -8.62818377137273,41.9306625614219,271.624200000006 -8.62808385895022,41.9312692434016,273.630099999995 -8.62839985662277,41.931622121636,273.478000000003 -8.62827496564543,41.9322472439377,269.674599999998 -8.62865751590411,41.9322103637478,268.510399999999 -8.62932287198394,41.9324455596325,266.882599999997 -8.62988010054791,41.9327551874259,267.141099999993 -8.63027086500158,41.9336217084863,265.362399999998 -8.63064503308034,41.9341293162502,257.261899999998 -8.63091945672155,41.9349276086512,242.069399999993 -8.63121047583931,41.9354536572158,236.001099999994 -8.63111894559668,41.9355715065646,235.394400000005 -8.63074460953297,41.9354975782663,238.312900000004 -8.63053657139126,41.9354853405181,240.184299999994 -8.63035351000771,41.9356155952655,242.475200000001 -8.63040329913234,41.9360180943728,235.305099999998 -8.63007875129492,41.9368596377247,228.243400000007 -8.62982075694196,41.9376889426702,223.7788 -8.6298623309733,41.9381593352659,224.451199999996 -8.63037798550593,41.9385184159153,212.828899999993 -8.63071896173327,41.9393291135753,205.399799999999 -8.63080210979598,41.9402078723727,199.081000000006 -8.63064402696723,41.9405605828812,200.897599999997 -8.63094342916323,41.9409567115904,189.6005 -8.63081853818589,41.9415694289793,188.800000000003 -8.63086011221723,41.9417675773725,183.3897 -8.63095985755315,41.9420522265563,174.880799999999 -8.63076841488798,41.9424111396213,169.409799999994 -8.63071007649681,41.9431598113116,155.037800000006 -8.63065173810564,41.9439086506072,144.024600000004 -8.63048527399527,41.9441934672961,147.128100000002 -8.63035216972131,41.944570988581,150.705000000002 -8.62975319824268,41.9448930212935,163.316999999995 -8.62946201113997,41.9450787644303,164.289900000003 -8.62957013775747,41.9454502497486,164.120299999995 -8.62979460518739,41.9459268449458,160.438500000004 -8.63019375092265,41.9462547451137,150.142699999997 -8.63054294134494,41.9465705750089,142.855599999995 -8.63082557918111,41.9470902530929,124.2068 -8.63074226313345,41.9475916589905,113.258300000001 -8.63080043353966,41.9478640708531,109.381599999993 -8.63119957927491,41.948229353808,102.701300000001 -8.63160710808838,41.9485758619049,100.532699999996 -8.63224748561339,41.9489595853948,96.8769999999931 -8.63261343949722,41.9497330671231,94.9858999999997 -8.63317888225619,41.9503764621171,88.108699999997 -8.63368615550724,41.9511621821061,80.2464000000036 -8.63407691906257,41.9519294613547,75.9504000000015 -8.63442610948487,41.9527523966371,71.7636999999959 -8.63454245029729,41.9530804641228,69.2973999999958 -8.63417632842854,41.9539402795796,63.8650000000052 -8.63364391043437,41.954707391776,64.0240000000049 -8.63306153533061,41.955313738127,68.7697999999946 -8.63286187847052,41.9557531177757,70.0592000000033 -8.63287847484537,41.9566067305617,66.7206000000006 -8.63274537057141,41.9575347751802,62.323000000004 -8.63261209831249,41.957925036756,60.8405999999959 -8.63265367234386,41.9586983509065,58.1352000000043 -8.63229593265499,41.9596510383737,59.0129000000015 -8.63211287216977,41.9603192434413,64.557799999995 -8.63193819296614,41.9611047954386,70.3861000000034 -8.63158045327727,41.9617730006254,75.6131000000023 -8.63148892303465,41.9624842890116,72.5602000000072 -8.63105624947806,41.9628866205096,73.6848000000027 -8.63083982825814,41.9636785425777,70.9850000000006 -8.63079808624181,41.9644086065212,65.9311000000016 -8.63090621285931,41.9648912364729,64.428700000004 -8.63108072407798,41.9654048792923,63.9279999999999 -8.63143829668019,41.9656152650512,63.3809999999939 -8.63170433814149,41.9659247250977,63.6747000000032 -8.63209510259512,41.9665929305,65.6707000000024 -8.63248586615046,41.9672611355731,63.3047999999981 -8.63267714172896,41.9676262512577,62.443299999999 -8.63267714172896,41.9683871601375,61.0378000000055 -8.63280186472134,41.9689562916392,60.8205000000016 -8.63300973577638,41.9696365668676,61.0602000000072 -8.63303454634622,41.9707684588907,62.7544000000053 -8.63312590860388,41.9718321228916,63.3000000000029 -8.63337535369027,41.9729330017935,62.1218999999983 -8.63362479967502,41.9740338810361,59.9474999999948 -8.63389922331619,41.9751471650613,58.5681999999942 -8.63414866840261,41.9762602820368,57.2823000000062 -8.63437313583253,41.9773735665458,54.4585999999981 -8.63423164937866,41.9775593091882,52.9881000000023 -8.63399041848723,41.9777326473517,51.9018000000069 -8.63430641615978,41.9782213121684,49.8227000000043 -8.63467237004358,41.9790130669869,42.489499999996 -8.63466398786366,41.979532744979,41.5239000000001 -8.63471377608996,41.9802502358036,36.0791999999929 -8.63479692505099,41.9810295848053,31.0626000000047 -8.63489666948854,41.9817407056018,24.3934000000008 -8.63470522682341,41.982155274491,19.4829999999929 -8.63431429528312,41.9824830069606,20.4554999999964 -8.63396493687586,41.9828481228686,19.8221999999951 -8.6337237059844,41.9834048485301,17.0779000000039 -8.63339915904532,41.9838626679643,15.8524000000034 -8.63321609766177,41.9842648317242,17.5071999999927 -8.63365681832666,41.9846669956149,20.0276000000013 -8.6341890692342,41.9853720815597,24.9671999999991 -8.63456323731296,41.9860275464182,29.5415999999968 -8.63473774853163,41.9862132891915,31.7412999999942 -8.6349705981415,41.9863125307763,31.4940000000061 -8.63522004322789,41.9865908099602,31.5388999999996 -8.63542791428297,41.9870300219927,31.5895000000019 -8.63538617226664,41.9878522862743,33.0387000000046 -8.6351365591953,41.9886004555542,32.2163 -8.63499507274142,41.9892188723742,30.9354000000021 -8.6350948180773,41.990010459064,29.8092999999935 -8.63528609275748,41.9908637370478,26.9744999999966 -8.63551056018743,41.9916985740273,22.4832000000024 -8.63547720035102,41.9923107882421,20.1582999999955 -8.63555196713211,41.9930279441256,15.2709999999934 -8.63561835173332,41.9938565790274,16.090400000001 -8.63576805238215,41.9947346674654,21.0581999999995 -8.63589277447619,41.9951180555679,22.6964000000007 -8.63578448077207,41.9955446941348,23.6264999999985 -8.63579269496703,41.9961693137634,24.156799999997 -8.63576771731053,41.9968063381673,24.4931999999972 -8.63567618616961,41.9972950034701,25.008799999996 -8.63584248319332,41.9982225448032,25.633600000001 -8.63605873642829,41.9991313107417,25.0040000000008 -8.63636635281925,42.0000462795203,22.4976000000024 -8.63662418008558,42.0009488424044,22.1294000000053 -8.63669894596837,42.0013570411477,22.084600000002 -8.63689022154687,42.001752834677,22.343200000003 -8.6371146889768,42.0022968202921,22.4815999999992 -8.63736413406322,42.0023712518808,22.3227999999945 -8.63761358004793,42.0024701578623,22.3959999999934 -8.63766336827423,42.0027236270189,22.6708000000071 -8.63758005222656,42.003175075983,22.8225999999995 -8.63757167004665,42.0034905710072,22.8843000000052 -8.63775456344523,42.0036577058819,23.1070999999938 -8.63770460723398,42.0044551601662,21.5730999999942 -8.63765465102273,42.0052589846422,20.2551999999996 -8.63763788756119,42.0060874522798,21.6347999999998 -8.6376129090064,42.0069343596542,22.6732999999949 -8.63758793134994,42.0077812671018,23.4648000000016 -8.63746304037261,42.008850630572,22.8476999999984 -8.63808682152274,42.0091661254862,22.616200000004 -8.63893507010283,42.009487822384,19.9468999999954 -8.63967519296372,42.0096239445293,18.8763000000035 -8.64047365241918,42.0095315762724,17.3049000000028 -8.64103909607644,42.0093837196338,16.838699999993 -8.64148819802298,42.0094579834044,15.7964999999967 -8.64211197917312,42.0096249504177,14.301999999996 -8.64273576032325,42.0096868088529,14.4214999999967 -8.64302678033934,42.0099836957984,12.2765999999974 -8.64286031533067,42.0104908015094,10.0050000000047 -8.6425857246028,42.0110101437798,9.54050000000279 -8.64251917201667,42.0112699831935,10.5013999999937 -8.64297648905647,42.0116471684548,11.5938000000024 -8.64339223116656,42.0121230929453,14.1964000000007 -8.6434753801276,42.0124198123371,15.4231 -8.64335048915027,42.0127723554141,17.4756999999954 -8.64325895890764,42.0130568369107,18.5972000000038 -8.64331712931389,42.0134340229225,20.6682000000001 -8.64304253858605,42.0140396987889,21.773000000001 -8.64303415640614,42.0148123429747,23.7231000000029 -8.64343330303969,42.0150783845423,23.3248000000021 -8.64364117409473,42.0161169024981,22.9035000000003 -8.6437325363524,42.0163950139925,23.4526999999944 -8.64347454199944,42.0165557786255,23.4222000000009 -8.64349113747598,42.0174457691667,23.2973999999958 -8.64352433022574,42.0184224286171,24.0019999999931 -8.64358250063195,42.0188490670947,24.4621000000043 -8.64379875386694,42.0196711645291,25.9704000000056 -8.6441729219457,42.0205611548494,29.9867999999988 -8.64429764493808,42.0211358181918,31.3304000000062 -8.64397309710066,42.021377049117,31.7789000000048 -8.64281689705802,42.0219084622546,33.8846999999951 -8.64209320438368,42.0222918501222,36.1778000000049 -8.64193512155493,42.0225392842757,37.6034999999974 -8.64177703872618,42.022687811707,38.0102000000043 -8.64148585162343,42.0227003843967,37.8022000000055 -8.6411031333798,42.0227065866558,38.3169999999955 -8.64094505055105,42.0228921623186,39.686400000006 -8.64126943040351,42.0237695797917,41.8623999999982 -8.64152725766984,42.024801727069,45.1370000000024 -8.64185163752231,42.0258645523826,49.6757000000071 -8.64222580560106,42.026643063929,52.5320000000065 -8.64240031681974,42.0267112925224,53.7315999999992 -8.64254163618699,42.0268164018885,55.8322000000044 -8.64240014883478,42.0270266194321,53.9925999999978 -8.64227525875578,42.0272861231556,53.8916999999929 -8.64220032488803,42.0278239062007,52.6530000000057 -8.64207543391073,42.0285469295648,51.7437999999966 -8.64205045625424,42.0294489899972,49.2854999999981 -8.64202547859778,42.030351050307,46.4269000000058 -8.64207526682407,42.0310618355449,42.3620999999985 -8.64210007739391,42.0313894002409,38.9070000000065 -8.64245764909782,42.0321865195284,36.6138999999966 -8.64279024314524,42.0328724945248,32.3974000000017 -8.64323934509175,42.0332929308987,31.3024000000005 -8.64384653076534,42.033799700621,32.0853000000061 -8.64453686360327,42.034349553246,26.073000000004 -8.64526039008932,42.0348315129136,19.8303000000014 -8.64542668711303,42.0351282317676,13.4817999999941 -8.64543188386694,42.0352571458917,7.76799999999639 -8.64600704999055,42.035684287236,2.0 -8.64652220146665,42.0361074058333,2.0 -8.64693375293595,42.0364252474995,1.9375</coordinates>
</LineString>
</Placemark>
</Folder>
</Document></kml>
