<?xml version="1.0" encoding="UTF-8"?>

<kml xmlns:xsd="http://www.w3.org/2001/XMLSchema" xmlns:gx="http://www.google.com/kml/ext/2.2" xmlns:atom="http://www.w3.org/2005/Atom" xmlns="http://www.opengis.net/kml/2.2">
<Document>
<name>PT01a_06a_tomar-alvaiazere</name>
<visibility>1</visibility>
<Schema name="PT01a_06a_tomar-alvaiazere" id="kml_schema_ft_PT01a_06a_tomar-alvaiazere">
<SimpleField type="xsd:string" name="id">
<displayName>id</displayName>
</SimpleField>
<SimpleField type="xsd:string" name="nombre">
<displayName>nombre</displayName>
</SimpleField>
<SimpleField type="xsd:double" name="longitud">
<displayName>longitud</displayName>
</SimpleField>
<SimpleField type="xsd:string" name="_formato">
<displayName>_formato</displayName>
</SimpleField>
</Schema>
<Folder id="kml_ft_PT01a_06a_tomar-alvaiazere">
<name>PT01a_06a_tomar-alvaiazere</name>
<Placemark id="kml_1">
<name>&lt;img height='20' src='https://nco.ign.es/iconos/icono_todos_caminos_azul.png' /&gt;&lt;img height='20' src='https://nco.ign.es/iconos/Camino Santiago_20.png' /&gt;&lt;img height='20' src='https://nco.ign.es/iconos/icono_todos_caminos_azul.png' /&gt;  Camino de Santiago </name>
<visibility>1</visibility>
<description><![CDATA[<!DOCTYPE html>
<html>
<head>
<style>
#nco {
  border-collapse: collapse;
  overflow:hidden;
}
#nco th, #nco td {
  padding: 4px;
  text-align: left;
}
#nco th {
  color: #364B5F;
  padding-right: 5px;
}
#nco td {
  color: rgb(51, 51, 51);
  font-size: 12px;
  padding-right: 5px;
}
</style>
</head>
<body>
<table id="nco">
<tr>
<td>Caminos Portugueses</td>
</tr>
<tr>
<th><b>Camino: </b></th>
<td>PT01a Camihno Central Regiâo Centro e Norte</td>
</tr>
<tr>
<th><b>Etapa: </b></th>
<td>06a Tomar - Alvaiazere</td>
</tr>
<tr>
<th><b>Longitud: </b></th>
<td>32.74 km</td>
</tr>
</table>
</body>
</html>]]></description>
<Style>
<IconStyle>
<scale>0.8</scale>
</IconStyle>
<LabelStyle>
<color>ffffffff</color>
<scale>0.75</scale>
</LabelStyle>
<LineStyle>
<color>ffff0000</color>
<width>3.0</width>
<gx:labelVisibility>1</gx:labelVisibility>
</LineStyle>
<PolyStyle>
<color>66ff0000</color>
</PolyStyle>
</Style>
<ExtendedData>
<SchemaData schemaUrl="#kml_schema_ft_PT01a_06a_tomar-alvaiazere">
<SimpleData name="id">PT01a_06a</SimpleData>
<SimpleData name="_formato">kml</SimpleData>
</SchemaData>
</ExtendedData>
<LineString>
<extrude>0</extrude>
<tessellate>1</tessellate>
<coordinates>-8.41461170478691,39.6017591461599,59.6777000000002 -8.41460013718102,39.6019106914137,59.835699999996 -8.41470474419923,39.6022147866083,60.6634000000049 -8.41468110682914,39.6024315428972,60.6483000000007 -8.41466082287004,39.6026055507071,60.6958000000013 -8.41467255756259,39.6027208856825,60.6946999999927 -8.41469267353673,39.6030626999742,60.539499999999 -8.41471849021968,39.6034796155422,60.0200999999943 -8.4147981177848,39.6036422248416,60.1643999999942 -8.41475604069688,39.6036254608213,60.0286999999953 -8.41478705413374,39.6038246147115,59.7897999999986 -8.41423803976469,39.6039565461832,58.976800000004 -8.41365851501536,39.6040921650345,57.9670000000042 -8.41303724824971,39.6042376754209,56.7651000000042 -8.41263709550301,39.6043300438143,56.0706000000064 -8.41183712687789,39.6044492344832,54.4186000000045 -8.41069785918004,39.6045167922205,55.2624000000069 -8.40988447870772,39.6045749626948,57.0236000000004 -8.40988297043636,39.6046797368376,56.8450000000012 -8.40985212498446,39.6057080282695,55.6597000000038 -8.40984374280455,39.6058818693544,55.8040000000037 -8.40978808678281,39.6060478310984,56.3714999999938 -8.40946303678715,39.6067187182573,58.9581000000035 -8.40915827075057,39.6072737678739,59.9867999999988 -8.40894872343921,39.6076415662672,60.5274000000063 -8.40866507948992,39.6081409595424,61.8537999999971 -8.40859601251932,39.6083144650888,62.164300000004 -8.4083539434997,39.6092901190116,62.7149999999965 -8.40840004414175,39.6096649574752,61.7339999999967 -8.4084023905413,39.6098258899079,61.388300000006 -8.40827045946708,39.6108107635536,60.1854000000021 -8.40824531382566,39.6109866160853,60.3399999999965 -8.40829107939612,39.6112134301873,60.1085000000021 -8.40845888469119,39.6118628602622,60.9707999999955 -8.40849811232301,39.6121235373007,61.3362999999954 -8.40866105593576,39.6131479735983,59.4763999999996 -8.40871101214705,39.6134109973149,58.9985000000015 -8.4087609683583,39.6137159312596,58.537599999996 -8.40879835174884,39.6139152526627,58.6247000000003 -8.40888351203778,39.6143742462347,60.6303000000044 -8.40895794374728,39.6148156367293,62.0748000000021 -8.40896598995729,39.6148870506401,62.1830999999947 -8.40898694495791,39.6149329838139,62.0859000000055 -8.40915927686369,39.6154233249103,62.0816999999952 -8.40925801518816,39.6158640450826,62.502999999997 -8.40927846713224,39.6160865008856,63.3117999999959 -8.4093168566359,39.6162465956011,63.7235999999975 -8.40934300839043,39.6163830526122,64.0700999999972 -8.40933697261007,39.616440049866,64.347099999999 -8.40932507083086,39.6165699691891,64.9775999999983 -8.40936496860588,39.6167339192834,65.1070999999938 -8.40938106192421,39.6168249465265,65.0488999999943 -8.40936396249276,39.6169659301158,65.3209000000061 -8.40936899216005,39.6170539406549,65.2755999999936 -8.40936195116483,39.6171379271456,64.9474000000046 -8.40938793493444,39.6173669209306,63.5164999999979 -8.40935206071355,39.6175080715693,63.4296000000031 -8.40938994626237,39.6176949885681,62.3591000000015 -8.4093389848363,39.6178359717693,62.5587999999989 -8.40926304485544,39.6180760294401,63.0510999999969 -8.40924091665504,39.6182329392068,63.0066999999981 -8.40912407278604,39.6183739226962,64.0041000000056 -8.40903807436894,39.6185040093082,64.2992999999988 -8.40897303095247,39.6185869906713,64.3006000000023 -8.408916033746,39.6186870706894,64.0179999999964 -8.40881796556477,39.618804919813,63.9124000000011 -8.40880204023139,39.618889074405,63.4073000000062 -8.40879198179516,39.6189579736304,62.9587000000029 -8.40872392093767,39.6190409544492,62.7967000000062 -8.40864295128952,39.6191289644257,62.6575000000012 -8.40857204007765,39.6191899846196,62.4934999999969 -8.40841898691617,39.6193120248459,62.020199999999 -8.40832393617596,39.6194000351696,61.7814000000071 -8.40829895851946,39.619441944314,61.5755999999965 -8.40828504451402,39.619502964924,61.2050000000017 -8.40822000019925,39.6195680085834,60.8923000000068 -8.40811405289465,39.6196209821904,60.7148000000016 -8.40798899572899,39.6196900488352,60.3847999999998 -8.40786008119752,39.6197009452387,60.485400000005 -8.40773602924668,39.6197400053748,60.6549999999988 -8.4076510369427,39.6197430223487,60.9250000000029 -8.40745305633893,39.6197430223487,61.6867999999959 -8.40731995206497,39.6197700124956,62.0121999999974 -8.40731693462392,39.6197659887121,62.0541999999987 -8.40723898241682,39.6197510692263,62.4774000000034 -8.40710202257365,39.6197240797639,63.195000000007 -8.40698400550488,39.6197200559777,63.6220999999932 -8.40690504718467,39.6197170383108,63.8867999999929 -8.4068130138855,39.6196670824466,64.357799999998 -8.40671192826322,39.6196290283902,64.7842999999993 -8.4066309595134,39.6196169583981,65.069399999993 -8.40642292047337,39.6195599616845,65.7271000000037 -8.40640498291379,39.6195559385806,65.7638000000006 -8.40624002707478,39.6195369952527,66.1707000000024 -8.40610591668771,39.6195369952527,66.3788999999961 -8.40599594672726,39.6195180519196,66.7050000000017 -8.4059119596381,39.6195110111375,66.7485000000015 -8.40580701844661,39.6195069880309,66.5715000000055 -8.40567793682848,39.619525931367,66.1392000000051 -8.40561004395592,39.6195299544726,66.0939000000071 -8.40550292255324,39.619502964924,66.3065000000061 -8.40529404538508,39.6195110111375,66.2838999999949 -8.40509908312065,39.6195339775779,66.2056000000011 -8.4049879390621,39.6195450421543,66.1582000000053 -8.40480806310457,39.6196099176261,65.8665000000037 -8.40475793890836,39.6196399248033,65.7660999999935 -8.40463003138831,39.6196820019505,65.7081000000035 -8.40452207275577,39.6197240797639,65.6643999999942 -8.40443791857994,39.6197400053748,65.6671999999962 -8.40436499604013,39.6197700124956,65.5938000000024 -8.40424295541722,39.61980102503,65.5659000000014 -8.40404598002824,39.619858022237,65.6290000000008 -8.40378597344901,39.6199949827977,65.8847999999998 -8.40363794905649,39.62005600292,65.9309000000067 -8.40350903542335,39.6202130798045,65.7614999999932 -8.4033779424773,39.6203190266824,66.156799999997 -8.40327400739892,39.6203840702668,66.5357999999978 -8.40315699554496,39.6205139897984,67.1408999999985 -8.40307401456892,39.6206249660559,67.8242999999929 -8.40303596103518,39.6207010737445,68.0342999999993 -8.40298600482389,39.6208110449823,68.210699999996 -8.40293001373053,39.6209449874275,68.5519000000058 -8.40286094675993,39.6210980406641,68.4027999999962 -8.40285692320576,39.6211050819767,68.3886000000057 -8.40282792199514,39.6213379313318,66.4428000000044 -8.40280093211244,39.6214370054291,65.3554000000004 -8.40273706279404,39.6216279451801,64.0481 -8.40272298080364,39.6217610494813,63.1416999999929 -8.40268006558757,39.6219600356511,62.6220999999932 -8.40244403145006,39.6220130095029,63.7056000000011 -8.40223398018379,39.6220589420994,64.6116000000038 -8.40199291727729,39.6220969962036,65.4505000000063 -8.40189702840891,39.6221080603703,65.6585999999952 -8.40168194837373,39.6221499699506,65.7918999999965 -8.4014279766766,39.6220250797691,66.5728999999992 -8.40131197093573,39.6219600356511,67.0081999999966 -8.40116797009737,39.621872025815,67.3858999999939 -8.40102899802797,39.6218029592718,67.2930000000051 -8.40074585713526,39.6216841036267,66.6760000000068 -8.40063806648768,39.6217159546346,66.2655999999988 -8.40054133949115,39.6216981854399,66.4542999999976 -8.40057084375835,39.6218202260871,66.1114999999991 -8.40054653624509,39.6221900354803,65.6242000000057 -8.40042801611974,39.6224780377504,66.2372000000032 -8.40047679823295,39.6226968050304,66.5724999999948 -8.400406055006,39.6228443265205,66.9278000000049 -8.40005703256866,39.6232374381587,67.6921000000002 -8.40011168247728,39.6235547766064,69.0326999999961 -8.40023707561285,39.6237316346531,71.0022000000026 -8.40058626603515,39.6244628719585,79.771900000007 -8.40072708234582,39.6246645405338,80.3016000000061 -8.40086035460474,39.6247860784621,79.7399000000005 -8.40165629967573,39.6251491825972,70.6689999999944 -8.40180298288352,39.6253441452521,67.5678999999946 -8.40196609537955,39.6257328982082,64.1114999999991 -8.40195402471709,39.6263129259074,62.3206999999966 -8.40179258937567,39.626575614535,62.2284999999974 -8.40048015074559,39.6278362532505,70.5105999999942 -8.40010162404105,39.6282496480957,72.7792999999947 -8.39988302440656,39.6286439328933,70.383600000001 -8.3995262908308,39.6297213430867,62.023199999996 -8.39956568554928,39.6303498181029,60.7890000000043 -8.3998835274631,39.6312287443778,62.236699999994 -8.39995980251558,39.6314471768111,63.4229999999952 -8.39994152988436,39.631492774517,63.8338999999978 -8.39953634926704,39.6313712366076,67.9382999999943 -8.39917290976771,39.6311523016497,72.6410999999935 -8.39903477582647,39.6311833146179,75.1440000000002 -8.39871676682599,39.6315133936892,81.8798999999999 -8.39826397639693,39.631806424926,89.8730000000069 -8.39803783181237,39.631930980589,93.0032999999967 -8.39775469181795,39.6320893982923,96.3862999999983 -8.39735873061041,39.632254354226,100.931200000006 -8.39707039296376,39.6326642288946,104.481 -8.39689705494487,39.6329684920292,108.207299999995 -8.39673059083449,39.6331694903344,109.812900000004 -8.3965604382416,39.633278455206,109.349700000006 -8.39626992128206,39.6333429954097,109.027600000001 -8.39593095728099,39.6334082066281,109.265599999999 -8.39576918596965,39.6335032577546,109.195699999997 -8.39545436239518,39.6341111132305,106.090599999996 -8.39502872893548,39.6348815781525,108.508700000006 -8.39492546400031,39.6350364753781,110.035099999994 -8.39458985251183,39.6354103082683,112.985499999995 -8.3940909614407,39.6355196085965,115.857199999999 -8.39387454111908,39.6359286455135,115.948300000004 -8.39354194707166,39.6362213412025,115.993799999997 -8.39326249466149,39.6364375946144,114.892500000002 -8.3932294698967,39.6368828408929,113.219700000001 -8.39311078178643,39.6372913751178,112.175499999998 -8.3934200744337,39.6379148212663,112.415099999998 -8.393657281771,39.6381904180784,113.140899999999 -8.39367823677162,39.6382817809747,113.556200000006 -8.39354278519981,39.6383957746432,113.709300000002 -8.39345494254144,39.6385199946891,113.876699999993 -8.39357631302118,39.6389110941311,116.212 -8.39374428630121,39.6393080610373,119.100000000006 -8.39388275531403,39.6395343721071,120.573199999999 -8.39401368027514,39.6396423314989,121.243600000002 -8.39455397829098,39.6398540583708,122.208400000003 -8.39458633201424,39.6400458362151,122.235799999995 -8.39456889751121,39.6406991213788,121.477100000004 -8.39461466308167,39.6409557751661,120.795400000003 -8.39471491057579,39.6414315324181,119.430099999998 -8.39462488860456,39.6426323238624,125.280599999998 -8.39456068331625,39.6438131665319,130.388300000006 -8.39441819074926,39.6443878298424,129.438099999999 -8.39428257209082,39.6451763992975,138.009600000005 -8.39423127469484,39.6455472141031,140.199600000007 -8.39433705401448,39.6462849898159,139.7359 -8.39436287069744,39.6467076047113,137.415399999998 -8.3943226378508,39.6471055775462,135.937900000004 -8.39429212747048,39.6477099131478,136.622000000003 -8.39437007877928,39.6481922080535,141.160099999994 -8.39412884788782,39.6482835701869,140.717399999994 -8.39310944060173,39.6488801943825,133.237299999993 -8.39217452346134,39.6494199886397,128.780799999993 -8.39181125194697,39.6495708630713,129.043300000005 -8.3908102843787,39.6499671594315,128.910999999993 -8.39030066472813,39.6500954028456,129.402499999997 -8.38967805767607,39.6501339595838,130.093500000003 -8.38942894676294,39.6502162694502,131.102700000003 -8.38873324918611,39.6506546432464,134.766499999998 -8.38847307462192,39.6507165015908,136.458199999994 -8.38727815090238,39.6512018139498,144.339099999997 -8.38613335048071,39.6516564483514,149.964900000006 -8.38489919912928,39.6518391737165,154.780299999999 -8.38424054897308,39.6517221624211,158.847800000003 -8.3839379622494,39.6517278622807,159.106100000005 -8.38352540466698,39.651875383422,158.911500000002 -8.38312676198827,39.6520389981021,160.210000000006 -8.38306406497135,39.6522795588888,160.910900000003 -8.38256198937254,39.6528309204922,164.321100000001 -8.38251605671542,39.6529584932418,164.376099999994 -8.3825648388286,39.6532409630151,163.845100000006 -8.38267128918978,39.6533432227227,163.279399999999 -8.38380200762105,39.6540318798478,162.376999999993 -8.38394030954725,39.6543643058216,163.625700000004 -8.38394852374221,39.6554241136684,168.2454 -8.38393813023436,39.6556301410937,169.849900000001 -8.38389588516149,39.6557511757643,170.569600000003 -8.38331971292479,39.6563338855247,175.189599999998 -8.38326221356007,39.6565429304486,177.344899999996 -8.38323203825138,39.6569338622557,181.631399999998 -8.38330043507878,39.6574376143886,184.881899999993 -8.38336430529551,39.6579026424113,186.336599999995 -8.38342247570172,39.6579772415483,186.6011 -8.38363654872549,39.6582796602181,187.518800000005 -8.38367896178332,39.6584141062047,187.952399999995 -8.38362548507448,39.6588182814767,190.225399999996 -8.38353915158576,39.6590281646811,191.490300000005 -8.38328886747289,39.6594586588751,192.516499999998 -8.38273851191911,39.6603414413549,191.617499999993 -8.38256517390021,39.6605214847194,191.137499999997 -8.38199788689998,39.660937897172,191.746199999994 -8.38153855853228,39.6611251491099,191.686000000002 -8.38074529583072,39.6615931944406,190.371499999994 -8.37985530523434,39.6618352641237,190.0959 -8.3796459250096,39.6619400380199,190.225099999996 -8.37844613960773,39.6625363265185,193.520799999998 -8.3779345077309,39.6627091611189,194.379499999995 -8.37729781868844,39.6628508153513,194.167600000001 -8.37675802372917,39.6633150047758,196.430600000007 -8.37652299570477,39.6635019217965,198.183799999999 -8.37631395055161,39.6637310829853,199.702999999994 -8.37600197643323,39.6640589826235,200.729999999996 -8.37500872090168,39.6649757952229,198.277300000002 -8.37480353221606,39.6652921282773,198.069300000003 -8.37475357600477,39.6656376304375,198.010999999999 -8.37480453743085,39.6661405446468,199.133799999996 -8.37463991756178,39.6665039841929,199.5821 -8.37443087240863,39.6670060602296,196.985799999995 -8.37441360589055,39.6672742811251,194.386799999993 -8.3744233283569,39.667588937171,189.359500000006 -8.37469791998304,39.6679892570064,181.165099999998 -8.37472625105046,39.6681991400172,177.418699999995 -8.37466271590539,39.6683473320052,175.1005 -8.37438896330571,39.6683964499061,175.992800000007 -8.37417321312729,39.6683971206415,177.532800000001 -8.37398746937431,39.6685184904482,176.840200000006 -8.37396902965646,39.6687553629382,173.3459 -8.37401999198083,39.668871201007,171.823699999994 -8.37434571211972,39.6694041222158,168.769 -8.37517250354091,39.6707184048388,193.397599999997 -8.37538138070908,39.6716482935414,205.544599999994 -8.3755374513116,39.671996142484,208.567200000005 -8.37570207207899,39.6724933565159,211.074399999998 -8.37608093385511,39.6731409425942,212.952699999994 -8.3765687603769,39.6738108245378,212.721000000005 -8.37675165377548,39.6744161649905,212.451199999996 -8.37688408790624,39.6743885047465,212.046000000002 -8.376933373076,39.6744803708698,211.610400000005 -8.37699322063686,39.6752731313165,208.790399999998 -8.37707854801242,39.6760538218295,208.025599999994 -8.3771467768549,39.6765384633083,207.957800000004 -8.37726462593872,39.6768422236385,206.868100000007 -8.37734995421258,39.6770541179806,206.017500000002 -8.37730268037076,39.6771278785256,205.849799999996 -8.37710453178203,39.6771590589324,206.523499999996 -8.37664201888663,39.6772943434874,207.918900000004 -8.37594481214014,39.677481594657,210.085500000001 -8.37568279333468,39.6775607199169,211.237399999998 -8.37529186179438,39.677770770894,213.000899999999 -8.37520888081834,39.6778671624735,213.282399999996 -8.37527459527631,39.6780047935803,212.4326 -8.37518289704876,39.6781962360538,212.689299999998 -8.37488634520716,39.6784372996883,213.437999999995 -8.37460890412492,39.6786729987794,211.414900000003 -8.37457520921693,39.6790000607712,208.406099999993 -8.37465785422306,39.6794763201623,205.523700000005 -8.37472608306551,39.6798550143537,203.0766 -8.37487544864276,39.6803502173414,198.866800000003 -8.37495960281858,39.680621288055,196.673699999999 -8.37490964660729,39.6809014116853,193.273199999996 -8.3746342177513,39.6812579775979,188.860100000005 -8.37463103232529,39.6814499233434,186.923500000004 -8.37471116294695,39.6824230622763,166.559999999998 -8.37473949401441,39.6826366332725,160.282699999996 -8.37470797841927,39.6827290013969,158.004700000005 -8.37443690729073,39.6829890083482,153.684899999993 -8.37423607723087,39.6831931913847,151.498999999996 -8.37406156601219,39.6834007274574,148.977700000003 -8.37384799514666,39.6840102590071,142.695999999996 -8.37364381167584,39.6847797178123,146.140799999994 -8.37359536463424,39.6851037623395,148.699399999998 -8.37332529961881,39.6854474205533,153.350099999996 -8.37309278508056,39.6857736443995,156.988800000006 -8.37315531411252,39.6860520907675,157.681200000006 -8.37304601429528,39.6862566090146,159.238500000007 -8.37295381390945,39.6868133356606,159.006099999999 -8.37275482719257,39.6867419213497,160.563299999994 -8.37212601637515,39.6866173662639,165.388699999996 -8.37191060216664,39.6865856827148,167.072499999995 -8.37185628732964,39.6867338746622,166.691600000006 -8.37176425403044,39.6871026788285,163.285799999998 -8.37157666693452,39.6874625972715,159.195699999997 -8.37151883159989,39.687622021448,157.278200000001 -8.37095808253829,39.6881254385493,153.758900000001 -8.37055960694624,39.6884161228309,154.495899999994 -8.3702147751497,39.6884726169236,155.359100000001 -8.36881499781612,39.6885460424462,156.991500000004 -8.36855432019539,39.6886018658934,155.752800000002 -8.36803195973912,39.6888290151645,155.016600000003 -8.36748059807227,39.6888742777788,156.058300000004 -8.36669202906808,39.6890045324909,158.873600000006 -8.36630394698388,39.6891721702555,158.238700000002 -8.36610227789752,39.6893636128783,156.554999999993 -8.3659939841934,39.6895138166757,155.294999999998 -8.36549492513731,39.6901285457813,155.204199999993 -8.36517926343467,39.6907384126479,157.043000000005 -8.36503341835505,39.6908549216957,156.884300000005 -8.36452413377607,39.6911558319272,158.237699999998 -8.3643335292391,39.6911502998377,160.273799999995 -8.36331076944033,39.6907850164289,170.065900000001 -8.36278455341489,39.6906299510203,172.694900000002 -8.36196849147144,39.6904321384996,175.691000000006 -8.36137203527561,39.6903595507162,173.845300000001 -8.3612696084686,39.69038855252,173.284 -8.36117908344079,39.6904680127686,172.8416 -8.36107732767531,39.6906797394943,172.596399999995 -8.36101345745861,39.690923149909,172.295599999998 -8.36098194096518,39.6910879385103,171.221900000004 -8.36099870532501,39.6912906127912,169.913199999995 -8.36101597184309,39.691691938587,166.794599999994 -8.36099803428348,39.6918600792735,165.213799999998 -8.36057407797843,39.6924209959587,161.147899999996 -8.36037693550278,39.6927410175739,162.406300000002 -8.36033200806048,39.6929780572235,163.467199999999 -8.36019806565836,39.6930035381667,164.648199999996 -8.36031490952736,39.6936075380725,164.905299999999 -8.36022790499715,39.6939632662755,164.535499999998 -8.36012363394886,39.6940073552825,165.108399999997 -8.35982942940513,39.6940734044109,165.820000000007 -8.35976321278888,39.6941248693801,165.659299999999 -8.35971761520338,39.6944234331845,162.898499999996 -8.35922710631216,39.6958523800462,159.5196 -8.35915502190051,39.6959883343897,159.924700000003 -8.3591732945317,39.6961031660143,159.580700000006 -8.35917832330065,39.6963318243768,159.170899999997 -8.35896827293271,39.6970964215619,159.362099999998 -8.3589672668196,39.6971007802214,159.367899999997 -8.35897531392793,39.6971951604075,159.159799999994 -8.35917429974652,39.6972511517322,159.736999999994 -8.35904538611335,39.6976269961333,159.524300000005 -8.35897548101456,39.6980154138771,161.243000000002 -8.35901839623062,39.6984286413873,165.920700000002 -8.3590128644051,39.6987510093392,167.579899999997 -8.35909869483724,39.6989122770737,169.863800000006 -8.35917916142881,39.6990735451226,171.973700000002 -8.35911462106891,39.6991768103875,172.122000000003 -8.35885159704867,39.6992720288895,171.170400000003 -8.35845965849696,39.6993422690731,171.616899999994 -8.3578692380815,39.6993466275908,173.582599999994 -8.35684949572383,39.699363223961,177.676600000006 -8.35648253572688,39.6994685000934,181.381699999998 -8.3563048390822,39.6995094041363,182.774000000005 -8.3560926094014,39.6995575163444,184.824299999993 -8.35542172149608,39.6996733538989,192.488500000007 -8.35484202966009,39.6995000159967,193.293300000005 -8.35449317430937,39.6992235812643,189.645499999999 -8.35419259981196,39.6990421969796,189.373399999997 -8.35393493963225,39.6988854553597,189.675099999993 -8.35356982387661,39.6987825255702,189.895300000004 -8.353247791322,39.6986256160956,189.281099999993 -8.35281830319138,39.6986422126392,188.690499999997 -8.35265720292158,39.6986754050232,188.349400000006 -8.35244245795798,39.6989603896981,190.240099999995 -8.3521472473011,39.6993199733087,194.074299999993 -8.35182521474649,39.6996257449412,194.809099999999 -8.351299166706,39.6999439216128,192.671400000007 -8.35077848250605,39.7002743365822,192.972299999994 -8.35025779920443,39.7006091097899,194.785600000003 -8.34981758159608,39.7010097648992,195.896900000007 -8.34962965942854,39.7014105870139,194.859599999996 -8.34971548986069,39.7019641283038,194.967399999994 -8.34955975432978,39.7024434057735,191.222399999999 -8.34958121148865,39.7026170783956,191.2019 -8.34966704281909,39.7030095194782,194.081099999996 -8.34983870368337,39.7035132715257,199.582800000004 -8.34998572286107,39.7038041239193,204.1538 -8.34961054866919,39.7040319440072,201.041400000002 -8.3491564170554,39.7040624536252,195.960999999996 -8.34844563137506,39.7047915116468,196.812600000005 -8.34799149976127,39.7052015547186,197.638900000005 -8.34787582999035,39.7054793304444,198.979800000001 -8.34803944464462,39.7061653054376,201.751399999994 -8.34769528388957,39.7064925350638,198.609100000001 -8.34748154503909,39.7071216811831,201.594599999997 -8.34685223206343,39.7076903093796,204.290699999998 -8.34655316583737,39.7084726762048,207.191900000005 -8.34604304313023,39.7088382944728,200.127999999997 -8.34479313353211,39.710198845047,191.288199999995 -8.34499044309439,39.7109733330585,191.570200000002 -8.34530627368027,39.7116113631913,194.066200000001 -8.34528649187942,39.7129023445317,201.874299999996 -8.34581941382847,39.714481830106,205.005600000004 -8.34619442003538,39.7153627678074,204.554699999993 -8.34733922045705,39.7162740485286,203.838900000002 -8.34860254100403,39.7169725966113,205.546199999997 -8.34958942568361,39.7180205022075,212.514299999995 -8.3505927396514,39.7187113385852,221.273300000001 -8.35057329382043,39.7188028686537,221.219100000002 -8.35074646385437,39.7193443394388,221.762000000002 -8.35077881847596,39.7194920291976,221.108300000007 -8.35066499204802,39.7196724075734,219.929000000004 -8.35037078750425,39.7199661090923,217.774799999999 -8.35022661868095,39.7203929158503,216.657399999996 -8.35040381137071,39.7209166173306,217.267200000002 -8.35076658072687,39.7215511270097,219.485700000005 -8.35087956902666,39.7229135217539,219.2693 -8.35099373052623,39.7233324495641,220.856 -8.3509808217356,39.7236581703046,221.745800000004 -8.35086548703626,39.7239253848755,221.886700000003 -8.35094561765792,39.7241858944038,222.494000000006 -8.35129749044965,39.7243989623954,223.798999999999 -8.35185455192703,39.7244710473149,227.411099999998 -8.35220642382043,39.7246018048498,230.429000000004 -8.35238596380808,39.7248879627027,232.275599999994 -8.35248101544659,39.7254507237286,234.035699999993 -8.35259400284809,39.725691452385,235.338900000002 -8.35207650407414,39.7263177482401,229.154500000004 -8.35131995372167,39.7274441080426,226.254300000001 -8.3501154746224,39.7292991911139,218.810899999997 -8.34963619736719,39.7300617766465,216.820999999996 -8.34939111000822,39.7302952959708,217.097999999998 -8.34862953088676,39.7307033269696,219.558999999994 -8.34757994829194,39.7311405274511,223.562900000004 -8.34715263947421,39.731396007973,223.994099999996 -8.34660379219183,39.7319041185184,223.444000000003 -8.34628729146271,39.7327096196678,226.728499999997 -8.34618788209674,39.7329595677093,228.403300000005 -8.34584321828515,39.7333448000823,232.823799999998 -8.34552537637133,39.7336572773627,237.137400000007 -8.34531867851603,39.7337813295999,240.107499999998 -8.34503805290612,39.7338866064047,243.888300000006 -8.34501123011005,39.7339826633267,245.056400000001 -8.34529185661829,39.734233784601,244.156799999997 -8.34622442735913,39.7350052553543,239.692299999995 -8.34635250286413,39.7351913337869,239.598400000003 -8.34678785879016,39.7357921486722,239.681800000006 -8.34691191074103,39.7359408435517,239.838600000003 -8.34732178595402,39.7362409154166,239.574399999998 -8.34780726607628,39.7367180136043,241.604699999996 -8.34839500502057,39.7379221577498,244.696100000001 -8.34902716835065,39.7385211286321,242.695300000007 -8.34976578114356,39.7391978834174,242.357799999998 -8.35008278492922,39.739919397186,243.965800000005 -8.35102893370558,39.7410358669872,242.2592 -8.35261076720792,39.7425157760064,243.601500000004 -8.35354702553301,39.7433898406154,246.167499999996 -8.35378104834262,39.7435214367277,246.730899999995 -8.35553018408349,39.7442173023032,247.923599999995 -8.35584752294074,39.7443804136462,247.552500000005 -8.3564902468653,39.7452132399282,248.474100000007 -8.35691554435508,39.7455394637292,249.236699999994 -8.35718125074476,39.7457986317359,250.615699999995 -8.35782079014161,39.7467377403112,256.964600000007 -8.35818104421496,39.7468884470486,256.888900000005 -8.35841909057871,39.7469526525109,258.904299999995 -8.35900716459465,39.7468136801206,267.296600000001 -8.35956221474406,39.7465764724925,275.665699999998 -8.35974091660355,39.7464058170151,277.280199999994 -8.35986614265247,39.7461588863687,277.532300000006 -8.3599796331105,39.7458913359578,277.818599999999 -8.36014676826238,39.7456100394524,278.690300000002 -8.36018364859638,39.7455500246397,279.010399999999 -8.36043309458109,39.7454521237629,281.322400000005 -8.36069829791423,39.7453783630202,281.279800000004 -8.36072159931437,39.745358246817,281.104800000001 -8.36072042611463,39.7454229551595,281.146900000007 -8.36084531619363,39.7457912557023,281.371899999998 -8.36077574616645,39.7460935073555,284.244300000006 -8.36059285366616,39.7463617283406,286.033800000005 -8.36052328363898,39.746575801826,286.218999999997 -8.36060140293274,39.7469065521966,287.6397 -8.3607566354071,39.7471469448457,288.465500000006 -8.36088772835313,39.7474513758883,288.800900000002 -8.36118478325128,39.7477822933454,288.049299999999 -8.36126759624237,39.7482206667049,283.480899999995 -8.36133079631586,39.7485235887082,280.328299999994 -8.36142098537378,39.749302938203,273.690400000007 -8.36141277117883,39.7498896710647,267.338300000003 -8.36132761088989,39.7503454791331,260.150599999994 -8.36136935290618,39.7505843631303,255.737099999998 -8.36169725325624,39.7507945813849,252.635200000004 -8.36196396486073,39.7508839326683,251.3802 -8.36281841630785,39.751280899822,244.946299999996 -8.3633417819789,39.7516748493297,240.006099999999 -8.36351210255677,39.7517623561407,238.560700000002 -8.3642716703503,39.7524511810012,233.992299999998 -8.36459755937245,39.7526556992675,232.598299999998 -8.36552996212833,39.7531547577542,228.279699999999 -8.36606254810746,39.7533614556276,226.981599999999 -8.36678825300807,39.7537212066141,223.090200000006 -8.36701758212032,39.7537265713894,220.888500000001 -8.36727473924345,39.7536516371541,218.532000000007 -8.36802592485706,39.7538424091337,213.380799999999 -8.36831526861683,39.7539297488229,211.970300000001 -8.36882790570841,39.7540544710746,210.287200000006 -8.36967598630354,39.7543909211264,207.926099999997 -8.3715696259393,39.7554562607477,205.856 -8.37174128770192,39.7555761218189,205.541200000007 -8.37191579892059,39.7558488693951,205.744399999996 -8.3721592091249,39.7569582980829,206.076100000006 -8.37258417154311,39.7588764123558,202.733999999997 -8.37261099344084,39.7589766600567,202.623999999996 -8.37305707884463,39.7608858900846,204.144499999995 -8.37331121762841,39.7624928687815,208.546600000001 -8.37358061250064,39.7643838261992,214.289600000004 -8.37394723652767,39.7667456788275,220.064299999998 -8.37433297221235,39.7690319267023,224.139299999995 -8.37502146170734,39.7705373163123,220.275200000004 -8.37532991532813,39.7711693116553,221.145300000004 -8.37570005985276,39.7715661107969,221.752999999997 -8.37627874647396,39.7720742220224,221.210699999996 -8.37698114997439,39.7727265020318,220.9087 -8.37745523047569,39.7732443356028,221.995999999999 -8.3783546093651,39.7750008474307,224.488599999997 -8.37925398735619,39.7768265933697,231.2647 -8.38063146940278,39.7787673390189,235.153699999995 -8.38163629164193,39.7801875690945,238.415200000003 -8.38224297425894,39.7810205623356,241.741399999999 -8.38119657709012,39.7819719088265,244.181700000001 -8.38067689900332,39.7826614041924,246.515700000004 -8.37982445978244,39.783114864996,249.854200000002 -8.37961943818345,39.7831328018448,250.846600000004 -8.37896246428357,39.7829437063692,252.320399999997 -8.37847212337731,39.7829118551347,255.449800000002 -8.37814640234014,39.7828340712088,257.529899999994 -8.37796149761362,39.7828763161285,258.442500000005 -8.37749110559487,39.7830578678544,260.929499999998 -8.37706698130483,39.7832865264465,263.592900000003 -8.37621420611403,39.7835455268719,265.369399999996 -8.37570760390451,39.7836964015827,263.958899999998 -8.37507929614367,39.7839165097935,260.221900000004 -8.3747202161684,39.7839745127128,257.8364 -8.37471703074239,39.7842465893318,258.431700000001 -8.37463086434034,39.7845957793617,259.172399999996 -8.3746900408597,39.7851979354017,262.120999999999 -8.37467998242346,39.7859310165685,265.827499999999 -8.37500469734751,39.7862875828628,269.769100000005 -8.37509488730373,39.7866930995512,272.834000000003 -8.37506990874894,39.7870094324276,274.920100000003 -8.37504040448174,39.7874747954898,277.569799999997 -8.37509723370325,39.7880390651289,279.509000000005 -8.37470395486514,39.7881518859202,278.684299999994 -8.37453179094428,39.7882725853658,277.772700000001 -8.37483001904221,39.7885498586415,279.566300000006 -8.37490579103812,39.7888613303645,280.150599999994 -8.37499732128071,39.7893783260376,280.272400000002 -8.37541289630421,39.7897509852219,281.647599999997 -8.37570022783771,39.7900725148147,282.986699999994 -8.37577281530594,39.7901834913496,283.404399999999 -8.3758118749528,39.7905175940056,284.275299999994 -8.37552974017321,39.7916712795697,284.455199999997 -8.37556041764015,39.7918771391355,285.025899999993 -8.37595000889404,39.7925025966327,287.637199999997 -8.37626583858164,39.7931572230696,290.401500000007 -8.37630657448481,39.793888795498,293.4663 -8.376270532279,39.7944019357975,294.659499999994 -8.37632602121408,39.7945772852056,294.361699999994 -8.37634714330136,39.7945960604383,294.246100000004 -8.37631562680793,39.7953096956273,293.239799999996 -8.37622577282166,39.7960015379124,291.8848 -8.37610054767104,39.7961334690089,291.949500000002 -8.37600080323346,39.7963946490274,290.8701 -8.37575135724874,39.7965165225277,291.000899999999 -8.37579980518864,39.7966053706842,290.002500000002 -8.37582930945584,39.7967369665688,288.739000000001 -8.37570341326372,39.7968987367102,287.191999999995 -8.37533662125173,39.7971748370948,285.044299999994 -8.37493512821866,39.797245915501,284.805500000002 -8.37495541217775,39.7976638371541,281.674899999998 -8.37489690669996,39.797847903533,281.020799999998 -8.37475726358903,39.7979769847808,280.592799999999 -8.37457370004724,39.7980475605968,280.2595 -8.37446691461447,39.7981744625743,279.955300000001 -8.37446708259943,39.7987940529335,281.427899999995 -8.37440589475217,39.7989598467661,281.911399999997 -8.37234931060533,39.800011607977,281.845100000006 -8.37234545503612,39.8002637356469,282.680300000007 -8.37244788184314,39.8007187057418,284.025200000004 -8.37268542515034,39.8008422548612,284.231899999999 -8.37286999480525,39.8010809712532,284.816999999995 -8.37302841270562,39.8011357891543,285.037400000001 -8.37315531411252,39.8014204386283,285.775699999998 -8.37317274861555,39.801694694049,286.388200000001 -8.3733073620592,39.8017545412249,286.721099999995 -8.37341129803591,39.8018539507632,287.083700000003 -8.37352512446386,39.8021282065252,287.818499999994 -8.37358899378225,39.8024276077005,288.512900000002 -8.37374070665732,39.80270354027,289.310299999997 -8.37371639914406,39.802843350173,289.553799999994 -8.37384363652088,39.8030019361803,290.006399999998 -8.37374506528307,39.8031627005594,290.060599999997 -8.37368354236423,39.8034802075167,290.027400000006 -8.37377758699133,39.8042756503132,290.107300000003 -8.3740783294737,39.8051079730341,291.236099999995 -8.37412090961818,39.8057394652435,292.788100000005 -8.37427446583623,39.8062447266053,293.439700000003 -8.37441092352112,39.8069337192218,295.645699999994 -8.37432894865819,39.8071097391889,296.599700000006 -8.37418058919408,39.8072907880643,297.709000000003 -8.37395813309206,39.807812813241,300.202499999999 -8.37400255747779,39.8082002244178,301.327300000004 -8.37391018910704,39.8089562723652,302.536600000007 -8.37366661091773,39.8095740183333,305.135999999999 -8.37354591147953,39.8097636174988,306.661099999998 -8.37354825787905,39.8103389508388,309.596999999994 -8.37359385546458,39.8108646639685,311.5291 -8.37370013784077,39.8109345689387,311.000199999995 -8.37388973716296,39.8114138463857,311.577099999995 -8.37370583765126,39.8120718258154,317.6296 -8.37359905221849,39.8125090259655,321.007400000002 -8.37353551797171,39.8130917355139,324.095600000001 -8.37357139219256,39.8148482471445,324.361999999994 -8.37368018895326,39.8153907239942,324.041599999997 -8.37377876019107,39.8158492144314,323.121499999994 -8.37379233912489,39.8166394599142,324.133799999996 -8.37359871714687,39.8170126227329,327.651100000003 -8.37360659627025,39.8172101003651,328.229999999996 -8.3738600649108,39.8176189695254,326.933499999999 -8.37403222883165,39.8187153225475,330.982000000004 -8.37402451769323,39.8187915976368,331.387100000007 -8.37463103232529,39.8195137822265,326.423800000004 -8.37500654158879,39.8199132638726,323.592000000004 -8.37593458571891,39.8211678670449,324.650299999994 -8.37622946130421,39.8215852859051,326.241399999999 -8.3769400789996,39.8221339652519,325.992400000003 -8.37754458230375,39.8224915374426,324.937600000005 -8.37786410047389,39.8226767771655,323.607199999999 -8.37806208017936,39.8228774398023,323.386799999993 -8.37936211397369,39.8237305502773,319.217600000004 -8.37951701137643,39.8238574524557,319.436300000001</coordinates>
</LineString>
</Placemark>
</Folder>
</Document></kml>
