<?xml version="1.0" encoding="UTF-8"?>

<kml xmlns="http://www.opengis.net/kml/2.2" xmlns:atom="http://www.w3.org/2005/Atom" xmlns:gx="http://www.google.com/kml/ext/2.2" xmlns:xsd="http://www.w3.org/2001/XMLSchema">
<Document>
<name>ES23a_10a_andorra-albalate_del_arzobispo</name>
<visibility>1</visibility>
<Schema name="ES23a_10a_andorra-albalate_del_arzobispo" id="kml_schema_ft_ES23a_10a_andorra-albalate_del_arzobispo">
<SimpleField type="xsd:string" name="id">
<displayName>id</displayName>
</SimpleField>
<SimpleField type="xsd:string" name="nombre">
<displayName>nombre</displayName>
</SimpleField>
<SimpleField type="xsd:double" name="longitud">
<displayName>longitud</displayName>
</SimpleField>
<SimpleField type="xsd:string" name="_formato">
<displayName>_formato</displayName>
</SimpleField>
</Schema>
<Folder id="kml_ft_ES23a_10a_andorra-albalate_del_arzobispo">
<name>ES23a_10a_andorra-albalate_del_arzobispo</name>
<Placemark id="kml_1">
<name>&lt;img height='20' src='https://nco.ign.es/iconos/icono_todos_caminos_azul.png' /&gt;&lt;img height='20' src='https://nco.ign.es/iconos/Camino Santiago_20.png' /&gt;&lt;img height='20' src='https://nco.ign.es/iconos/icono_todos_caminos_azul.png' /&gt;  Camino de Santiago </name>
<visibility>1</visibility>
<description><![CDATA[<!DOCTYPE html>
<html>
<head>
<style>
#nco {
  border-collapse: collapse;
  overflow:hidden;
}
#nco th, #nco td {
  padding: 4px;
  text-align: left;
}
#nco th {
  color: #364B5F;
  padding-right: 5px;
}
#nco td {
  color: rgb(51, 51, 51);
  font-size: 12px;
  padding-right: 5px;
}
</style>
</head>
<body>
<table id="nco">
<tr>
<td>Caminos del Nordeste</td>
</tr>
<tr>
<th><b>Camino: </b></th>
<td>ES23a Camino de Santiago de Castellón - Bajo Aragón</td>
</tr>
<tr>
<th><b>Etapa: </b></th>
<td>10a Andorra-Albalate del Arzobispo</td>
</tr>
<tr>
<th><b>Longitud: </b></th>
<td>21.73 km</td>
</tr>
</table>
</body>
</html>]]></description>
<Style>
<IconStyle>
<scale>0.8</scale>
</IconStyle>
<LabelStyle>
<color>ffffffff</color>
<scale>0.75</scale>
</LabelStyle>
<LineStyle>
<color>ffff0000</color>
<width>3.0</width>
<gx:labelVisibility>1</gx:labelVisibility>
</LineStyle>
<PolyStyle>
<color>66ff0000</color>
</PolyStyle>
</Style>
<ExtendedData>
<SchemaData schemaUrl="#kml_schema_ft_ES23a_10a_andorra-albalate_del_arzobispo">
<SimpleData name="id">ES23a_10a</SimpleData>
<SimpleData name="_formato">kml</SimpleData>
</SchemaData>
</ExtendedData>
<LineString>
<extrude>0</extrude>
<tessellate>1</tessellate>
<coordinates>-0.445705019367532,40.976465028438,702.0 -0.445298999723723,40.9772609739942,700.0 -0.444581005961533,40.9780510523947,698.0 -0.443675928159964,40.9788359338967,698.0 -0.443611051830152,40.9793549412564,698.0 -0.443561933747024,40.9796060631737,698.0 -0.443620942281429,40.9798580230364,698.739199999996 -0.444525014868212,40.9800239849619,700.0 -0.444977972383894,40.9801069654289,700.0 -0.445409975797315,40.9802340350219,700.0 -0.445871986534445,40.9804199456874,699.0 -0.446211956648667,40.9805989832882,697.009000000005 -0.446061920029917,40.980741978645,697.089099999997 -0.446273982624088,40.9809570583881,694.135599999994 -0.446619987620378,40.9811230202608,692.0 -0.447124075445453,40.9815260217979,689.0 -0.448036026257247,40.9826520466802,685.0 -0.448701046367134,40.9833400332929,684.0 -0.449033975486173,40.9836280353673,683.484700000001 -0.449516941223962,40.9840209791492,682.0 -0.449065994137851,40.9846279962612,681.0 -0.450267959750946,40.9851949485719,680.0 -0.452070068245785,40.9859060689017,679.0 -0.453272033858846,40.9864579338859,678.0 -0.453883074203314,40.9868069563743,678.0 -0.454366039042806,40.9872119696809,678.0 -0.454869959781187,40.9883539199994,677.0 -0.454902984545981,40.989632998564,675.0 -0.455277990752931,40.9900700312596,676.0 -0.455782078577973,40.9903620567444,677.0 -0.456565953884793,40.9906049640481,678.0 -0.457478072681578,40.990788024741,681.694000000003 -0.458304025076276,40.9910059541526,682.094800000006 -0.459177922354359,40.9911720839835,683.615099999995 -0.460036061385692,40.9914510337207,684.0 -0.460439063588452,40.9917060110936,684.475399999996 -0.460566971108503,40.9920870524192,685.840599999996 -0.461232997331505,40.9924509946453,689.314299999998 -0.463120937156815,40.992913004613,696.696800000005 -0.463699958849604,40.9933180183839,695.620800000004 -0.464102961052363,40.9938199271075,696.367499999993 -0.464237071439439,40.9940670254463,697.013399999996 -0.464317034974469,40.9943139560646,698.0 -0.464435052043244,40.9945040579059,699.0 -0.464756917511231,40.9947070673753,701.085200000001 -0.464965961766021,40.9948929779214,702.421799999996 -0.46510007215313,40.9950750327342,703.938200000004 -0.465368963968814,40.9950389906537,704.0 -0.46564204642529,40.9953710817647,706.0 -0.465963072866788,40.9956820504678,711.150599999994 -0.467145926822201,40.9957080345778,717.895300000004 -0.469233021349355,40.9963599785403,736.0 -0.470240022901399,40.9967949997666,744.544899999994 -0.471036974085469,40.9977099681341,751.704599999997 -0.472071971633355,40.9982670293858,756.738899999997 -0.473932921575938,40.998963062715,776.237200000003 -0.474935062343953,40.9995429223876,793.506500000003 -0.475604944136164,41.0004550411014,815.690100000007 -0.475694965209097,41.001074967069,829.324200000003 -0.476071983642246,41.0016300168771,839.257700000002 -0.475870985597424,41.0018439227573,838.0 -0.476757958752792,41.0020809628458,829.039600000004 -0.477738976535224,41.0032190578294,816.387700000007 -0.478456970297414,41.004519929227,796.0 -0.479717943546549,41.0050330691014,779.651599999997 -0.480698961329015,41.0053210713295,770.930800000002 -0.481694061101848,41.0052459694377,765.142999999996 -0.482586063026133,41.0053629812175,763.977700000003 -0.483814012408805,41.0058749478499,752.346000000005 -0.48445707230328,41.0058169447699,749.319900000002 -0.485167018957138,41.0064869944432,738.0 -0.484337043008274,41.0072690258969,734.0 -0.484141073732403,41.0082109838372,728.088699999993 -0.4836059733688,41.0088059316689,725.0 -0.483461972530448,41.0092149685751,722.0 -0.483446046298774,41.0096270228445,720.035900000003 -0.483012031557452,41.0099490555082,719.0 -0.482176020726488,41.0101820724784,715.777799999996 -0.482209045491281,41.0110070190844,712.113500000007 -0.480630062343335,41.0137859554794,703.997600000002 -0.478886962382866,41.0158100172335,697.0 -0.478272065570893,41.0168160137723,697.622300000003 -0.478551014924513,41.0178890650097,704.002399999998 -0.478328056664247,41.0186850100514,702.763500000001 -0.478737931877232,41.0196879886524,704.006800000003 -0.479253083353326,41.0204510773608,704.149000000005 -0.480622016133333,41.0214760165148,705.867299999998 -0.482112988637951,41.0218490110464,698.820600000006 -0.482685975448673,41.0219100315517,697.527199999997 -0.483661964462154,41.0215189313902,698.757400000002 -0.484032948013235,41.0218669481734,699.798500000004 -0.484086926880324,41.0221110291109,699.809099999999 -0.48325996837251,41.0227959987294,695.205199999997 -0.482892003160776,41.0240499310673,689.956399999995 -0.482136961079627,41.0253670634452,686.0 -0.481708981220373,41.0265219222158,681.646800000002 -0.481782070846846,41.0271059728142,679.196400000001 -0.480374079318308,41.0304459939714,665.0 -0.480712037206266,41.031641923629,661.0 -0.48036200955414,41.0329699528747,655.768500000006 -0.480298977465603,41.0340589291856,652.519899999999 -0.481273960365969,41.0348880672765,649.512799999997 -0.482417922659445,41.0355849388631,649.0 -0.482689999002839,41.0363689822355,649.245299999995 -0.482772979978886,41.0371939288301,647.0 -0.482855960954932,41.0383600189435,645.0 -0.482705924336182,41.0389390413336,647.0 -0.482783038415119,41.0394260295878,648.0 -0.483724996550691,41.0416049891401,650.0 -0.483564064265846,41.0424740247624,648.401800000007 -0.482936929704747,41.042945926155,647.0 -0.482529066717994,41.0435680309333,647.0 -0.482288002913195,41.0448239755433,646.0 -0.48191098537831,41.0454700521429,647.0 -0.48020895549434,41.0464279362648,642.980800000005 -0.4818749431725,41.0466460332807,645.320300000007 -0.482272077579818,41.0471469362206,645.0 -0.482530071932779,41.0477160673889,645.019499999995 -0.483204983392272,41.0486600368539,648.0 -0.484042000336353,41.0482479828933,649.0 -0.484654046793936,41.0478429693807,649.0 -0.485120080186935,41.0475440702079,648.801500000001 -0.485178921634646,41.0479440546403,644.802200000006 -0.488025080000488,41.0480550315231,615.645900000003 -0.488428082203248,41.0479809356239,608.765100000004 -0.488653052689745,41.0479060009283,601.819199999998 -0.488830078292891,41.0479160593863,598.371899999998 -0.488940049151664,41.0481019701965,594.235400000005 -0.489315055358581,41.0482030557357,588.349300000002 -0.489642955708635,41.0482920713122,585.314799999993 -0.489953923713933,41.0482230045465,581.705900000001 -0.490030031679721,41.0483909778186,581.643800000005 -0.490103960332683,41.0486159480042,579.246499999994 -0.490319039469574,41.0488910423242,576.596799999999 -0.490807033976315,41.0493160046396,566.952499999999 -0.491322018365748,41.0497200125482,558.640100000004 -0.491735078106444,41.0498899974235,555.1149 -0.491869021406893,41.0501979488738,549.146200000003 -0.492007993476293,41.0510190402396,533.702099999995 -0.492238998844859,41.051828061006,523.785499999998 -0.492223072613185,41.0520909176538,517.776500000007 -0.492318961481558,41.0524189851821,515.634399999995 -0.492340922595299,41.0527380006852,513.613899999997 -0.49248006175136,41.0530169505897,509.421900000001 -0.493928958066363,41.0547850288499,498.0 -0.494797993662122,41.0551529946585,494.987099999998 -0.495194960084483,41.0554200419461,492.0815 -0.495650935939546,41.0556750196966,486.0 -0.496037006695846,41.0559990639401,480.0 -0.496123005112943,41.0561690488496,479.287500000006 -0.496131051322945,41.0563819491793,478.726999999999 -0.496224928863384,41.056641956166,475.925399999993 -0.496379994251085,41.0569009568908,471.0 -0.496826078756575,41.0572769689488,463.064599999998 -0.496782995555548,41.0574350517697,462.0 -0.496654081922381,41.0575959839248,461.036800000002 -0.496366080245676,41.0577709982634,461.0 -0.496234987299617,41.0578960560232,460.084000000003 -0.496175978765247,41.0581020835952,459.055600000007 -0.496116969332545,41.0585749905617,458.0 -0.496075060229591,41.0594009430713,456.0 -0.496214032298992,41.0597280048536,456.869900000005 -0.49634797470111,41.0600719980563,456.797300000006 -0.496256947515062,41.0609940076869,457.739199999996 -0.496234987299617,41.0613700200535,459.697899999999 -0.496025942146497,41.061737985602,461.723199999993 -0.496063995680242,41.0623780277708,459.0 -0.495800971659999,41.0629439738266,456.787700000001 -0.495768953008321,41.0632839438863,455.0 -0.495608020723476,41.0636390006727,453.261400000003 -0.495608020723476,41.0642339482865,452.021299999993 -0.495383050236979,41.0644439988322,451.277799999996 -0.495076943015708,41.0646570667633,449.0 -0.494894049617122,41.0647920155927,448.0 -0.494791958780021,41.0649859731057,447.178400000004 -0.494465064543083,41.0651480788273,446.0 -0.494217965856217,41.0653410301849,446.0 -0.493960976718041,41.0655690179916,443.593099999998 -0.493761990001121,41.0658680845139,441.928700000004 -0.493741035898826,41.0663859181407,439.418399999995 -0.493854023300319,41.0669240362415,438.0 -0.493665934046121,41.0672799321589,435.4761 -0.493805073202148,41.0675989473806,434.604999999996 -0.493800044433196,41.0679709362642,433.0 -0.493951924394924,41.0689489364771,429.152700000006 -0.495031010358622,41.0708920291388,422.9035 -0.494912993289847,41.0718710356049,420.0 -0.495042074907971,41.0722349779289,421.0 -0.496489964211561,41.072041020804,419.0 -0.498034078353406,41.0727070464566,418.0 -0.498832035650626,41.0728810548717,420.0 -0.499627981619911,41.0732510323458,422.0 -0.499362945373437,41.0735259586319,419.532399999996 -0.499244928304662,41.0738109436845,420.852599999998 -0.499009061253772,41.0741009570988,424.0 -0.49841897590993,41.0741170501816,421.0 -0.498292073604698,41.0746080627107,419.142099999997 -0.498332977492867,41.0747720124213,419.066000000006 -0.498381927591004,41.0748290093984,418.306200000006 -0.49840304967829,41.0749140016147,416.596099999995 -0.498915016626673,41.0751589212821,409.093200000003 -0.499122049553595,41.0753689714653,404.708599999998 -0.499698053805334,41.0763320523545,401.082599999994 -0.500394925480238,41.076751985416,398.666500000007 -0.500567927529251,41.0769529834515,397.122099999993 -0.50075199412758,41.078000050856,394.0 -0.501095987795969,41.0790739405516,391.156499999997 -0.501075032795343,41.0796320078536,391.586500000005 -0.501877013646695,41.0804500814612,390.093699999998 -0.50278997057164,41.0808579446962,396.699699999997 -0.504056978702876,41.0812490443852,405.230200000005 -0.504438020690191,41.0817849830529,405.979699999996 -0.504554025532734,41.082496941827,402.0 -0.50519892966845,41.0831520717783,398.742899999997 -0.505852047100829,41.0837619388807,392.009300000005 -0.506242979539454,41.0844499252634,380.000100000005 -0.50609294292067,41.0850049751605,375.0 -0.506401062368205,41.0853360601458,375.747300000003 -0.506943035742035,41.0860510367946,373.047500000001 -0.507435053802941,41.0868050728161,371.523799999995 -0.507656000735273,41.08709005717,371.138399999996 -0.507866051103213,41.0872679213327,370.483500000002 -0.508192945340151,41.0873450346754,372.527900000001 -0.508449934478326,41.0875549179499,374.019700000004 -0.508970953749861,41.0881699819237,373.191000000006 -0.509137082788614,41.0883719856785,372.578299999994 -0.509394071926757,41.0884529549166,371.0 -0.509759019697474,41.0888209205588,369.0 -0.509818028231844,41.0891850303778,364.792600000001 -0.510285068636256,41.0890879678891,361.179900000003 -0.510596036641554,41.0890670131892,356.7261 -0.511004067613265,41.0889910731657,349.128599999996 -0.511239934664155,41.0891689369219,347.053199999995 -0.510917063981349,41.092145015693,346.0 -0.510392021155682,41.0936079929781,345.0 -0.509791039247449,41.0945459277649,344.0 -0.509040020720465,41.0949420565848,344.630499999999 -0.508160926688473,41.0952729743807,343.787299999996 -0.506744049923444,41.0956689349867,342.398499999996 -0.505886077978738,41.0961299399346,342.4283 -0.50525307652053,41.0969709801298,341.0 -0.504813026897141,41.0987420763719,340.215200000006 -0.505394059917831,41.0991330080169,339.0 -0.504995919397397,41.1001240846645,338.6204 -0.504985023731335,41.1016849626084,338.180399999997 -0.505782980130224,41.1023920594328,339.515799999994 -0.506401062368205,41.102799923209,336.867899999997 -0.506742037697213,41.1033100456817,336.0 -0.506970025624761,41.1039160575735,335.0 -0.507022999277065,41.1045629724389,335.0 -0.506582949653676,41.1060100244738,333.406900000002 -0.506033934386299,41.1058899953738,333.096600000004 -0.505575947203302,41.1061230125072,333.829100000003 -0.505414008805375,41.1067129309422,336.662299999996 -0.505242012869477,41.107319948384,333.547399999996 -0.505467988570794,41.1079259598213,332.570600000006 -0.505966041513768,41.1085329775557,331.213499999998 -0.506822001232243,41.109618936465,331.326300000001 -0.508159082447199,41.1115640409377,328.436600000001 -0.508742965822313,41.1139290790153,328.939499999993 -0.509716942609562,41.1152839300043,326.0 -0.509901009207891,41.1163549695471,325.0 -0.510454047131103,41.1169980288408,324.0 -0.510776918712206,41.1186299856228,324.0 -0.510719083377578,41.1188909977081,323.979699999996 -0.510501992014455,41.1191089274678,323.842300000004 -0.510253049086281,41.1192579577436,324.0 -0.510010980066664,41.119597927522,325.904399999999 -0.51075596371158,41.1200119935887,329.216400000005 -0.510426052033591,41.1202480282142,329.0003 -0.510120950925437,41.1206780195959,338.771299999993 -0.510757975039482,41.1207889962044,340.937900000004 -0.511271953315833,41.1207519483055,342.0</coordinates>
</LineString>
</Placemark>
</Folder>
</Document></kml>
