<?xml version="1.0" encoding="UTF-8"?>

<kml xmlns:xsd="http://www.w3.org/2001/XMLSchema" xmlns:gx="http://www.google.com/kml/ext/2.2" xmlns:atom="http://www.w3.org/2005/Atom" xmlns="http://www.opengis.net/kml/2.2">
<Document>
<name>ES35a_03a_valverde_del_camino-minas_de_rio_tinto</name>
<visibility>1</visibility>
<Schema name="ES35a_03a_valverde_del_camino-minas_de_rio_tinto" id="kml_schema_ft_ES35a_03a_valverde_del_camino-minas_de_rio_tinto">
<SimpleField type="xsd:string" name="id">
<displayName>id</displayName>
</SimpleField>
<SimpleField type="xsd:string" name="nombre">
<displayName>nombre</displayName>
</SimpleField>
<SimpleField type="xsd:double" name="longitud">
<displayName>longitud</displayName>
</SimpleField>
<SimpleField type="xsd:string" name="_formato">
<displayName>_formato</displayName>
</SimpleField>
</Schema>
<Folder id="kml_ft_ES35a_03a_valverde_del_camino-minas_de_rio_tinto">
<name>ES35a_03a_valverde_del_camino-minas_de_rio_tinto</name>
<Placemark id="kml_1">
<name>&lt;img height='20' src='https://nco.ign.es/iconos/icono_todos_caminos_azul.png' /&gt;&lt;img height='20' src='https://nco.ign.es/iconos/Camino Santiago_20.png' /&gt;&lt;img height='20' src='https://nco.ign.es/iconos/icono_todos_caminos_azul.png' /&gt;  Camino de Santiago </name>
<visibility>1</visibility>
<description><![CDATA[<!DOCTYPE html>
<html>
<head>
<style>
#nco {
  border-collapse: collapse;
  overflow:hidden;
}
#nco th, #nco td {
  padding: 4px;
  text-align: left;
}
#nco th {
  color: #364B5F;
  padding-right: 5px;
}
#nco td {
  color: rgb(51, 51, 51);
  font-size: 12px;
  padding-right: 5px;
}
</style>
</head>
<body>
<table id="nco">
<tr>
<td>Caminos Andaluces</td>
</tr>
<tr>
<th><b>Camino: </b></th>
<td>ES35a Camino Sur de Huelva</td>
</tr>
<tr>
<th><b>Etapa: </b></th>
<td>03a Valverde del Camino-Minas de Río Tinto</td>
</tr>
<tr>
<th><b>Longitud: </b></th>
<td>26.04 km</td>
</tr>
</table>
</body>
</html>]]></description>
<Style>
<IconStyle>
<scale>0.8</scale>
</IconStyle>
<LabelStyle>
<color>ffffffff</color>
<scale>0.75</scale>
</LabelStyle>
<LineStyle>
<color>ffff0000</color>
<width>3.0</width>
<gx:labelVisibility>1</gx:labelVisibility>
</LineStyle>
<PolyStyle>
<color>66ff0000</color>
</PolyStyle>
</Style>
<ExtendedData>
<SchemaData schemaUrl="#kml_schema_ft_ES35a_03a_valverde_del_camino-minas_de_rio_tinto">
<SimpleData name="id">ES35a_03a</SimpleData>
<SimpleData name="_formato">kml</SimpleData>
</SchemaData>
</ExtendedData>
<LineString>
<extrude>0</extrude>
<tessellate>1</tessellate>
<coordinates>-6.59189376964291,37.6935783211755,414.675799999997 -6.59235125376934,37.6932152177833,421.168699999995 -6.5930261652288,37.6926851461204,426.149900000004 -6.59368917311245,37.6921554097406,429.768500000006 -6.59422863300013,37.6917708481513,426.789399999994 -6.5945045649127,37.6918283478389,427.884300000005 -6.59486934559676,37.6922512988989,431.537400000001 -6.59509398011334,37.6924802921851,433.905499999993 -6.59545842572578,37.6926484334446,436.486000000004 -6.59601381004851,37.6925937834364,442.2837 -6.59649929017078,37.6925694755753,442.6014 -6.5967834371766,37.6923061162073,442.074900000007 -6.5971259216753,37.6922672239013,439.035600000003 -6.5977396443892,37.6921919549016,435.458400000003 -6.59803183760503,37.6923433316176,434.347999999998 -6.59837935087271,37.6924082079693,433.027400000006 -6.59891914583198,37.6925238780552,431.246599999999 -6.59951744626908,37.6926187608999,431.963600000003 -6.60047499466641,37.6927781848465,433.566500000001 -6.60168366530477,37.6929770036763,432.042199999996 -6.60344654706613,37.6930930090996,428.703999999998 -6.60373739909722,37.6932162236124,427.615099999995 -6.60404702681608,37.6932349988481,426.459199999998 -6.60404954120059,37.6929697950929,424.877699999997 -6.60437123868359,37.69241809861,427.791100000002 -6.60467499860704,37.6921198704055,429.150500000003 -6.60510331353788,37.6918900386297,427.169500000004 -6.60597737880089,37.6917911321701,427.429000000004 -6.60676544564683,37.6917968317402,427.459799999997 -6.60730691596412,37.6920025235172,427.872399999993 -6.60793019495601,37.6923567430648,427.653399999996 -6.60838583484116,37.6926920192158,427.970600000001 -6.60908421478745,37.6927188412709,428.368700000006 -6.6097244252258,37.6927956195541,426.580600000001 -6.61023722940408,37.6930569669429,426.699099999998 -6.61069521658704,37.6931273750921,427.227100000004 -6.61114566061661,37.6930286366183,428.412899999996 -6.61202274242234,37.6929897439803,426.618000000002 -6.61277644331876,37.6932195759018,427.574900000007 -6.61325488244584,37.6933976074166,427.128299999997 -6.61408469040975,37.693324014285,427.9666 -6.61501826726373,37.693198621247,428.139800000004 -6.61558723052029,37.6927354372037,426.184500000003 -6.61597581566103,37.6920010151044,426.589300000007 -6.61641787751068,37.691433560394,428.306599999996 -6.61713352397503,37.6908818631443,424.768599999996 -6.61780273562403,37.6905945319078,427.684999999998 -6.61919279049129,37.690842468227,423.865699999995 -6.62027539695258,37.6909777525278,423.568700000003 -6.62148423467761,37.6909638382568,423.231299999999 -6.62217037777308,37.6909916660853,425.782999999996 -6.62323186214711,37.6910072565457,428.410699999993 -6.62390056984122,37.6910468191371,429.883600000001 -6.6244965229805,37.6911489105003,431.4427 -6.62506129559626,37.6914702729605,433.1054 -6.6253962369415,37.6915292813036,436.191200000001 -6.62656249452207,37.6912297124114,421.187999999995 -6.62791717822502,37.6909941810886,419.323799999998 -6.62875084175813,37.6908671107565,424.218800000002 -6.62903465369238,37.6902844015276,421.411600000007 -6.62926465294783,37.6894011162271,417.021999999997 -6.62957025711255,37.6888645071075,413.136499999993 -6.62976857278791,37.6883310824023,406.935299999997 -6.62964384979557,37.6875750348587,398.699500000002 -6.62957578893805,37.6871817560303,395.150599999994 -6.62979153911647,37.6868027264239,394.160300000003 -6.63001433029011,37.6865544545625,393.595300000001 -6.63051556776076,37.6860272322145,389.457899999994 -6.63123171817997,37.6853072270317,389.1826 -6.63143606873743,37.684696186108,388.710900000005 -6.63144428293239,37.6840678789925,386.717399999994 -6.63137957458753,37.6835426686629,383.436700000006 -6.63140907885474,37.6827507469531,376.564199999993 -6.63132961837628,37.6820925994377,370.097800000003 -6.63141997541913,37.6815471053697,365.988299999997 -6.63154637466782,37.6809384116016,362.827300000004 -6.63144713238848,37.6805072463467,363.120599999995 -6.63154503348309,37.6801164823849,362.563599999994 -6.63189992281754,37.6798036691001,360.689599999998 -6.63261255273919,37.6796030069736,358.466 -6.63338016674272,37.6793389766212,356.961899999995 -6.63410050780276,37.6789057999777,356.229500000001 -6.63465673115194,37.6785086650727,355.650800000003 -6.6351640035047,37.6782823538194,356.727199999994 -6.63540037361213,37.6781277916619,356.071800000005 -6.63582885652792,37.677711378588,355.878200000006 -6.63598224476101,37.6772569119166,352.600000000006 -6.63625096859174,37.6767679117753,351.095000000001 -6.63672655826273,37.6763189772663,350.769700000004 -6.63692537699465,37.6759949326833,351.176099999997 -6.63714414461409,37.6750564950397,348.518700000001 -6.63792131489565,37.6751875876022,350.305800000002 -6.63833353650818,37.6754385417311,352.606700000004 -6.63907583778363,37.6756561362487,357.5723 -6.63960004248114,37.6758028192752,357.747399999993 -6.63983490341892,37.6758189127614,358.153300000005 -6.63979768711503,37.6756573094012,359.555900000007 -6.63929091781885,37.6754713993341,360.979099999997 -6.63895932988455,37.6750784552073,362.396299999993 -6.63883360077906,37.6749041118029,363.698600000003 -6.63883913350288,37.6748025228045,364.460300000006 -6.63926040743854,37.6746342145271,368.762499999997 -6.63986759221379,37.6744836755012,376.004100000006 -6.64008032495117,37.6743666640375,379.860100000005 -6.64021141789723,37.6741656658265,381.897299999997 -6.64003020165329,37.6737225985527,381.830300000001 -6.63968922542595,37.6732748372947,379.157500000001 -6.63928303869548,37.6727509683449,379.518500000006 -6.63907583778363,37.6722795700164,383.673999999999 -6.63903359360909,37.6716665176199,386.425700000007 -6.63899084547965,37.6710435744905,386.051200000002 -6.63910131939497,37.6707859152454,384.585000000006 -6.63954874508519,37.6704015208813,386.522500000006 -6.64016263578405,37.6699044740403,394.120299999995 -6.64128832544636,37.6695868002709,396.485799999995 -6.64294643310282,37.6691160722857,387.095400000006 -6.64473379036238,37.6682500543215,386.526400000002 -6.64655601572969,37.6673743128876,390.628400000001 -6.6475744169027,37.6668745834673,387.535300000003 -6.64822820537658,37.6664447600861,386.299199999994 -6.64896681906781,37.6659928078144,383.9323 -6.64966000226017,37.6653666796864,380.400099999999 -6.65022963655825,37.6647247931411,376.731499999994 -6.65082089600013,37.664023730779,373.913100000005 -6.65126228680826,37.6632688570369,371.013099999996 -6.65184466191201,37.6626363584184,367.759699999995 -6.65255729093533,37.6621559078602,366.270900000003 -6.65349757281459,37.6613172145611,365.955000000002 -6.65460566088721,37.6601209490834,363.647100000002 -6.65591139359372,37.6587245239177,365.744900000005 -6.65662586685832,37.6577855834131,369.175799999997 -6.65676165350171,37.6573036236348,371.482499999998 -6.65676685025562,37.6566595587089,374.669599999994 -6.65650365914875,37.6557997427973,376.660000000003 -6.65572799713856,37.6549841834264,378.232999999993 -6.65410123799055,37.6538348568097,373.281199999998 -6.65331149488829,37.6532449387113,369.721399999995 -6.65258595707434,37.651960495971,371.056400000001 -6.65189780265097,37.6509382387333,366.709600000002 -6.65119523206388,37.6496036726538,360.024399999995 -6.65043214377273,37.6483006214488,354.462299999999 -6.65018336882951,37.6477328317799,353.999400000001 -6.64992051189593,37.6471264845505,355.957500000004 -6.64990207217808,37.6465028710104,354.462400000004 -6.65019527060873,37.645479440417,350.1201 -6.65061285696013,37.6439735482527,346.919200000004 -6.65086012363199,37.6430099641127,347.905400000003 -6.65118936426844,37.6422195510654,350.092600000004 -6.65140477937525,37.6418618115218,351.373699999996 -6.65190853212871,37.6413780077697,352.060700000002 -6.6528271879658,37.6408521275525,353.716 -6.65359111528341,37.6406724192387,356.685400000002 -6.6542708875269,37.6404182795639,358.310899999997 -6.65501369185892,37.6399421880464,362.062999999995 -6.65528627125886,37.6396917363369,360.516600000003 -6.65560813582851,37.639244310432,360.349600000001 -6.65591089053715,37.6386101360783,362.602799999993 -6.65621297420425,37.6379603703585,364.169899999994 -6.65657188709287,37.6372697016397,366.231599999999 -6.65694069133109,37.6365786978451,368.197400000005 -6.65730631014331,37.6358253320808,372.012000000002 -6.6575730217478,37.6354578698174,379.398799999995 -6.65776228510007,37.6355145310241,373.093200000003 -6.65782917275779,37.6352781612607,373.941399999996 -6.6581183485326,37.6351676882693,376.638800000001 -6.65821272912961,37.6348914204165,376.594500000007 -6.65829151856653,37.6344984770344,375.856299999999 -6.658465359642,37.6340401546421,376.678100000005 -6.65865613126563,37.6335265112979,377.793000000005 -6.65877280714967,37.6333042232083,377.5242 -6.65871530778499,37.6331342386707,376.544599999994 -6.65922643660522,37.6321419889194,377.856499999994 -6.65971057464445,37.6310022176201,378.379000000001 -6.6603112223794,37.6298352888172,378.296199999997 -6.66091186921602,37.6286683601893,376.373200000002 -6.66150346372955,37.6275173571175,370.202000000005 -6.66209505914134,37.6263663547196,367.547500000001 -6.66262345358138,37.625529840625,364.7981 -6.66370773719729,37.6246135306288,363.769499999995 -6.6647516190833,37.6236750930945,356.9139 -6.66542652964449,37.6230214720503,360.006399999998 -6.6657205671016,37.6224109344052,360.997900000002 -6.66590346050018,37.6215382106781,361.464600000007 -6.66603304427655,37.620581332761,361.642699999997 -6.66624661514208,37.6197309049204,364.034499999994 -6.66635256244669,37.6192901839357,364.387000000002 -6.66685145351782,37.6184545088221,363.180300000007 -6.66731748691082,37.6179479060385,363.792400000006 -6.66808560486922,37.6173928568496,366.8511 -6.66878180550263,37.6170815524833,367.366500000004 -6.66966944969949,37.6168515530824,364.190900000001 -6.67081290893643,37.6166522314574,361.421300000002 -6.67401814817584,37.616308238036,354.435100000002 -6.675868201554,37.6160980200784,353.910699999993 -6.67673338247888,37.6161315479143,354.248300000007 -6.6781464036747,37.6163925604396,349.891199999998 -6.67854471128179,37.6167011822402,347.765299999999 -6.6791946441865,37.6166497167812,347.994699999996 -6.68065292789623,37.6166653072035,347.691399999996 -6.68176168611206,37.6162036322121,350.282000000007 -6.68247733257643,37.6159372551833,351.644700000004 -6.68311519571697,37.6157877221504,353.477700000003 -6.68437197832531,37.6160150393668,356.566099999996 -6.68531997134295,37.6161838512511,356.680399999997 -6.68611222882968,37.6166931351387,353.511100000003 -6.68861690880991,37.6176981252016,347.256699999998 -6.69139567735976,37.6188164389257,346.777900000001 -6.69499553752032,37.6202445475509,354.281199999998 -6.69910853693074,37.6219616640816,357.300799999997 -6.70026691628623,37.6224732955119,359.082699999999 -6.70084509985086,37.6225312985659,358.962299999999 -6.70350182777777,37.6223411970003,361.094400000002 -6.70621521783954,37.6221339965551,359.460900000005 -6.70890932915699,37.6219272985742,359.3171 -6.7113390752695,37.6218050906059,366.254400000005 -6.71419076635917,37.6220662703427,360.957200000004 -6.71579003346621,37.6222142951475,360.231799999994 -6.71704530690489,37.6222337408045,357.749800000005 -6.71779666140179,37.6220429689423,355.1054 -6.71995634249884,37.6211204563031,348.038400000005 -6.72232054213831,37.6200695339071,341.359800000006 -6.72468474177778,37.619018442962,337.123099999997 -6.72704877343232,37.6179673520999,329.077099999995 -6.72849046076718,37.6172657871607,327.661099999998 -6.72957507855637,37.6167127487462,324.422500000001 -6.73156075149133,37.615383714475,316.1198 -6.73262642740446,37.6145415008029,311.777900000001 -6.73319488760444,37.6142935643474,311.234800000006 -6.7342909050146,37.6143503932574,307.373999999996 -6.73572454613949,37.614640742185,305.891499999998 -6.73707319406204,37.6147658004408,301.164399999994 -6.73813316926639,37.6148695686188,297.463600000003 -6.73914117782984,37.6147004214404,293.984599999996 -6.74051681563512,37.6145958154894,286.784499999994 -6.74167636819039,37.6143912967818,284.754000000001 -6.74308670701677,37.6141926459956,277.789099999995 -6.74422480151484,37.6135614885116,274.202699999994 -6.7453085820742,37.612611818967,265.365699999995 -6.74634559094999,37.6114956848265,264.856100000005 -6.74778006930471,37.6098940706522,256.252900000007 -6.74912335338673,37.6083868367879,248.950400000002 -6.74989834435535,37.6074011248734,248.532399999996 -6.75043663014497,37.6062856612055,244.136100000003 -6.75137758216742,37.6051564511466,241.340200000006 -6.75253596152291,37.603776454785,238.276299999998 -6.75296930612103,37.6032440363408,237.0236 -6.75330458253789,37.602668870086,238.127699999997 -6.75342326974986,37.6019787039967,238.539499999999 -6.75313526807316,37.6012099162939,237.662299999996 -6.75250025438869,37.6000252178054,239.598499999993 -6.75240453350527,37.5996466912468,241.461500000005 -6.75194235478318,37.5990701840294,246.349000000002 -6.75138378503445,37.5987783259299,246.040399999998 -6.75073049961714,37.598753348207,244.823399999994 -6.74986666077529,37.5987350757597,244.811499999996 -6.74916291609013,37.5984676923957,244.043399999995 -6.7486566489522,37.5979346039283,244.109599999996 -6.74851985619569,37.5974963979209,245.266099999993 -6.74829354542279,37.5967854446859,246.735499999995 -6.7483725028447,37.596065774808,255.596999999994 -6.74893073752182,37.5953462716417,254.680200000003 -6.74989247655995,37.5950259159015,256.928899999999 -6.75019389008385,37.5949410909608,258.559099999999 -6.75048407197174,37.5946113465559,258.379100000006 -6.75102872771504,37.5939828714684,263.648799999995 -6.75204176414915,37.593538798412,275.547900000005 -6.75235876793481,37.5933609345534,278.408100000001 -6.75282798675382,37.5927815770089,282.764999999999 -6.75319461167915,37.5924496541861,286.516499999998 -6.75338739552901,37.5920927527713,288.080799999996 -6.75340583524683,37.5916954504326,292.549700000003 -6.75322880964369,37.5912282427242,295.340700000001 -6.75265900825897,37.5909566689947,294.287599999996 -6.75211535773049,37.5908213853666,294.415999999997 -6.75159534457208,37.5903955850283,299.347699999998 -6.75108756826445,37.5902135295825,303.592900000003 -6.75070384480603,37.5901786610959,302.232000000004 -6.75021903572527,37.5900720432205,300.630699999994 -6.7498269300869,37.5899017228016,297.515199999994 -6.74947539326508,37.5893941147605,290.705300000001 -6.74963548742177,37.5891450046707,291.139200000005 -6.74958821357995,37.5885817409323,288.178100000005 -6.74978150048636,37.5878427926246,286.904800000004 -6.74994461208409,37.5868917817714,284.261700000003 -6.7501504718112,37.5856495838162,283.524900000004 -6.7504681457401,37.585105598075,279.336200000005 -6.75114875701004,37.5845347906531,283.115999999995 -6.75163423623398,37.5838436184809,290.059699999998 -6.7518043888269,37.5819350589756,282.625799999994 -6.75192257388063,37.5800442698198,279.033599999995</coordinates>
</LineString>
</Placemark>
</Folder>
</Document></kml>
