<?xml version="1.0" encoding="UTF-8"?>

<kml xmlns:xsd="http://www.w3.org/2001/XMLSchema" xmlns:gx="http://www.google.com/kml/ext/2.2" xmlns:atom="http://www.w3.org/2005/Atom" xmlns="http://www.opengis.net/kml/2.2">
<Document>
<name>ES35a_02a_trigueros-valverde_del_camino</name>
<visibility>1</visibility>
<Schema name="ES35a_02a_trigueros-valverde_del_camino" id="kml_schema_ft_ES35a_02a_trigueros-valverde_del_camino">
<SimpleField type="xsd:string" name="id">
<displayName>id</displayName>
</SimpleField>
<SimpleField type="xsd:string" name="nombre">
<displayName>nombre</displayName>
</SimpleField>
<SimpleField type="xsd:double" name="longitud">
<displayName>longitud</displayName>
</SimpleField>
<SimpleField type="xsd:string" name="_formato">
<displayName>_formato</displayName>
</SimpleField>
</Schema>
<Folder id="kml_ft_ES35a_02a_trigueros-valverde_del_camino">
<name>ES35a_02a_trigueros-valverde_del_camino</name>
<Placemark id="kml_1">
<name>&lt;img height='20' src='https://nco.ign.es/iconos/icono_todos_caminos_azul.png' /&gt;&lt;img height='20' src='https://nco.ign.es/iconos/Camino Santiago_20.png' /&gt;&lt;img height='20' src='https://nco.ign.es/iconos/icono_todos_caminos_azul.png' /&gt;  Camino de Santiago </name>
<visibility>1</visibility>
<description><![CDATA[<!DOCTYPE html>
<html>
<head>
<style>
#nco {
  border-collapse: collapse;
  overflow:hidden;
}
#nco th, #nco td {
  padding: 4px;
  text-align: left;
}
#nco th {
  color: #364B5F;
  padding-right: 5px;
}
#nco td {
  color: rgb(51, 51, 51);
  font-size: 12px;
  padding-right: 5px;
}
</style>
</head>
<body>
<table id="nco">
<tr>
<td>Caminos Andaluces</td>
</tr>
<tr>
<th><b>Camino: </b></th>
<td>ES35a Camino Sur de Huelva</td>
</tr>
<tr>
<th><b>Etapa: </b></th>
<td>02a Trigueros-Valverde del Camino</td>
</tr>
<tr>
<th><b>Longitud: </b></th>
<td>27.65 km</td>
</tr>
</table>
</body>
</html>]]></description>
<Style>
<IconStyle>
<scale>0.8</scale>
</IconStyle>
<LabelStyle>
<color>ffffffff</color>
<scale>0.75</scale>
</LabelStyle>
<LineStyle>
<color>ffff0000</color>
<width>3.0</width>
<gx:labelVisibility>1</gx:labelVisibility>
</LineStyle>
<PolyStyle>
<color>66ff0000</color>
</PolyStyle>
</Style>
<ExtendedData>
<SchemaData schemaUrl="#kml_schema_ft_ES35a_02a_trigueros-valverde_del_camino">
<SimpleData name="id">ES35a_02a</SimpleData>
<SimpleData name="_formato">kml</SimpleData>
</SchemaData>
</ExtendedData>
<LineString>
<extrude>0</extrude>
<tessellate>1</tessellate>
<coordinates>-6.83403421160789,37.3831483345963,74.8352000000014 -6.8341710043644,37.3834247698519,75.915399999998 -6.8342920388742,37.3837147839414,76.7595000000001 -6.83438977198384,37.3841883613097,77.6460999999981 -6.83447275295992,37.3845318518728,77.6956999999966 -6.83466101109738,37.3850156553674,78.7522000000026 -6.83485094459285,37.3855319802211,79.3623999999982 -6.83500584199559,37.3860037138696,80.0791999999929 -6.83518789726602,37.3865269125956,81.1061000000045 -6.83539912083373,37.3871404679638,82.835699999996 -6.83561034529975,37.3877540233073,82.5807999999961 -6.83581905448295,37.3883154430637,80.6858999999968 -6.83617344165919,37.3888460171601,80.3896999999997 -6.83626061327603,37.3891534654611,80.3233999999939 -6.83662204054912,37.3900233393957,82.0219999999972 -6.83689679926192,37.3908442633369,77.3525999999983 -6.83705069144988,37.391458823971,76.3120999999956 -6.83689193757963,37.39235250257,74.8766999999934 -6.83671742636096,37.3933363706083,72.7829000000056 -6.83652346931132,37.3941415363803,74.2525000000023 -6.83613119658632,37.3948633859643,72.5429000000004 -6.83534899753582,37.3957528732384,69.5671000000002 -6.83452522355565,37.3966274407427,70.9464000000007 -6.83365853525774,37.397462614069,74.0293999999994 -6.83279184606154,37.3982977866524,75.8292999999976 -6.83194627985088,37.3991485501643,76.3046000000031 -6.83129416763332,37.3999848964438,77.9910999999993 -6.83054935197336,37.4008078314739,78.8871999999974 -6.82981727622077,37.4016793820405,80.1083000000071 -6.82908603949467,37.4025671927883,81.8395000000019 -6.8283462526037,37.4034878607998,82.7541999999958 -6.82749548963913,37.4044365252981,85.1376000000018 -6.82691277946379,37.4050341545307,87.1971000000049 -6.8258491157769,37.4056148528494,88.3359000000055 -6.8245510942088,37.4062113088415,91.5516999999963 -6.8239152432945,37.4065661991382,92.7793999999994 -6.8232411708615,37.4071748930718,94.614499999996 -6.82286683479775,37.4080511368632,97.2507999999943 -6.82264504973726,37.4089141376244,99.3613999999943 -6.82269282663565,37.4096544270029,100.812699999995 -6.82303262876492,37.4107112178929,100.016000000003 -6.8233035319085,37.4118191377384,96.2461000000039 -6.82365305740242,37.4126636978451,93.9691000000021 -6.82428522073247,37.4134420414521,91.6472000000067 -6.82521577924707,37.4142596122905,89.6429000000062 -6.8263263817042,37.415201738248,87.807799999995 -6.82741669930388,37.4161445351562,85.0368000000017 -6.82810099815807,37.4167418291236,83.5362000000023 -6.82832077189066,37.4170445839224,83.8251000000018 -6.82861346726473,37.417776827109,85.7627999999968 -6.82869628115415,37.4188012630625,79.9823999999935 -6.82864414563001,37.4199847875626,76.6953000000067 -6.8286094446089,37.4211108127393,74.8387999999977 -6.82843996215918,37.4219966117928,76.243100000007 -6.82798817784324,37.4229568432373,77.4541999999929 -6.82763110829757,37.4239710529884,80.8637000000017 -6.82748325189,37.4248806571108,81.1036000000022 -6.82776069297226,37.4259149840277,80.232799999998 -6.82815128944094,37.4269620518547,79.8390000000072 -6.82803243424401,37.4284412899375,79.8372999999992 -6.82792430762654,37.42992823935,79.4135999999999 -6.82806177052625,37.4308204090875,82.2975000000006 -6.82840442300991,37.4315266684674,85.8291000000027 -6.82905586418597,37.4320761857963,86.5663999999961 -6.83024307676713,37.4329098497375,90.7146000000066 -6.83146499126774,37.4338238127329,97.0102999999945 -6.83225892501079,37.434759903377,98.4906000000046 -6.83344949010462,37.4356586113666,101.245299999995 -6.83438558134305,37.4363781136568,105.096000000005 -6.83520767816857,37.4372644161128,108.672099999996 -6.83592366060286,37.4382762793861,112.060800000007 -6.83634694676471,37.439558543375,114.408299999996 -6.83690551651345,37.4406897647361,115.185299999997 -6.83766659347667,37.4413822774263,115.275899999993 -6.83863906199256,37.4420109207139,115.936199999996 -6.83917282117143,37.4426538125913,116.131800000003 -6.83951932922429,37.4438326436337,118.751499999998 -6.83986583727716,37.4450114739337,123.340100000001 -6.84052415236174,37.4460903926906,126.840200000006 -6.84113619881933,37.44706487264,129.394199999995 -6.84142520660918,37.4483188056567,131.143200000006 -6.841714214399,37.4495727383374,129.658200000005 -6.84200322218885,37.4508266706806,125.910900000003 -6.842292230877,37.4520806033983,126.151599999997 -6.84258140665181,37.4533345364891,127.607300000003 -6.84273445981328,37.4541283027915,129.177299999996 -6.84259029098997,37.4549073163758,131.920100000003 -6.84230128320012,37.4558541364623,128.973299999998 -6.8420122754103,37.4568009559717,129.506599999993 -6.84195108756304,37.4580010770686,126.471300000005 -6.8419157155004,37.4593064751234,126.793300000005 -6.84205468756979,37.4602231198284,128.091400000005 -6.84243354934592,37.4610339847678,130.068599999999 -6.84336343771733,37.4620225466019,134.947499999995 -6.8443040546682,37.4630189872298,134.435700000002 -6.84497041596278,37.4638531542132,136.495500000005 -6.84559972983677,37.4647619199524,139.343800000002 -6.84589544355019,37.4655429461116,141.420499999993 -6.84608588010224,37.4664659613224,143.526299999998 -6.84617355477565,37.4675797481593,148.407200000001 -6.84589946620603,37.4686157514803,151.687999999995 -6.84546360722343,37.4696896412589,154.672399999996 -6.84500813442494,37.4707804619636,158.985799999995 -6.84446364666661,37.4715318155977,162.713499999998 -6.84377314494539,37.472027186574,164.018700000001 -6.84292875193451,37.4725111571499,161.743199999997 -6.84200037273276,37.473152708207,161.624599999996 -6.84131590679194,37.4739657527922,159.146800000002 -6.84059472760374,37.474861443248,159.994500000001 -6.84017144144185,37.4755844659948,161.288199999995 -6.84011360610723,37.4762548506189,162.820000000007 -6.84032633884463,37.4774135652373,164.842900000003 -6.84037948048189,37.4786507334767,166.550799999997 -6.84047503427865,37.4799192512191,168.761199999994 -6.84073923149867,37.4810843354698,173.861300000004 -6.84109495985961,37.4822383559298,175.650999999998 -6.84103645348345,37.4836911077506,177.958899999998 -6.84097794800562,37.4851438591243,179.587599999999 -6.84092061572756,37.4866210857791,182.086299999995 -6.84086328344951,37.4880983124485,183.426200000002 -6.84080595117145,37.4895755391301,182.837799999994 -6.84072816784761,37.4910534358227,185.046499999997 -6.84048794217097,37.4925529581237,190.381899999993 -6.83991545841683,37.4939572626479,195.288 -6.83917030678695,37.4951878935013,200.733200000002 -6.83801896842664,37.4962768702447,195.654500000004 -6.83649949686964,37.4969702216094,195.869300000006 -6.83530490822168,37.4974166413684,197.764500000005 -6.83458272381866,37.4978965896468,198.572 -6.83397486800191,37.4984135850937,198.7209 -6.83362651660606,37.4990036712925,198.268700000001 -6.83345736922796,37.4998976846993,199.549299999999 -6.83345770429958,37.5011040082353,202.4712 -6.83347027712029,37.5023507328858,207.048699999999 -6.83316769039661,37.5030372106212,208.339999999997 -6.83232899719621,37.5036432221425,207.518400000001 -6.83054633453234,37.5047933872172,205.305600000007 -6.82857424053121,37.5058436394881,204.981799999994 -6.82738602183693,37.5062164664831,206.441999999995 -6.82576881717028,37.5062038936904,208.544500000004 -6.82396402540768,37.5061239303089,210.547900000005 -6.822100226009,37.5062903945751,210.334900000002 -6.82035326958103,37.5065426899125,209.948900000003 -6.81928273288391,37.506618127007,210.588900000002 -6.81802276484956,37.5063899719458,209.302599999995 -6.81677939408838,37.5062835213415,210.246299999999 -6.81550366780731,37.5067487170394,208.870899999994 -6.81422140448594,37.5076868201344,211.407300000006 -6.81295339024158,37.5087058918712,210.559299999994 -6.8121083270875,37.5091896953999,211.961899999995 -6.8107653780771,37.509339060593,212.479000000007 -6.8091862278425,37.509471662498,215.196500000005 -6.80762786462359,37.5096116401836,217.905599999998 -6.80575635318824,37.510234583485,215.402700000006 -6.80376179501682,37.5108531677371,218.332399999999 -6.8017672377437,37.5114717518506,220.323099999994 -6.80083902562862,37.5119337628174,217.703399999999 -6.80003771581876,37.5126769021912,214.916400000002 -6.79927026890186,37.5134840791435,216.309800000003 -6.79867414777765,37.5144406223015,215.310800000007 -6.79821213704049,37.5156211295166,221.576700000005 -6.79759405570084,37.5169533492586,219.947799999994 -6.79697597436116,37.5182855687302,226.062399999995 -6.79664270927224,37.5195840933616,232.171600000001 -6.79637197411358,37.5209050813263,231.379799999995 -6.79608129006744,37.5222349539064,234.316399999996 -6.79602228063474,37.522888910092,236.706399999995 -6.79585229602677,37.5231715478682,237.723800000007 -6.79590795204851,37.5234632377709,239.111499999999 -6.79602546606075,37.5239648111003,239.126199999999 -6.79615220038102,37.5242461075321,239.192500000005 -6.79569337506986,37.524480968426,241.234899999996 -6.79556965819061,37.5248680452485,243.803499999995 -6.79519481996865,37.5255484881585,251.799899999998 -6.79481998084836,37.5262289305616,245.725200000001 -6.79439887399936,37.5270087833959,251.218299999993 -6.79363494758005,37.5278892183159,253.092900000003 -6.7928470487191,37.5289009136461,254.392600000006 -6.79206971045259,37.5299203211871,257.171499999997 -6.79155640321777,37.5308986564162,261.061000000002 -6.79124794869869,37.5314791871078,259.277100000007 -6.78998613732136,37.5324327127812,262.285699999993 -6.78872432594403,37.5333862376616,265.343500000003 -6.78788328544582,37.5339593924786,266.652700000006 -6.78713209893388,37.5342851135264,265.435299999997 -6.78678978242014,37.5350052864784,261.187900000004 -6.78651485572235,37.5356418080049,259.876799999998 -6.78583139589465,37.5358920914833,259.489100000006 -6.78538011373692,37.5358739866802,261.371700000003 -6.78439071377457,37.5365497360729,262.351299999995 -6.78340215194038,37.5372417460165,265.340299999996 -6.78241677553219,37.537998799213,255.7552 -6.78192207600019,37.5391476227792,258.750499999995 -6.78171303084703,37.540279179668,262.227499999994 -6.78180741144404,37.5415396501616,265.833499999993 -6.78177455466421,37.5423069300506,262.613500000007 -6.78140323604151,37.5432643109664,267.946500000005 -6.78090685935489,37.544176932606,268.256299999994 -6.77980363386285,37.5448318944292,266.356700000004 -6.77852338186941,37.5456310248327,270.532900000006 -6.7772215047321,37.5464063507927,269.515799999994 -6.77584402268552,37.5471025519057,269.281700000007 -6.77446637265401,37.5477987529265,274.566200000001 -6.77358543527908,37.5481938757736,273.148499999996 -6.77204987040374,37.5483978912551,270.992899999997 -6.77037986006975,37.5487774240892,271.045400000003 -6.76864782376033,37.5495500679087,274.880900000004 -6.76691612252253,37.5503309260775,279.718900000007 -6.76515893967337,37.5510147211467,280.345799999996 -6.76426475843616,37.5515568627953,281.8514 -6.76369395093833,37.5520153530326,282.159100000004 -6.76321316541176,37.5530414659245,282.018500000006 -6.76277814455732,37.5541639696991,282.026500000007 -6.76225410784474,37.5551424732491,282.640100000004 -6.76204154309232,37.5555976107001,282.318199999994 -6.76141927021355,37.5562532434253,284.373099999997 -6.76071854296944,37.5569766017881,284.469899999996 -6.75999887295093,37.5577331519266,281.654999999999 -6.75921868522836,37.5583041270558,270.8891 -6.75807371772003,37.5589520486502,274.804699999993 -6.75681106731625,37.5597015580273,268.345499999996 -6.75557088108275,37.5604909661657,277.576000000001 -6.75460863898808,37.5611085447783,278.608900000007 -6.75366651286756,37.5617172384855,282.686000000002 -6.75316225705756,37.5624831763239,280.0095 -6.75283418962084,37.5634962130845,277.322899999999 -6.75246404509622,37.564486116019,275.021099999998 -6.75212457803857,37.5654750131935,272.110799999995 -6.75179533650378,37.56625989419,270.963300000003 -6.75179969512953,37.5667569415733,268.987800000003 -6.75173414865652,37.5672888570315,268.029599999994 -6.75136065072096,37.5678061876655,263.353400000007 -6.75106812243352,37.5683045761618,262.308000000005 -6.75117557890781,37.5686110185689,262.0003 -6.75081482177789,37.5693806449876,259.767300000007 -6.75041517208776,37.5701921802622,258.907999999996 -6.75011727995978,37.5709923167785,259.093599999993 -6.74980849036908,37.5719803757132,259.548299999995 -6.74997026078209,37.5727577137283,260.308000000005 -6.75020160122223,37.5736959834585,263.605299999996 -6.75033805890716,37.5745801068244,265.955300000001 -6.75036454573331,37.5755167004229,266.442299999995 -6.75058163709647,37.5763738341532,268.563200000004 -6.75087064488629,37.577236835112,268.041700000002 -6.75116250303053,37.5779529849874,269.046799999996 -6.75145570146118,37.5786936098164,271.9764 -6.75169777137909,37.5794359109754,274.801500000001 -6.75177823797066,37.5798164497029,277.479000000007 -6.75186691785889,37.580156084093,279.400099999999</coordinates>
</LineString>
</Placemark>
</Folder>
</Document></kml>
