<?xml version="1.0" encoding="UTF-8"?>

<kml xmlns:xsd="http://www.w3.org/2001/XMLSchema" xmlns:gx="http://www.google.com/kml/ext/2.2" xmlns:atom="http://www.w3.org/2005/Atom" xmlns="http://www.opengis.net/kml/2.2">
<Document>
<name>PT05a_02a_braga-ponte_de_lima</name>
<visibility>1</visibility>
<Schema name="PT05a_02a_braga-ponte_de_lima" id="kml_schema_ft_PT05a_02a_braga-ponte_de_lima">
<SimpleField type="xsd:string" name="id">
<displayName>id</displayName>
</SimpleField>
<SimpleField type="xsd:string" name="nombre">
<displayName>nombre</displayName>
</SimpleField>
<SimpleField type="xsd:double" name="longitud">
<displayName>longitud</displayName>
</SimpleField>
<SimpleField type="xsd:string" name="_formato">
<displayName>_formato</displayName>
</SimpleField>
</Schema>
<Folder id="kml_ft_PT05a_02a_braga-ponte_de_lima">
<name>PT05a_02a_braga-ponte_de_lima</name>
<Placemark id="kml_1">
<name>&lt;img height='20' src='https://nco.ign.es/iconos/icono_todos_caminos_azul.png' /&gt;&lt;img height='20' src='https://nco.ign.es/iconos/Camino Santiago_20.png' /&gt;&lt;img height='20' src='https://nco.ign.es/iconos/icono_todos_caminos_azul.png' /&gt;  Camino de Santiago </name>
<visibility>1</visibility>
<description><![CDATA[<!DOCTYPE html>
<html>
<head>
<style>
#nco {
  border-collapse: collapse;
  overflow:hidden;
}
#nco th, #nco td {
  padding: 4px;
  text-align: left;
}
#nco th {
  color: #364B5F;
  padding-right: 5px;
}
#nco td {
  color: rgb(51, 51, 51);
  font-size: 12px;
  padding-right: 5px;
}
</style>
</head>
<body>
<table id="nco">
<tr>
<td>Caminos Portugueses</td>
</tr>
<tr>
<th><b>Camino: </b></th>
<td>PT05a Caminho Português Porto - Braga - Ponte de Lima</td>
</tr>
<tr>
<th><b>Etapa: </b></th>
<td>02a Braga-Ponte de Lima</td>
</tr>
<tr>
<th><b>Longitud: </b></th>
<td>34.59 km</td>
</tr>
</table>
</body>
</html>]]></description>
<Style>
<IconStyle>
<scale>0.8</scale>
</IconStyle>
<LabelStyle>
<color>ffffffff</color>
<scale>0.75</scale>
</LabelStyle>
<LineStyle>
<color>ffff0000</color>
<width>3.0</width>
<gx:labelVisibility>1</gx:labelVisibility>
</LineStyle>
<PolyStyle>
<color>66ff0000</color>
</PolyStyle>
</Style>
<ExtendedData>
<SchemaData schemaUrl="#kml_schema_ft_PT05a_02a_braga-ponte_de_lima">
<SimpleData name="id">PT05a_02a</SimpleData>
<SimpleData name="_formato">kml</SimpleData>
</SchemaData>
</ExtendedData>
<LineString>
<extrude>0</extrude>
<tessellate>1</tessellate>
<coordinates>-8.42745797716751,41.5497840189309,189.617700000003 -8.42762896788859,41.5504500448744,188.055300000007 -8.42858383391649,41.5503461092154,184.344700000001 -8.42883093260336,41.5515021417436,185.4571 -8.42908892785464,41.5515581324918,183.6728 -8.4293249619922,41.5517990285579,181.565799999997 -8.43170592599149,41.5521840932102,169.748200000002 -8.43401296043954,41.5527621090692,147.470199999996 -8.43575086454439,41.5533971219866,125.898700000005 -8.4373608602309,41.5538541033269,116.925499999998 -8.4388199820688,41.5541830093361,114.327799999999 -8.43985984129898,41.5545370611842,107.416100000002 -8.44033190957404,41.554839145174,105.596300000005 -8.44071898644346,41.5554040854214,102.867299999998 -8.44151292018648,41.5563671659977,88.767200000002 -8.44190988660887,41.5567041183327,86.2608999999939 -8.44322886317759,41.5573870756531,80.1113000000041 -8.4446668629282,41.5582301275573,73.8007999999973 -8.44509584800224,41.5585590334808,71.1946000000025 -8.44676988189041,41.5597630100598,68.4514000000054 -8.44770295568782,41.5611440121244,63.2788 -8.44878690333384,41.5627171280946,56.9691000000021 -8.44986984486671,41.5643311472128,59.1931000000041 -8.45045993110885,41.5657681409908,57.4818999999989 -8.45086796208059,41.5675261613599,50.7629000000015 -8.45106091391541,41.5680230403026,52.1371999999974 -8.45145788033778,41.5696771249853,58.539300000004 -8.45176884924137,41.5701750102739,59.4701000000059 -8.45219884042853,41.5711540162639,62.3534999999974 -8.45261692983647,41.5723581607301,67.2774000000063 -8.45273494690525,41.5741321069207,67.9254999999976 -8.45282094532234,41.5750390287553,68.260500000004 -8.45320684809365,41.5767801178042,64.7788 -8.45332486516243,41.5786020080373,66.2578999999969 -8.45335688471243,41.5794770788067,66.3804999999993 -8.45356090019827,41.5808890943499,66.601999999999 -8.45412986345483,41.5826710865433,67.2351999999955 -8.45459086807888,41.5839471475476,65.6313999999984 -8.45549192322461,41.5856000591592,61.5111999999936 -8.4562429417516,41.5869160178508,56.7492999999959 -8.45749888533348,41.5879830341501,48.0636999999988 -8.45834596071376,41.5896931096156,39.3148999999976 -8.45897896217201,41.5910491340738,32.5464000000065 -8.46029894395554,41.5925570383759,26.2642999999953 -8.46157584343635,41.5940500232752,24.976999999999 -8.46244487903211,41.5950201447772,22.287599999996 -8.46337795282952,41.5966251111776,23.375 -8.46416099000818,41.5983021629521,30.818299999999 -8.46453683434326,41.5992570292239,36.1714000000065 -8.46426794342591,41.6001470192388,40.5038000000059 -8.46427883909197,41.60085311117,40.948000000004 -8.46402184995383,41.6013991082571,43.9728000000032 -8.46377491925188,41.6021450977026,48.786500000002 -8.46353888511437,41.6027470860008,51.2755999999936 -8.46360292241769,41.6032920769414,54.0803000000014 -8.46378598380123,41.6051131297658,55.6698000000033 -8.46392495587063,41.6062041182772,57.591499999995 -8.46457991754429,41.6067821337866,58.0627999999997 -8.46468687096201,41.607076003941,58.4486999999936 -8.46457991754429,41.6079611326695,57.3322999999946 -8.46505198671768,41.6093010638417,55.343200000003 -8.46550192679235,41.6103680801859,57.2646999999997 -8.46550192679235,41.6107450980125,58.6728000000003 -8.46600685274555,41.6107771167409,57.9845999999961 -8.46594197641574,41.6110661248071,59.3592000000062 -8.46568498727756,41.6110500315611,59.8521999999939 -8.46575992204364,41.6117271218114,61.2825000000012 -8.46550192679235,41.6119031413439,61.4239999999991 -8.46569487862717,41.6123041321087,59.0384000000049 -8.46560988542489,41.613122037704,58.0310999999929 -8.46528785287024,41.6140690256119,59.9170000000013 -8.46545884359132,41.6147430982177,62.4964000000036 -8.46599595618116,41.6153841460007,62.1340999999957 -8.46627490553478,41.6162510023104,56.3524999999936 -8.46655385578669,41.6166840113926,50.2394000000058 -8.46713287747948,41.6172100595711,48.6527999999962 -8.46789496055582,41.6176910133067,51.5984000000026 -8.46846291769925,41.6182450570127,54.3181000000041 -8.46840994404695,41.6188780582565,58.1247000000003 -8.46890296822094,41.6190150191328,56.8791999999958 -8.46949288647816,41.6196240477427,53.7743000000046 -8.46941795171208,41.6199450746701,55.3923000000068 -8.46970796561505,41.6208270189872,56.3402999999962 -8.46908586072123,41.6210120908893,59.5191999999952 -8.46872091295055,41.621028016451,61.6664000000019 -8.46943991282585,41.6221830426645,59.0923000000039 -8.46957888489525,41.6226720431006,58.6391000000003 -8.46962196719795,41.6233300229079,59.976999999999 -8.46980486059653,41.623699161334,60.7268999999942 -8.47005095317032,41.6237630314664,60.3074000000051 -8.47032990342224,41.6240431550447,59.3484999999928 -8.47041590183933,41.6244360982394,58.4063000000024 -8.47046988070642,41.6248691074282,56.0761000000057 -8.47029788387223,41.6252461257739,54.7660000000033 -8.47070591484397,41.625896058381,51.8687999999966 -8.47110288216463,41.6269230090923,53.0679999999993 -8.4716178665541,41.627749129383,56.6082000000024 -8.47193989910871,41.6279650474328,56.783500000005 -8.47250785715048,41.6281821384804,53.7222000000038 -8.47321595956306,41.6283100463954,48.6967000000004 -8.47405297650714,41.6282621018563,44.9955000000045 -8.4748469102502,41.6282220362477,44.9236999999994 -8.47528696077192,41.6285750826376,47.3101000000024 -8.47590889768077,41.629417128078,51.3377000000037 -8.47663896120713,41.6303631099289,56.3399000000063 -8.47680995282651,41.6305951210259,57.4232000000047 -8.47768988498666,41.6314210734043,64.9137999999948 -8.47787294547187,41.6315181361082,64.8931000000011 -8.47818391437547,41.6323440887459,66.1358999999939 -8.47835490509654,41.632712054296,66.9640999999974 -8.47844090351364,41.6331700415431,67.825800000006 -8.47834484666031,41.6338511549386,71.7654000000039 -8.47834484666031,41.6342440987826,72.965400000001 -8.47823688802777,41.6345091347986,72.3775000000023 -8.47866687921493,41.6346450889472,69.5687999999936 -8.47912788383894,41.6349340968089,62.5166000000027 -8.47938487297712,41.6350380326508,60.2942999999941 -8.47962090711467,41.6355670980384,57.242499999993 -8.47891297178871,41.6366820592425,59.9030999999959 -8.47861289944951,41.6367940413849,62.1959999999963 -8.47932083567379,41.6377321439234,61.3938999999955 -8.4802969917739,41.6384140953033,58.1358000000037 -8.48121983915012,41.6388680595647,55.3190999999933 -8.48188485926001,41.6396571316552,62.1288000000059 -8.48236799208443,41.6401221595826,67.1929999999993 -8.48275389485574,41.6402180484378,69.3208000000013 -8.48245399050152,41.6420220020958,87.3421999999991 -8.4824109073005,41.6424231600331,90.8136999999988 -8.48311884352475,41.6425110024309,92.7940999999992 -8.48301189010702,41.6428400758745,95.0727000000043 -8.48192794246104,41.6428000099284,93.667300000001 -8.48179886084291,41.6431600970503,97.6659999999974 -8.48207797818146,41.643954030508,105.166299999997 -8.48246488706591,41.6442351598959,108.058099999995 -8.48280787462119,41.6446110043363,110.691699999996 -8.48287191282284,41.6449880220131,111.827000000005 -8.48287191282284,41.6458620872866,113.726999999999 -8.48309788852412,41.6462550303984,114.270000000004 -8.48413791484096,41.6470491324717,115.138000000006 -8.48485691471627,41.6471290952653,114.536200000002 -8.48581194872909,41.6476420678991,109.315100000007 -8.48597288101393,41.648139114903,107.308900000004 -8.48589794714619,41.6484011328734,106.623000000007 -8.48557591459157,41.6487080786497,106.621899999998 -8.48567197054657,41.6491970785865,101.140100000004 -8.48625199835251,41.6496460131224,94.7651000000042 -8.48673496409027,41.6498151603674,93.8693999999959 -8.48737785599975,41.6501670326304,93.9735999999975 -8.48805394065902,41.6502560485294,94.7391000000061 -8.48831193501198,41.6505011354495,96.2161000000051 -8.48928792402546,41.6521310801346,101.737800000003 -8.48990986093432,41.6524970338526,102.240999999995 -8.49003894255244,41.6529810052101,103.355800000005 -8.49006090276786,41.6535151002627,105.614400000006 -8.49017892073496,41.6536391522019,106.785099999994 -8.49027497668996,41.6539110613822,109.825800000006 -8.49049994717646,41.6542961259356,114.045599999998 -8.49059684215795,41.654584128151,115.890199999994 -8.49093999679985,41.6551380038068,118.960000000006 -8.49106891043301,41.655426006285,120.752600000007 -8.49144492275308,41.6557790519917,122.725099999996 -8.491723873005,41.6562281540903,124.674899999998 -8.49191699192644,41.6565800268946,124.826499999996 -8.49171297644061,41.6569491655201,126.181599999996 -8.49180886530895,41.6576951547361,133.292700000005 -8.49188396716165,41.6580230553009,139.098400000003 -8.49164793302413,41.6583120630144,145.786300000007 -8.49217398106462,41.6584800364823,145.944000000003 -8.49252786518429,41.6587770912028,147.218599999993 -8.49306497687579,41.6590330746049,143.120899999994 -8.49345087964713,41.6591210842894,139.955400000006 -8.49390098860508,41.6590171490365,135.210300000006 -8.49411590065535,41.6588010632007,132.1149 -8.49439485000893,41.6586161588521,130.684200000003 -8.49472794711293,41.6583841472882,130.393800000005 -8.49494185305005,41.6585201020733,132.713900000002 -8.49507093466817,41.6588250358608,135.262700000007 -8.49538190267344,41.6589611575013,138.8511 -8.49573595477806,41.6589611575013,142.914900000003 -8.49587593206228,41.6588570542039,142.288700000005 -8.49629385438359,41.6587930168306,142.202399999995 -8.49647590875569,41.6588651012371,143.620200000005 -8.49676592265866,41.6589851301018,146.626799999998 -8.49711997476325,41.6592900637008,156.565100000007 -8.49735584091584,41.6596340567319,166.281199999998 -8.49742088433232,41.6602281662369,167.574999999997 -8.49769899645604,41.6607411385855,168.461599999995 -8.49797794580966,41.6612700365609,173.732699999993 -8.49839687334576,41.6617511582117,184.099700000006 -8.49862184383226,41.6618710192876,187.348100000003 -8.49884698140542,41.6621590211861,188.6253 -8.49899785615233,41.662512066895,187.865099999995 -8.49912593165734,41.662817000571,186.668799999999 -8.49943790577571,41.6630010674021,189.7451 -8.49969489491389,41.6634580488273,192.464200000002 -8.49990997494908,41.6641071431196,204.790699999998 -8.50002799201785,41.6645000870099,210.576000000001 -8.50020987930333,41.6648281549219,214.484700000001 -8.50028498115603,41.6650770974518,216.044999999998 -8.50012388088623,41.6651091160418,214.127200000003 -8.49996294860142,41.6650610035947,212.253100000002 -8.49971685602763,41.6650821265297,210.119000000006 -8.49959883806056,41.6653411268645,211.481 -8.49975893311554,41.6660470512648,217.705700000006 -8.50009186223455,41.666568070304,223.8753 -8.50005984268457,41.6669440823974,224.400399999999 -8.50082192576091,41.6676741458124,235.191699999996 -8.50133691015037,41.6680741307286,241.768500000006 -8.50114295220241,41.6686110753524,249.278600000005 -8.50083198419714,41.6692360301469,259.679900000003 -8.5008219257609,41.6695060945641,264.847899999993 -8.50096089783031,41.6698621578755,271.743600000002 -8.50166883315626,41.6700780757429,268.944699999993 -8.50191593184316,41.6704790663514,273.535999999993 -8.50240895511886,41.6707430957546,274.273499999996 -8.50302083448978,41.6709350418535,274.194799999997 -8.50328888727901,41.6709590140224,272.415200000003 -8.50399699058992,41.6709511349133,267.496400000004 -8.50468397181355,41.6710240572321,267.938800000004 -8.50497398481819,41.6714081162776,269.227199999994 -8.505166936653,41.6719930055238,271.175399999993 -8.50526299350634,41.6727230693892,271.853600000002 -8.50544588600663,41.6733000792729,270.255999999994 -8.5056599599287,41.6739250341735,268.059399999998 -8.5057459583458,41.67487805674,268.844400000002 -8.50601384404836,41.6758961222693,264.734100000001 -8.50633587660301,41.6765931614781,259.847800000003 -8.50685086099244,41.677266060956,254.6927 -8.50615398931754,41.6785560353997,235.607600000003 -8.50626094273526,41.6790291101717,232.216100000005 -8.50642187502011,41.6793340441162,229.392200000002 -8.50673284392367,41.6795660553348,226.404599999994 -8.50719485466083,41.6796381392966,224.898400000005 -8.50727984696482,41.6799511194497,216.785699999993 -8.50715193854643,41.6801271398834,212.540399999998 -8.50696887806122,41.6805041576551,204.968099999998 -8.50709795967934,41.6808640762668,198.910199999998 -8.50747296588626,41.6810080774986,195.2592 -8.50809590890823,41.6814330400722,187.134600000005 -8.50838491669809,41.6814410869675,185.6489 -8.5087178458171,41.6813530769306,185.721399999995 -8.50885698587145,41.6812890391204,186.252800000002 -8.50905094292109,41.6813371508448,185.010500000004 -8.50924389475591,41.6814890315217,182.359700000001 -8.50918991499049,41.6818580025231,179.285900000003 -8.50941488547699,41.6822261354651,177.708799999993 -8.5096088425266,41.6824511059013,177.229900000006 -8.50971596303098,41.6828750626661,177.260800000004 -8.50947992889346,41.6830440421276,177.957999999999 -8.5096509196145,41.683613005443,177.207999999999 -8.5095979459622,41.684582121126,176.330799999996 -8.5096839443793,41.6853670024953,176.5959 -8.50983398009975,41.6859041148177,177.591799999995 -8.51033789993983,41.6862170953541,177.955600000001 -8.51068088749511,41.6867290616396,178.888900000005 -8.51105689981514,41.6872341550223,182.914099999995 -8.51172191992503,41.6874261009127,184.634699999995 -8.51221594931387,41.6876430244913,186.934299999994 -8.51234385773222,41.6883960547306,192.145499999999 -8.51261291663453,41.6895740473494,202.5671 -8.51396391185496,41.690135131838,211.443599999999 -8.51429684097397,41.6904950509142,215.339500000002 -8.51512296135366,41.690255160765,201.729800000001 -8.51554188888976,41.6904070411868,203.688899999994 -8.51560592619311,41.690468061313,204.907099999997 -8.51656096020597,41.6905671353784,207.359500000006 -8.51669993227537,41.6905270696065,207.612500000003 -8.5168288459085,41.6903351242475,206.577699999994 -8.51692590887498,41.6902070490008,205.800399999993 -8.51745095080235,41.6901190388792,206.950299999997 -8.51772990105427,41.6900620420012,207.064700000003 -8.51812686747663,41.6900670711395,207.773199999996 -8.51842794592892,41.6902070490008,209.947 -8.51873891393421,41.6902870118722,211.103799999997 -8.51900696762174,41.6903590965695,211.978099999993 -8.51912498469048,41.6902390678364,213.041400000002 -8.51915683625553,41.6900140971268,214.637600000002 -8.51939287039305,41.6897980120219,218.516900000002 -8.51961884609436,41.6896781506186,221.113899999997 -8.51976888271312,41.6895051481956,221.731499999994 -8.51971490294769,41.6891940116643,218.071599999996 -8.52063791830884,41.6888451574055,215.776899999997 -8.52110998748224,41.6888210174819,213.391199999998 -8.5215929523217,41.688692103361,211.387100000007 -8.52264387520293,41.6881801365966,207.454700000002 -8.52314796302797,41.6885481025547,207.127299999993 -8.52349195669635,41.688636112142,206.271999999997 -8.52393183833479,41.6885400558773,204.483699999997 -8.52424297522334,41.6888179994038,204.617899999997 -8.52414591225689,41.6890340851173,206.718800000002 -8.52484295101842,41.6896300384228,207.433099999995 -8.52532591675621,41.6902471143012,209.743300000002 -8.52539096017268,41.6905351167061,212.333799999993 -8.52554099679143,41.6910561354197,215.631699999998 -8.52577686294399,41.6914800925027,216.744500000001 -8.52590594456212,41.6919610460624,217.996700000003 -8.52596998186547,41.692258100582,218.285199999998 -8.52643098648949,41.6927620202708,217.780199999994 -8.52668898174078,41.693411114889,221.294200000004 -8.52707488451212,41.6939081621242,222.508400000006 -8.52738585341568,41.6942201364613,223.2255 -8.52751493413551,41.6945250701876,225.563899999994 -8.52795498465723,41.6953661101306,231.721900000004 -8.5279119014562,41.6956621588808,236.591199999995 -8.52823393401081,41.6961751312603,235.656000000003 -8.52838397062956,41.6965761215907,233.681400000001 -8.52858798611544,41.6967280018442,230.112599999993 -8.52893097367068,41.6969040219924,225.448000000004 -8.52918896802367,41.6971201073735,223.8269 -8.52928485689204,41.6973770960136,224.304499999998 -8.52933883665746,41.6977690339249,226.484700000001 -8.52953195557891,41.6984580268587,229.294699999999 -8.52959599378057,41.6987311090095,230.430800000002 -8.52924194167597,41.6991310934127,235.880999999994 -8.52933883665746,41.6995081111654,237.540200000003 -8.52971384286438,41.6998521045847,236.632800000007 -8.5299289228996,41.7000841155947,236.038 -8.53058287846014,41.7003650770807,232.278200000001 -8.53117296470228,41.7006611262947,231.243400000007 -8.53146297860524,41.7008210527747,231.860499999995 -8.53182792637593,41.7009741061294,233.480800000005 -8.53214995893054,41.7009980785106,234.467399999994 -8.5324818828348,41.7012860803982,237.084099999993 -8.53270785853608,41.7016381207485,241.112899999993 -8.53338394319532,41.7018471653407,246.869200000001 -8.5335549339164,41.7018870630941,247.7641 -8.53384494781933,41.7019511011935,248.911699999997 -8.53425297879108,41.7019670262008,248.856499999994 -8.53434886765945,41.7020391105516,249.452399999995 -8.53477785363179,41.7023271131423,251.815700000006 -8.53542191874105,41.7025520830397,252.022700000001 -8.53592583947946,41.702832039114,250.872499999998 -8.5361519831657,41.7030161055311,248.823099999994 -8.53647384773539,41.7034090493014,245.724199999997 -8.53650586638707,41.7038571457682,242.793799999999 -8.53661298778975,41.7041141349839,239.441800000001 -8.53673083687357,41.704434156146,235.427800000005 -8.53683795737792,41.7044740536355,234.043999999994 -8.53679487507522,41.7049950727795,234.075200000007 -8.53689193714333,41.7051070548566,233.956099999996 -8.53729996811508,41.7056190216969,237.454500000007 -8.53746090039989,41.7062920884124,239.827399999995 -8.53759987246929,41.7066451341521,240.433600000004 -8.53793296957329,41.7070690910865,237.745599999995 -8.5383188723446,41.707550044764,231.343900000007 -8.53869387855155,41.7081180020034,228.837599999999 -8.53885497882135,41.7084150570087,230.009099999996 -8.53918790794036,41.7086871338561,227.184599999993 -8.5393488411235,41.7089670893722,225.068899999998 -8.53917684428934,41.7095521462253,222.636799999993 -8.53901591110616,41.7103370273761,219.024099999995 -8.53919897248971,41.7106171507354,214.423800000004 -8.53912387063703,41.7111540951355,214.213799999998 -8.53894097723845,41.7118030222296,210.350600000005 -8.53876898040425,41.7121071174988,208.8315 -8.53838291054629,41.7123870735448,210.910600000003 -8.53801796187727,41.7128440543516,200.145399999994 -8.53768587088639,41.7133131056608,194.130300000004 -8.537578918367,41.7138130025674,193.610000000001 -8.5374929199499,41.7142530528013,192.689700000003 -8.53766391067094,41.7143420686051,187.205300000001 -8.53755695725322,41.7150781671169,180.761400000003 -8.53795392457391,41.7150191585504,174.753700000001 -8.53781495250451,41.7152870439581,174.845799999996 -8.53781495250452,41.7155669995653,172.642200000002 -8.5375889759049,41.7157750386395,173.798999999999 -8.53737490288112,41.7159430116795,174.755799999999 -8.53723492469861,41.7161361311828,174.499400000001 -8.53706393397753,41.7161321078937,176.334199999998 -8.53709595262921,41.7163411522989,174.087299999999 -8.53734288333115,41.7165441617998,170.197899999999 -8.5376318920193,41.716592106342,167.319699999993 -8.53788988637226,41.7167920989554,163.878899999996 -8.53817889506041,41.7169200065971,159.745899999994 -8.53852288783047,41.7172891451765,153.847299999994 -8.5386189446838,41.7175451285425,153.012799999997 -8.53858692603212,41.7178970014147,154.723700000002 -8.53873696175258,41.7183620289083,155.414799999999 -8.53899495700386,41.7186180126944,154.289600000004 -8.53920886294098,41.7186900964804,153.505600000004 -8.53939192342622,41.7191790972478,150.282300000006 -8.5395629141473,41.7194111082495,146.802299999996 -8.53970289232982,41.719499117845,145.046900000001 -8.54027185558638,41.7195871279904,140.727100000004 -8.54083998161307,41.7196350722741,139.3266 -8.54119386483441,41.7196640739085,139.712599999999 -8.54156987715447,41.7199230744908,139.909899999999 -8.54170884922387,41.7200920538484,139.116699999999 -8.5420199852141,41.7202680737358,137.695900000006 -8.54234185068209,41.7202650564629,139.377900000007 -8.5427389850894,41.7205321040037,140.6443 -8.54292187848798,41.7208201062232,139.177500000005 -8.54301793534132,41.7210690487196,137.153600000005 -8.54281391985548,41.7214450608269,129.891099999993 -8.54283588007089,41.7217810076717,126.364799999996 -8.54298591579134,41.7221900443832,123.938399999999 -8.54281391985548,41.7223181196301,122.399399999995 -8.54238493388311,41.7223580174187,122.091700000004 -8.5419769029114,41.7224941394542,123.301999999996 -8.54149494328672,41.7226941318038,127.291200000007 -8.54138195498694,41.7230151587137,129.476500000004 -8.54135999477149,41.7233450704687,132.905799999993 -8.5415108686201,41.7234890718055,133.506899999993 -8.54157490682175,41.723726111855,134.109299999996 -8.54159686703717,41.7239740487917,132.794899999994 -8.54164497900718,41.7241061472956,131.834199999998 -8.54171991377322,41.7241301197675,131.605200000005 -8.54186492072469,41.7241371603176,131.924299999999 -8.54200389279409,41.7240520005188,132.423899999994 -8.54212190986287,41.7239740487917,132.315300000002 -8.54216499216556,41.7241980130044,133.044099999999 -8.54211688019558,41.7243170363541,133.472999999998 -8.54230497034811,41.7242501482678,133.176900000006 -8.54254586616795,41.7241941571655,132.773000000001 -8.5427389850894,41.724214106151,133.134999999995 -8.54295892680695,41.7242330494347,133.900200000004 -8.54315187774344,41.7244980851936,136.946400000001 -8.54319496094447,41.7247750231723,138.848800000007 -8.54313092274281,41.7250370416582,139.430300000007 -8.54315791262554,41.7252831344844,139.1538 -8.54277083665445,41.7257580526109,138.647899999996 -8.54227798046539,41.7261211567111,138.722500000003 -8.54193398769533,41.7263781460909,139.636799999993 -8.54167699855716,41.7264260906712,141.114100000006 -8.54181596972826,41.7269300107721,141.248300000007 -8.54165587557157,41.7274750021594,144.881399999998 -8.54168789422325,41.7278030694662,145.367800000007 -8.54198796656242,41.7280670996125,145.256099999999 -8.54256698825521,41.7282270262993,145.294099999999 -8.54301793534132,41.728331129344,143.254400000005 -8.54345798496471,41.7282910636365,138.504499999995 -8.54381186908437,41.7284600431124,135.832800000004 -8.54398386591857,41.7288441018737,138.626799999998 -8.54415485663965,41.7292040208366,138.484100000001 -8.5439939234565,41.7294600043385,140.034 -8.54401588457024,41.7298210964123,140.242599999998 -8.54414496529004,41.7302210811343,140.062399999995 -8.54436993577653,41.7304690178118,139.255399999995 -8.54475583854788,41.7306130186012,137.047000000006 -8.54521784928501,41.7306450374294,135.421300000002 -8.54567885390906,41.7305411023818,135.959600000002 -8.54597892624822,41.7304100092992,136.083899999998 -8.54627983671559,41.7305330555958,138.754199999996 -8.54655895405413,41.7305491484964,140.258199999997 -8.54693396026108,41.7304210728967,139.945800000001 -8.54718089096299,41.7302931653121,139.416899999997 -8.54764189558704,41.7301570430394,138.456099999996 -8.5481999631775,41.7299971164643,135.307000000001 -8.54840397866337,41.7304770646059,139.184999999998 -8.54860799414924,41.7305650744639,140.354600000006 -8.54925189127351,41.7306851030095,143.411200000002 -8.54957291861334,41.730846035475,148.6155 -8.54976687566298,41.7310061302164,153.192800000004 -8.54977693409921,41.731123141175,156.566900000005 -8.55006694800218,41.731166056961,158.234299999996 -8.55051789418996,41.7312941324162,160.532000000007 -8.55096783516296,41.7311420844329,154.810400000002 -8.55113999908378,41.7315180965865,160.279999999999 -8.55126891271695,41.7318381180763,163.340800000005 -8.55163285527284,41.7320630879342,162.214600000007 -8.55154786296886,41.7323510900878,165.610000000001 -8.55125784906589,41.732679157968,171.180999999997 -8.5511079804321,41.7331510590535,176.573499999999 -8.55101091746566,41.7335921144798,182.526299999998 -8.55115089564817,41.7336960506241,181.823399999994 -8.55142984500179,41.7337280692563,178.560200000007 -8.55165498347321,41.7338241257274,176.342399999994 -8.55183687075868,41.733864023745,174.4329 -8.55208396944558,41.7338080323066,170.994300000006 -8.55233090014753,41.7336720783698,167.085300000006 -8.55274898955547,41.7337040970139,164.104500000001 -8.55313489232681,41.7339520336551,164.498500000002 -8.5534889435331,41.7341200067769,166.763800000001 -8.55373587423501,41.734408009093,171.217300000004 -8.55387585241756,41.734477075989,171.911399999997 -8.55419788497218,41.7344891457617,170.9571 -8.5543799402426,41.7345771561559,170.569699999993 -8.55528099449,41.7354411624652,164.741800000003 -8.55538794790776,41.7358661253491,162.6584 -8.5555389897413,41.7362820351894,158.793799999999 -8.55572087702677,41.7366181497971,155.406000000003 -8.55582799753115,41.737098097402,154.331600000005 -8.55603184593036,41.7373150209995,152.885800000004 -8.5565689576219,41.7374910406261,149.562600000005 -8.55717999886466,41.7377550711725,148.978099999993 -8.55743799321763,41.7378750996892,147.848499999993 -8.55765190005311,41.7381631019251,149.244900000005 -8.55789899784167,41.7382990564104,148.793099999995 -8.55805993102481,41.7383711409074,147.513099999996 -8.55826394651069,41.7385880642268,145.024000000005 -8.55839286014382,41.7388921601084,142.317200000005 -8.55859586951658,41.7391161245982,138.849700000006 -8.55868186793368,41.739220059847,137.509600000005 -8.558649849282,41.7396041186248,136.241599999994 -8.55883190365413,41.7399571643734,133.592300000004 -8.55902586160206,41.7402931109413,129.828699999998 -8.55905788025371,41.7406210108999,127.676600000006 -8.55891790207119,41.7408370968,128.801099999997 -8.55877893090012,41.7408981166572,130.591700000004 -8.558649849282,41.7411730434566,130.675199999998 -8.5584778524478,41.741205062383,132.649600000004 -8.55852093564883,41.7415820800358,131.472500000003 -8.55884296820348,41.7420940465623,130.869099999996 -8.55918595575872,41.7424460866169,132.995299999995 -8.55971183671257,41.7426620048401,133.801600000006 -8.56044190023893,41.7427981267522,131.454299999998 -8.56085998964688,41.7427421357295,129.283200000005 -8.56109585579947,41.7426140603127,127.641000000003 -8.56127891718301,41.7421421590471,122.624299999996 -8.5614718681195,41.7419500460418,120.323099999994 -8.56190085409187,41.742022129792,120.449200000003 -8.56229798849919,41.7420781214425,120.561799999996 -8.56244785713298,41.7419260735169,120.024000000005 -8.56240494191692,41.7416700900942,119.121100000004 -8.56236185871589,41.741494070527,118.467900000003 -8.56244785713298,41.7413091651737,117.433499999999 -8.56280190833928,41.7411970155925,116.704299999998 -8.56376783891652,41.7409571255889,115.129000000001 -8.56401393149031,41.7406691231478,112.940799999997 -8.56421794697614,41.7406371046244,112.424899999998 -8.56447594222744,41.7407011423254,112.484100000001 -8.5646048558606,41.7404931035179,110.569499999998 -8.56474399591496,41.7401861577404,108.273499999996 -8.56510894368565,41.7401811291707,107.790800000002 -8.56535587438759,41.7403090365037,108.186199999996 -8.56556994830969,41.7403890000745,108.079199999993 -8.5658168790116,41.7403571489853,106.621199999994 -8.56593489608038,41.7400770258918,104.057799999995 -8.56646094501919,41.7402290735036,102.539799999999 -8.56755495110142,41.740781105408,97.380799999999 -8.56812391435797,41.7411970155925,95.611699999994 -8.56955084955923,41.7425981346517,104.417100000006 -8.57074091249482,41.7441350399304,96.9741000000067 -8.57189996199351,41.7456560203825,97.6477000000014 -8.57250094390175,41.7464571627498,106.317500000005 -8.57296194852576,41.7468011562525,110.021500000003 -8.57364892974942,41.7470490925986,111.813999999998 -8.57404589617179,41.747906058714,108.939400000003 -8.57431394985931,41.7485380537749,100.570300000007 -8.57417497778991,41.7489221131186,99.7934999999998 -8.57408897937281,41.7493140503992,104.301099999997 -8.57314484192435,41.7509280699824,118.528200000001 -8.57317686057603,41.751184053355,121.140700000004 -8.573466874479,41.7515610713885,126.051500000001 -8.5732948776448,41.7523320387013,126.566200000001 -8.57323084034145,41.7526921249361,121.515599999999 -8.57298390963954,41.7531080350345,120.012499999997 -8.57272591438825,41.7535891568155,120.532800000001 -8.57277989415367,41.7540691042341,121.584900000002 -8.57267294073594,41.7544850141221,121.613400000002 -8.57284393145702,41.7547490444867,121.173699999999 -8.57297284509019,41.7548050350904,121.188200000004 -8.5726509805205,41.75517300104,120.618000000002 -8.57237186318195,41.7554370305849,122.375100000005 -8.57259783888324,41.7556541220855,119.534299999999 -8.57303688329184,41.7556861411618,117.270000000004 -8.57371296705275,41.7559981152264,115.655799999993 -8.57405696072113,41.756190060882,114.081600000005 -8.57406685117241,41.7567900376313,110.486999999994 -8.57413189458888,41.7571020123612,107.970499999996 -8.57404589617179,41.757903154622,100.607900000003 -8.57402393595634,41.7584550191531,93.6680000000051 -8.57407791572176,41.7591750244071,90.5026000000071 -8.57405696072114,41.7597270562458,89.6157999999996 -8.57393894365236,41.760296019793,91.5954000000056 -8.5736918449655,41.7604800864633,92.4011000000028 -8.5736809484011,41.7608130161502,92.1986000000034 -8.57375588226882,41.7611841667084,92.9986999999965 -8.5735198481313,41.7616800399098,87.3539000000019 -8.57350895156691,41.7620000611851,82.026199999993 -8.57419593279054,41.7637210330819,59.3028999999951 -8.57463598241392,41.7646410312834,53.1039000000019 -8.57501098862087,41.7650170429369,57.3457000000053 -8.57538683295595,41.7651451185513,55.616200000004 -8.57619199923331,41.7651451185513,52.915599999993 -8.57680287249115,41.7650810811111,50.1184999999969 -8.57715692369744,41.7649610518619,47.9762999999948 -8.57804792040694,41.7649211544055,43.7464000000036 -8.57818689157801,41.7648090045294,43.5507000000071 -8.57845494526554,41.7648571167417,42.9948000000004 -8.5785308852464,41.7650220722414,42.7244000000064 -8.57927084012233,41.7652250820098,40.4505000000063 -8.57961399476426,41.7651531656904,37.7197000000015 -8.57984986181516,41.7652971664274,36.1722000000009 -8.58032193009022,41.7655930478477,33.3730999999971 -8.58227491423027,41.7665140510413,22.8886000000057 -8.58335886187629,41.7669941664595,16.0939999999973 -8.58349783304736,41.7671540933579,15.4256000000023 -8.58404483608851,41.7674260025419,14.449099999998 -8.58501093465068,41.7677860885115,9.06609999999637 -8.58445286706021,41.7687620778706,4.80400000000373 -8.58645899193922,41.7692210703168,0.0 -8.58877692384998,41.7696689992956,7.85050000000047 -8.58916299460629,41.7697970750034,9.22019999999611</coordinates>
</LineString>
</Placemark>
</Folder>
</Document></kml>
