<?xml version="1.0" encoding="UTF-8"?>

<kml xmlns:xsd="http://www.w3.org/2001/XMLSchema" xmlns:gx="http://www.google.com/kml/ext/2.2" xmlns:atom="http://www.w3.org/2005/Atom" xmlns="http://www.opengis.net/kml/2.2">
<Document>
<name>FR02c_26a_bazas-captieux</name>
<visibility>1</visibility>
<Schema name="FR02c_26a_bazas-captieux" id="kml_schema_ft_FR02c_26a_bazas-captieux">
<SimpleField type="xsd:string" name="id">
<displayName>id</displayName>
</SimpleField>
<SimpleField type="xsd:string" name="nombre">
<displayName>nombre</displayName>
</SimpleField>
<SimpleField type="xsd:double" name="longitud">
<displayName>longitud</displayName>
</SimpleField>
<SimpleField type="xsd:string" name="_formato">
<displayName>_formato</displayName>
</SimpleField>
</Schema>
<Folder id="kml_ft_FR02c_26a_bazas-captieux">
<name>FR02c_26a_bazas-captieux</name>
<Placemark id="kml_1">
<name>&lt;img height='20' src='https://nco.ign.es/iconos/icono_todos_caminos_azul.png' /&gt;&lt;img height='20' src='https://nco.ign.es/iconos/Camino Santiago_20.png' /&gt;&lt;img height='20' src='https://nco.ign.es/iconos/icono_todos_caminos_azul.png' /&gt;  Camino de Santiago </name>
<visibility>1</visibility>
<description><![CDATA[<!DOCTYPE html>
<html>
<head>
<style>
#nco {
  border-collapse: collapse;
  overflow:hidden;
}
#nco th, #nco td {
  padding: 4px;
  text-align: left;
}
#nco th {
  color: #364B5F;
  padding-right: 5px;
}
#nco td {
  color: rgb(51, 51, 51);
  font-size: 12px;
  padding-right: 5px;
}
</style>
</head>
<body>
<table id="nco">
<tr>
<td>Via Lemovicensis - Vezelay</td>
</tr>
<tr>
<th><b>Camino: </b></th>
<td>FR02c Via Lemovicensis Vezelay</td>
</tr>
<tr>
<th><b>Etapa: </b></th>
<td>26a Bazas-Captieux</td>
</tr>
<tr>
<th><b>Longitud: </b></th>
<td>17.48 km</td>
</tr>
</table>
</body>
</html>]]></description>
<Style>
<IconStyle>
<scale>0.8</scale>
</IconStyle>
<LabelStyle>
<color>ffffffff</color>
<scale>0.75</scale>
</LabelStyle>
<LineStyle>
<color>ffff0000</color>
<width>3.0</width>
<gx:labelVisibility>1</gx:labelVisibility>
</LineStyle>
<PolyStyle>
<color>66ff0000</color>
</PolyStyle>
</Style>
<ExtendedData>
<SchemaData schemaUrl="#kml_schema_ft_FR02c_26a_bazas-captieux">
<SimpleData name="id">FR02c_26a</SimpleData>
<SimpleData name="_formato">kml</SimpleData>
</SchemaData>
</ExtendedData>
<LineString>
<extrude>0</extrude>
<tessellate>1</tessellate>
<coordinates>-0.211268048680493,44.4316751136208,90.7602000000043 -0.2103728613302,44.43144679071,91.5737999999983 -0.210928916694429,44.4314268420652,91.483699999997 -0.211361088092773,44.4313195536741,91.7124999999942 -0.211613383533581,44.4312493130667,92.0758999999962 -0.211857799851014,44.4312176297769,92.6548000000039 -0.212015546709851,44.431020486854,92.8558000000048 -0.211963579170697,44.4311653261067,92.6852000000072 -0.212321318859538,44.4307852910933,92.2044000000024 -0.212496165149792,44.4305780901338,91.7869000000064 -0.212653576937045,44.4303521139933,89.6138000000064 -0.212766062180294,44.4301819614381,89.6757000000071 -0.212945267994628,44.4299591707034,86.1241000000009 -0.21306881688893,44.4298381356039,84.107799999998 -0.213156323577387,44.4297274944069,84.1389000000054 -0.21347383041959,44.4296233917765,81.7072000000044 -0.214037764907194,44.4294061324838,78.2207000000053 -0.214447640120213,44.429264310981,80.3218000000052 -0.214691385396147,44.4291585312815,81.931700000001 -0.214677639375662,44.4290545957115,81.9514999999956 -0.214614272215508,44.4289062357833,83.5359000000026 -0.214545037259946,44.4287696105498,84.9036999999953 -0.214529782968101,44.4287102667192,85.4391999999934 -0.214962791596307,44.4287102667192,87.6168000000034 -0.215326398182257,44.4286973589615,89.5608999999968 -0.215539801961161,44.4286760686284,90.0476999999955 -0.21578388320701,44.4286827743015,90.4900999999954 -0.215958896583924,44.4285444729255,91.1426000000065 -0.216089487371739,44.4284174034204,91.4714999999997 -0.216323174211407,44.4282328336689,91.5964999999997 -0.216588377544541,44.4280397145187,92.366200000004 -0.216903202017345,44.427974168424,93.4657000000007 -0.217183660540622,44.4278829731773,94.8150000000023 -0.217330008676823,44.4277605974983,96.1585999999952 -0.217676516729654,44.4273500513974,99.6757000000071 -0.218037440946205,44.4271457007392,102.195000000007 -0.218762643688568,44.4269390033056,103.376600000003 -0.219739805901792,44.4268503225134,102.979699999996 -0.220324862476649,44.4270486387378,102.052500000005 -0.221017375525836,44.4272918813944,101.376900000003 -0.221423227184655,44.4274228063205,100.479999999996 -0.221387352963802,44.4271560947082,100.9948 -0.221360195096118,44.426827859437,101.744200000001 -0.221081413727489,44.4250462017363,103.063899999994 -0.220741107643352,44.4234970583989,102.339099999997 -0.220663324319511,44.4214419833414,106.941600000006 -0.220882930067143,44.4198492540292,110.5815 -0.221305713172455,44.4183200595609,115.318499999994 -0.221540239038611,44.4169395603341,119.893400000001 -0.222009289872661,44.4151248781186,125.953200000004 -0.225131884105911,44.4061287495605,128.75 -0.225598588540409,44.4044055973213,124.899699999994 -0.226077027667457,44.4028497484869,121.720000000001 -0.227049496183347,44.4005207529898,119.327900000004 -0.228139143639819,44.398747142641,117.531000000003 -0.229551158722557,44.3965423667339,114.071500000005 -0.230888910979044,44.3949555044733,111.574500000002 -0.232484489603536,44.3931357932219,99.9961999999941 -0.233529210516037,44.3918391128521,101.209099999993 -0.233917794758482,44.3901183083791,100.756800000003 -0.234206803446633,44.3892125598,99.6573000000062 -0.234054420428365,44.3881545958005,97.1809999999969 -0.233280937731065,44.3866151754884,98.0060999999987 -0.232165642474896,44.3852278034072,101.935700000002 -0.230218358145301,44.3831425529619,88.0051999999996 -0.229432973668824,44.3803160075634,85.542100000006 -0.229542274384396,44.3790806826946,85.8352000000014 -0.229524671896405,44.3777099066746,83.6815999999963 -0.230376105902469,44.375888016144,79.3999999999942 -0.23074122165811,44.3755111655673,78.2418999999936 -0.232241246485845,44.3751215746945,80.9226999999955 -0.232088863467577,44.3746231871104,80.9223999999958 -0.231619980618518,44.3740802074612,77.7540000000008 -0.232487171972969,44.3730415218132,75.5788999999932 -0.233694166355015,44.3718226252157,71.4985000000015 -0.234977267804585,44.3705732187342,66.5078999999969 -0.237131249091155,44.3683406152466,71.7167000000045 -0.239117425082653,44.3659460731458,72.1065999999992 -0.241396464433181,44.363497719017,70.0304000000033 -0.244660042063766,44.3599702790389,79.9600000000064 -0.246719810738313,44.3566602655562,76.4189999999944 -0.248179938689326,44.3528503553082,78.4787999999971 -0.248819645172803,44.3483403883761,84.5239000000001 -0.250670034520909,44.3234203196743,96.0109999999986 -0.251869819922815,44.3100604042803,98.4752000000008 -0.252849999577089,44.3052703142388,100.661099999998 -0.254700053853577,44.2988502796,98.7223999999987 -0.255469847169997,44.2953803387636,98.8282999999938 -0.256119948059656,44.2946103772414,98.3891000000003 -0.256869960473524,44.2919202893593,100.422300000006 -0.261029899552475,44.2917702533185,96.948000000004</coordinates>
</LineString>
</Placemark>
</Folder>
</Document></kml>
