<?xml version="1.0" encoding="UTF-8"?>

<kml xmlns:xsd="http://www.w3.org/2001/XMLSchema" xmlns:gx="http://www.google.com/kml/ext/2.2" xmlns:atom="http://www.w3.org/2005/Atom" xmlns="http://www.opengis.net/kml/2.2">
<Document>
<name>FR02c_22a_perigueux-port_sainte_foy_la_grande</name>
<visibility>1</visibility>
<Schema name="FR02c_22a_perigueux-port_sainte_foy_la_grande" id="kml_schema_ft_FR02c_22a_perigueux-port_sainte_foy_la_grande">
<SimpleField type="xsd:string" name="id">
<displayName>id</displayName>
</SimpleField>
<SimpleField type="xsd:string" name="nombre">
<displayName>nombre</displayName>
</SimpleField>
<SimpleField type="xsd:double" name="longitud">
<displayName>longitud</displayName>
</SimpleField>
<SimpleField type="xsd:string" name="_formato">
<displayName>_formato</displayName>
</SimpleField>
</Schema>
<Folder id="kml_ft_FR02c_22a_perigueux-port_sainte_foy_la_grande">
<name>FR02c_22a_perigueux-port_sainte_foy_la_grande</name>
<Placemark id="kml_1">
<name>&lt;img height='20' src='https://nco.ign.es/iconos/icono_todos_caminos_azul.png' /&gt;&lt;img height='20' src='https://nco.ign.es/iconos/Camino Santiago_20.png' /&gt;&lt;img height='20' src='https://nco.ign.es/iconos/icono_todos_caminos_azul.png' /&gt;  Camino de Santiago </name>
<visibility>1</visibility>
<description><![CDATA[<!DOCTYPE html>
<html>
<head>
<style>
#nco {
  border-collapse: collapse;
  overflow:hidden;
}
#nco th, #nco td {
  padding: 4px;
  text-align: left;
}
#nco th {
  color: #364B5F;
  padding-right: 5px;
}
#nco td {
  color: rgb(51, 51, 51);
  font-size: 12px;
  padding-right: 5px;
}
</style>
</head>
<body>
<table id="nco">
<tr>
<td>Via Lemovicensis - Vezelay</td>
</tr>
<tr>
<th><b>Camino: </b></th>
<td>FR02c Via Lemovicensis Vezelay</td>
</tr>
<tr>
<th><b>Etapa: </b></th>
<td>22a Perigueux-Port Sainte Foy la Grande</td>
</tr>
<tr>
<th><b>Longitud: </b></th>
<td>88.73 km</td>
</tr>
</table>
</body>
</html>]]></description>
<Style>
<IconStyle>
<scale>0.8</scale>
</IconStyle>
<LabelStyle>
<color>ffffffff</color>
<scale>0.75</scale>
</LabelStyle>
<LineStyle>
<color>ffff0000</color>
<width>3.0</width>
<gx:labelVisibility>1</gx:labelVisibility>
</LineStyle>
<PolyStyle>
<color>66ff0000</color>
</PolyStyle>
</Style>
<ExtendedData>
<SchemaData schemaUrl="#kml_schema_ft_FR02c_22a_perigueux-port_sainte_foy_la_grande">
<SimpleData name="id">FR02c_22a</SimpleData>
<SimpleData name="_formato">kml</SimpleData>
</SchemaData>
</ExtendedData>
<LineString>
<extrude>0</extrude>
<tessellate>1</tessellate>
<coordinates>0.72146058096101,45.187247022855,113.084000000003 0.721489917243255,45.1872200333399,113.029599999994 0.721409953708225,45.187159850898,112.660699999993 0.721390004820716,45.1870998368043,112.362599999993 0.721399896170322,45.1870498805154,112.142399999997 0.721480026791979,45.1869699170595,111.834799999997 0.721689910073258,45.1869099027655,111.450800000006 0.721739866284545,45.1868798955948,111.325800000006 0.721779931146224,45.1868198812059,111.0147 0.721919909328741,45.1864599625909,110.605599999995 0.721979923976227,45.186369940953,110.762900000002 0.721949916652484,45.1862700283165,111.108099999998 0.722080003485394,45.1856298187063,112.432499999995 0.72204999616165,45.1854600011275,112.487699999998 0.722029879289183,45.1849398204044,112.318899999998 0.721940025302877,45.1846000179027,111.0916 0.721859894681221,45.1844598726736,111.337499999994 0.721850004229945,45.1844598726736,111.371799999994 0.721719916498704,45.184069946314,110.775699999998 0.722429864050892,45.1840997859121,109.007199999993 0.722630023967556,45.1840598879194,108.843999999997 0.722729936390095,45.1841100120872,108.397700000001 0.722789951037582,45.1841199026854,108.317599999995 0.722920037870525,45.1840997859121,108.043900000004 0.72332991308351,45.1840598879194,107.262799999997 0.723339971519743,45.1839799246954,108.204299999998 0.723559912338959,45.1839299688344,108.599300000002 0.723539963451449,45.1838399469944,109.843599999993 0.723539963451449,45.1836500128425,110.144 0.72358002921146,45.1835799403681,108.598100000003 0.723829977354419,45.1833598316986,97.3417000000045 0.724024772532182,45.1832165011023,89.5369000000064 0.723917484042876,45.1829290017715,88.2602000000043 0.72365462800759,45.1823392507249,88.1987999999983 0.723236203528028,45.1814014836049,86.4747000000061 0.722957253276111,45.180637724666,86.2538999999961 0.722715854399695,45.1802670772293,84.9919999999984 0.722544193535416,45.1799078282759,84.255799999999 0.722529944458389,45.1799100077749,84.255799999999 0.722310002740843,45.1795299726756,84.2554999999993 0.72223993055542,45.1793299801116,84.2553000000044 0.72223993055542,45.179319922146,84.2553000000044 0.722140018132914,45.1790299082636,85.8344999999972 0.722009930401674,45.1787499522385,84.2550000000047 0.721948742554411,45.1786185241005,84.1150999999954 0.722367167033973,45.1785957255888,84.0834000000032 0.723187923573092,45.1785201207601,88.4523000000045 0.723189934900994,45.1785199529561,88.4563000000053 0.724089983933611,45.1784398217455,89.6796000000031 0.724589880219563,45.178360026031,89.4747999999963 0.724979974529995,45.1777999477095,88.3142999999982 0.725069995602928,45.1776799187209,88.1003999999957 0.725100002926671,45.1775498318342,88.0163999999932 0.725089944490438,45.1774499195489,88.0236000000004 0.72460999709203,45.1768398841244,90.0087000000058 0.724589880219563,45.1767699793094,89.9587000000029 0.724440012484067,45.1768098773449,89.5859999999957 0.724270026977807,45.1768098773449,89.4891999999963 0.723950005751095,45.1767699793094,89.318299999999 0.723939948213192,45.1767699793094,89.3084999999992 0.724109932821121,45.1767899283307,89.4391000000032 0.723980013074838,45.17672991407,89.3414000000048 0.723899882453182,45.1766398922437,89.4020000000019 0.723879933565672,45.176499914227,89.7646999999997 0.723909940889415,45.1764398996607,90.1154999999999 0.723840035790652,45.1764098926704,90.0907000000007 0.723799970030675,45.1763599364994,90.1252999999997 0.723780021143132,45.176260024026,90.0641000000032 0.723699890521476,45.1761599441996,90.3144999999931 0.72313997868974,45.175860039922,89.8723000000027 0.722540001996326,45.1756099237582,91.8190000000031 0.72221998166791,45.175429880855,92.1695000000036 0.721949916652484,45.1752099395206,96.3203000000067 0.72120996177652,45.174869969391,96.8491000000067 0.721199903340286,45.174869969391,96.4799000000057 0.720849875688161,45.1746899260481,94.457699999999 0.720449890926418,45.1744099708495,90.9265000000014 0.720319971180135,45.1742999999021,86.9486999999936 0.71988997999298,45.1743600141906,85.604600000006 0.719599966090044,45.1743600141906,85.132500000007 0.719259995975822,45.1742999999021,87.2844000000041 0.71893997474911,45.1742698252342,87.3061000000016 0.718149896575265,45.1742200369023,85.5380000000005 0.718140006123989,45.1742200369023,85.4192999999941 0.717859882672296,45.1742099786674,85.2722000000067 0.717009957835922,45.1741999204306,86.0556999999972 0.714769978132222,45.1743600141906,83.971000000005 0.71432003715926,45.1743799634229,85.2088999999978 0.714099928355087,45.1743497887974,86.5136000000057 0.713770016677098,45.1742599348246,92.9419000000053 0.713789965564608,45.1742299273189,92.5132000000012 0.713740010251652,45.1740599421156,95.428899999999 0.713719893379185,45.1737898774794,99.5271000000066 0.713589973632902,45.1732499153507,102.788400000005 0.713589973632902,45.173240024764,102.783899999995 0.713409930588706,45.1723299175116,101.364000000001 0.713280010842423,45.1714498180011,108.246100000004 0.713089909361993,45.1707598194718,111.244600000005 0.712839961219034,45.1702200249423,117.618900000001 0.712439976457325,45.1695399173118,123.063599999994 0.712309889624382,45.1694400049061,122.7353 0.712309889624382,45.1694297792627,122.701700000005 0.71200998527017,45.1691999475336,124.991399999999 0.711839999763877,45.1691099258372,125.230200000005 0.710750017235787,45.168669875703,124.807799999995 0.710150040542372,45.1685097811476,128.2399 0.70966003470773,45.1683299057984,124.435700000002 0.709219985084308,45.1682298259692,129.462 0.708809941886366,45.1681099642771,130.420700000002 0.708519927983397,45.1679899357646,127.705100000006 0.708289928727947,45.1678199509368,128.885399999999 0.708130001657921,45.1676600237286,124.165299999993 0.708092451180717,45.1674850097881,120.863299999997 0.707502364938579,45.1672504840706,119.839900000006 0.706204176283823,45.1668042317138,128.325899999996 0.70564627667832,45.1657603495683,164.305099999998 0.705324411210333,45.165177807071,172.5576 0.705163478925488,45.16460297632,174.522100000002 0.704691409752125,45.1639902589745,177.587499999994 0.70440173181907,45.1638087073482,180.319199999998 0.703790187519731,45.1637480219522,179.962199999994 0.703253745971428,45.1635061202297,178.745999999999 0.702770948218596,45.1630370692695,180.275699999998 0.701665878485321,45.1621293091658,174.589300000007 0.701440572927206,45.1618719846952,174.537400000001 0.700185298590223,45.1597915963451,185.397700000001 0.69945573812044,45.1598749120766,187.124400000001 0.699445009541005,45.1602229288128,183.501499999998 0.698801279503328,45.1605783215245,182.301600000006 0.697824955418263,45.1611989178797,175.485100000005 0.696859359912633,45.1602457277121,176.823799999998 0.696172714658886,45.1597159912561,182.447100000005 0.695647001690018,45.1588612048903,183.5723 0.694928168901339,45.1586493101841,184.4709 0.694767236616527,45.1579760760739,184.626300000004 0.694327354079765,45.1574387962149,190.162100000001 0.694091319942216,45.1569546575416,197.213000000003 0.693576335552782,45.1562814230464,206.223400000003 0.693559907162864,45.1562299580307,206.576799999995 0.693209879510705,45.1562599648841,206.2791 0.692690033438947,45.1564299499988,204.944399999993 0.69154003626337,45.1569999196779,206.994399999996 0.690620038343243,45.157269816875,210.085600000006 0.69031996690237,45.1573999038421,210.940600000002 0.690089966748591,45.1574599182012,211.021200000003 0.689939931028138,45.1574800348842,211.573699999994 0.689659975561435,45.1573900130368,213.464000000007 0.689449925193496,45.1572998238142,213.840899999996 0.68944003474222,45.1572399771532,213.791400000002 0.689410027418476,45.1572200282522,213.774900000004 0.689339954334723,45.157190021271,213.774300000005 0.689219925938047,45.157119948542,213.795400000003 0.68916996972676,45.1570498757268,213.796799999996 0.689269881251003,45.156829934363,213.369699999996 0.689359903222233,45.1564100014477,212.304399999994 0.689350012770956,45.1562499066448,211.295800000007 0.689279939687236,45.1560799216265,209.869600000005 0.688989925784267,45.1557298936381,202.868199999997 0.688909963147568,45.155449937735,199.689299999998 0.688860006936315,45.1550199463294,196.121799999994 0.688860006936315,45.1550098878713,196.108300000007 0.688809882740071,45.1546099034015,195.050399999993 0.688799992288795,45.1542099192917,195.191500000001 0.68903988199552,45.1512499342939,173.659199999995 0.689129903966784,45.150989927111,170.823300000004 0.689529888728492,45.1502099073149,166.2693 0.690300018014861,45.1491098667777,162.806599999996 0.690349973327783,45.1489698888932,162.568599999999 0.69031996690237,45.1487199403823,160.801600000006 0.690409987975303,45.1486798750518,160.199800000002 0.690419878426579,45.148650035267,160.019899999999 0.690349973327783,45.1485799628073,160.235499999995 0.690639987230752,45.1481699197936,155.719899999996 0.690649878580359,45.1481699197936,155.705300000001 0.690739899653292,45.1480098252839,153.032399999996 0.690820031173246,45.1477798260427,151.903300000005 0.690960008457465,45.1472499223788,144.356400000004 0.691089928203748,45.1466199384473,139.616500000004 0.691239963924167,45.1461899469456,135.1109 0.691339876346707,45.1456000283268,130.987899999993 0.691359993219174,45.1453499123434,128.859299999996 0.691339876346707,45.1451398618422,127.637300000002 0.691299978571687,45.1449598183015,126.655700000003 0.690979957344975,45.1442698201576,122.130499999999 0.691029913556228,45.1442599296079,122.047099999996 0.691059920879971,45.1442299221387,121.794099999999 0.691069979316238,45.1441999152872,121.763300000006 0.69148002161585,45.1441699077863,122.8364 0.691589992474623,45.1441300103311,123.2503 0.691659897573419,45.1440398210324,122.770799999998 0.691680014445886,45.1439199597703,121.799100000004 0.691450014292107,45.1439300176512,121.377699999997 0.691229905487934,45.143909901254,120.546100000007 0.691059920879971,45.1438398286697,119.870699999999 0.690939892483295,45.1437399161785,119.236099999995 0.69054996615782,45.1432199030745,118.969400000002 0.69054996615782,45.1432100123427,118.969400000002 0.69039992953907,45.1430499178425,119.186300000001 0.690219886494874,45.1429500058677,120.352100000004 0.689999945675658,45.1428898235263,120.820000000007 0.689389910545976,45.1429099402835,120.236900000004 0.689059998868021,45.1428898235263,120.473100000003 0.686579961472638,45.1424298246182,119.477899999998 0.685989875230499,45.1423998174528,119.145399999994 0.684829987603646,45.1424398833956,118.546000000002 0.684338807670898,45.1421393079847,121.445500000002 0.682600736479381,45.1418744398528,125.821800000005 0.682268142431959,45.1417607817239,126.244099999996 0.681903362646233,45.1417230629093,125.447199999995 0.681635140973751,45.1416171157911,126.623900000006 0.681045055629909,45.1412992738888,126.779899999994 0.680851936708463,45.1412917298133,126.8226 0.680229663829689,45.1413748786998,125.682400000005 0.679800510770692,45.1413520798543,124.9476 0.679543018575976,45.1412385885979,123.9476 0.679231881687424,45.1410266942648,124.727799999993 0.679081677982014,45.140595529519,125.813200000004 0.678641796343582,45.1393997669768,129.085300000006 0.678148270011315,45.1374850049687,125.113899999997 0.677912234975468,45.1362136378792,128.471900000004 0.677890777816599,45.1356383039125,122.966899999999 0.678588151649747,45.1351843401997,125.260399999999 0.679146051255284,45.1348814179417,127.2405 0.679714679440222,45.1344727168232,130.087199999994 0.680315494261829,45.1342457345814,135.242400000003 0.681313276404094,45.134169962522,141.147200000007 0.682214498636454,45.1340412160766,146.409899999999 0.682793855400861,45.1338445765038,149.168300000005 0.684725046412155,45.1329968313004,175.241399999999 0.685497522098009,45.133110321851,180.641199999998 0.686194896829487,45.1332164368704,192.224100000007 0.68683862686713,45.1332315246223,200.049700000003 0.687718391042324,45.1330196296844,210.425900000002 0.688147544999617,45.1329136828708,215.032600000006 0.689102411027516,45.1331406647108,216.490399999995 0.689531564984843,45.1332466117364,216.222399999999 0.689746141065159,45.132890716506,216.537700000001 0.690647363297553,45.132217314371,214.579599999997 0.691366196086232,45.1314527165729,215.312999999995 0.691763162508593,45.1310668141294,208.414900000003 0.692009926123875,45.1310366393776,206.830000000002 0.692310333534662,45.1308624635763,201.057700000005 0.691666603497019,45.1305823399011,198.417799999996 0.691194534323622,45.1303704452605,196.492400000003 0.6908833983334,45.1300373487696,184.139599999995 0.690293312091261,45.129969119862,180.275999999998 0.689585208780348,45.1298556287645,169.950100000002 0.688909292106036,45.1298707167717,167.500199999995 0.688308477284463,45.1297421380748,158.368600000002 0.687911510862101,45.1294848137645,149.287200000006 0.687385797893199,45.1292124020172,138.153300000005 0.687525272120844,45.1289777086342,137.023400000005 0.686752796434991,45.1286900413676,134.950299999997 0.685819387565995,45.1281525938142,136.485000000001 0.685411691665869,45.1278421282796,139.570600000006 0.68469285977552,45.1268886026756,146.194699999993 0.68351268729121,45.1255790144306,160.160699999993 0.682708024968721,45.1246781272576,165.161600000007 0.682075023510513,45.1237847842929,169.266900000002 0.681495666746106,45.1229900123387,181.189199999993 0.680894851924533,45.123201906508,186.283599999995 0.680637359729816,45.1229749250468,190.273799999995 0.680347680898464,45.1225660555719,193.830300000001 0.679950714476069,45.1222331264784,195.547200000001 0.67963957758755,45.1218090018206,196.488200000007 0.67940354345,45.1214759054082,196.334300000002 0.679328441597295,45.1211277211722,197.011599999998 0.679274797801791,45.120665878373,197.928100000005 0.679285526381225,45.1200377381239,197.028999999995 0.67933917017673,45.1196514998301,197.436199999996 0.679661035644717,45.1193712095352,198.479600000006 0.680251121886889,45.1189928503484,199.012000000002 0.680680274945886,45.1186823844051,198.832299999995 0.681055784209378,45.1182736825759,199.152000000002 0.681238174551389,45.1178648136399,199.601800000004 0.681399106836234,45.1175089181514,199.796400000007 0.681452751530036,45.1169790139731,199.972200000004 0.681581497178246,45.1166987232283,199.840800000005 0.681710242826456,45.1164945399012,199.746700000003 0.681689958867329,45.1164900137693,199.733999999997 0.681709907754872,45.1164598389133,199.649300000005 0.681649893107352,45.1164298320283,199.565100000007 0.681479908499389,45.1164298320283,199.645999999993 0.68124990924394,45.1163899341811,200.234500000006 0.680689998310502,45.1161698251571,200.345700000005 0.68015992671585,45.1159299351354,199.493100000007 0.67996999232208,45.1157899575661,198.920100000003 0.679789949277884,45.1156399212218,198.349400000006 0.679430030276152,45.1152099293778,197.340899999996 0.679319892330752,45.1150198278821,197.121400000004 0.679230038344446,45.1147799380974,197.045899999997 0.679230038344446,45.1147698795124,197.046499999997 0.679119899500716,45.1144399680999,197.026299999998 0.679069943289463,45.1140899399079,197.286300000007 0.679009929540273,45.1139098965893,197.393800000005 0.678910017117734,45.1137099044235,198.073399999994 0.678480025032282,45.1132898034692,200.780899999998 0.678369887086848,45.1131099275247,202.599799999996 0.678209960016822,45.1127800160252,206.040699999998 0.67802002652135,45.1124900019523,208.312600000005 0.677979960761373,45.1123599151993,209.202900000004 0.67802002652135,45.1120900177456,209.277000000002 0.678029916972626,45.1116199604008,208.651800000007 0.678089931620146,45.111490040934,208.655700000003 0.678169895155142,45.1114000193654,208.707500000004 0.678409952846858,45.1112300343789,209.094400000002 0.678450018606835,45.1111400130341,209.335500000001 0.678469967494345,45.1106099413037,210.405499999993 0.678439960170602,45.1104500145802,210.512600000002 0.678369887086848,45.1103298177117,210.646500000003 0.678289923551852,45.11026997119,210.894 0.677960011873863,45.110160000713,211.7984 0.677859932364697,45.1100998186363,212.204299999998 0.677779968829667,45.1100200229386,212.581699999995 0.677730012618414,45.1098998264325,213.007500000007 0.677730012618414,45.1098899356275,213.025999999998 0.677629933109247,45.1095099000705,213.779699999999 0.67763999064715,45.109399929397,213.676300000006 0.677730012618414,45.109279900861,213.198499999999 0.67802002652135,45.1089798284167,213.193899999998 0.678229909802662,45.1086799243066,213.405899999998 0.678169895155142,45.1082799400259,215.909599999999 0.680369977083789,45.1078698969453,215.226299999995 0.680679939874268,45.1077299192606,215.275500000003 0.680950004889728,45.1075398175751,215.073000000004 0.681829937049845,45.1066999509715,211.417400000006 0.682139899840324,45.1065400240707,210.550300000003 0.681967735021173,45.1061817817997,211.466199999995 0.681484937268374,45.1058257183454,206.928400000004 0.680744648219123,45.1057729124552,203.891900000002 0.679929256418902,45.1054473593797,194.580900000001 0.679414272029435,45.1052807272035,185.942299999995 0.6793820853928,45.1051898671543,183.180800000002 0.679768324134057,45.1052277534234,186.820300000007 0.680240392409124,45.1049323750356,182.400200000004 0.680637359729816,45.1045917345246,182.156400000007 0.680980682356673,45.1041902417271,183.451199999996 0.681313276404094,45.1034179328706,188.077600000004 0.681774616099726,45.1029408351253,192.480299999996 0.681989193078373,45.1025317980006,196.195600000006 0.682225227215889,45.1020094378166,201.731100000005 0.682493447990074,45.1017898319506,203.837100000004 0.682858228674131,45.1014565679526,204.6731 0.682922601947368,45.1011915318082,207.186000000002 0.683072805652778,45.1010247318591,208.542799999996 0.683147907505483,45.1007975822851,210.2402 0.683115720868848,45.1005023718362,211.613200000007 0.683094262811648,45.10019928189,213.092600000004 0.683158636084918,45.0999116153611,213.637199999997 0.682986974322341,45.0997677818702,213.854200000002 0.682697296389286,45.0995708072923,212.797999999995 0.682750940184791,45.0992603415831,214.021099999998 0.683029890436708,45.0988285059993,215.7641 0.68342685685907,45.0981470568887,219.714600000007 0.683419983848844,45.0981299579536,219.809299999994 0.68334991076509,45.0981299579536,219.809299999994 0.683119911509641,45.0980399362404,219.841899999999 0.682910029126659,45.0978899001592,219.035199999998 0.682100002065304,45.0969900190908,218.190199999997 0.681879893261132,45.0968698224155,218.203099999999 0.681879893261132,45.0968599318894,218.208599999998 0.680709947198012,45.0962098313348,220.901400000002 0.680249947788783,45.0958899779202,222.795599999998 0.680079963180854,45.0957099348989,223.363400000002 0.67996999232208,45.0954499281234,224.242199999993 0.679719876194164,45.0945498792351,222.313800000004 0.67917002369696,45.0939299537507,221.121899999998 0.678749922961081,45.0935199109666,222.627099999998 0.677332878211095,45.0921788066588,213.603300000002 0.676721334810053,45.0919364020958,209.544099999999 0.676850080458263,45.0915501638756,209.233600000007 0.676313638909926,45.0914894789268,205.823799999998 0.675873756373198,45.0915275328346,203.968800000002 0.675487518530271,45.0915880503172,200.130900000004 0.675036907414075,45.0917092525153,195.421199999997 0.674618482934513,45.0917243398289,192.061799999996 0.674296617466526,45.0916033050886,187.918999999994 0.674039125271809,45.0914743915511,182.3226 0.673867464407529,45.0913456457835,181.0147 0.673856734929764,45.0911639255801,175.912800000006 0.673931836782469,45.0908759237041,169.482399999994 0.673813819713694,45.0907547210059,168.777700000006 0.673416853291333,45.0906487743452,167.047500000001 0.672783851833124,45.0905503706652,170.140299999999 0.671893358180165,45.0902095625338,171.946299999996 0.670820474185195,45.0899217277155,169.909199999995 0.669651031178683,45.0899897888823,165.046499999997 0.669082402993711,45.0900201312102,162.687600000005 0.668299197830093,45.0899822449969,159.861300000004 0.667558908780874,45.0897400080553,159.335699999996 0.666925907322666,45.0894976032886,158.950800000006 0.665692091042851,45.0889824516113,154.977400000003 0.665509700700839,45.0887779332036,152.183000000005 0.665026902948007,45.0886567311272,147.176500000001 0.664780140231022,45.0881719215179,141.666200000007 0.66468358032115,45.0878462008513,141.419699999999 0.664758682173855,45.0873538477407,143.649900000004 0.665123462857912,45.0869977848343,148.728300000002 0.665531158758006,45.086816064751,149.3076 0.665885209964331,45.0866040031344,148.043799999999 0.666346549659962,45.0860434213087,149.328999999998 0.667033195811973,45.0854751284,154.099900000001 0.667666197270215,45.0849752312362,160.970199999996 0.669382810404498,45.0842783600891,162.015199999994 0.669565200746543,45.0840512104978,167.797600000005 0.669608115962613,45.0838163497579,171.065600000002 0.669350623767863,45.0833769699696,176.338000000003 0.669554472167108,45.0828846170292,177.922500000001 0.669618844542048,45.0825210099374,181.540399999998 0.669897794793965,45.0820209461098,183.766099999993 0.66984415010013,45.0813996794596,192.060899999997 0.66997289664667,45.0814149344148,191.863800000006 0.67076683038969,45.0820739192204,180.133799999996 0.671399831847932,45.0821042619475,178.734500000006 0.671496390859507,45.0819906033385,181.851299999995 0.671496390859507,45.0815435129108,188.054900000003 0.671442747064002,45.0800738300503,202.550499999998 0.671689510679284,45.0799526272666,203.590100000001 0.672107935158845,45.0791647286889,211.296900000001 0.671989918090071,45.0788390080444,214.278999999995 0.671786069690859,45.0784678570755,216.872600000002 0.671721696417588,45.0782556274525,217.692800000004 0.671732425895354,45.0774905273142,219.055900000007 0.671689510679284,45.077278465335,219.710300000006 0.671421289006802,45.076619312304,222.539399999994 0.671560764132743,45.0763769076825,222.185899999997 0.671539306973874,45.0760738178342,222.860400000005 0.671421289006802,45.0757251307954,223.342300000004 0.671571492712178,45.0754600951239,224.154800000004 0.672065019942776,45.0749523189547,224.339200000002 0.671603679348813,45.0745357384246,225.880099999995 0.671185254869252,45.0741644205746,227.281199999998 0.67087411887903,45.0736568124242,229.223700000002 0.670809913590717,45.0735899244476,229.527499999997 0.670849979350727,45.0735699760992,229.449600000007 0.670779906266974,45.0735299099994,229.656099999993 0.665109883924054,45.0708698297594,228.718299999993 0.664930007966518,45.070769916982,227.600000000006 0.664629936525646,45.070539917786,226.091899999999 0.664489958343129,45.0703999399443,224.322 0.664489958343129,45.0703898817874,224.204800000007 0.663870032762171,45.0697800143764,219.352400000003 0.663610026182978,45.0695699641207,218.252399999998 0.66316997655959,45.0693899206112,216.343999999997 0.662589948753685,45.0691699793107,215.435700000002 0.662430021683625,45.0690900160188,214.937900000004 0.662170015104433,45.0689899364446,213.843200000003 0.661899950089007,45.0688499586136,211.953599999993 0.661729965481044,45.0686799731991,210.890199999994 0.66085992377217,45.0675599838791,214.454899999997 0.66085992377217,45.0675499252225,214.486499999999 0.660549960981691,45.0671499408691,215.386400000003 0.660259947078755,45.0669499485946,213.959400000007 0.660019889387072,45.0667398980901,213.132100000003 0.659859962317012,45.0665197892447,211.780899999998 0.659240037634385,45.0655899012312,210.195200000002 0.659159906114431,45.0654299740358,210.745200000005 0.659189913438175,45.0651899164869,211.218399999998 0.659169964550665,45.0650997273807,211.761100000003 0.659029986368148,45.0649800339981,213.145499999999 0.658929906858982,45.064909793401,213.458799999993 0.65858993674476,45.0647800417457,213.967300000004 0.658369995925544,45.0646600126843,215.077399999995 0.657452345303232,45.0642610340829,214.735100000005 0.656905174277164,45.0638972596242,216.042600000001 0.656497478377037,45.0633894841452,215.861999999994 0.656390189887697,45.0631167366031,214.089600000007 0.656293630876122,45.0624953024897,208.748000000007 0.655821561702758,45.0623362137124,205.328099999999 0.655564069508041,45.0623286699824,204.405700000003 0.653429030995832,45.0617754648495,175.690799999997 0.652227401352686,45.0616995242253,163.0285 0.651347637177492,45.0615251812214,156.718800000002 0.651122331619411,45.0612827760304,153.637499999997 0.650306939819157,45.061138775463,145.806200000006 0.649470090860033,45.060812886719,136.867100000003 0.647592544542575,45.060259680879,126.782399999996 0.646326541626158,45.0594716148523,112.304699999993 0.646320003687516,45.0594598802074,112.0726 0.643019880794545,45.0583698974134,101.607699999993 0.64023993904495,45.0571298782456,110.4908 0.640229880608717,45.0571298782456,110.578200000004 0.639959983578214,45.0570100171487,114.621799999994 0.639480036179806,45.0569899005631,116.920100000003 0.638990029446834,45.0569500030597,120.490000000005 0.638549979823445,45.0568100249369,123.702499999999 0.638189892836756,45.0566199238096,126.068700000003 0.637640040339551,45.0563500262343,127.0101 0.637229998039906,45.0562199391306,128.166200000007 0.636509992051451,45.0561200267645,128.460000000006 0.63580993584887,45.056009888545,130.965599999996 0.635179951831678,45.0557098166638,136.197199999995 0.634859930604999,45.0555299408185,140.089500000002 0.63462004089824,45.0553299485069,141.827900000004 0.633749999189399,45.0559698234623,151.921700000006 0.633509941497683,45.0560699029861,157.551000000007 0.633249934918491,45.056199822267,157.405700000003 0.632486343570798,45.0555379874052,178.320999999996 0.632003545817966,45.0548256931975,185.039499999999 0.631316900564253,45.0539087132609,192.3649 0.630995035096266,45.0534612869971,196.585600000006 0.630952119880196,45.0529080817414,198.968999999997 0.631102323585606,45.0522866470951,199.190400000007 0.631284713927618,45.051649958031,197.961899999995 0.631413459575828,45.0511193835794,199.767099999997 0.631563663281238,45.0505130365788,200.782800000001 0.631529968373242,45.0505100188438,200.9038 0.631519909937009,45.0504297203785,201.238599999997 0.631439946401979,45.0503299755971,201.774300000005 0.631239954470273,45.0501499324184,202.904500000004 0.630949940567304,45.0499298238011,202.411099999998 0.630790013497278,45.049779955203,201.325700000001 0.630709882875621,45.0496099702037,200.830400000006 0.630669985100602,45.049409978133,199.027400000006 0.630799904846885,45.0483800097035,199.7503 0.630779955959375,45.0481999667333,200.294999999998 0.630699992424345,45.0480898284926,199.572 0.630309898113912,45.0477399679529,193.571899999995 0.630219877040979,45.0475899317742,191.334900000002 0.630190036803863,45.0473899396219,190.724700000006 0.630190036803863,45.0473798812246,190.742199999993 0.63005994997092,45.04644982535,185.308499999999 0.629389901092082,45.0449199603649,171.333799999993 0.629309937557086,45.0446700117123,170.455100000006 0.629203319210947,45.0443882121015,170.466700000004 0.629439354246794,45.0442063247809,171.855100000001 0.62995433773793,45.0440091827366,174.190600000002 0.630308389842552,45.0437439790621,177.142399999997 0.631295442507052,45.0428645497792,182.757299999997 0.631756782202684,45.0422883775786,184.220600000001 0.632164478102811,45.0420307180484,187.730100000001 0.632840394777089,45.0412802025441,188.471799999999 0.63286185283429,45.0410299187097,188.218699999998 0.633248090677216,45.0406963192715,188.512900000002 0.633709430372848,45.0403704308223,188.762700000007 0.633709430372848,45.0400673411175,188.391199999998 0.63367724463451,45.0391726570125,188.936499999996 0.633795261703285,45.0386191161411,191.430600000007 0.63395619398813,45.0381718578275,192.672099999996 0.633902550192625,45.037618316796,192.910099999994 0.63412785485241,45.0372696294222,193.794099999999 0.634256601398917,45.0369284863705,192.887100000007 0.634632110662408,45.0366101413588,193.248099999997 0.6349861618687,45.0361778030036,192.608999999997 0.63496470470983,45.0359885391653,192.027199999997 0.634878873379393,45.0357230005862,190.943199999994 0.634932518073195,45.0354956834041,190.587899999999 0.63520073884738,45.0350028278418,191.715800000005 0.633505582871933,45.0342595206372,191.725999999995 0.631005763675701,45.0332362575468,196.437399999995 0.629857778726356,45.032629575607,197.681899999996 0.627433061382828,45.0315758027384,202.554699999993 0.625963210965496,45.0313483179866,206.119200000001 0.625641346395806,45.0311282094001,207.0821 0.624622106196341,45.0305823792427,210.976899999994 0.624783039379516,45.0303927807345,211.611099999995 0.625029802096468,45.0300667250397,211.927500000005 0.623592138315771,45.0294298680186,213.668600000005 0.623077153926304,45.0294979288552,214.118700000006 0.62236905061539,45.0293919816332,216.1783 0.619955062749628,45.0294147801297,226.870999999999 0.619837045680853,45.0295359827781,227.573999999993 0.619096755733305,45.0295435263896,228.971600000004 0.618613957980506,45.0297636353566,229.479099999997 0.61854992067715,45.0297198816753,229.104600000006 0.617919936659959,45.0301798805986,229.293900000004 0.617679878968276,45.030299909659,229.146999999997 0.617390033050297,45.0303599237773,228.698099999994 0.616329889860994,45.0303699819927,227.829599999997 0.613299999070109,45.0303399749466,233.6348 0.612789876362967,45.0303800402062,232.712599999999 0.610439926698858,45.0306799446838,230.756899999993 0.610138178103338,45.0305444936201,231.161500000002 0.60870051342431,45.030241236322,229.888000000006 0.608121156659937,45.0301652963595,228.145399999994 0.606855153743487,45.0299758653458,225.062900000004 0.605986118147762,45.0299911200582,225.909799999994 0.605846643021786,45.0273218193489,209.0916 0.605739355430777,45.026571303294,204.248000000007 0.60548186323606,45.0261389652884,202.449699999997 0.605363846167285,45.0255626253021,199.407999999996 0.605159997768073,45.0254565107955,197.9522 0.605921744874491,45.0237806329698,183.232999999993 0.606297254137983,45.0233635494146,182.917100000006 0.606232881763043,45.0230525807102,182.093399999998 0.605996846727196,45.0227493230861,179.957399999999 0.60541748996279,45.0229464659956,180.353799999997 0.604677200015241,45.0224990394746,177.580300000001 0.603711605407941,45.0219605865544,177.643400000001 0.603078603949699,45.0219225326749,176.477299999999 0.602316855944984,45.0218544717205,175.050399999993 0.601866244828787,45.0216801278979,174.722200000004 0.60132980328045,45.0213689913076,173.4856 0.600911378800889,45.0211341308116,171.530400000003 0.600053071784599,45.0208989347213,170.519 0.599409341746922,45.0207549334374,169.394700000004 0.599108934336135,45.0206107647925,167.740399999995 0.598808526925348,45.0202087687827,164.672000000006 0.598433017661856,45.0199053436989,164.232399999994 0.59804677981893,45.019601918912,165.567500000005 0.598030015459097,45.0195999072716,165.659299999999 0.597229879747316,45.0187399239085,168.301099999997 0.596940032931007,45.0181999617925,170.454199999993 0.596829894985607,45.0177299045891,165.197499999995 0.596650019028038,45.0173200294351,163.640499999994 0.596360005125102,45.0169299359437,161.895900000003 0.59599991903671,45.0161299669178,163.231299999999 0.595659948922487,45.0154999827535,163.147100000002 0.595589875838767,45.0153199398289,160.9611 0.595589875838767,45.0153098815092,160.786699999997 0.595349986132042,45.0146899556438,158.782699999996 0.594840031409857,45.0137099435368,160.458700000003 0.594079960559756,45.0125098227554,149.285600000003 0.593409910782587,45.0113900003448,153.903900000005 0.592940020922082,45.0107199510936,156.367899999997 0.592629891044976,45.0104398279582,155.780100000004 0.5915900318148,45.0096499177684,147.561900000001 0.591339915686883,45.0094199178951,146.464900000006 0.591339915686883,45.0094100274759,146.430800000002 0.591010004008894,45.0087599272967,146.480599999995 0.590729881455532,45.00806003814,146.643599999996 0.590069890114597,45.0074099378814,147.841400000005 0.589720029549099,45.0069098731315,148.971099999995 0.589439906097406,45.0066099686123,145.433900000004 0.589430015646129,45.0066099686123,145.392699999997 0.588169880525153,45.0052700375172,148.578299999994 0.587929989920097,45.0050698777661,150.608600000007 0.587820019959654,45.0040699170928,151.136100000003 0.587799903087187,45.0029499271287,152.140199999994 0.587820019959654,45.0026800297892,156.204599999997 0.587719939552157,45.0008599834398,151.400099999999 0.587569903831738,45.0005200132055,146.001300000004 0.587319954790448,45.000249948159,145.296900000001 0.587209984829972,44.9998699131298,145.794299999994 0.587239992153749,44.9997198765769,146.120800000004 0.587269999477492,44.9995798988094,146.544899999994 0.587390027874169,44.9992999435189,147.358200000002 0.587809961523421,44.9992199803614,141.650299999994 0.588209945386833,44.9990000391786,139.925399999993 0.588439945540579,44.9984899166039,136.775999999998 0.588179938063056,44.9976198749635,130.108800000002 0.58811003386259,44.9971399271847,128.892399999997 0.588439945540579,44.9967298843449,128.531199999998 0.588540025049779,44.9964100306741,128.267900000006 0.588229894274342,44.9944800138261,133.575500000006 0.588220003823066,44.9943499264433,133.359400000001 0.588220003823066,44.9943400359634,133.338499999998 0.588179938063056,44.9931199661881,127.313200000004 0.588269960034319,44.9920598234248,132.039799999999 0.58811003386259,44.9906099213169,138.238500000007 0.588209945386833,44.9904099295309,137.357000000004 0.588770024305228,44.9901100250403,141.926399999997 0.589729920000375,44.9897900035452,142.340100000001 0.591079909107657,44.9895600046219,141.375199999995 0.592689905692463,44.9891199544996,136.030899999998 0.592949912271689,44.9891199544996,136.9807 0.593059882232131,44.9890299326262,135.096699999995 0.593219977287115,44.988969918389,135.138900000005 0.593349896135101,44.9889199619619,135.052500000005 0.59353999761553,44.9887898753003,133.058399999994 0.593639910038037,44.9886299481309,130.439599999998 0.593720041558024,44.988399949,128.566099999996 0.593939982377239,44.9868499673641,130.224900000001 0.59370998312179,44.9868600255985,131.268299999996 0.592069980111538,44.9870900251904,133.2693 0.59013996230002,44.9873800391887,125.755799999999 0.589589941817858,44.9874799515069,125.142699999997 0.589056014654031,44.987088516239,127.260200000004 0.588895082369186,44.9867016077244,130.455300000001 0.588766336720976,44.9861628188657,134.154599999994 0.588744878663776,44.9855024923522,137.330000000002 0.588787793879846,44.9847134201111,143.572 0.588659048231636,44.9844629690011,147.737999999998 0.588068961989497,44.9842430277284,153.6204 0.587747097419841,44.9837875553999,157.411200000002 0.587210654973174,44.9831652824535,159.400999999998 0.58643817928732,44.9825051241038,161.307199999996 0.586019754807759,44.9821862763096,163.205799999996 0.58553695705496,44.9816173126734,167.446800000005 0.585021972665493,44.981032926317,172.035499999998 0.58446407305999,44.9806988240992,175.3851 0.583820343022313,44.9808735029957,175.181500000006 0.583466291816021,44.981086067961,174.376300000004 0.582393407821051,44.9814805204772,175.044800000003 0.581749677783408,44.9813288078523,174.489300000001 0.581127404904634,44.981086067961,172.562399999995 0.580558776719662,44.9806533941806,169.207299999995 0.580333471161581,44.980478883,167.775500000003 0.579657554487302,44.9802968275443,163.748800000001 0.579067468245164,44.9800235777483,160.791800000006 0.578370094411982,44.9797806702966,157.287200000006 0.577661991101068,44.979507419947,144.682499999995 0.576996803006225,44.9792722238495,135.529599999994 0.577265023780376,44.978900402545,134.760399999999 0.577694177737703,44.9786271524484,137.119900000005 0.578252077343207,44.9782932179491,139.911399999997 0.578756332254908,44.9778756315553,140.427299999996 0.579442977508655,44.977496433738,140.683199999999 0.579979419955289,44.9774052389886,141.429999999993 0.580708980425072,44.9774127824777,146.220000000001 0.581020116415294,44.9772914129496,146.190700000006 0.58018326745617,44.9766994827666,139.051699999996 0.579732656340007,44.9760391565526,145.678799999994 0.57936787565595,44.9755154547325,156.736999999994 0.578423738207487,44.9757962487435,156.465200000006 0.578069687001195,44.9753332322732,161.575100000002 0.577780008169843,44.9749614114808,164.722299999994 0.577672719680503,44.9742782861206,167.375400000004 0.577490329338491,44.973572529543,166.528000000006 0.577458143600187,44.9729576332426,166.361999999994 0.577511787395692,44.9725705569117,169.012700000007 0.577683449158269,44.9720165131712,172.989100000006 0.577790736749278,44.9716294368435,176.082699999999 0.578284263979842,44.9708019758759,180.009300000005 0.578359365832547,44.9703694691731,180.489100000006 0.578606128549532,44.9700809643197,179.767900000006 0.57896018065412,44.9696710895184,178.945999999996 0.578348636354782,44.968570377909,180.191900000005 0.5781233307967,44.9677127414248,184.107499999998 0.577619075884998,44.9672118389443,185.009099999996 0.57698607442679,44.9667789975519,183.233500000002 0.576106310251596,44.9665360899258,176.612299999993 0.575172901382601,44.9664754044888,175.131099999999 0.574518441867192,44.9662096986222,177.705100000006 0.574228763934138,44.9660732408485,177.721600000004 0.572662353606934,44.9658682198982,181.131899999993 0.572512149901524,44.9656935410534,182.462 0.571374893531614,44.9659364484338,185.2212 0.571364164053848,44.9658529646302,185.882800000007 0.570312738116078,44.9660122206059,189.982099999994 0.569229125541673,44.9658757636336,193.8367 0.568478107014689,44.9656025131258,197.194199999998 0.567523240986824,44.96545063328,199.654999999999 0.565935373500717,44.9652533236244,200.914199999999 0.565742254579237,44.9651317859895,200.894100000005 0.56546330432732,44.9646384271154,200.457800000004 0.565109253121029,44.9639475903154,191.673299999995 0.564551353515525,44.9637883343283,188.104999999996 0.564090013819894,44.9635680575991,183.0245 0.563918352057283,44.9633176062888,179.364700000006 0.563811063567977,44.9627937374509,175.382500000007 0.563735961715272,44.9621483313149,173.742100000003 0.563371181929545,44.9611009285424,172.763600000006 0.562963486029418,44.9605314620256,174.059299999994 0.562545061549857,44.9600986204432,175.575700000001 0.562062263797025,44.9596812015921,175.505799999999 0.561600923203096,44.9593926963753,174.994099999996 0.561354160486111,44.9590738491052,174.840500000006 0.561118126348595,44.9587018599731,174.046300000002 0.560914277949349,44.9582462197248,173.035099999994 0.560796260880608,44.9577832033269,172.872799999997 0.560613870538563,44.9561281128023,176.601299999995 0.560377836401046,44.9554676190338,174.351599999995 0.560120344206329,44.95512597275,172.891199999998 0.559744834942838,44.9545033646172,169.936700000006 0.559616089294628,44.9541845175136,169.021900000007 0.559465885589218,44.9536908229267,167.084900000002 0.559101104905161,44.9531443227821,164.944699999993 0.558543205299657,44.9523319487549,164.729900000006 0.5581784246156,44.9514131246482,163.771800000002 0.557599067851194,44.9503424206652,160.190000000002 0.557202100530535,44.949765410237,157.176099999997 0.55722003809011,44.9497498200912,157.201199999996 0.557089951257201,44.9495699443932,156.520300000004 0.557029936609681,44.9494499152654,156.215899999996 0.556979980398428,44.9491899090429,155.2978 0.556969921962194,44.9490400405561,155.212299999999 0.557039995045914,44.9486398883553,152.605800000005 0.557119957682613,44.9484098890303,151.757100000003 0.557469986233069,44.9478600363441,148.819499999998 0.557519942444356,44.9477299487166,148.208199999994 0.557579957091842,44.9470298921647,144.441500000001 0.557560008204333,44.9467998927464,144.052899999995 0.557509884008122,44.9466099590418,143.577999999994 0.557509884008122,44.9465999007409,143.580100000006 0.557439978909326,44.946069828972,143.264299999995 0.557399914047646,44.9451399406623,143.641900000002 0.557409971585583,44.9450599776174,143.732099999994 0.557659920626872,44.9445200154436,143.079500000007 0.557719934376062,44.9443099650586,142.395900000003 0.558029897166507,44.9429899829175,144.616699999999 0.558039955602774,44.9428298885882,145.637400000007 0.558059904490284,44.9426099472396,147.379499999995 0.558189992221524,44.9420998245557,147.647100000002 0.55848000612446,44.9413600379252,147.339900000006 0.558959953522902,44.9404998867977,147.978300000002 0.559170003890841,44.9400698954232,146.9035 0.55943990092131,44.9396699108777,142.687099999996 0.559460017793777,44.9395498820324,142.320800000001 0.55940000314629,44.9388598839444,135.127900000007 0.559520032441297,44.938510022985,135.643800000005 0.559573173180227,44.9380862338137,132.013000000006 0.559594631237427,44.9375925400173,126.060400000002 0.559540987441923,44.9370304494258,117.399300000005 0.559519529384722,44.9365898969914,113.580100000006 0.559380054258781,44.9361116252057,110.390899999999 0.559251308610571,44.9355874208747,106.486499999999 0.559219121973936,44.9351773785053,102.480100000001 0.559144020121231,44.9347824231324,97.4882999999973 0.559390783736513,44.9346379192491,97.5445999999938 0.559583902657993,44.9343266152387,88.7736000000004 0.559530257964157,44.9340912510529,86.1380999999965 0.558747052800539,44.9340456538522,83.8724999999977 0.55813550939953,44.9338709747944,83.1184000000067 0.557770728715474,44.9336128121903,82.5581999999995 0.557534694577957,44.9334456772712,82.4321000000054 0.557352304235912,44.9333392267995,83.3127999999997 0.557738542977169,44.9328988419184,82.4279999999999 0.558553933879092,44.9318733998278,81.9376000000047 0.558704137584502,44.9313947930366,82.1983999999939 0.558661222368432,44.9309163539689,82.0920999999944 0.558339357798742,44.9300427919358,80.636599999998 0.55804967896739,44.9289414097766,76.9839999999967 0.557352304235912,44.9286529052162,83.2733000000007 0.557051896825125,44.9283337218101,89.3222999999998 0.557008981609055,44.9276806038777,88.5935000000027 0.55704116824569,44.9269969759484,83.7069999999949 0.556944608335785,44.9261690118572,83.2121000000043 0.556794404630408,44.9254548733609,86.4597999999969 0.556740760834904,44.9248470181209,85.2853999999934 0.55693387975635,44.9243761226775,82.4189000000042 0.557438135566382,44.9233582240396,83.9961000000039 0.557352304235912,44.9228948727749,88.7443999999959 0.557094812041195,44.9222186209653,94.3228999999992 0.556880235960845,44.9217782354142,95.661300000007 0.55676221889207,44.9213831128402,94.6910000000062 0.556558370492858,44.9210563858466,93.2848999999987 0.556515455276788,44.9206993170978,91.6385000000009 0.556612015186694,44.9201600252663,89.2030999999988 0.55691242259748,44.9196586199226,87.5102999999945 0.557234287167137,44.9189672804717,84.9784999999974 0.557255745224337,44.9186861517149,84.690499999997 0.557384490872547,44.9184430761418,82.9771000000037 0.557491779361887,44.9181088059517,85.0337 0.557523965998522,44.9178201331211,85.6389999999956 0.557255745224337,44.918177202588,86.3295000000071 0.55701971018849,44.9182454312097,91.7737000000052 0.55684804932421,44.9183215386057,95.7543000000005 0.556590557129493,44.9184658748969,96.5659000000014 0.556397438208047,44.9185951242856,100.977499999994 0.556322336355342,44.9182987397933,103.655899999998 0.556311607775907,44.9178504758108,105.008700000006 0.556290149718707,44.9173415269152,108.172999999995 0.556086302217792,44.9169464037275,110.381500000003 0.555539131191723,44.9166577307823,120.841199999995 0.554401874821813,44.9161866677062,127.596600000004 0.554058552194956,44.9158371425442,126.314499999993 0.553007126257186,44.9150242654034,121.001300000004 0.552964210142786,44.914781022936,118.8174 0.552181005877498,44.9123194257674,97.0785000000033 0.551741123340736,44.9111949091705,95.525999999998 0.551322698861174,44.9105717985068,100.660699999993 0.550861358267245,44.9102224408691,97.4660000000003 0.550442933787684,44.9098727477374,93.2859999999928 0.549949407455417,44.908649325447,85.8083000000042 0.54960608482856,44.9081403764965,82.3506999999954 0.549273490781138,44.9075172658017,79.0366000000067 0.549262762201703,44.9070309472433,73.0627999999997 0.549209117507868,44.906658623408,70.4867999999988 0.54941296590708,44.9063317293418,74.6679000000004 0.54967045810183,44.906027801258,76.1664000000019 0.549530982975855,44.9058152362369,76.5595999999932 0.549391507849913,44.9056630206662,72.7989999999991 0.549219846985634,44.9055186846668,72.4521999999997 0.548897981517647,44.905431345095,68.5467000000062 0.548940896733716,44.9051844143755,68.0500000000029 0.548860431040443,44.9049869363523,67.9616999999998 0.548624396004596,44.9048957415198,68.1347999999998 0.54831862475324,44.9048652316528,68.6769000000058 0.548114776354028,44.9045157057148,68.8712999999989 0.547868013637077,44.9042877184022,71.1548999999941 0.546612739300061,44.9039304818269,95.3925000000017 0.545593499998926,44.9037480912105,100.649300000005 0.544842481471942,44.9034290761246,100.506999999998 0.544617175913861,44.9028969928862,101.214000000007 0.54450988742452,44.9022130293385,106.202300000004 0.544155836218229,44.901696368788,110.095100000006 0.543651580408197,44.9013010782221,116.488200000007 0.542771816233004,44.9008072165096,128.879100000006 0.541870594000643,44.9002903887026,132.285199999998 0.541334152452307,44.8996216803828,130.669200000004 0.541559458010422,44.8992188459651,128.850699999995 0.541559961066963,44.8992099610122,128.850699999995 0.541589967492409,44.8991398886376,128.850699999995 0.541600025928643,44.8987799697767,128.952600000004 0.541719887238692,44.8983699268369,131.219200000007 0.541759952998669,44.8979999497063,132.113700000002 0.541669931027406,44.8972100391879,135.457500000004 0.541719887238692,44.8969099668667,135.563699999999 0.541839916533699,44.8966399019661,135.653600000005 0.541919879170398,44.8964600266276,135.594100000002 0.542279966157087,44.8960399254418,133.072899999999 0.542899891738012,44.8956099340456,128.185599999997 0.543329882925167,44.8953998835948,126.216799999995 0.543726682260902,44.895251523547,124.315600000002 0.54326534256527,44.8952059260639,126.436000000002 0.542975663733918,44.8951452409396,128.531199999998 0.54229974705964,44.895168040028,132.279599999994 0.541934967273913,44.8949931937558,132.540200000003 0.541366339088942,44.8946512118055,131.949200000003 0.540583133925323,44.8938913083436,131.883900000001 0.541291237236237,44.8930779286346,132.1057 0.541419982884446,44.8928804510289,131.499100000001 0.541580915169291,44.8926980609959,131.052200000006 0.541806220727373,44.8924699052692,130.240099999995 0.542020797706053,44.8923331124586,129.875400000004 0.5422139166275,44.8922191189437,129.850699999995 0.542374848912345,44.8920442719787,129.7163 0.54232120511684,44.891915023338,129.510399999999 0.54217100141143,44.8917250894919,127.941600000006 0.541988611069418,44.891497101735,127.093599999993 0.541881322580078,44.8912842010599,124.742800000007 0.541988611069418,44.8908282256019,120.588000000003 0.541806220727373,44.8908890782034,121.472899999993 0.541570186589857,44.8909574747757,122.408100000001 0.541312694395106,44.891010615837,124.143599999996 0.54109811741646,44.891010615837,124.591400000005 0.540862083278943,44.890820514173,124.453500000003 0.540679692936898,44.8906153256328,125.274600000004 0.540518760652086,44.8903568273662,124.485199999996 0.540400743583311,44.8900681545229,124.765199999994 0.540239811298466,44.8897793141236,125.963199999998 0.540143251388595,44.8895283601407,124.861399999994 0.53996086104655,44.8893536812867,125.614499999996 0.539703368851833,44.8892472312173,125.868600000002 0.539478063293751,44.8892016334285,125.324600000007 0.539048910234721,44.8892016334285,123.889800000004 0.538866519892709,44.8892244323274,123.752600000007 0.538748502823934,44.8890799284089,122.298299999995 0.538544654424722,44.8888594846598,119.806100000002 0.538351535503276,44.8888138865636,118.463799999998 0.538083314729091,44.8886239526593,117.425900000002 0.537847280591574,44.8885857313392,117.097099999999 0.537654161670094,44.8885175025123,116.748000000007 0.537396669475377,44.888403509072,116.386599999998 0.53726792292887,44.8882590050004,116.345300000001 0.537139177280661,44.8881602659646,116.176800000001 0.536988973575251,44.8879854193892,115.420100000003 0.536785126074336,44.8878789693334,115.138699999996 0.536559820516254,44.8878105729189,114.670800000007 0.536452532026914,44.8877802302816,114.163199999995 0.536345243537607,44.8874989337013,111.991399999999 0.536173581774997,44.887308832523,110.683600000004 0.53587317436421,44.8871492410902,109.281099999993 0.535680055442763,44.8869593067809,108.813699999999 0.535486936521283,44.8867767490391,107.063299999994 0.535293817599837,44.8866780100047,107.255600000004 0.53501486734792,44.8865640161012,107.152100000007 0.53486466364251,44.8863586596249,103.0291 0.534725189414865,44.8861838133015,101.8986 0.53460717234609,44.8859861681825,98.7102000000014 0.534435510583513,44.8858037779262,96.9324000000051 0.534178018388797,44.8855528237829,92.3087999999989 0.534038543262821,44.885446541073,89.4902000000002 0.53355574640832,44.8853628899305,88.9397999999928 0.533019303961686,44.8853476342719,87.270399999994 0.53250432047055,44.8853856884415,86.5056000000041 0.532171726423128,44.8853704334255,84.7537000000011 0.531163215701428,44.885332547275,81.3790000000008 0.530948638722781,44.8851271902214,77.2654999999941 0.530787706437936,44.8848839478982,74.6958000000013 0.530637502732526,44.8845951075614,73.1968000000052 0.530465840969949,44.8842303265602,71.0632999999943 0.530476570447714,44.8842378708401,71.1861000000063 0.52957534821532,44.8842454144826,67.0678999999946 0.528309345298904,44.8840781117652,64.1992000000027 0.527268647940535,44.8838653790312,59.1950999999972 0.526260137218834,44.884055312736,54.2192000000068 0.526240021244698,44.883989933828,53.9054999999935 0.525060016745345,44.8841998165477,51.1214000000036 0.525159929167884,44.8844199255419,51.5175000000017 0.524690039307379,44.8843800274719,51.3117000000057 0.524379909430273,44.8844199255419,51.5426000000007 0.523979924668531,44.8845599030413,52.2400999999954 0.522590037786229,44.8850799165034,60.6114999999991 0.522489957378732,44.8851399312181,61.2387000000017 0.522379986519959,44.8850799165034,62.122199999998 0.522049907755343,44.885119982118,63.5478000000003 0.521619915669858,44.8852100034675,67.2409000000043 0.521399974850642,44.885279908875,68.4005999999936 0.520619955113031,44.8855300247015,73.5898000000016 0.520049985743359,44.8856198786538,79.9285999999993 0.519399884853701,44.8856899515915,83.7859999999928 0.51867987976361,44.8856599445289,87.7029999999941 0.518029946858908,44.8855999297201,91.2039999999979 0.517689976744686,44.8856398275806,93.7963000000018 0.516739971500815,44.8858899437516,98.7986999999994 0.516060032170668,44.8859699070701,99.2814999999973 0.515899938014015,44.8860500383047,98.6203999999998 0.515830032915218,44.8861698995299,98.5717000000004 0.515719894071488,44.8872898891345,109.423299999995 0.515679996296469,44.8878699171522,115.252699999997 0.515639930536492,44.8880000041715,117.061100000006 0.515540019012249,44.8880499600137,117.694000000003 0.513539929015342,44.8879698290193,108.664000000004 0.513369943509048,44.887929931502,107.772700000001 0.513300039308583,44.887879974919,106.7742 0.513249915112372,44.8877899532927,104.8033 0.513229966224862,44.8876600338209,102.445399999997 0.513169951577342,44.8875599540294,102.445399999997 0.513049923180666,44.887509830375,102.333700000003 0.511939990866736,44.8874300346746,102.437900000004 0.511929933328833,44.8874300346746,102.478000000003 0.510489922250287,44.8873100055057,103.475399999996 0.510689914181993,44.8862998185485,100.431700000001 0.510689914181993,44.886229913744,100.274799999999 0.510689914181993,44.886220023079,100.245200000005 0.51051992957403,44.8853199743503,96.5660999999964 0.510510038224457,44.8851399312181,95.8190999999933 0.510569885785317,44.8849399389964,95.7341000000015 0.511069950056192,44.883959926515,88.5467000000062 0.511119906267479,44.8837998325101,88.065300000002 0.511149912692892,44.8834799785966,87.0932999999932 0.511140022241615,44.8832499792858,86.6282000000065 0.511029884296215,44.8830199803284,85.2330999999976 0.510949920761186,44.8829100095043,84.0700999999972 0.510869957226189,44.8828498276091,83.6407000000036 0.510859898789956,44.8828498276091,83.5939000000071 0.510149952136065,44.8823400398572,79.7378000000026 0.509969909091869,44.8821799457999,79.5816999999952 0.509879887120639,44.8820299094503,79.6827000000048 0.509749967374356,44.8816798812481,79.9930000000022 0.509679895188933,44.8815399037428,80.1744999999937 0.509089976931718,44.8807699418105,79.809500000003 0.508889984101715,44.8803899063156,78.6198000000004 0.508769955705039,44.880099892564,77.0135000000009 0.508709941057519,44.8798900095272,75.6646000000037 0.508550013987493,44.8794600183288,73.207699999999 0.508229993659111,44.8783400284187,63.7041999999929 0.508180037447824,44.8782699554401,62.5625 0.507999993505331,44.8781799340523,59.9447999999975 0.507890023544888,44.8781499268918,58.8650999999954 0.507969987079885,44.877659920604,52.6178999999975 0.508019942392841,44.877279884937,49.0771999999997 0.508090015476594,44.8769900388408,46.1248999999953 0.508099905927871,44.8767798210828,44.6542000000045 0.508139971687847,44.8766499015716,44.6892999999982 0.508169979011591,44.8763498289217,44.9618000000046 0.505019891839073,44.8757500201346,44.1187000000064 0.505010001387797,44.8757500201346,44.1183000000019 0.503109991798352,44.8753798752061,48.4254999999976 0.501990001946519,44.8750999197571,51.027700000006 0.501862764569669,44.8747653141199,47.7857999999978 0.501562357158882,44.8743928220947,44.6812000000064 0.501701831386527,44.874210264581,42.0782000000036 0.501669645648189,44.8739670219366,41.2422999999981 0.500982999496179,44.8734803686824,39.219299999997 0.500382184674572,44.8730926215274,39.6938999999984 0.499588250931518,44.8727732708551,40.3840000000055 0.499212741668027,44.8725831693994,39.9177999999956 0.498687028699158,44.872157368584,38.7531000000017 0.498032570082046,44.8719520122494,38.6303999999946 0.498257875640162,44.8717619106273,38.7888999999996 0.498375892708903,44.8715719764469,38.8151999999973 0.498526096414313,44.8713057676886,38.7425999999978 0.498493909777678,44.8710092157655,38.4569999999949 0.498268604219596,44.8710700683239,38.1481000000058 0.498043298661481,44.8710092157655,38.179999999993 0.49788236637667,44.8707659729607,37.7139000000025 0.497624874181953,44.8706595228743,37.4671999999991 0.496863127075501,44.8702793193769,37.2921999999962 0.496723651949559,44.8700816743711,37.4348000000027 0.496616363460219,44.8698915729377,37.4358000000066 0.496476888334278,44.8697546124745,37.7455000000045 0.496305227469998,44.8694961146919,37.832699999999 0.496037006695846,44.8693288117418,37.7431999999972 0.495607852738519,44.8692225289837,37.0574999999953 0.495339631964367,44.8690780251183,36.367499999993 0.495178699679522,44.8689107222261,36.2510000000038 0.495060682610747,44.8685608618765,36.6079999999929 0.494771003779396,44.868416525702,36.7136000000028 0.494567156278514,44.8682034574756,36.9679000000033 0.494502783005244,44.8680133555688,37.0466000000015 0.494588613437384,44.8678765631732,37.1045000000013 0.494352579299834,44.8677701128362,37.0307999999932 0.494127273741752,44.8675800114083,36.8325999999943 0.494009256672977,44.8672376945727,36.9330000000045 0.49377322163713,44.867001995739,37.036500000002 0.493301153362064,44.8667131547665,37.8938999999955 0.492764711813727,44.8664088918567,37.828800000003 0.49259305005115,44.8660895416627,37.6587 0.492432117766305,44.8658841846888,37.3236999999936 0.49169182781879,44.8656712847258,36.3800999999949 0.491316318555298,44.8656865398714,36.2262999999948 0.490876436018536,44.8656104321898,36.349000000002 0.49053311339168,44.8653214237873,36.1870999999956 0.490372181106835,44.8650478386107,37.1732999999949 0.490179062185388,44.8646295817455,36.9998999999953 0.489932298570073,44.864150472219,36.1518000000069 0.489578247363781,44.8641580159482,36.7479000000021 0.489009619178843,44.8639375715744,36.293399999995 0.488108396946449,44.8637474702237,35.8076000000001 0.487046241530914,44.8634356630968,35.0035999999964 0.48633813822,44.8632759042046,34.898000000001 0.485651492966287,44.8631163129632,35.4167000000016 0.485147238054585,44.8626219482601,35.8331999999937 0.484632253665152,44.8623253961674,35.6300999999949 0.483934878933673,44.8623178528347,35.8571999999986 0.482615232221718,44.8624851551504,35.6722000000009 0.482550020820322,44.862499907489,35.6710000000021 0.482359919339893,44.8622300102171,36.0050999999949 0.482239890943183,44.8619299381519,36.3852000000043 0.48220988361944,44.8615799099362,36.5418000000063 0.482230000491907,44.8610399475888,37.4186000000045 0.482279956703193,44.860759824327,37.7253000000055 0.482309963128606,44.8607100358132,37.6527999999962 0.482529904846152,44.8605199346297,37.6790000000037 0.482649933242828,44.8603600078219,37.5625 0.482679940566572,44.8602200300321,37.5181000000011 0.482699889454115,44.8598398269854,37.5121000000072 0.482709947890349,44.8598398269854,37.5092000000004 0.482739955214092,44.8592799157302,37.8959000000032 0.482709947890349,44.8591498287243,37.9890000000014 0.482619925919085,44.8581399770668,38.3800999999949 0.482659991679062,44.8578900287291,38.6310999999987 0.482829977185355,44.8572000300266,39.4585999999981 0.482989903357051,44.8566800167733,38.7526000000071 0.483029969117028,44.8563499373734,39.0739000000031 0.483079925328314,44.8556698301439,39.7814000000071 0.482939947145798,44.8547999558847,41.4514000000054 0.482720006326582,44.8537200314193,42.805600000007 0.482720006326582,44.8536499590321,43.1619000000064 0.483079925328314,44.8536098931574,44.1646999999939 0.483189896187087,44.8534999228072,44.2804999999935 0.48319995372499,44.8534600249505,44.2909999999974 0.483129881539567,44.8534300176378,44.2829000000056 0.483100041302451,44.8533899522469,44.3524999999936 0.483129881539567,44.8533299381697,44.5323000000062 0.48319995372499,44.8532900401953,44.6781000000046 0.483109932652057,44.8528898877937,44.6720000000059 0.483109932652057,44.8528798296421,44.674199999994 0.483029969117028,44.8525599764462,44.168399999995 0.482989903357051,44.8520800283795,41.527700000006 0.483029969117028,44.8518599198677,41.1300999999949 0.483129881539567,44.85159991328,39.7157000000007 0.483100041302451,44.8515600153807,39.4709000000003 0.483109932652057,44.8515000006703,39.2850999999937 0.483169946401247,44.8514299281292,39.0241999999998 0.48325996837251,44.8513699139201,38.7511999999988 0.483389888118793,44.8513399061552,38.7599999999948 0.483309924583763,44.8511499727342,37.9278999999951 0.483270026808744,44.8509600386867,35.9783000000025 0.483270026808744,44.8507399297157,35.3467999999993 0.48333004145623,44.8506799154244,35.0623000000051 0.483240019485001,44.850459974151,32.6269999999931 0.483149997513737,44.850399959568,31.8171000000002 0.48341000409293,44.8502100255946,33.5130999999965 0.483240019485001,44.8499800264161,30.8040000000037 0.483119991088291,44.8498499394172,29.6656999999977 0.483010020229518,44.8498199321341,28.9156999999977 0.482869874960375,44.8497999828898,27.0699000000022 0.482909939822054,44.8497200196209,27.1493999999948 0.482840034723258,44.8495500346537,23.459600000002 0.482840034723258,44.8495399765556,23.2814999999973 0.482849926072865,44.8494300060764,22.0100999999995 0.482950005582031,44.8493498747963,22.0175000000017 0.483339931907507,44.8491299341757,22.9575000000041 0.483960024575092,44.8487400079049,22.1042000000016 0.484059936997631,44.8486999424356,22.6999000000069 0.484089944321374,44.8486199789133,21.7872999999963 0.484079885885141,44.8485899716263,21.3015000000014 0.483609996922966,44.8482099363527,20.3510999999999 0.483609996922966,44.8481998780206,20.3516999999993 0.482389926663636,44.8472299237822,26.5089000000007 0.482019950123967,44.8474299164976,27.2250000000058 0.481600016474749,44.8474998213071,27.3467999999993 0.481660031122235,44.8476099597897,25.5535999999993 0.481570009150972,44.8477499370258,23.8960999999981 0.481249987924293,44.84797993683,24.6631999999954 0.480979922908833,44.848129972787,24.1306000000041 0.480569880609188,44.8482999581238,27.1956999999966 0.479829925733257,44.8484999503085,27.5754000000015 0.478619914808491,44.8489599487407,22.6208999999944 0.478429980414688,44.8490099047229,22.3969999999972 0.478169973835495,44.8490499706133,22.6548999999941 0.477950033016279,44.8490499706133,23.8074000000051 0.477789938859593,44.848979897639,25.1324000000022 0.477669909564586,44.8489899558349,25.0604000000021 0.477129947518658,44.8489498905396,25.5512000000017 0.47659987592404,44.8488999345053,25.4023000000016 0.476349927781047,44.8488399202074,26.1546999999991 0.475909877259362,44.8486999424356,27.0044999999955 0.475560016693863,44.848489892027,28.6733999999997 0.475130025506708,44.8482898998074,29.9799000000057 0.474559888152046,44.8480800166785,30.2241999999969 0.474010035654841,44.8478599081652,29.5647999999928 0.473999977218607,44.8478599081652,29.5647999999928 0.471689924431221,44.8469199614698,28.7694000000047 0.471620019332424,44.8468599470196,28.7421000000031 0.467949919001488,44.8455999794254,28.5083000000013 0.467569884025586,44.8454698920879,26.1321000000025 0.467029921979691,44.845249950664,28.0601000000024 0.466539915246719,44.8451599292217,23.3929999999964 0.46637998907499,44.8451099730851,24.2127999999939 0.465999953200791,44.8449299296221,28.3411999999953 0.465689990410312,44.8448900321978,28.9499000000069 0.465350020296089,44.8447700028268,26.9014000000025 0.465359911645696,44.8446499744794,29.1965000000055 0.46523988235069,44.8440699464664,30.1227000000072 0.46523988235069,44.8440598880484,30.1377000000066 0.465129911491917,44.8435898308378,30.5972000000038 0.465019941531474,44.8432500286778,30.6742999999988 0.464969985320187,44.8431999052803,30.6024000000034 0.464969985320187,44.843119941766,30.6818999999959 0.464789942275991,44.8427399060725,30.4878999999928 0.464749876516014,44.8425600303629,30.5457000000024 0.464759934952248,44.8415999673943,30.8294000000024 0.464789942275991,44.8415298949114,30.940300000002 0.464729927628505,44.841489828886,30.9783000000025 0.464709978740995,44.8414299820318,30.9783000000025 0.464720037177228,44.8413999748211,30.9783000000025 0.464779883839758,44.8413500192457,30.9651000000013 0.464819948701437,44.8413399609897,30.8484000000026 0.464809891163534,44.8412998954691,30.7765999999974 0.464729927628505,44.8411800337828,30.5265999999974 0.464409906401792,44.8409899324598,30.4088999999949 0.463650002638351,44.8400598767302,29.5246000000043 0.463439952270412,44.839789979381,30.1762000000017 0.463439952270412,44.8397799208526,30.2296999999962 0.461120009031715,44.8366600087932,29.7559000000037 0.459929946994459,44.8351400347205,30.0412999999971 0.459239948329781,44.8341999199801,30.8613000000041 0.459229889893547,44.8341999199801,30.8536000000022 0.459169876144358,44.8341098984715,30.838699999993 0.459179933682261,44.8340599423089,30.8445999999967 0.459149927256848,44.8340398257981,30.8341999999975 0.459110029481795,44.8340299350821,30.8252999999968 0.457900017658732,44.8323998230297,29.2495999999956 0.457789879713298,44.8320799695081,29.4382000000041 0.457709916178302,44.8316999336208,30.0371000000014 0.457709916178302,44.8314099198201,31.267399999997 0.457779988363725,44.8311400227271,32.2329999999929 0.457319989852826,44.8308099434874,33.8331999999937 0.45730993141656,44.8308099434874,33.8331999999937 0.456810035130641,44.8304399663938,34.8565999999992 0.456179883128493,44.8299098946495,36.5994999999966 0.456019956956797,44.8300200329945,36.6389000000054 0.455949883873043,44.8301799593225,36.0641999999934 0.455849971450504,44.8302699812361,35.5823999999993 0.455689877293851,44.8302599229571,36.1848000000027 0.454919915992473,44.8299499598079,38.3984000000055 0.454910024642867,44.8299499598079,38.3813999999984 0.453219898334702,44.8292700199445,34.1857000000018 0.452120024457038,44.8286598175184,33.0728999999992 0.45058999230556,44.8279399800323,33.7283000000025 0.450246333708788,44.8278357086873,33.5785999999935 0.450220014867594,44.8278199510276,33.6619999999966 0.450339876177643,44.8276300171491,34.7344000000012 0.45022990531887,44.8271198945071,36.4805000000051 0.450239963755104,44.8270699380195,36.6398000000045 0.450109876922194,44.8269299602331,37.1558999999979 0.449679884836708,44.8265599830816,39.0099999999948 0.449339914722486,44.826389830385,39.2317000000039 0.4481699686594,44.8260599189035,37.7749999999942 0.446459893463725,44.825649876331,37.8862999999983 0.446099974461993,44.8255900295907,38.4220999999961 0.446089916025759,44.8255900295907,38.4220999999961 0.446059908701982,44.8255799711322,38.4342000000033 0.445519946656054,44.825649876331,37.9959999999992 0.444829947991376,44.8236398957009,38.0942000000068 0.444829947991376,44.8236300051117,38.0877000000037 0.444389898367987,44.8223499205674,39.1453000000038 0.444859955315153,44.8205000348541,42.0580000000045 0.443629994604546,44.8203598894625,42.9468000000052 0.44361993706661,44.8203598894625,42.9318999999959 0.443290025388621,44.8203298821121,42.6129999999976 0.442679990258973,44.820289816639,42.6373000000021 0.442221164947817,44.8204162160455,42.5896999999968 0.442038774605805,44.8200204224749,43.8782999999967 0.441759824353888,44.8183995297714,45.7266999999993 0.441427231204763,44.8161010445989,48.7445000000007 0.441716909137818,44.8146549987908,49.5114999999932 0.441680028803816,44.8146000131036,49.6064000000042 0.441339891602966,44.8147099837884,49.3389000000025 0.439269896507229,44.8149299251661,49.7231000000029 0.43893998482924,44.8139599710041,53.6907999999967 0.43893998482924,44.8139499130655,53.7002999999968 0.438370015459569,44.8123199679147,59.2434000000067 0.438110008880376,44.8118199038529,62.9116999999969 0.43775998032992,44.8101498929004,82.5771999999997 0.437379945354018,44.8091998885695,111.155799999993 0.437080040999806,44.8087999041026,119.876600000003 0.436500013193868,44.8083199560459,130.580700000006 0.436360035011351,44.8082498832497,132.232499999998 0.436349976575118,44.8082498832497,132.166700000002 0.43569987658379,44.8082498832497,129.027499999997 0.435569956837507,44.80816002962,129.0962 0.435343981136224,44.8076676762793,134.509999999995 0.435569286694305,44.8075307163294,135.262799999997 0.435268879283519,44.8074318094952,136.090700000001 0.43457150455204,44.8073557019512,134.551200000002 0.433884859298327,44.8069749957416,134.328299999994 0.433573722409774,44.8065030949326,132.804199999999 0.43332695969279,44.8063356242775,129.897200000007 0.432833433360556,44.8062062080227,126.132700000002 0.432296990913889,44.8058637233368,124.415599999993 0.431964397764798,44.8054830168406,117.372600000002 0.431567430444106,44.8048589007335,99.5252999999939 0.431385040102094,44.804523959588,96.9195999999938 0.430848598553757,44.8041357098696,97.1545999999944 0.430194139038349,44.8042270726901,96.7231999999931 0.428541898279005,44.8050872233866,91.6655000000028 0.428529996499794,44.8050699572465,91.6831999999995 0.426339973007381,44.8062600194303,90.311400000006 0.424769875095925,44.8059798961833,91.1258999999991 0.424759983746318,44.8059798961833,91.0947000000015 0.424699969997129,44.8059700057514,90.6594999999943 0.424209963264156,44.8060000129263,88.9287999999942 0.423569921709062,44.8062000053354,84.7949999999983 0.423029958764837,44.8065099680757,83.4622999999992 0.422279946350969,44.8067399674188,82.7225000000035 0.421519875500868,44.8068298213486,82.528999999995 0.419199932262171,44.8068799451497,77.774900000004 0.418470035822473,44.8067599162754,76.7219999999943 0.417170002926444,44.8064499536035,72.1560000000027 0.416630040880516,44.8063599320969,70.2492999999959 0.415779948059151,44.8063599320969,65.770399999994 0.415769889622918,44.8063599320969,65.7543000000005 0.414840001251514,44.8062399027779,67.9446999999927 0.41280001437785,44.8060000129263,70.0286000000051 0.412963629032128,44.8047522829294,61.0920999999944 0.412105322015838,44.8043945430931,60.9021999999968 0.412083863958638,44.8039757833154,62.9210000000021 0.412094593436403,44.8035952447378,65.1576999999961 0.411461591978161,44.8034658280716,65.0583999999944 0.409648418035676,44.8038009366168,60.813599999994 0.409208536397211,44.8037094061285,62.7816000000021 0.408800840497117,44.8036182113933,63.9943000000058 0.407685041286077,44.8034125195003,64.090400000001 0.406451225006262,44.803237505375,56.5004999999946 0.404906272736225,44.8031231760559,57.087400000004 0.40480971372465,44.8026512749688,58.4492000000027 0.404648780541508,44.8016997614295,69.957899999994 0.404788255667483,44.8010146243316,77.8687999999966 0.405110121135436,44.7998346201523,93.6876000000047 0.403404235682257,44.7994463707465,92.1864999999962 0.403028726418766,44.7988831066918,91.190300000002 0.402803420860684,44.7979465127826,101.806200000006 0.401966571901561,44.797649625821,108.952000000005 0.401762723502349,44.7968350721955,114.705700000006 0.401749983594979,44.7968198173009,114.733099999998 0.39794996351776,44.7979800402531,111.574999999997 0.397579986978125,44.7980098801126,113.451799999995 0.397109929132663,44.7982598281696,113.789999999994 0.396529901326758,44.7983399591025,112.144899999999 0.395969990393319,44.7975299321613,117.582699999999 0.395600013853651,44.7970699330629,120.186199999996 0.395600013853651,44.7970598747289,120.193299999999 0.395269934190705,44.7966598908654,121.2117 0.395079999796935,44.7963299788409,121.306200000006 0.394778251201415,44.7957844842968,120.217099999994 0.394316911505784,44.7959289884633,120.691900000005 0.394299980059291,44.7959098779505,120.618000000002 0.393779966900906,44.7961100379307,120.118700000006 0.392799955231589,44.7963998838034,119.175600000002 0.39225999228733,44.7965199125596,119.023499999996 0.390589981953335,44.7967100145785,117.3024 0.389330014817316,44.7973798957754,117.027400000006 0.38899993515437,44.797430020138,116.427299999996 0.387789923331273,44.7968000358446,114.577499999999 0.387780032879997,44.7968000358446,114.550600000002 0.387649946047087,44.7967299630788,114.248900000006 0.386879983847379,44.7964399493003,113.021599999993 0.385469980092577,44.7955799661002,110.218399999998 0.385020040017912,44.7953699158571,107.195300000007 0.382849965413008,44.7942598166263,93.9579999999987 0.382609907721325,44.7943198310301,91.9079000000056 0.381439961658239,44.7947498224661,85.6003999999957 0.381020028008987,44.7947999465634,82.6284000000014 0.380879882739844,44.7948198950865,82.4483999999939 0.37967992935298,44.7945598886585,77.415599999993 0.378789938756596,44.7943999616971,75.554999999993 0.378200020499415,44.7943099398742,71.2456999999995 0.377899948160212,44.7942998816966,69.8371000000043 0.37761999269351,44.7943198310301,67.1796999999933 0.377250016153841,44.7944700347423,63.7807999999932 0.376919936490895,44.7946700269604,58.8484000000026 0.376429930656254,44.7949399239417,52.8078999999998 0.375879910174092,44.7951300254285,50.8429999999935 0.375339947229833,44.7952198795921,50.4318000000058 0.374750028972652,44.7954299303813,53.3552999999956 0.374209899840097,44.7954498793241,52.6135000000068 0.373209938384939,44.7954200394158,50.5265999999974 0.373199879948706,44.7954200394158,50.5708000000013 0.371339936119238,44.7953300179093,45.2480000000069 0.371079929540046,44.7953499668866,44.6778999999951 0.370750017862057,44.79546982826,44.8503000000055 0.370120033844865,44.7957799582965,44.8632999999973 0.369679983323146,44.7960800307113,46.2768000000069 0.369219984812248,44.7961900010096,45.0351999999984 0.368910022021769,44.7962200081718,44.4483999999939 0.36837995042715,44.7967100145785,44.4616999999998 0.367629938013283,44.7968399340509,42.1680999999953 0.366750005853132,44.7958899291667,40.7200000000012 0.366739947416898,44.7958899291667,40.7200000000012 0.365789942172994,44.7948700191229,38.9992000000057 0.365400016745849,44.7944199109959,42.9533999999985 0.364819988939911,44.7946400196297,42.5237000000052 0.364059917191513,44.7943198310301,46.6992000000027 0.363049898198452,44.793409891145,55.5020999999979 0.363040007747176,44.793409891145,55.3542000000016 0.36281989894297,44.7932000083136,56.9612999999954 0.362299885784585,44.7926300392632,57.6291999999958 0.361630003992374,44.7917199318447,55.5696999999927 0.361149888608975,44.7909399124101,53.0534000000043 0.361030027298959,44.7904799130565,57.2826000000059 0.360319912660111,44.7907600363351,47.9063000000024 0.360220000237571,44.7908299416697,47.5262999999977 0.360140036702575,44.7910299337521,46.0381000000052 0.359880030123349,44.7909099050523,46.3335999999981 0.359680038191643,44.7909300213125,46.1500999999989 0.35936990741624,44.7909999264412,45.6165999999939 0.359079893513271,44.7910899483271,45.5234000000055 0.358670018300252,44.7913199479438,45.8028999999951 0.358399953284826,44.7914998235488,47.1964000000007 0.358210019789354,44.7915799543062,48.6668000000063 0.356699936525385,44.7918599096812,70.5077000000019 0.356340017523653,44.7918999751426,74.9210000000021 0.35608001094446,44.7919400405763,79.8484000000026 0.353090017928595,44.7926598787018,101.925199999998 0.35267997562895,44.7930300236471,104.559999999998 0.352129955146788,44.7936300004436,105.119999999995 0.352029874739325,44.7937699781098,105.042499999996 0.351959969640528,44.7940998894707,104.330600000001 0.351839941243852,44.7943500055472,104.700400000002 0.351609941988403,44.7946799174171,102.712100000004 0.351489912693396,44.7947598805653,102.6685 0.351089927931654,44.7949300335296,103.630900000004 0.350709892955785,44.7950498945003,103.838900000002 0.349930040304801,44.7951300254285,106.1682 0.349589903103952,44.7952098215731,106.720000000001 0.34915002056719,44.7953799738482,108.069799999997 0.348779876042564,44.7955300096969,108.479099999997 0.347669943728667,44.7961298189861,110.497300000003 0.347409937149441,44.7962999717358,111.160000000003 0.347239952541512,44.7964800147694,111.388699999996 0.346599910088087,44.7971799040245,113.486900000004 0.346349961945128,44.7975498810156,113.520000000004 0.346149970013422,44.7977798803851,113.3321 0.345580000643751,44.7982298207932,111.839999999997 0.345099885260352,44.7985599004373,110.659799999994 0.344980023950302,44.7986100244122,110.546600000001 0.344849936219062,44.7986400315909,110.483699999997 0.343439932464293,44.7986998782565,110.533800000005 0.342829898232942,44.7989598845163,110.709300000002 0.340889989970147,44.7998299261908,109.199999999997 0.340239889978819,44.7990899716661,113.0095 0.340239889978819,44.7990799136842,113.032900000006 0.339860022089544,44.7986100244122,113.472899999993 0.339690037481615,44.7984499295559,112.9611 0.339400023578646,44.7983200105213,112.9611 0.33774996213216,44.7979599239006,110.955700000006 0.337439999341681,44.7979500333687,110.701100000006 0.337100029227459,44.7980398869659,109.900299999994 0.336969941496219,44.7981200182042,109.524300000005 0.336709934917026,44.7983699664215,107.751000000004 0.336469877225343,44.7984299810128,107.123399999997 0.336069893361932,44.7983899156228,106.983300000007 0.336060002012325,44.7983899156228,106.998099999997 0.33547997510475,44.7983500172133,106.676800000001 0.334789976440072,44.7983200105213,107.763099999996 0.33438999167833,44.7983599083141,106.870299999995 0.333929993167431,44.7985699585098,104.208100000003 0.333689935475749,44.7987099363046,102.411099999998 0.333509892431552,44.7986700387538,101.900999999998 0.33316992231733,44.7986700387538,100.135500000004 0.332069881353007,44.7993699275802,83.1640000000043 0.331759918562527,44.7995999267065,79.4753000000055 0.331720020787508,44.8000200281409,77.7752000000037 0.331539977743312,44.800160005605,77.5084000000061 0.331149883432879,44.8002399688083,79.2881999999954 0.331060029446573,44.8002599180005,80.4775999999983 0.330510008964411,44.8002500272254,92.3439000000071 0.328960027925423,44.800349939465,106.520000000004 0.32746000219939,44.8003100417735,119.080499999996 0.327320024016874,44.800059926033,119.619699999996 0.327219944507708,44.800089933095,120.434099999999 0.326209925514614,44.8001199401414,125.363400000002 0.325769874992928,44.7993600366525,123.436300000001 0.325699969894132,44.7991598771095,122.804099999994 0.325740035654109,44.7985699585098,121.486399999994 0.325029921015294,44.7986499220045,120.778099999996 0.324519965394812,44.7986499220045,119.240000000005 0.32427001725182,44.7986599800613,118.721000000005 0.321849994503957,44.7984998859811,109.9424 0.319859962943283,44.7981699742775,103.773000000001 0.317959953353805,44.798049945129,108.898700000005 0.317219998477874,44.798129908707,109.477899999998 0.316489934951516,44.7981599161352,106.948699999994 0.313389971975208,44.798049945129,106.751000000004 0.312769878409326,44.798069894441,107.282600000006 0.312360003196308,44.7981200182042,107.0291 0.31170990320498,44.7982298207932,105.330499999996 0.311330035315738,44.7983099517678,104.672999999995 0.310189928591437,44.7983899156228,101.217999999993 0.309759937404282,44.798399973725,100.006899999993 0.308710019737872,44.7984499295559,98.4320000000007 0.308429897184509,44.7985500100082,99.1098000000056 0.308280028550717,44.7986700387538,98.3399000000063 0.30819989703073,44.7986898195692,98.4024000000063 0.308190006579453,44.7987500021099,97.8977000000014 0.307749956956065,44.7990700227068,96.4817999999941 0.30716003869885,44.7997098973082,99.5598000000027 0.306499879372991,44.7998099774873,103.470000000001 0.305839888930353,44.800029918318,109.228799999997 0.305119882941932,44.800349939465,115.816000000006 0.303999893090099,44.8005998882212,126.266600000003 0.303699988735887,44.8006599024053,127.527400000006 0.302180014122311,44.8006899097928,132.729000000007 0.30011991037618,44.8007799312238,131.489300000001 0.299330000187293,44.8008298875438,131.349300000002 0.299199912456053,44.8008099385487,131.188699999999 0.297499894798314,44.8014898781539,131.144700000004 0.296519883128998,44.8018399069158,129.075200000007 0.296349897622704,44.8019698263109,128.918799999999 0.296019985944749,44.8025399631679,129.732499999998 0.295259915094648,44.8029399477006,129.265799999994 0.294219888777811,44.8033699392778,129.157999999996 0.293410029701414,44.8035000266825,128.353700000007 0.292759928811755,44.8035999390304,125.716100000005 0.291529968101149,44.8035300338674,118.442200000005 0.29135998349322,44.8035399240802,117.868499999997 0.290259942528896,44.8039900324538,110.731299999999 0.288789924126573,44.8043900171308,105.7834 0.288329925615675,44.8045499438113,103.912500000006 0.288069919036482,44.8045499438113,103.871899999998 0.287809912457256,44.804459921889,103.250199999995 0.287549905878064,44.8043098856771,103.709199999998 0.287329964160518,44.8042200316463,103.543300000005 0.286349952491201,44.8039499671005,100.708400000003 0.285809990445306,44.8038498870916,99.1748999999982 0.285659953826523,44.8037699237925,98.8328000000038 0.285489969218593,44.8037300259164,98.7044000000024 0.285329874163577,44.8037199674687,98.6876999999949 0.285129882231904,44.8037699237925,98.355899999995 0.284449942003459,44.8040599376968,97.6107000000047 0.284299906283006,44.8041799664527,97.4630000000034 0.28417987788633,44.8043699004636,97.3600000000006 0.283789951560822,44.8049199207091,97.9245999999985 0.282819997429441,44.8052399421386,95.9505000000063 0.282439962453539,44.8054000360003,93.8157000000065 0.281419884125915,44.805919881797,88.2958999999973 0.281089972447926,44.8060300200856,84.5951999999961 0.280399974681578,44.8061599396049,78.7246000000014 0.280019938807379,44.8061599396049,77.4113999999972 0.279589947620224,44.8060399105072,75.6120999999985 0.279579889183991,44.8060399105072,75.6120999999985 0.279539991408937,44.8060300200856,75.6518999999971 0.279370005902678,44.8060300200856,74.7473999999929 0.279209911745991,44.806079976321,73.5179999999964 0.279069934461806,44.806189946681,71.9150999999983 0.278940014715523,44.8063399831019,70.6891000000032 0.278819985420516,44.8065899314009,69.6928000000044 0.27868000813633,44.8067200185552,68.2311999999947 0.278399884684637,44.8068900036838,66.7001000000018 0.278119929217935,44.8070199231783,65.7856000000029 0.277500003636977,44.8071599008672,63.605899999995 0.276969932042325,44.8071699587151,60.6006000000052 0.276689976575622,44.8071899080604,59.8261000000057 0.276129897657227,44.8073198275167,57.7112999999954 0.27512993620207,44.8077999425909,53.5886000000028 0.274549909294462,44.8079000227576,51.0877999999939 0.273869969066017,44.8081399129929,48.1371000000072 0.27300998579341,44.8082599415449,43.8610000000044 0.272599942595434,44.8083699122102,42.614499999996 0.272519979958735,44.808569904688,41.9510000000009 0.272410009099962,44.8090500195542,42.8751000000047 0.272169951408279,44.8102199659376,44.4591999999975 0.272059980549506,44.8104199583737,44.8371000000043 0.27193995215283,44.810549877565,44.204899999997 0.270749889217243,44.8113999699172,44.7333999999973 0.270479992186774,44.8115598969191,45.8904999999941 0.270200036720038,44.8116700352726,45.1290000000008 0.269940030140846,44.8117399401306,44.4471000000049 0.269299987687421,44.8118599688385,41.853099999993 0.268990024896975,44.81193004171,41.8800000000047 0.268749967205259,44.8120198958395,39.9422999999952 0.268530026386043,44.8121499828562,39.4902000000002 0.267899874383928,44.8126798865243,41.5482000000047 0.267610028465916,44.8128698205882,40.1606000000029 0.267499890520516,44.8128299226333,38.8809000000037 0.266630015898302,44.8127900252881,35.081600000005 0.266049988990694,44.812719952187,33.5895000000019 0.265710018876471,44.8126599378033,33.5543999999936 0.265699960440238,44.8126599378033,33.5473999999958 0.265139881521843,44.812519960079,33.8938000000053 0.264649875687167,44.8123399167533,34.9888000000064 0.263470039172805,44.8121000267795,37.9661999999953 0.262720025860607,44.8119999468901,41.1766999999963 0.261619984896283,44.8119199834175,48.2715999999928 0.261299963669604,44.8119099251231,49.1101999999955 0.261220001032905,44.8119898886098,49.9841000000015 0.260959994453679,44.8123600331901,53.2079999999987 0.260899979806192,44.8123799820149,53.7464000000036 0.260790008947419,44.8123900408645,54.0632999999943 0.259969923449831,44.8121999388896,59.9530999999988 0.259139947500934,44.8120899685166,66.347299999994 0.258359927763323,44.8119699396501,69.4830999999976 0.257800016829885,44.8119399323945,72.1811000000016 0.257789958393651,44.8119399323945,72.2719999999972 0.257459878730705,44.8119199834175,73.2112999999954 0.257209930587746,44.8118700271415,76.0010000000038 0.256409961962592,44.811689816729,81.8907000000036 0.256190020245079,44.8115899043724,82.7228999999934 0.25596002098963,44.8115298894501,84.0194000000047 0.255779977945434,44.8115699552744,85.1864999999962 0.255539920253751,44.8117198234775,86.9556000000011 0.255359877209555,44.8117399401306,87.8095999999932 0.255089979280756,44.8116499185951,89.0331000000006 0.254369974190631,44.8112799415265,92.3102000000072 0.254350025303121,44.8112499339119,92.6039000000019 0.253522395753776,44.811770282704,91.7482000000018 0.252889395193864,44.8122421837562,90.5647999999928 0.251698494130119,44.8135437258671,94.0886000000028 0.251011848876405,44.8143505679011,93.2755000000034 0.250625610135148,44.8152714033326,97.5099000000046 0.250174999018985,44.8160629905054,104.440000000002 0.249724387902788,44.8165501468968,107.816000000006 0.249145031138382,44.8168240676055,109.120800000004 0.249079987721944,44.8168498837937,109.119999999995 0.25015002136249,44.8181499168485,107.576199999996 0.25024993378503,44.8183199020639,107.959700000007 0.250299889996283,44.8184898867781,107.955100000006 0.250350013294196,44.8188199664748,108.027400000006 0.250459984152969,44.8190499657948,108.685700000002 0.250870026452615,44.8194799570756,110.979399999997 0.250879916903891,44.819539971371,111.165299999993 0.250810011805128,44.8196098768847,111.249899999995 0.25038002061794,44.8199200071463,110.377999999997 0.249669905979125,44.820549823082,108.349499999997 0.249099936609453,44.82087001203,107.808699999994 0.248719900735221,44.8211099018418,108.414699999994 0.248419996381009,44.8213600180681,108.987500000003 0.247949939433843,44.8215799589314,107.602700000003 0.247139912372489,44.8218299074525,103.580499999996 0.246509928355331,44.8221199216678,101.600999999995 0.246339942849038,44.8222899066482,101.034 0.246329885311135,44.8223700373354,100.939100000003 0.245883464835731,44.8226840235434,98.9554999999964 0.245025157819441,44.8229730318398,96.1633000000002 0.244059562313777,44.823140501973,93.4462000000058 0.243330001843994,44.8233079722568,92.6413999999932 0.242428779611633,44.8234754426913,91.0816999999952 0.241742134357887,44.8234754426913,90.8212000000058 0.240819454068326,44.8233384826882,87.5390000000043 0.240154265973483,44.8231862674284,87.0188000000053 0.238823890682092,44.8232927173536,69.9848000000056 0.238695145033883,44.8235515506268,68.3984999999957 0.238512754691871,44.8235515506268,65.6257999999943 0.238341092929294,44.8236199469484,61.5598000000027 0.237987041722969,44.8235515506268,57.1324000000022 0.237493515390736,44.8236732559584,46.627800000002 0.236849784454762,44.823977519119,38.3035999999993 0.236613750317212,44.8241374456464,36.1062999999995 0.236141682042145,44.8242896609434,31.662599999996 0.236089881589618,44.8242799380361,31.5622000000003 0.235779918799139,44.8246199081381,28.1291000000056 0.235649999052856,44.8250599578439,26.0050999999949 0.234429929691856,44.8256200367518,24.6650999999983 0.233589895306725,44.8262599112001,22.3695000000007 0.232219956413602,44.8270798286556,21.6046999999962 0.231710001691451,44.8274600319866,21.3102999999974 0.231170039645523,44.8278098923211,21.1355999999942 0.23102000392507,44.8279698190475,20.7985999999946 0.230989996601326,44.8281099644164,20.4011000000028 0.23091003306633,44.8281800372916,20.1705999999976 0.23085001841881,44.8281998188185,20.1147999999957 0.230689924262124,44.8282098768198,20.1916000000056 0.230409968795421,44.8283099572457,20.2335000000021 0.22976003589072,44.8287298903622,19.997199999998 0.22875001689766,44.8291498236048,20.0195999999996 0.226949918832425,44.8298698288261,20.4383999999991 0.226659904929455,44.8300599305228,20.0534000000043 0.226409956786496,44.8302500322295,19.6633000000002 0.223469920880215,44.8321599324179,18.1199999999953 0.222680009793031,44.8325699751858,20.2225000000035 0.22162992503996,44.8331099375489,18.5261000000028 0.221119970317775,44.8335000314095,18.4514000000054 0.22081000752733,44.8338198846942,18.247199999998 0.220279935932678,44.8344899343931,18.6591999999946 0.220159906637671,44.8345999047269,18.8242000000027 0.220129899313928,44.8346998167097,18.9036999999953 0.219609886155509,44.8350699620256,18.834600000002 0.219619944591743,44.8350699620256,18.8349000000017 0.218619984034916,44.8357198946428,19.1940999999933 0.218839924854132,44.835959952624,18.9765000000043 0.218899939501618,44.8361599443324,19.3531999999977 0.218929946825395,44.8363498787677,19.5203000000038 0.218899939501618,44.8366999068209,20.0785999999935 0.218839924854132,44.8370799422242,20.2060999999958 0.218779910206612,44.8372199202038,20.242499999993 0.218639932922426,44.8373399487429,20.3130999999994 0.218349919019457,44.8375498315084,20.5479999999952 0.21825000659695,44.8377000354082,20.5617999999959 0.218110028414434,44.8383499683004,20.5124000000069 0.218059905116521,44.8387600109772,20.2897999999986 0.217990000017725,44.838749952906,20.2151000000013 0.217650029903502,44.8394999655257,20.341499999995 0.217309891804323,44.8403798974358,22.8276000000042 0.216689966223398,44.8418299669125,24.9832000000024 0.216670017335888,44.8418299669125,25.0016000000032 0.216659959797952,44.8418299669125,25.0108999999939 0.215099919424399,44.8415099459808,24.6399999999994</coordinates>
</LineString>
</Placemark>
</Folder>
</Document></kml>
