<?xml version="1.0" encoding="UTF-8"?>

<kml xmlns:xsd="http://www.w3.org/2001/XMLSchema" xmlns:gx="http://www.google.com/kml/ext/2.2" xmlns:atom="http://www.w3.org/2005/Atom" xmlns="http://www.opengis.net/kml/2.2">
<Document>
<name>FR02c_25a_la_reole-bazas</name>
<visibility>1</visibility>
<Schema name="FR02c_25a_la_reole-bazas" id="kml_schema_ft_FR02c_25a_la_reole-bazas">
<SimpleField type="xsd:string" name="id">
<displayName>id</displayName>
</SimpleField>
<SimpleField type="xsd:string" name="nombre">
<displayName>nombre</displayName>
</SimpleField>
<SimpleField type="xsd:double" name="longitud">
<displayName>longitud</displayName>
</SimpleField>
<SimpleField type="xsd:string" name="_formato">
<displayName>_formato</displayName>
</SimpleField>
</Schema>
<Folder id="kml_ft_FR02c_25a_la_reole-bazas">
<name>FR02c_25a_la_reole-bazas</name>
<Placemark id="kml_1">
<name>&lt;img height='20' src='https://nco.ign.es/iconos/icono_todos_caminos_azul.png' /&gt;&lt;img height='20' src='https://nco.ign.es/iconos/Camino Santiago_20.png' /&gt;&lt;img height='20' src='https://nco.ign.es/iconos/icono_todos_caminos_azul.png' /&gt;  Camino de Santiago </name>
<visibility>1</visibility>
<description><![CDATA[<!DOCTYPE html>
<html>
<head>
<style>
#nco {
  border-collapse: collapse;
  overflow:hidden;
}
#nco th, #nco td {
  padding: 4px;
  text-align: left;
}
#nco th {
  color: #364B5F;
  padding-right: 5px;
}
#nco td {
  color: rgb(51, 51, 51);
  font-size: 12px;
  padding-right: 5px;
}
</style>
</head>
<body>
<table id="nco">
<tr>
<td>Via Lemovicensis - Vezelay</td>
</tr>
<tr>
<th><b>Camino: </b></th>
<td>FR02c Via Lemovicensis Vezelay</td>
</tr>
<tr>
<th><b>Etapa: </b></th>
<td>25a La Reole-Bazas</td>
</tr>
<tr>
<th><b>Longitud: </b></th>
<td>36.73 km</td>
</tr>
</table>
</body>
</html>]]></description>
<Style>
<IconStyle>
<scale>0.8</scale>
</IconStyle>
<LabelStyle>
<color>ffffffff</color>
<scale>0.75</scale>
</LabelStyle>
<LineStyle>
<color>ffff0000</color>
<width>3.0</width>
<gx:labelVisibility>1</gx:labelVisibility>
</LineStyle>
<PolyStyle>
<color>66ff0000</color>
</PolyStyle>
</Style>
<ExtendedData>
<SchemaData schemaUrl="#kml_schema_ft_FR02c_25a_la_reole-bazas">
<SimpleData name="id">FR02c_25a</SimpleData>
<SimpleData name="_formato">kml</SimpleData>
</SchemaData>
</ExtendedData>
<LineString>
<extrude>0</extrude>
<tessellate>1</tessellate>
<coordinates>-0.0394899955854476,44.5818199778949,45.6779999999999 -0.0399800014200893,44.5818199778949,45.2737999999954 -0.0410299190864996,44.5818799920742,42.4205999999976 -0.0413499403132121,44.5817500726035,41.292100000006 -0.0413499403132121,44.5815799199181,40.9964999999938 -0.0409600139877367,44.5814800077051,41.8000000000029 -0.0409100577764837,44.5813299717481,41.3810999999987 -0.0410000797477135,44.5808200165386,33.9692000000068 -0.0405300219022511,44.5807600019049,34.1425000000017 -0.0405400803384846,44.5805700683009,29.7792000000045 -0.0402899642105683,44.5805199446702,28.4961999999941 -0.0403300299705451,44.580289944743,22.3218000000052 -0.0341599433567497,44.579519983349,13.5492999999988 -0.0342199580042363,44.5779899504573,14.6523000000016 -0.035810004803235,44.5778400820976,14.5935000000027 -0.0373299794167773,44.5777700094944,13.0733999999939 -0.0387299247353464,44.5779500528704,11.4498000000021 -0.0395200029091908,44.5777800682272,14.0050000000047 -0.0411299985956994,44.5778699216842,14.1551000000036 -0.04118314023296,44.5778471232023,14.3261000000057 -0.0434499418343624,44.577830024015,15.5092000000004 -0.0436383670584749,44.5778783039473,15.3534000000072 -0.0486599656663841,44.5777299441109,16.9082000000053 -0.0510000248792171,44.5775700175934,19.331600000005 -0.0538099739525888,44.5768200048854,15.1747999999934 -0.053209998157471,44.5757000151479,14.7881000000052 -0.0565999750367142,44.5752299573922,13.0576000000001 -0.0605500299360557,44.5742799528788,15.3043000000034 -0.0632800163726946,44.5736799762169,14.9199999999983 -0.0638999419536527,44.5729500798275,14.4873999999982 -0.0650799464529726,44.5733500646442,14.9949000000051 -0.0662599500539955,44.5732600429435,15.4695000000065 -0.0665400735056885,44.5730399343488,14.261599999998 -0.0666899421394811,44.5726000519009,13.3251000000018 -0.0680399312467637,44.5725700445091,13.7477999999974 -0.068400018233453,44.5712700111663,12.5500999999931 -0.0685099881939291,44.5705500056454,12.2455999999947 -0.0705699248533996,44.5693899507326,11.8770999999979 -0.0720300528044125,44.5684099385562,12.227899999998 -0.073580033843401,44.5671900363151,10.8331999999937 -0.0754200296836892,44.5664500816246,13.0473999999958 -0.0756099631791282,44.5663000459257,12.8315000000002 -0.0769899596101875,44.566040039152,11.0736000000034 -0.0803299802781777,44.5660599878745,12.7459999999992 -0.0808300454473834,44.5655500331473,11.2032000000036 -0.0814699199158513,44.5641899852413,11.0617999999959 -0.081709977607534,44.5632299221911,12.4799999999959 -0.0823500191626286,44.5620799248241,12.0243999999948 -0.0846300646262721,44.562519975161,11.3187000000034 -0.0865800304270029,44.5614400503639,12.1031999999977 -0.0872899779791909,44.5611800442699,12.6230000000069 -0.0877399180538558,44.5604000241364,13.0915999999997 -0.0884699824785442,44.5605700090159,12.3142999999982 -0.088959988313186,44.560249988195,12.7228000000032 -0.0897100007270537,44.5596000554158,13.963499999998 -0.0896900518395439,44.5579099281442,14.022100000002 -0.089800022698317,44.5564699173346,14.9667000000045 -0.0892000460048687,44.5545900237911,17.369200000001 -0.0891100240336388,44.5533099398549,18.2698999999993 -0.0892800095398985,44.5516399292307,21.1839999999938 -0.0893500817253215,44.5501600207377,23.278999999995 -0.0894099283878509,44.5492799205511,22.4799999999959 -0.089800022698317,44.5483500321326,27.7599999999948 -0.0876299480934132,44.5460599285997,22.8711999999941 -0.0877600349263228,44.5455499739933,23.8358000000007 -0.088450033591001,44.5442499405438,21.0823999999993 -0.0896300371920238,44.5430900526604,22.7247000000061 -0.0899500584187364,44.5425899883163,26.1931000000041 -0.0901800576741856,44.5417400633301,31.7449000000051 -0.0894099283878509,44.54032000181,30.2697999999946 -0.0880800561530354,44.5398499443607,25.2534000000014 -0.0877999327013758,44.5392699168969,26.6722000000009 -0.0870100225124886,44.5389899613165,27.725099999996 -0.0866599939620327,44.5380600730778,31.0576000000001 -0.0876299480934132,44.5378300736479,31.3603000000003 -0.0882099758993182,44.5360400339791,32.8173999999999 -0.0879300195342855,44.5358700491646,32.6729999999952 -0.0878200495738428,44.5347099936911,32.0687999999936 -0.087160058232908,44.5330099761705,44.9560999999958 -0.0864700604665603,44.5319399424561,44.6512999999977 -0.0858900326606552,44.5302300339167,41.8457999999955 -0.0852900559672069,44.5291600003586,40.0613000000012 -0.0861299223673807,44.5285600239561,42.7768999999971 -0.086109973479871,44.5280700174237,46.1037999999971 -0.0892000460048687,44.5254699510328,53.6095000000059 -0.0902700796454489,44.5241400785957,57.9600000000064 -0.0911300629180897,44.5236200650094,58.1199999999953 -0.091919973106977,44.52345008045,59.2587000000058 -0.0932900790867266,44.5225899295061,62.3821000000025 -0.094520039797333,44.5218399169988,63.4171999999962 -0.0951999800257777,44.5214199836095,62.3295999999973 -0.0951800311382679,44.5213400198656,62.8561999999947 -0.0960400144109087,44.5198399946468,65.4642000000022 -0.0973299888707047,44.5183899254668,64.1297999999952 -0.0994700561518317,44.5199000087204,60.3037999999942 -0.101259927795876,44.5214199836095,56.0945000000065 -0.10119002269708,44.5222600177289,51.1016999999993 -0.101600065895056,44.5223500395603,48.4943999999959 -0.102110020617207,44.5220600252214,48.7590000000055 -0.102589968913946,44.5220900324035,45.0522999999957 -0.103440060837014,44.5227899214755,36.4309999999969 -0.10468997043513,44.5239499767703,44.5240000000049 -0.105330012888521,44.5246999896525,49.006899999993 -0.105949938469479,44.5241799765811,48.8015000000014 -0.106430053852845,44.5235000361382,49.1974000000046 -0.10692005968752,44.522559921941,45.054999999993 -0.10810006418684,44.522520024127,51.6821999999956 -0.10793007868058,44.5222000035244,49.2584999999963 -0.10793007868058,44.5221800544975,49.0599999999977 -0.108079947314373,44.5217400046539,45.0056999999942 -0.109199937166206,44.5210600645553,42.4771000000037 -0.109949950478405,44.5201499575959,38.3696000000054 -0.110460073185513,44.519259967078,42.1870999999956 -0.111939981140782,44.5180300062697,46.9024999999965 -0.112950001032172,44.5169500822506,49.5359000000026 -0.113360043331818,44.5153300277008,44.0817999999999 -0.11363999879852,44.5140400529285,43.9602000000014 -0.113339927357648,44.5106100105874,47.6165999999939 -0.111340005345664,44.5084099286476,46.6616000000067 -0.111230034486891,44.5077400467008,47.5850000000064 -0.111410077531087,44.5068500562728,50.0852000000014 -0.111810062292796,44.5058400369764,52.1294999999955 -0.111380070207344,44.5030800440433,49.1790999999939 -0.109199937166206,44.5004499704896,46.8028000000049 -0.109240002926183,44.4998099279442,53.1349000000046 -0.110250021919277,44.4995799286884,56.9324000000051 -0.110099986198824,44.4989100471464,60.5647000000026 -0.116709955349381,44.4981699253719,81.9864999999991 -0.117429960439506,44.4982599466154,82.1842999999935 -0.117279924719053,44.4988800402018,80.8715999999986 -0.118489935643852,44.4989700616303,83.2575999999972 -0.11952007150938,44.4973399491663,89.3469999999943 -0.120200011737824,44.496170003166,90.5298999999941 -0.12056998917579,44.4944699855311,88.7632000000012 -0.120799988431239,44.4936899654596,87.6772000000055 -0.120950024151692,44.4936299513084,87.6065999999992 -0.121470038208408,44.4927699676779,87.8438000000024 -0.121550000845107,44.491310008052,92.2725000000064 -0.121880080508053,44.4912199863324,93.4949999999953 -0.123699959475841,44.4918699192781,98.3941999999952 -0.124239921521769,44.49170999197,100.396999999997 -0.124559942748482,44.4920499624943,99.2461999999941 -0.125029999695613,44.4919399915095,100.374599999996 -0.127390008694287,44.4925800339328,101.108500000002 -0.12857001319364,44.4933499955243,100.3753 -0.128529947433663,44.4941499640342,97.127800000002 -0.131059941040266,44.4963800535281,82.695000000007 -0.132389981260039,44.4967800379151,83.2529000000068 -0.134279932413283,44.4969300740433,89.6854000000021 -0.135850031223035,44.4967200237401,91.130799999999 -0.138810016016826,44.4968600014001,98.9363000000012 -0.139940064304893,44.4971000590752,101.137600000002 -0.14123003966302,44.4969000667204,102.179900000003 -0.143910068990075,44.4969500227436,103.3943 -0.14436000996307,44.4958600401838,105.882400000002 -0.147350002080605,44.4958000257028,104.013300000006 -0.150589943239429,44.4964600169209,98.097099999999 -0.150870065792791,44.4977600503163,92.0100999999995 -0.151530057133693,44.4985700768883,91.1122999999934 -0.152319967322613,44.4986500404815,90.8233000000037 -0.153250023678974,44.4984299316149,83.3888000000006 -0.154129955839125,44.4987799597019,76.4040999999997 -0.154509991713324,44.4994900747911,75.4367999999959 -0.155290011450935,44.5000999421764,61.2874000000011 -0.155670046426837,44.5006499628423,58.1312999999936 -0.15587003925684,44.5012299904773,57.5527000000002 -0.157469976507115,44.5005399920571,36.0317000000068 -0.159019958444401,44.5000199786495,33.5956000000006 -0.158570017471439,44.4991400464818,35.918399999995 -0.160180014056244,44.4990899225404,45.5032999999967 -0.163269918596318,44.4988899306032,42.536500000002 -0.165179986621996,44.4987700692819,48.1177000000025 -0.165310073454906,44.4980299470121,47.545299999998 -0.165560021597898,44.4974100218734,47.1312000000034 -0.165160037734486,44.4955100118693,49.233699999997 -0.16482995807154,44.4941300156576,52.0038000000059 -0.16496004580278,44.4929800181119,50.8508000000002 -0.165710058216648,44.4907199220226,51.792100000006 -0.162370037548658,44.4897400771182,41.5599999999977 -0.162170044718621,44.4892200641622,36.9231 -0.162409935323677,44.4877599368467,40.9035000000003 -0.16277002141207,44.4867700337631,47.0828000000038 -0.163120049962525,44.4861900058463,51.3025999999954 -0.163180064610012,44.4861400502187,51.7111000000004 -0.162409935323677,44.4850700164121,49.0383000000002 -0.163249969708775,44.4849000309224,53.9204999999929 -0.164190083603072,44.4848899727986,59.8527999999933 -0.165160037734486,44.4854399933727,62.6695000000036 -0.167129952422693,44.4855400730544,70.4793000000063 -0.167430024761896,44.485530015041,70.1180000000022 -0.169510077395537,44.4860200210567,72.4899000000005 -0.170839950528683,44.4859700652836,74.8337999999931 -0.172150041860946,44.4853000158595,82.8491000000067 -0.172969959373576,44.4846899808694,93.0733999999939 -0.174770057438811,44.4834900277136,104.532500000001 -0.173070039781073,44.4824199940073,101.542000000001 -0.1707100307824,44.48159001797,95.3597000000009 -0.16859008037374,44.4805199840255,85.9486000000034 -0.169659946029329,44.4788999296802,81.5973999999987 -0.1694899614214,44.4780000486252,64.2428000000073 -0.16962004825431,44.477809946923,62.8608999999997 -0.17086006740115,44.4773100503173,58.8190999999933 -0.172219946959708,44.4767699203181,53.5040000000008 -0.173799935322474,44.4768200442141,49.1095999999961 -0.174809955213831,44.4774399696462,52.0178000000014 -0.175430047881416,44.477660078254,53.7133999999933 -0.176249966292377,44.4780600628346,60.9909999999945 -0.176569987519089,44.4776399620722,58.0286999999953 -0.175800025319415,44.4766299425134,56.8178000000044 -0.175480004092702,44.4760100168084,53.0666999999958 -0.176769979450795,44.4758799302026,69.7937999999995 -0.178889929859455,44.4761600531668,80.7550000000047 -0.181919988635297,44.4762500750531,91.8319000000047 -0.184640083722363,44.4768200442141,95.1033000000025 -0.186979975848569,44.4773199411719,102.176200000002 -0.189810040896077,44.4775700566201,106.778099999996 -0.191360022833363,44.4776000642741,109.776500000007 -0.193460025252843,44.4780099393629,109.239199999996 -0.193120055138621,44.4767199643158,108.4516 -0.19337000328158,44.4753200186852,105.520000000004 -0.193720031832036,44.4746600279792,100.098199999993 -0.195109918714371,44.4744000208889,93.648199999996 -0.196420010046634,44.4745200502413,91.2562999999936 -0.19579991737905,44.474180080107,86.0040000000008 -0.194530058893424,44.474180080107,89.9372000000003 -0.193329937521603,44.4738800077201,81.1101000000053 -0.19218999878226,44.4739700292776,75.876099999994 -0.191940050639268,44.4731100461654,63.1401000000042 -0.193930082199975,44.4716899841616,61.8044999999984 -0.195560026773994,44.4706799648257,73.2569999999978 -0.196420010046634,44.4697100107266,82.7314999999944 -0.197690036517218,44.4687199404833,86.3065000000061 -0.198629982426558,44.4677199795569,91.3588000000018 -0.198219940126912,44.4669900835023,95.409799999994 -0.198589917564878,44.4669099527726,95.9084000000003 -0.200689919086028,44.4678599575781,97.8092000000033 -0.202240068109974,44.4678400085445,94.5981999999931 -0.203160066030101,44.4674500823575,96.2949999999983 -0.205050018081643,44.4673500024171,88.7280000000028 -0.20698003499483,44.4667399675843,83.4400000000023 -0.206870064136091,44.4666600038357,84.9394000000029 -0.207410026181985,44.4658999334192,86.8824000000022 -0.207689981648721,44.4639499673703,98.420100000003 -0.20479001060412,44.4614600389169,106.484700000001 -0.205729957411757,44.4600000792113,109.752500000002 -0.206329934105205,44.4588100162633,112.255999999994 -0.206419956076435,44.4578700699459,112.561900000001 -0.206479970723955,44.4563100299677,112.806299999997 -0.206780042164827,44.4544100201212,107.929799999998 -0.206630006444374,44.4520099460835,107.622799999997 -0.206630006444374,44.4509100730337,106.707899999994 -0.209170058487244,44.4510099849308,113.967699999994 -0.21271007108694,44.4518899172524,121.570600000006 -0.214619972025991,44.4522800108531,123.541299999997 -0.215410050199836,44.4526399300427,124.154399999999 -0.217340067113057,44.4521899891883,128.686400000006 -0.217880029158985,44.4508099929544,129.020000000004 -0.219589937268,44.4509100730337,125.896699999998 -0.21952992262048,44.4491399826847,123.727100000004 -0.219230018266267,44.4473499429378,119.627800000002 -0.219099931433324,44.4461999461379,115.581399999995 -0.218540020499886,44.4436099379446,108.665399999998 -0.218710005107849,44.4425700792715,107.330000000002 -0.218609925598683,44.441730044975,104.702699999994 -0.217020045886344,44.4404100629753,100.775399999999 -0.216349997007506,44.4390800223352,98.090200000006 -0.216330048119963,44.4377000255211,91.133600000001 -0.216590054699189,44.4363500365199,93.7295000000013 -0.217409972211819,44.4346800259339,93.7972000000009 -0.215090028973123,44.4340200350374,92.3638999999966 -0.213239975594965,44.4327999649465,88.6477000000014 -0.211419928642187,44.4317699971947,90.1686000000045</coordinates>
</LineString>
</Placemark>
</Folder>
</Document></kml>
