<?xml version="1.0" encoding="UTF-8"?>

<kml xmlns:xsd="http://www.w3.org/2001/XMLSchema" xmlns:gx="http://www.google.com/kml/ext/2.2" xmlns:atom="http://www.w3.org/2005/Atom" xmlns="http://www.opengis.net/kml/2.2">
<Document>
<name>FR40a_20a_collonges_la_rouge-les_quatre_routes_du_lot</name>
<visibility>1</visibility>
<Schema name="FR40a_20a_collonges_la_rouge-les_quatre_routes_du_lot" id="kml_schema_ft_FR40a_20a_collonges_la_rouge-les_quatre_routes_du_lot">
<SimpleField type="xsd:string" name="id">
<displayName>id</displayName>
</SimpleField>
<SimpleField type="xsd:string" name="nombre">
<displayName>nombre</displayName>
</SimpleField>
<SimpleField type="xsd:double" name="longitud">
<displayName>longitud</displayName>
</SimpleField>
<SimpleField type="xsd:string" name="_formato">
<displayName>_formato</displayName>
</SimpleField>
</Schema>
<Folder id="kml_ft_FR40a_20a_collonges_la_rouge-les_quatre_routes_du_lot">
<name>FR40a_20a_collonges_la_rouge-les_quatre_routes_du_lot</name>
<Placemark id="kml_1">
<name>&lt;img height='20' src='https://nco.ign.es/iconos/icono_todos_caminos_azul.png' /&gt;&lt;img height='20' src='https://nco.ign.es/iconos/Camino Santiago_20.png' /&gt;&lt;img height='20' src='https://nco.ign.es/iconos/icono_todos_caminos_azul.png' /&gt;  Camino de Santiago </name>
<visibility>1</visibility>
<description><![CDATA[<!DOCTYPE html>
<html>
<head>
<style>
#nco {
  border-collapse: collapse;
  overflow:hidden;
}
#nco th, #nco td {
  padding: 4px;
  text-align: left;
}
#nco th {
  color: #364B5F;
  padding-right: 5px;
}
#nco td {
  color: rgb(51, 51, 51);
  font-size: 12px;
  padding-right: 5px;
}
</style>
</head>
<body>
<table id="nco">
<tr>
<td>Chemins vers Via Podiensis</td>
</tr>
<tr>
<th><b>Camino: </b></th>
<td>FR40a Voie de Rocamadour en Limousin et Haut Quercy</td>
</tr>
<tr>
<th><b>Etapa: </b></th>
<td>20a Collonges la Rouge-Les Quatre Routes du Lot</td>
</tr>
<tr>
<th><b>Longitud: </b></th>
<td>9.47 km</td>
</tr>
</table>
</body>
</html>]]></description>
<Style>
<IconStyle>
<scale>0.8</scale>
</IconStyle>
<LabelStyle>
<color>ffffffff</color>
<scale>0.75</scale>
</LabelStyle>
<LineStyle>
<color>ffff0000</color>
<width>3.0</width>
<gx:labelVisibility>1</gx:labelVisibility>
</LineStyle>
<PolyStyle>
<color>66ff0000</color>
</PolyStyle>
</Style>
<ExtendedData>
<SchemaData schemaUrl="#kml_schema_ft_FR40a_20a_collonges_la_rouge-les_quatre_routes_du_lot">
<SimpleData name="id">FR40a_20a</SimpleData>
<SimpleData name="_formato">kml</SimpleData>
</SchemaData>
</ExtendedData>
<LineString>
<extrude>0</extrude>
<tessellate>1</tessellate>
<coordinates>1.65441015753485,45.0602400673551,220.844500000007 1.65476001810034,45.0600501337278,219.469800000006 1.65502002467957,45.0599301048884,218.564899999998 1.65541011809171,45.0598600319508,218.220799999996 1.65561011092171,45.0597400033469,217.103499999997 1.65626004382641,45.0595200623547,216.736300000004 1.65604010210886,45.0592401062929,213.859200000006 1.65585000062843,45.0590201652814,212.620899999994 1.65540006055377,45.0586000642399,210.246899999998 1.65525002393502,45.05793001483,205.0916 1.65541011809171,45.0571300464069,203.227400000003 1.65518011883622,45.0567900764432,203.702799999999 1.65464015679033,45.0569401119673,202.363200000007 1.65420010716691,45.0568500907001,201.491999999998 1.65367003557229,45.0567800177952,200.3027 1.65316007995177,45.0574800747797,198.811100000006 1.6524100675379,45.0574001109995,193.780499999993 1.65268013255336,45.0568301415858,192.280100000004 1.6523101551154,45.056060012376,183.122000000003 1.65194001059077,45.0553001093899,176.880000000005 1.65161009891278,45.0550100952836,176.478799999997 1.65127012879856,45.054850000785,178.6302 1.65110014419063,45.0542900897902,178.583100000003 1.65113015061604,45.0536901129795,176.182799999995 1.65083007917517,45.0529600493163,177.257500000007 1.65098011489563,45.0526001306252,177.1967 1.65085002806268,45.0522801091891,180.871899999998 1.65011007318675,45.0522400440318,184.184800000003 1.64852002638775,45.0519500302726,194.327099999995 1.64812004162604,45.051750038134,202.129300000001 1.64728000724091,45.0517000818758,209.414799999999 1.64675010363125,45.0515901109368,214.985499999995 1.64685001605376,45.0508000329239,221.780299999999 1.64724010946589,45.0500000637624,221.298699999999 1.64737002921218,45.0499001519531,220.880999999994 1.64790010080683,45.0493600217347,218.547600000005 1.64873007675569,45.0483600608079,213.583199999994 1.64839010664147,45.048310104762,216.761700000003 1.64764009422763,45.0480700470491,215.278300000005 1.64678011095499,45.0478700546714,217.204800000007 1.64644014084077,45.0475401432453,218.220199999996 1.64609011229032,45.0473401509189,217.4084 1.64551008448441,45.0469101594641,222.394 1.64506014440971,45.0468000212786,224.828299999994 1.64442010195632,45.0465001168671,224.3652 1.64414014648959,45.0460900738695,219.348499999993 1.64355006024745,45.0457501036486,220.088900000002 1.64381006772497,45.0449700837605,213.605899999995 1.6436000164587,45.0444800777809,211.753899999996 1.64299014931401,45.0441701149391,213.0766 1.64253015080311,45.0437000577128,212.5144 1.64153002226133,45.0434900074781,222.627800000002 1.64096005289162,45.0432201101409,228.929600000003 1.64039008352195,45.0429500452316,234.591499999995 1.63961006288604,45.0424900467604,243.374299999996 1.63910010816386,45.0419100185511,236.578699999998 1.63904009351637,45.0415001438661,227.421900000001 1.63985012057772,45.0407501311083,219.159299999999 1.63873013072589,45.0393200105183,208.938699999999 1.63874002207546,45.0380600428616,189.634600000005 1.63817005270579,45.0373001393983,182.670700000002 1.63847012414666,45.0371501037694,183.221399999995 1.63862016076545,45.0369600020437,182.108200000002 1.63887010890841,45.0368900971123,181.771299999993 1.63877002850091,45.0365801344106,180.200599999996 1.63935005630682,45.0365600176217,180.827000000005 1.63983000460355,45.0366101413588,182.507700000002 1.64134008786752,45.0359000268657,180.671799999996 1.64122005947085,45.0350200942173,177.376000000004 1.64135014630376,45.0343500453267,174.948799999998 1.64163010177049,45.0338501485271,172.582699999999 1.64158014555921,45.0330300629957,170.3946 1.63976009950479,45.032730158136,174.178599999999 1.63842000084879,45.0326000712718,175.748699999996 1.63789009634076,45.0317501462623,183.532699999996 1.63790015477699,45.0315100888938,184.0815 1.63800006719953,45.0309300611118,182.528699999995 1.63769010440905,45.0294701008882,187.723499999993 1.63836015418622,45.0294100864717,180.655199999994 1.63842000084879,45.0292801672881,180.5432 1.63816016135622,45.029000044155,184.3073 1.63798011831202,45.0284900890617,188.223700000002 1.6388501600209,45.0280300898906,179.319600000003 1.63935005630682,45.0273400918214,175.252399999998 1.63874002207546,45.0263900869436,169.264899999995 1.63834003731376,45.0251100026727,165.857199999999 1.63877002850091,45.0240701438061,172.715400000001 1.63928015120805,45.0235300141719,172.408800000005 1.64000015719647,45.0228901395193,165.751999999993 1.64013007694276,45.0223800169712,164.924599999998 1.63900002865469,45.0207200644267,172.220400000006 1.6387500796134,45.0201801025698,167.994000000006 1.63838010307373,45.0195600090882,160.180200000003 1.63863005121672,45.0189900398049,157.777600000001 1.63948014403806,45.0179200060546,155.472800000003 1.63950009292557,45.0175500286982,156.848499999993 1.63906004240388,45.0161601414393,170.835500000001 1.63926003523388,45.0154800338244,176.005999999994 1.63942012939057,45.014890115436,182.628899999996 1.64020014912818,45.0136001408944,180.933699999994 1.6398600119273,45.0127601062137,186.067299999995 1.63915006437511,45.0121901371967,188.137100000007 1.63965012864602,45.0113801096307,177.804300000003 1.63980016526477,45.0112101248616,177.736000000004 1.63961006288604,45.0107900238965,172.365699999995 1.64022009801569,45.0094901586847,172.819300000003 1.64022009801569,45.0091600793194,174.292600000001 1.64031011998695,45.0088801232092,176.236300000004 1.64086014046911,45.0087401455935,175.619699999996 1.64137009519127,45.0084000080888,175.384999999995 1.64212010760513,45.0083101543209,160.615699999995 1.64242001285768,45.0083500520863,156.9228 1.64276015005856,45.0078201481751,155.000100000005 1.64340002452699,45.0073301416482,146.404599999994 1.64405012541665,45.0068701433071,139.777100000007 1.6445500217026,45.0065400634514,133.571599999996 1.64507003486102,45.0065100566171,130.504000000001 1.64535015831268,45.0063600203045,128.924599999998 1.64564000423069,45.0055201538129,126.279500000004 1.64610000363989,45.0050601549102,125.632400000002 1.64727011678964,45.0045900978277,127.575500000006 1.64702000066172,45.0043200329119,125.990099999995 1.64672009630747,45.003150086665,126.051000000007 1.64663007523454,45.0021801327233,126.704400000002 1.64669008898373,45.0018000977932,126.428700000004 1.64534009987645,44.9996700883221,125.861399999994 1.64445999973134,44.9977801365875,128.220400000006 1.64537010720019,44.9973501449908,127.892900000006 1.6470600664217,44.996680096033,127.301000000007</coordinates>
</LineString>
</Placemark>
</Folder>
</Document></kml>
