<?xml version="1.0" encoding="UTF-8"?>

<kml xmlns:xsd="http://www.w3.org/2001/XMLSchema" xmlns:gx="http://www.google.com/kml/ext/2.2" xmlns:atom="http://www.w3.org/2005/Atom" xmlns="http://www.opengis.net/kml/2.2">
<Document>
<name>FR40a_09a_treignac-veix</name>
<visibility>1</visibility>
<Schema name="FR40a_09a_treignac-veix" id="kml_schema_ft_FR40a_09a_treignac-veix">
<SimpleField type="xsd:string" name="id">
<displayName>id</displayName>
</SimpleField>
<SimpleField type="xsd:string" name="nombre">
<displayName>nombre</displayName>
</SimpleField>
<SimpleField type="xsd:double" name="longitud">
<displayName>longitud</displayName>
</SimpleField>
<SimpleField type="xsd:string" name="_formato">
<displayName>_formato</displayName>
</SimpleField>
</Schema>
<Folder id="kml_ft_FR40a_09a_treignac-veix">
<name>FR40a_09a_treignac-veix</name>
<Placemark id="kml_1">
<name>&lt;img height='20' src='https://nco.ign.es/iconos/icono_todos_caminos_azul.png' /&gt;&lt;img height='20' src='https://nco.ign.es/iconos/Camino Santiago_20.png' /&gt;&lt;img height='20' src='https://nco.ign.es/iconos/icono_todos_caminos_azul.png' /&gt;  Camino de Santiago </name>
<visibility>1</visibility>
<description><![CDATA[<!DOCTYPE html>
<html>
<head>
<style>
#nco {
  border-collapse: collapse;
  overflow:hidden;
}
#nco th, #nco td {
  padding: 4px;
  text-align: left;
}
#nco th {
  color: #364B5F;
  padding-right: 5px;
}
#nco td {
  color: rgb(51, 51, 51);
  font-size: 12px;
  padding-right: 5px;
}
</style>
</head>
<body>
<table id="nco">
<tr>
<td>Chemins vers Via Podiensis</td>
</tr>
<tr>
<th><b>Camino: </b></th>
<td>FR40a Voie de Rocamadour en Limousin et Haut Quercy</td>
</tr>
<tr>
<th><b>Etapa: </b></th>
<td>09a Treignac-Veix</td>
</tr>
<tr>
<th><b>Longitud: </b></th>
<td>5.99 km</td>
</tr>
</table>
</body>
</html>]]></description>
<Style>
<IconStyle>
<scale>0.8</scale>
</IconStyle>
<LabelStyle>
<color>ffffffff</color>
<scale>0.75</scale>
</LabelStyle>
<LineStyle>
<color>ffff0000</color>
<width>3.0</width>
<gx:labelVisibility>1</gx:labelVisibility>
</LineStyle>
<PolyStyle>
<color>66ff0000</color>
</PolyStyle>
</Style>
<ExtendedData>
<SchemaData schemaUrl="#kml_schema_ft_FR40a_09a_treignac-veix">
<SimpleData name="id">FR40a_09a</SimpleData>
<SimpleData name="_formato">kml</SimpleData>
</SchemaData>
</ExtendedData>
<LineString>
<extrude>0</extrude>
<tessellate>1</tessellate>
<coordinates>1.79363004876469,45.5369500813977,478.6826 1.79416012035934,45.5361001567181,487.341899999999 1.79642004895052,45.5365601554902,498.8609 1.79680008482472,45.5363200979997,500.391199999998 1.79668005552974,45.5355900340297,504.941200000001 1.79788000891657,45.533980037823,519.294699999999 1.79893009366964,45.5333301055575,519.835099999997 1.79768001698487,45.5315700731709,534.960000000006 1.79794002356409,45.5310500597404,540.140899999999 1.79773014028278,45.5302800984175,551.525999999998 1.79843002939874,45.529690012533,552.9571 1.79856011623168,45.5293200351171,554.581099999996 1.79839013162372,45.5285700221486,559.291899999997 1.79889002790963,45.5276500248041,556.738500000007 1.79869003597796,45.5271100623683,571.313699999999 1.79940015061678,45.5265701004134,560.334799999997 1.80028008277693,45.5270200410637,553.972599999994 1.80185001360176,45.5263900571905,569.019799999995 1.8023400194364,45.526480078874,570.785099999994 1.80316010493402,45.5262100140207,575.211299999995 1.8032801333307,45.5249000896431,577.967600000004 1.8029401641148,45.5231801233994,583.508900000001 1.80601011976733,45.5220301262087,603.187000000005 1.8067601321812,45.521500054932,614.387600000002 1.80775003520013,45.521410032832,615.007700000002 1.80921016225281,45.5211000704381,608.318799999994 1.81067012221886,45.5208201144695,599.378899999996 1.81388005605394,45.5206300131775,607.662500000006 1.81466007579156,45.5198201534422,599.4709 1.81547010285294,45.51932008916,597.464000000007 1.81599011601133,45.518810134652,595.705300000001 1.81650007163184,45.5182500556521,594.509600000005 1.81803010378332,45.5173800139967,583.275200000004 1.81865002936425,45.5166900161067,577.275399999999 1.81897005059096,45.5160700904807,575.768500000006 1.82024007706154,45.515820141686,564.834499999997 1.82103015523539,45.5148701366703,564.051699999996 1.82112000922169,45.5139801467483,576.260200000004 1.82146014642254,45.513500031244,576.207399999999 1.82176005077679,45.5125900916808,575.3655 1.82245004944147,45.5117401665195,576.295499999993 1.82225005661143,45.5114701020442,580.822799999994 1.82148009531005,45.5110500006425,590.501600000003 1.82129016181461,45.510570052774,593.943799999994 1.82232012969518,45.5102401415203,591.097800000003 1.82242004211772,45.5094601212578,590.937999999995 1.82279001955569,45.5092200639385,592.270900000003 1.82369006768998,45.509080086163,595.157099999997 1.82442013211466,45.5087800139017,596.137799999997 1.82524004962729,45.5085401236581,589.8649 1.82633003215538,45.5087800139017,578.272700000001 1.82790013006684,45.5088100208851,576.934099999999 1.828900091522,45.5084501022284,572.188699999999 1.83086011575896,45.5076801406882,554.999200000006 1.83187013475202,45.507800001522,555.032900000006 1.83287009620718,45.5074600313861,559.232399999994 1.83305013925134,45.5080700666096,567.919800000003 1.83373007947979,45.5091401004233,589.423699999999 1.83560008174549,45.5085300654647,594.305699999997</coordinates>
</LineString>
</Placemark>
</Folder>
</Document></kml>
