<?xml version="1.0" encoding="UTF-8"?>

<kml xmlns:xsd="http://www.w3.org/2001/XMLSchema" xmlns:gx="http://www.google.com/kml/ext/2.2" xmlns:atom="http://www.w3.org/2005/Atom" xmlns="http://www.opengis.net/kml/2.2">
<Document>
<name>FR40a_10a_veix-chaumeil</name>
<visibility>1</visibility>
<Schema name="FR40a_10a_veix-chaumeil" id="kml_schema_ft_FR40a_10a_veix-chaumeil">
<SimpleField type="xsd:string" name="id">
<displayName>id</displayName>
</SimpleField>
<SimpleField type="xsd:string" name="nombre">
<displayName>nombre</displayName>
</SimpleField>
<SimpleField type="xsd:double" name="longitud">
<displayName>longitud</displayName>
</SimpleField>
<SimpleField type="xsd:string" name="_formato">
<displayName>_formato</displayName>
</SimpleField>
</Schema>
<Folder id="kml_ft_FR40a_10a_veix-chaumeil">
<name>FR40a_10a_veix-chaumeil</name>
<Placemark id="kml_1">
<name>&lt;img height='20' src='https://nco.ign.es/iconos/icono_todos_caminos_azul.png' /&gt;&lt;img height='20' src='https://nco.ign.es/iconos/Camino Santiago_20.png' /&gt;&lt;img height='20' src='https://nco.ign.es/iconos/icono_todos_caminos_azul.png' /&gt;  Camino de Santiago </name>
<visibility>1</visibility>
<description><![CDATA[<!DOCTYPE html>
<html>
<head>
<style>
#nco {
  border-collapse: collapse;
  overflow:hidden;
}
#nco th, #nco td {
  padding: 4px;
  text-align: left;
}
#nco th {
  color: #364B5F;
  padding-right: 5px;
}
#nco td {
  color: rgb(51, 51, 51);
  font-size: 12px;
  padding-right: 5px;
}
</style>
</head>
<body>
<table id="nco">
<tr>
<td>Chemins vers Via Podiensis</td>
</tr>
<tr>
<th><b>Camino: </b></th>
<td>FR40a Voie de Rocamadour en Limousin et Haut Quercy</td>
</tr>
<tr>
<th><b>Etapa: </b></th>
<td>10a Veix-Chaumeil</td>
</tr>
<tr>
<th><b>Longitud: </b></th>
<td>11.02 km</td>
</tr>
</table>
</body>
</html>]]></description>
<Style>
<IconStyle>
<scale>0.8</scale>
</IconStyle>
<LabelStyle>
<color>ffffffff</color>
<scale>0.75</scale>
</LabelStyle>
<LineStyle>
<color>ffff0000</color>
<width>3.0</width>
<gx:labelVisibility>1</gx:labelVisibility>
</LineStyle>
<PolyStyle>
<color>66ff0000</color>
</PolyStyle>
</Style>
<ExtendedData>
<SchemaData schemaUrl="#kml_schema_ft_FR40a_10a_veix-chaumeil">
<SimpleData name="id">FR40a_10a</SimpleData>
<SimpleData name="_formato">kml</SimpleData>
</SchemaData>
</ExtendedData>
<LineString>
<extrude>0</extrude>
<tessellate>1</tessellate>
<coordinates>1.83569010371675,45.5085600725814,595.864100000006 1.83646006501813,45.5094901285081,618.646900000007 1.83813007535212,45.5093501507748,626.042799999996 1.83884002290431,45.5086801015173,631.197 1.84006009226531,45.5074400827026,640.8269 1.84150010334386,45.5068401060739,646.264599999995 1.84283014356363,45.5053201320015,639.2788 1.84317011367785,45.5044601483154,630.782399999996 1.84485001446312,45.5033101513286,630.556700000001 1.84532007230859,45.5026300439599,639.092999999993 1.8464801270221,45.5010401641167,646.251099999994 1.84684004602383,45.499700065683,657.556500000006 1.84759005933603,45.4993401467063,669.290599999993 1.84762006665977,45.4988700896526,670.071800000005 1.84785006591522,45.4986400899499,669.591100000005 1.84822004245489,45.4989601112909,677.158800000005 1.84895010687954,45.4984501561483,682.468599999993 1.85004008940763,45.497500151363,690.873200000002 1.85156006402118,45.4969000070891,709.791800000006 1.85186013546208,45.4966901243701,709.729399999997 1.85236003264633,45.4968101534284,713.776199999993 1.85281014070595,45.4973501151071,726.856700000004 1.85375008751359,45.4972800425561,737.092900000003 1.85532001744009,45.4963100886999,739.949299999993 1.85583014014723,45.4961900598351,745.343999999997 1.85611009561397,45.4956801047929,747.2644 1.85701014464658,45.4951300841443,753.812999999995 1.8566700074457,45.4942201448316,748.205600000001 1.85695012999906,45.4939200727028,752.917700000005 1.85753015780497,45.4940000364276,760.7886 1.85862014033306,45.4937301387231,777.579700000002 1.85869004543186,45.4932101256626,766.863400000002 1.86015000539791,45.492540076361,780.575200000007 1.86060011345753,45.4918200708967,780.455000000002 1.86191003770317,45.4915900713658,790.742599999998 1.86264010122949,45.4917701144752,797.090700000001 1.86332004145794,45.4925501348924,806.868499999997 1.86364006268465,45.4932800307368,814.375100000005 1.86450004595729,45.4933501032276,821.398300000001 1.86515014594862,45.4929700683161,819.520499999999 1.86553001383786,45.4926300980435,820.510699999999 1.8669500760289,45.4929400610759,839.058699999994 1.86849016661661,45.4924500545347,839.877200000003 1.87178006398669,45.4925201274284,834.309999999998 1.87418013784704,45.4924901199484,824.142999999996 1.87176011509918,45.4920301216417,838.061499999996 1.87060005948737,45.4908801245512,849.833299999998 1.86965005514179,45.4911200144797,850.4421 1.86886014405458,45.491210035913,848.704599999997 1.86768013955526,45.4903101551675,843.786300000007 1.86652008484174,45.4899200608956,836.713000000003 1.86635009933548,45.4892701284728,837.060100000002 1.8650800737632,45.4872001336385,812.011199999994 1.8646301327902,45.486700069227,807.013300000006 1.86498016134066,45.4854801670422,808.662599999996 1.86568005045661,45.4851700363646,804.334400000007 1.86633015044794,45.4842000830313,795.012300000002 1.86609009275626,45.4834500701357,797.866999999998 1.86609009275626,45.4825800284334,806.852899999998 1.86547016717533,45.4820501247415,814.379199999996 1.86532013145488,45.4815001038791,819.685200000007 1.86435000933854,45.4815101624926,813.442800000004 1.86261009390575,45.4815001038791,809.871799999994 1.86094008357176,45.4820501247415,818.819600000003 1.8582600542447,45.4815301115456,816.948399999994 1.85873011119183,45.4809100178815,818.228499999997 1.85985010104367,45.4798000867572,809.540500000003 1.86139002454475,45.4787300527601,793.724000000002 1.86174005309521,45.478460155579,797.1446 1.86227012468986,45.4787600600122,791.117299999998 1.86371013487007,45.4783800242899,779.145900000003 1.86435000933854,45.4773901219612,775.796499999997 1.86446014818224,45.4767400210342,774.233500000002 1.86506012487569,45.4765200799026,765.827999999994 1.86551006495035,45.4766501673349,764.279999999999 1.86609009275626,45.4762800226033,752.763399999996 1.86594005703584,45.4758701472018,752.561100000006 1.86478000142399,45.4755100608106,758.367299999998 1.86551006495035,45.4750400039112,754.183300000004 1.86704009800016,45.4745800048314,744.284899999999 1.86875000610918,45.4741500129637,731.229900000006 1.86974007621473,45.4739900863634,723.3462 1.87223000495968,45.4726201482562,708.369999999995 1.87313005309397,45.4719100335434,697.564599999998 1.87364000871449,45.471320114845,697.829599999997 1.87433000648083,45.4709300213627,690.031000000003 1.87465002770755,45.4702001250683,699.102899999998 1.87558008316561,45.4703300443986,676.460000000006 1.876670066592,45.4695600832091,678.526400000002 1.87699008692038,45.4676800222832,665.191200000001 1.87714012353913,45.4668200389693,662.516000000003 1.87684005119996,45.466210004164,659.246199999994 1.87648013219823,45.4660700259396,658.635399999999 1.87609003878609,45.4661201500559,665.342000000004 1.87574001023564,45.465970114003,667.939799999993 1.87566004670061,45.4640000311171,656.857999999993 1.87615005343358,45.4638800027068,652.345499999996 1.87652002997325,45.4634401200157,643.805699999997 1.8770501015679,45.4631700550986,638.8842 1.87712000666666,45.4628101364344,635.638399999996 1.87781000533134,45.4631601645848,631.322199999995 1.87852011997019,45.4633200916734,625.492800000007 1.87920006019863,45.4633500983104,623.285900000003 1.87980003689205,45.4630600849379,622.893700000001 1.87959015361077,45.4626401515897,619.704599999997 1.87991000685249,45.4622001017096,617.112399999998 1.88017001343172,45.4616200736123,611.676300000006 1.88006004347124,45.4605200328306,609.319900000002 1.88004009458373,45.4599601218222,610.024600000004 1.88004009458373,45.459620151447,610.344400000002 1.87944011789032,45.4585900159856,607.845400000006 1.87935009591905,45.4579900393674,610.635399999999 1.87879001700066,45.4574301278096,608.103099999993 1.87920006019863,45.4571201653651,614.078599999993 1.88008015944541,45.4570301436505,625.3171</coordinates>
</LineString>
</Placemark>
</Folder>
</Document></kml>
