<?xml version="1.0" encoding="UTF-8"?>

<kml xmlns:xsd="http://www.w3.org/2001/XMLSchema" xmlns:gx="http://www.google.com/kml/ext/2.2" xmlns:atom="http://www.w3.org/2005/Atom" xmlns="http://www.opengis.net/kml/2.2">
<Document>
<name>FR40a_28a_thezac-penne_dagenais</name>
<visibility>1</visibility>
<Schema name="FR40a_28a_thezac-penne_dagenais" id="kml_schema_ft_FR40a_28a_thezac-penne_dagenais">
<SimpleField type="xsd:string" name="id">
<displayName>id</displayName>
</SimpleField>
<SimpleField type="xsd:string" name="nombre">
<displayName>nombre</displayName>
</SimpleField>
<SimpleField type="xsd:double" name="longitud">
<displayName>longitud</displayName>
</SimpleField>
<SimpleField type="xsd:string" name="_formato">
<displayName>_formato</displayName>
</SimpleField>
</Schema>
<Folder id="kml_ft_FR40a_28a_thezac-penne_dagenais">
<name>FR40a_28a_thezac-penne_dagenais</name>
<Placemark id="kml_1">
<name>&lt;img height='20' src='https://nco.ign.es/iconos/icono_todos_caminos_azul.png' /&gt;&lt;img height='20' src='https://nco.ign.es/iconos/Camino Santiago_20.png' /&gt;&lt;img height='20' src='https://nco.ign.es/iconos/icono_todos_caminos_azul.png' /&gt;  Camino de Santiago </name>
<visibility>1</visibility>
<description><![CDATA[<!DOCTYPE html>
<html>
<head>
<style>
#nco {
  border-collapse: collapse;
  overflow:hidden;
}
#nco th, #nco td {
  padding: 4px;
  text-align: left;
}
#nco th {
  color: #364B5F;
  padding-right: 5px;
}
#nco td {
  color: rgb(51, 51, 51);
  font-size: 12px;
  padding-right: 5px;
}
</style>
</head>
<body>
<table id="nco">
<tr>
<td>Chemins vers Via Podiensis</td>
</tr>
<tr>
<th><b>Camino: </b></th>
<td>FR40a Voie de Rocamadour en Limousin et Haut Quercy</td>
</tr>
<tr>
<th><b>Etapa: </b></th>
<td>28a Thezac-Penne d'Agenais</td>
</tr>
<tr>
<th><b>Longitud: </b></th>
<td>26.82 km</td>
</tr>
</table>
</body>
</html>]]></description>
<Style>
<IconStyle>
<scale>0.8</scale>
</IconStyle>
<LabelStyle>
<color>ffffffff</color>
<scale>0.75</scale>
</LabelStyle>
<LineStyle>
<color>ffff0000</color>
<width>3.0</width>
<gx:labelVisibility>1</gx:labelVisibility>
</LineStyle>
<PolyStyle>
<color>66ff0000</color>
</PolyStyle>
</Style>
<ExtendedData>
<SchemaData schemaUrl="#kml_schema_ft_FR40a_28a_thezac-penne_dagenais">
<SimpleData name="id">FR40a_28a</SimpleData>
<SimpleData name="_formato">kml</SimpleData>
</SchemaData>
</ExtendedData>
<LineString>
<extrude>0</extrude>
<tessellate>1</tessellate>
<coordinates>1.015550046936,44.4290301204453,224.308300000004 1.01435009354913,44.4294601120394,227.126099999994 1.01347016138898,44.429470002662,227.431899999996 1.01282006139766,44.4291300325579,226.335500000001 1.01190006347753,44.4288400190042,223.639299999995 1.0109800655574,44.4283701292524,216.999800000005 1.00983006838182,44.4281500208333,211.028000000006 1.00999016343681,44.4279701448431,210.219500000007 1.01044010351147,44.4273301026373,207.696800000005 1.01014003117227,44.4269301181679,205.372199999998 1.01023005314353,44.4264500030891,204.357399999994 1.01068016120315,44.4259001502604,204.187900000004 1.01085014670945,44.4248301161458,204.909100000004 1.0120100343363,44.4238200971289,196.296100000007 1.01263012700389,44.423250127624,198.068100000004 1.01212000429674,44.4224100933815,198.395699999994 1.00982001084389,44.4204301202215,202.200299999997 1.00899003489502,44.4201900621464,201.857900000003 1.00703001065806,44.4194001519962,204.096600000004 1.00602015875163,44.4192001596007,208.917000000001 1.00534005053822,44.4181800821318,206.168999999994 1.00534005053822,44.416720122377,202.311300000001 1.00508004395903,44.4161201451535,204.638600000006 1.00418016291137,44.4152400455947,208.4035 1.00474007384481,44.4139001144282,202.488700000002 1.00302010729956,44.4121100756434,188.072499999995 1.00236011685692,44.4119201412047,182.362099999998 1.00190011744769,44.4112200849106,168.674700000003 1.00195007365898,44.4110400413224,168.613700000002 1.00169006707975,44.4108100418958,163.582299999995 1.00379006949923,44.4095901399659,174.557199999996 1.0049900228861,44.4090300612251,173.957899999994 1.00635007042961,44.4089001417608,174.408299999996 1.00693009823552,44.4086900909715,172.079400000002 1.00774012529691,44.4088401270515,173.691699999996 1.00787004414486,44.4067900815291,152.185899999997 1.00733008209893,44.4070800953717,154.596799999999 1.00678006161677,44.406770132171,152.684099999999 1.00439004619265,44.4067401253357,153.779299999995 1.00399006143094,44.4064100459227,153.633100000006 1.00268013808364,44.4059601052209,152.337 1.00178008905102,44.4052701071919,154.015700000004 1.00124012700509,44.4042000735219,163.461800000005 1.00083008380715,44.4034901260767,165.845000000001 1.0002301071137,44.4029100985805,167.417000000001 0.999480094699864,44.4022400488592,167.868300000002 0.999160073473152,44.4019000789333,168.235499999995 0.997630041321673,44.401390124191,171.056899999996 0.997030064628225,44.401150066254,174.633199999997 0.996580123655263,44.4004900754598,192.086200000005 0.995730030833898,44.4004800169131,201.267300000007 0.99525008343549,44.4007500817464,195.812099999996 0.994870048459588,44.4012100811515,188.190799999997 0.994220115554887,44.4014400804606,184.090599999996 0.993390139606023,44.4014100728165,180.942899999995 0.993000045295556,44.4009901393991,178.280599999998 0.992590002995911,44.4008300452357,172.113599999997 0.992660075181334,44.3999801206221,168.685700000002 0.992790162912574,44.3986800874835,147.855100000001 0.992530156333382,44.3977600895612,132.551600000006 0.992250032881689,44.397560096973,131.5772 0.991610158413254,44.3971800617393,129.167000000001 0.990640037195214,44.396590143538,121.5288 0.990120023138498,44.3956701454907,125.217799999999 0.989930089643026,44.3951501321868,121.761299999998 0.989070106370385,44.3939300628622,118.367899999997 0.988880004889955,44.3930801375141,119.288499999995 0.986670032510032,44.3896601533576,133.413799999995 0.986110120678297,44.3886700832774,140.555999999997 0.985730085702395,44.3883500620497,139.999899999995 0.985170006784,44.3881601281396,139.507500000007 0.985300093616909,44.3867501241813,161.097500000003 0.98515005789649,44.3861400892374,171.638699999996 0.985100101685203,44.3858601340878,178.705199999997 0.984500124991788,44.3855401129046,188.0144 0.984120089117589,44.3855701203414,188.104300000006 0.983040165025733,44.3852301498578,210.096999999994 0.981950014512685,44.3850801142164,221.1538 0.981220118971285,44.3849701433026,234.532900000006 0.980920046632115,44.3842201306149,243.311300000001 0.980750061125822,44.3839800728574,244.322100000005 0.980380084586187,44.3838701024451,244.349900000001 0.980340018826177,44.3836100956272,243.483200000002 0.980770010911662,44.3836701105382,244.038400000005 0.980320069938667,44.3829501047406,240.222800000003 0.979820005667792,44.3820401652108,241.781900000002 0.980100129119451,44.3817801586118,245.955300000001 0.979780107892739,44.3811101096162,252.629199999996 0.97948003555357,44.3807401322255,254.770199999999 0.97955010863729,44.3802801330585,256.501799999998 0.978860109972611,44.3801901115556,254.839200000002 0.977610033287868,44.3802201191666,251.975600000005 0.975360162234595,44.3789400347976,248.864799999996 0.974030122014822,44.3786701376895,248.563999999998 0.971630048154469,44.3777000156441,246.551999999996 0.969030149449071,44.3764001501831,250.058000000005 0.967620145694268,44.3759500422775,248.289900000003 0.967360139115075,44.3757200429498,247.623600000006 0.96699016167711,44.3756501375017,247.824800000002 0.966010150007793,44.3743400459915,235.020600000003 0.964350030125074,44.3741400542778,240.041700000002 0.963540003063686,44.3738401492218,236.772400000002 0.962040145322611,44.3737801351503,237.026199999993 0.960920155470778,44.3739801274511,237.314400000003 0.960980002133307,44.3743400459915,237.0432 0.959440078632255,44.374910015707,229.335399999996 0.957940052906189,44.374620001652,216.533500000005 0.956970099673106,44.3741600032031,211.860100000005 0.956370122979691,44.3737000043514,211.138000000006 0.955410059299587,44.3735501356474,217.536099999998 0.954630039561976,44.3736101499546,219.414199999999 0.953840129373055,44.3737900255588,221.157099999997 0.952920131452928,44.3740401419597,221.172099999996 0.951910112459867,44.3740701488699,219.165200000003 0.950960107215997,44.374180119711,220.116299999994 0.949870124687907,44.3744401260287,225.067899999995 0.949030090302776,44.3743400459915,225.773100000006 0.947750006294256,44.3747100233714,223.674799999993 0.947120022277098,44.3751400150058,225.069699999993 0.945940017777744,44.3749700299048,228.126399999994 0.944180153457477,44.3763701431826,229.318799999994 0.943800117583244,44.3768301422486,226.737500000003 0.943240038664849,44.3775801545838,226.862999999998 0.943350009523622,44.3778901176847,226.517399999997 0.942530092010991,44.3785601669338,226.369999999995 0.941440109482901,44.3780601026559,221.118199999997 0.940900146538643,44.3780901094324,207.419500000004 0.940090119477288,44.3786701376895,204.635599999994 0.938710123046262,44.3789901585468,187.384999999995 0.937360133938946,44.3792201578711,180.185400000002 0.936670135274268,44.3795100040408,179.928100000005 0.933990105947213,44.3811800143242,152.385200000004 0.932700131487417,44.3809401245112,134.794299999994 0.929850116654102,44.3803401475309,119.320900000006 0.929030031156481,44.3802900242953,118.339900000006 0.927580129626659,44.3794701059763,124.8698 0.928610097507262,44.378790166021,126.660999999993 0.929610058962419,44.3779600223849,130.605299999996 0.930470042235027,44.3774100019232,132.475900000005 0.931460112340577,44.376840032784,135.483699999997 0.93285016720787,44.3763800337958,135.041299999997 0.934590082640628,44.3762301655296,131.952099999995 0.933910142412216,44.3742101265494,117.043300000005 0.933180078885859,44.374180119711,115.352199999994 0.9314200465806,44.3721200151162,115.928799999994 0.929910130403292,44.3713800606105,119.605599999995 0.928580090183519,44.3704900706015,122.103799999997 0.926350000931128,44.3699601666437,132.795299999998 0.92479012944083,44.3684400248383,158.267000000007 0.924250166496605,44.3684500831122,156.866899999994 0.923670139588997,44.3689300308814,152.9663 0.922850054091409,44.3691100736943,150.438399999999 0.919340047917126,44.3701601585043,149.285499999998 0.91794010259859,44.3699301595541,147.498800000001 0.9168501200705,44.3710801561896,148.075400000002 0.916570164603798,44.3713200465865,149.775999999998 0.916250143377085,44.3719701468637,148.192599999995 0.915300138133181,44.37240013871,146.326100000006 0.914680045465596,44.3724400364549,147.505499999999 0.913560055613763,44.3733600342856,141.765499999994 0.912600159918616,44.3744200096102,133.505799999999 0.912400167088579,44.3752600441526,131.601599999995 0.911460053194316,44.3760201149517,121.439400000003 0.910770054529637,44.3768100253669,108.216700000004 0.909890122369487,44.377370104354,99.7578000000067 0.908630155233434,44.3778700011672,94.5255999999936 0.907860025947099,44.3780601026559,93.6401000000042 0.905970073895591,44.3782200292553,91.7226999999984 0.904680099435796,44.3778301032693,93.5685999999987 0.902920067130537,44.3782200292553,91.4245999999985 0.900410022411411,44.3786500207979,88.5843000000023 0.89850012237069,44.3793700261892,89.5982999999978 0.896700024305455,44.3794201502124,91.4248999999982 0.895880106792825,44.3799601121893,87.0831999999937 0.894790124264735,44.3803901037939,87.2348999999958 0.893590002892914,44.3807701395546,88.1736999999994 0.893520097794151,44.3817201443315,87.5436999999947 0.892790034267793,44.3821201285866,86.0776000000042 0.890840068467063,44.3838701024451,95.2195000000065 0.889720078615229,44.3835601395436,93.284599999999 0.889380108501007,44.3842100724814,102.675300000003 0.88932009385352,44.3850801142164,123.036300000007 0.888930000441385,44.3856800907701,138.516300000003 0.888390038395457,44.3860901333869,150.117400000003 0.887360069616556,44.3862001041226,159.460900000005 0.886930078429401,44.3858601340878,154.663400000005 0.886100102480537,44.3860500677574,170.961899999995 0.88481012712241,44.3868000807525,180.064499999993 0.884490105895731,44.3877800928458,190.577699999994 0.883930027875633,44.3886201270183,191.556500000006 0.883140116788415,44.3891600888805,183.892699999997 0.881610084636937,44.3902500720906,184.209400000007 0.881420150243167,44.3905501440892,186.858699999997 0.88136013559568,44.3912000770909,191.3122 0.88054005099639,44.3910701571857,193.010500000004 0.878460165449376,44.3920101036357,198.486300000004 0.876980088610853,44.393360093436,187.922300000006 0.876360163029895,44.3936001512394,193.929399999994 0.875950120730283,44.3934501145858,199.517500000002 0.87477011623093,44.3935600856153,214.941200000001 0.874320008171308,44.3933901007153,216.435200000007 0.873390119799904,44.393540136239,220.676399999997 0.871590021734669,44.3934801218189,220.972699999998 0.871010161913688,44.3936400486606,225.006999999998 0.870430134107783,44.3937401284449,225.967799999999 0.8690801450005,44.3942901489005,223.919099999999 0.86801011135992,44.3943900613253,212.7601 0.867280047833595,44.3950200451763,216.844700000001 0.866940077719373,44.3952101468199,215.869200000001 0.866290144814672,44.3950601110846,212.060100000002 0.864920038834889,44.3949201331852,211.871599999999 0.863140057642154,44.3947900456634,221.715400000001 0.861940104255291,44.3945100901633,219.493799999997 0.860670078683004,44.3933101373286,211.584099999993 0.86116008451768,44.3931300938179,210.197199999995 0.861590076603132,44.3927200510915,204.742599999998 0.862220059721993,44.3923200667271,195.389800000004 0.862520132061196,44.3909501283535,197.101599999995 0.863050036569221,44.3906101583043,193.770000000004 0.863910019841828,44.3905501440892,183.001000000004 0.864470097861927,44.3902001158961,182.241999999998 0.864550061396923,44.3898301388204,187.525099999999 0.864530112509413,44.3894200960831,194.450899999996 0.863520093516353,44.3887000903937,201.904899999994 0.863050036569221,44.3887901122919,205.646500000003 0.863370056897603,44.3889701550312,204.496299999999 0.862580146708716,44.3890501185702,209.237299999993 0.861290004263963,44.3895000590075,210.739499999996 0.860200021735873,44.3902500720906,215.046799999996 0.859580096154914,44.3904200571241,213.422200000001 0.858870148602726,44.3908601065678,214.851999999999 0.857280101803761,44.3914401347678,212.989600000001 0.85644006741863,44.3915700538517,207.615099999995 0.855460054851016,44.3913201054105,202.553799999994 0.853310097118579,44.3904901298126,196.880099999995 0.852580033592222,44.3897600659837,185.209499999997 0.850280039241068,44.3913501130939,160.649799999999 0.849060136966695,44.3916000614069,167.864000000001 0.848030001101168,44.3914000689487,176.780799999993 0.847130120053508,44.3911100550478,177.998500000002 0.844830125702321,44.3909501283535,180.326199999996 0.843570157667971,44.3912600912815,196.529200000004 0.842450000729478,44.3910901061201,196.856599999999 0.840590056001713,44.3910000845498,209.272599999997 0.840200129676238,44.3908300992751,208.878800000006 0.83945011726237,44.3909400700926,216.407800000001 0.838720053736012,44.3915001487122,221.735799999995 0.838050003958844,44.3917801044893,216.896299999993 0.837020036078274,44.3916900826964,211.659400000004 0.835990067299373,44.3916401264472,212.038700000005 0.835480112577188,44.3917301483169,209.718200000003 0.834690034403344,44.3917001408284,209.303700000004 0.833270140197265,44.3917001408284,214.210999999996 0.83269011239136,44.3916900826964,216.030299999999 0.830650124619399,44.3918101119368,208.556899999996 0.829320084399626,44.3917301483169,203.880099999995 0.828680041946201,44.3918600680409,198.332800000004 0.82687005432802,44.3915501050809,206.687300000005 0.82471003726102,44.3910000845498,205.311100000006 0.82473015413352,44.389940108949,213.757199999993 0.824130009455114,44.3901100942407,212.532900000006 0.823360048153737,44.3902901374131,206.930800000002 0.822650100601549,44.3904200571241,197.611300000004 0.821510161862206,44.3903201443407,183.220100000006 0.820460077109135,44.3901701082651,177.042700000005 0.819710064695268,44.389970116056,178.434500000003 0.818740110563887,44.389820080367,184.826700000005 0.818210038969235,44.3900800872054,184.369200000001 0.817410070344115,44.3900200724469,185.735499999995 0.816420000238564,44.3895701321555,183.492199999993 0.816570035958983,44.3893401324075,188.645399999994</coordinates>
</LineString>
</Placemark>
</Folder>
</Document></kml>
