<?xml version="1.0" encoding="UTF-8"?>

<kml xmlns:xsd="http://www.w3.org/2001/XMLSchema" xmlns:gx="http://www.google.com/kml/ext/2.2" xmlns:atom="http://www.w3.org/2005/Atom" xmlns="http://www.opengis.net/kml/2.2">
<Document>
<name>ES37a_07a_mira-cardenete</name>
<visibility>1</visibility>
<Schema name="ES37a_07a_mira-cardenete" id="kml_schema_ft_ES37a_07a_mira-cardenete">
<SimpleField type="xsd:string" name="id">
<displayName>id</displayName>
</SimpleField>
<SimpleField type="xsd:string" name="nombre">
<displayName>nombre</displayName>
</SimpleField>
<SimpleField type="xsd:double" name="longitud">
<displayName>longitud</displayName>
</SimpleField>
<SimpleField type="xsd:string" name="_formato">
<displayName>_formato</displayName>
</SimpleField>
</Schema>
<Folder id="kml_ft_ES37a_07a_mira-cardenete">
<name>ES37a_07a_mira-cardenete</name>
<Placemark id="kml_1">
<name>&lt;img height='20' src='https://nco.ign.es/iconos/icono_todos_caminos_azul.png' /&gt;&lt;img height='20' src='https://nco.ign.es/iconos/Camino Santiago_20.png' /&gt;&lt;img height='20' src='https://nco.ign.es/iconos/icono_todos_caminos_azul.png' /&gt;  Camino de Santiago </name>
<visibility>1</visibility>
<description><![CDATA[<!DOCTYPE html>
<html>
<head>
<style>
#nco {
  border-collapse: collapse;
  overflow:hidden;
}
#nco th, #nco td {
  padding: 4px;
  text-align: left;
}
#nco th {
  color: #364B5F;
  padding-right: 5px;
}
#nco td {
  color: rgb(51, 51, 51);
  font-size: 12px;
  padding-right: 5px;
}
</style>
</head>
<body>
<table id="nco">
<tr>
<td>Caminos del Este</td>
</tr>
<tr>
<th><b>Camino: </b></th>
<td>ES37a Camino de la Lana Valencia-Requena</td>
</tr>
<tr>
<th><b>Etapa: </b></th>
<td>07a Mira - Cardenete</td>
</tr>
<tr>
<th><b>Longitud: </b></th>
<td>33.15 km</td>
</tr>
</table>
</body>
</html>]]></description>
<Style>
<IconStyle>
<scale>0.8</scale>
</IconStyle>
<LabelStyle>
<color>ffffffff</color>
<scale>0.75</scale>
</LabelStyle>
<LineStyle>
<color>ffff0000</color>
<width>3.0</width>
<gx:labelVisibility>1</gx:labelVisibility>
</LineStyle>
<PolyStyle>
<color>66ff0000</color>
</PolyStyle>
</Style>
<ExtendedData>
<SchemaData schemaUrl="#kml_schema_ft_ES37a_07a_mira-cardenete">
<SimpleData name="id">ES37a_07a</SimpleData>
<SimpleData name="_formato">kml</SimpleData>
</SchemaData>
</ExtendedData>
<LineString>
<extrude>0</extrude>
<tessellate>1</tessellate>
<coordinates>-1.43992010525514,39.7204700301348,825.833700000003 -1.43985003217142,39.7205298767736,826.718800000002 -1.4397999088735,39.7205999495251,827.992499999993 -1.43973000377471,39.7207399269125,830.756599999993 -1.43972011242513,39.7207799926538,831.449800000002 -1.4397100548872,39.720999933715,837.453800000003 -1.43973000377471,39.7210299411072,837.931200000006 -1.4397900175239,39.72107000668,839.159299999999 -1.43980996641144,39.7210599484863,839.240399999995 -1.43982002484767,39.7210498896003,839.2592 -1.43986009060765,39.7210498896003,839.523100000006 -1.43998011990266,39.7211399116725,841.595300000001 -1.44008003142687,39.7211799771813,843.175499999998 -1.44009998031438,39.7211999263219,843.603900000002 -1.44012009718684,39.7212599402283,845.048699999999 -1.44012998763812,39.7213199547732,847.062399999995 -1.44018011183436,39.7213199547732,847.872099999993 -1.44023995849689,39.7213499620262,849.507500000007 -1.44028002425687,39.721379969266,850.763300000006 -1.44031003158065,39.7214498746353,852.6302 -1.44048001618858,39.7214498746353,854.373399999997 -1.44052008194859,39.721459932772,854.863500000007 -1.44055008927233,39.7214999980949,855.747000000003 -1.44055008927233,39.721519947143,856.302100000001 -1.44061999437109,39.7215799614617,858.290399999998 -1.44078997897905,39.7216399757283,860.497300000003 -1.440670117669,39.7216899318408,862.278099999996 -1.44063005190903,39.7217299977211,863.258499999996 -1.44075997165531,39.7217600047956,864.546100000007 -1.44075997165531,39.7217999027354,865.539699999994 -1.44068989946989,39.7218399678609,867.377900000007 -1.44061999437109,39.7218599168106,868.224900000001 -1.44058009569777,39.7218800336539,869.018800000005 -1.44064011034526,39.7220099531517,872.301399999997 -1.44071001544406,39.7220800257812,873.049299999999 -1.44075997165531,39.7221100327034,873.802599999995 -1.44092995716157,39.7221698799918,875.890499999994 -1.44137000678496,39.7222200036191,881.346300000005 -1.44150998406918,39.7222099455932,883.169999999998 -1.44160000604041,39.7221799380236,883.968200000003 -1.44172003533541,39.7221599891664,885.201799999995 -1.44177988199798,39.7221599891664,887.257700000002 -1.44186001261963,39.7221799380236,888.270999999993 -1.44187996150714,39.7222099455932,888.987099999998 -1.44189001994338,39.7222500104804,889.999299999996 -1.44189001994338,39.7222699600024,890.391699999993 -1.44183000529589,39.7223299743594,891.863599999997 -1.44173009287335,39.7223998794565,893.712100000004 -1.44169002801167,39.7224199961423,894.099600000001 -1.44169002801167,39.7224298862395,894.264599999995 -1.44167996957544,39.7224399449242,894.454599999997 -1.44169002801167,39.7224500029166,894.602700000003 -1.44282996675101,39.7223899886641,898.044899999994 -1.4432700163744,39.7222800180195,899.153399999996 -1.44376991355869,39.7222200036191,900.5092 -1.44494991715971,39.721959997271,909.261299999998 -1.44498998291969,39.721959997271,909.5242 -1.44503004867966,39.7219499385163,909.679000000004 -1.44506005600341,39.721959997271,910.317299999995 -1.44511990266597,39.721959997271,910.892399999997 -1.44595004659979,39.7217999027354,916.641799999998 -1.44600000191275,39.7217999027354,917.052800000005 -1.4460399005861,39.721790011857,917.1489 -1.44658002971865,39.721790011857,921.018299999996 -1.44661003704243,39.7217799537684,921.077300000004 -1.44707003645162,39.7217398879171,922.824200000003 -1.44716994797587,39.7217199389327,922.730800000005 -1.44728997727084,39.7216800416375,923.287400000001 -1.44741000566755,39.7216200267149,924.4948 -1.44751997652632,39.7215799614617,926.0245 -1.44768007068297,39.7215600124311,928.163400000005 -1.44788006351301,39.7215600124311,930.991099999999 -1.4484899306577,39.721489939964,936.804600000003 -1.44891003139358,39.7213999183488,938.2307 -1.44930012480572,39.722050018846,941.455199999997 -1.44932996504283,39.7221998868749,941.807499999995 -1.4493199066066,39.7223998794565,942.5098 -1.44931001615532,39.7224199961423,942.561799999996 -1.44868992258941,39.7249898874889,951.226500000004 -1.4486699737019,39.7250400111391,951.361999999994 -1.44845992333396,39.7258798779248,955.006500000003 -1.44842991601021,39.7260899283492,955.471099999995 -1.44842991601021,39.7262899207029,955.867400000003 -1.44848004020643,39.726599883316,956.037800000006 -1.44877005410939,39.7275099902799,956.347999999998 -1.44880006053481,39.7276799754111,956.243300000002 -1.44883006785858,39.7276799754111,956.5236 -1.44888991452111,39.727699924053,956.689700000003 -1.44924011105653,39.7279500401803,956.445999999996 -1.44937002990448,39.7280199451069,956.314299999998 -1.45106988047559,39.7285500165864,953.198699999994 -1.45113995266101,39.7285800241474,952.899000000005 -1.45139995924024,39.7287399509487,951.953800000003 -1.45159995207024,39.7288400304049,951.306599999996 -1.45174009733942,39.7288700378397,950.561100000006 -1.45182995132569,39.7288700378397,949.810500000007 -1.45188996597321,39.7288799283934,949.170400000003 -1.45194008927112,39.728899877379,948.555399999997 -1.45240008868032,39.7291598838119,946.758100000006 -1.4526300879358,39.7293099201592,947.360000000001 -1.45326007195296,39.7296700067512,950.442500000005 -1.45368000470388,39.7298699990832,951.571500000005 -1.45392006239557,39.7299600206943,952.305699999997 -1.45418996032436,39.7301699032445,954.383900000001 -1.45433010559354,39.7302299176343,954.626900000003 -1.45476998723197,39.7303299976909,955.356199999995 -1.4550400522474,39.7304099611808,956.432499999995 -1.45564002894085,39.7306500189719,956.981400000004 -1.45634008604176,39.7310199964105,957.626900000003 -1.45725002552565,39.731630031078,959.038100000005 -1.4573599954861,39.7317498921509,959.093200000003 -1.45797003061578,39.732649940948,960.423999999999 -1.45869003570587,39.7334899754749,961.1924 -1.45896010072133,39.7337699308246,961.497399999993 -1.45912002779135,39.7339099084186,961.694300000003 -1.45941004169429,39.7340798936585,961.906799999997 -1.45955991032808,39.7341399080984,961.917400000006 -1.45975990225979,39.734199922486,961.909799999994 -1.46021990077072,39.7344798784064,961.741699999999 -1.46126009507248,39.7352999635384,960.840700000001 -1.46159000675047,39.7356499917904,960.647200000007 -1.46186007176593,39.735970012552,960.2647 -1.46255007043061,39.7366900182571,958.643299999996 -1.46272005503854,39.7368999010405,958.116599999994 -1.46275006236228,39.7369800323707,958.033500000005 -1.46281996746108,39.7372698780928,956.829700000002 -1.46286992367233,39.7373200024862,956.158500000005 -1.46304996671653,39.7374499219034,954.959799999997 -1.46418990545587,39.7380700147883,951.728799999997 -1.46464001351552,39.7382899559588,949.828399999999 -1.46497998362975,39.7385098971181,947.937900000004 -1.4651300202485,39.7385699118454,946.982399999994 -1.46655997289078,39.7393799383829,944.372799999997 -1.46704997872545,39.7397599741674,943.317899999995 -1.46770007871678,39.7401499002468,942.500599999999 -1.46809000504229,39.7403299434413,942.262199999997 -1.46836996050899,39.7404300233399,942.256699999998 -1.46857012042565,39.7405198778121,942.238700000002 -1.46894998831489,39.7406499645771,942.308999999994 -1.46917998757034,39.7407099788223,942.975600000005 -1.4693399146404,39.740769993706,943.526500000007 -1.46953990657208,39.7409299205475,944.261100000003 -1.46980997158754,39.7410999050525,944.511899999998 -1.46985003734751,39.7411500287325,944.268599999996 -1.46993989133382,39.7411999852144,943.744600000005 -1.47000996351924,39.7412199340885,943.360799999995 -1.47015010968672,39.7412900065349,942.889200000005 -1.47026997099676,39.7413800284285,942.644499999995 -1.47029997742218,39.7414199260665,942.715200000006 -1.47036401562386,39.7414529507387,942.597599999994 -1.47060692277161,39.7415399552358,941.062399999995 -1.47079501292413,39.7415399552358,940.126799999998 -1.47094588767104,39.7416039929953,938.553899999999 -1.47101009295936,39.7416930087531,937.365099999995 -1.47105401339021,39.7417119517591,936.870500000005 -1.47124595911192,39.7419038972198,934.550700000007 -1.47135492385757,39.7419479859836,933.265499999994 -1.47144092227467,39.7420130297758,931.9859 -1.47165097264261,39.7420980221263,928.789399999994 -1.47172406316738,39.7420990278461,928.321500000005 -1.47193696388971,39.742161892208,927.232099999994 -1.47236192630791,39.7421429493258,921.005399999995 -1.47242596361127,39.7420980221263,919.979699999996 -1.47242797493917,39.7419699467751,918.019700000004 -1.47255890079857,39.7419919075596,916.621199999994 -1.47281303958235,39.7421639043363,913.639599999995 -1.47301001497134,39.7422899678932,912.706000000006 -1.47306801739259,39.7423959148421,912.188200000004 -1.47317798825137,39.7423979269637,906.780100000004 -1.4730960133884,39.742253925779,908.754000000001 -1.47315200448176,39.7421439550448,905.673899999994 -1.47322006533928,39.7421439550448,903.121599999999 -1.47336792174681,39.7423550113625,900.107300000003 -1.47343397127639,39.7423560170785,897.639299999995 -1.47347806059054,39.7423129342923,896.567500000005 -1.47356707644868,39.7421389257585,896.077300000004 -1.47362910242411,39.7421230000282,894.731400000004 -1.47366799408601,39.742161892208,893.244300000006 -1.47373303750248,39.7423779777399,890.551600000006 -1.47377695883167,39.742398932679,889.359400000001 -1.47393001199314,39.7425719348433,885.899999999994 -1.47401098164128,39.7427439315538,885.351699999999 -1.47406412327854,39.7427880204709,884.539199999999 -1.47414308070042,39.7429999147467,880.838499999998 -1.47427400566153,39.7431739231785,877.359800000006 -1.47433603163695,39.7433630187639,873.595400000006 -1.47433502642213,39.7434739953245,875.293900000004 -1.47442102394093,39.7436008977896,871.514800000004 -1.4745920155603,39.7437070126415,865.527799999996 -1.47459402688824,39.7439448904795,864.592799999999 -1.47450702235802,39.7442230026553,861.972899999993 -1.47472411372115,39.7444570251968,859.733399999997 -1.47480608858408,39.744500946555,858.652600000001 -1.47486995880077,39.744500946555,856.949600000007 -1.47493902577141,39.7445208951641,855.350699999995 -1.47495696333099,39.7445680013769,855.119099999996 -1.47485604479536,39.7450320233769,847.019400000005 -1.4748520221395,39.7454030066489,841.369600000005 -1.47486995880077,39.7454879989624,839.308900000004 -1.47498093577266,39.7454900109936,836.555900000007 -1.47502100063434,39.7455339316933,834.604800000001 -1.47500105174683,39.7457250397337,830.560800000007 -1.47491505332974,39.7459820285662,824.208899999998 -1.47485503958055,39.7460249439806,823.100200000001 -1.47463811530405,39.7461089305564,821.095300000001 -1.47459402688824,39.7461540250532,820.755999999994 -1.47461397577575,39.7463860359382,819.247199999998 -1.47474590684993,39.7466720266973,818.055500000002 -1.47480810081031,39.7470549121218,816.445500000002 -1.47476200016827,39.7472869234266,813.607999999993 -1.47480810081031,39.7473330234864,813.099199999997 -1.47491505332974,39.7473539783,811.967300000004 -1.474997029091,39.7473968935505,811.043399999995 -1.47532912008184,39.747720938261,804.535499999998 -1.47540707139064,39.7478510252454,802.117299999998 -1.47542500895022,39.7478899176455,801.453500000003 -1.47542702027815,39.747979939205,800.076400000005 -1.47536700563063,39.7480649317931,798.179000000004 -1.47517204246791,39.7480659374258,796.809999999998 -1.47512996538,39.7481060024816,794.8269 -1.47502200674746,39.7481289690142,793.489100000006 -1.47476702893722,39.7481289690142,793.850699999995 -1.47455312300007,39.7482339103339,791.941000000006 -1.47441800649988,39.7482588887743,791.762199999997 -1.47442001872611,39.7483249384543,790.586800000005 -1.47431390343654,39.748493917048,789.011100000003 -1.47429093710798,39.7486229983297,786.504400000005 -1.47431390343654,39.7486649078565,785.817200000005 -1.47439805761237,39.7487269339646,782.501399999994 -1.47446494527011,39.7488789817831,782.983399999997 -1.47432999675488,39.7490280124102,784.039999999994 -1.47429009897983,39.7491269186578,784.821500000005 -1.47426998210736,39.7492419180664,787.312399999995 -1.47429496066215,39.7493089737996,788.933099999995 -1.47438498173508,39.7493818960067,791.185599999997 -1.47521009689995,39.7495399788093,792.6158 -1.47616999259513,39.7498299927174,794.061400000006 -1.47673996196481,39.7499200145046,790.472500000003 -1.47693006344524,39.7499899192513,789.634000000005 -1.47713005537694,39.7500199264571,788.960699999996 -1.47740012039237,39.7500199264571,787.712299999999 -1.47773992252163,39.7500499336498,785.967300000004 -1.47797998021331,39.7500499336498,785.295599999998 -1.47842992118631,39.7500899996238,785.359200000006 -1.47868003731423,39.7501399551495,784.815300000002 -1.47898010875513,39.7502799333372,784.371599999999 -1.47914003582516,39.7503298894159,784.045199999993 -1.47941999129186,39.7503800132884,784.148100000006 -1.47970011474355,39.7503899035183,783.710099999997 -1.47977991029359,39.7503800132884,783.634699999995 -1.47987998980279,39.7503500062395,783.752900000007 -1.48006003374529,39.7502698752613,783.721099999995 -1.48027008411323,39.7501500139351,783.337400000004 -1.4806600104387,39.7499999773681,782.0046 -1.48090995858166,39.7499899192513,781.105100000001 -1.48193003601099,39.7498900072553,779.545499999993 -1.48248005649315,39.7497800362762,780.141399999993 -1.48277007039608,39.749750028966,780.739600000001 -1.48286998281862,39.7497200223333,780.923200000005 -1.48319000404534,39.7496999053258,781.224000000002 -1.48331003244201,39.749639891313,781.3079 -1.48345001062453,39.7495899347339,781.354099999997 -1.48365000255623,39.7494799646572,781.657699999996 -1.48353584105667,39.7493834051175,781.251099999994 -1.48334221907865,39.7489611242369,780.469400000002 -1.48329243085235,39.7486018760677,779.292700000005 -1.48327030265195,39.7481886486724,778.283899999995 -1.48327030265195,39.7479685394874,777.504199999996 -1.48350130802052,39.747614487701,778.051900000006 -1.4837172252856,39.7472371350511,778.080499999996 -1.48387748742721,39.7470755313438,777.549599999998 -1.48432575124556,39.746846370512,778.324299999993 -1.48458575872308,39.7468016107645,778.376099999994 -1.48525513745875,39.7464646588055,777.194300000003 -1.48548195128819,39.7464017942249,776.513600000006 -1.48569216964109,39.7463298772843,775.957599999994 -1.48588595870577,39.7461322320541,774.979000000007 -1.48605745248339,39.7460065036103,776.142699999997 -1.48619575440959,39.7459166493852,775.493300000002 -1.48643916461391,39.745728056734,775.292199999996 -1.48735748627772,39.7457307387423,770.650299999994 -1.48839751259455,39.7457397918143,767.173599999995 -1.48849004895029,39.7460998782236,768.117700000003 -1.48852005627403,39.7460998782236,768.152799999996 -1.49206006887373,39.7452999093559,765.074500000002 -1.49214992286004,39.7452600112015,766.049100000004 -1.49220004705625,39.7452098877482,766.178100000005 -1.49281997263717,39.7442399335888,766.995599999995 -1.49284997996095,39.7441400215428,766.814400000003 -1.49286992884846,39.7439899857018,766.309800000003 -1.49277001642592,39.7430599297083,764.418699999995 -1.49277001642592,39.7428798860482,763.936400000006 -1.49278996531343,39.742820039469,763.860199999996 -1.49286992884846,39.7427199595877,763.588000000003 -1.4931901171618,39.7423898798587,762.790299999993 -1.49352002883979,39.7420899756772,762.499599999996 -1.49481989464916,39.7410098834837,762.0144 -1.49517998073755,39.7406699136103,760.920299999998 -1.49530990048383,39.7404900377767,760.471900000004 -1.49548994352803,39.7402898780084,760.253299999997 -1.49580996475471,39.7400399296088,759.354999999996 -1.49592999404971,39.7399199005898,759.077999999994 -1.49605002244642,39.7397199084031,758.730599999995 -1.49617994219271,39.7395499239481,758.309500000003 -1.49629997058938,39.7394599017361,758.270000000004 -1.49686004950778,39.7392399608454,758.329199999993 -1.49706004143948,39.7391398812908,758.473800000007 -1.49732004891701,39.7389499472613,758.5095 -1.49743001887745,39.7390099616054,758.6253 -1.49755004817245,39.7391100413486,758.808799999999 -1.49760000438371,39.7391900050149,759.026500000007 -1.49767007656913,39.7394899093834,760.219400000002 -1.49779999631541,39.7397400255615,761.558399999994 -1.49785012051166,39.7399799154708,763.204599999997 -1.49787006939917,39.7400399296088,763.648100000006 -1.49790996717419,39.7400898862046,764.402100000007 -1.49807006133087,39.7402399222482,766.497700000007 -1.49809001021838,39.7402799877102,767.045499999993 -1.49808011976711,39.740379899827,767.438500000004 -1.49804005400713,39.7405399940463,770.842399999994 -1.49804005400713,39.7406000083872,770.314400000003 -1.49818003218965,39.7409699856083,773.112699999998 -1.49821003861506,39.74101994153,773.931700000001 -1.49828011169881,39.7410799561438,774.367899999997 -1.49878000798473,39.7413699704348,776.455799999996 -1.4988899788435,39.7413999772504,776.570999999996 -1.49928996360525,39.7416100280476,778.167199999996 -1.49986999141115,39.7420299612523,783.757100000003 -1.5001799542016,39.7421999464975,785.448699999994 -1.50060994538879,39.7425499742438,791.695300000007 -1.50088001040421,39.742799922519,794.937300000005 -1.50091001772795,39.742859936964,796.515100000004 -1.5009400250517,39.7429000029749,797.141600000003 -1.50095997393924,39.7429399004236,797.967399999994 -1.50097003237547,39.742979966388,798.484299999996 -1.50100003969922,39.7430299222341,798.6774 -1.50101998858673,39.7430798780439,798.198300000004 -1.50118008274341,39.7432500313095,801.0769 -1.50120003163092,39.7432800379972,801.434699999998 -1.50121998051843,39.74336000166,802.561499999996 -1.50121998051843,39.7434999791177,804.125799999994 -1.5012400973909,39.7436999713858,805.402799999996 -1.50125987829345,39.7437698769179,805.935100000002 -1.50129005270386,39.7438298912088,806.527199999997 -1.5013200600276,39.7438598983347,806.660199999998 -1.50143003088637,39.7439100220794,806.902900000001 -1.50167008857806,39.7439199125474,808.053100000005 -1.50178005943683,39.743949919634,809.013000000006 -1.50190997828478,39.7440099344589,810.3848 -1.50218004330024,39.7442099266284,812.603099999993 -1.50245010831567,39.7443599626811,814.225399999996 -1.50271011489489,39.7445799038082,813.467099999994 -1.50275001266991,39.7446300277198,813.410399999993 -1.50276996155742,39.744679983751,813.573399999994 -1.50276996155742,39.744729939746,814.050000000003 -1.50279996888117,39.744860026852,816.155299999999 -1.50284003464118,39.7449498810735,817.371599999999 -1.5029900703616,39.74512992416,819.725600000005 -1.50307003389662,39.7451999967747,820.847999999998 -1.5036400032663,39.7454900109936,824.6005 -1.50393001716927,39.7456799449562,825.904200000004 -1.50406999535178,39.7458299805708,826.819000000003 -1.50419002374846,39.7459999661117,828.009600000005 -1.5042200310722,39.7460299729833,828.393700000001 -1.50433000193097,39.7460299729833,828.727199999994 -1.50436000925472,39.7460199149775,828.8272 -1.50452999386268,39.7458899951396,829.4283 -1.50458011805889,39.7458698783951,829.7215 -1.50466008069559,39.7458698783951,829.949999999997 -1.50474004423062,39.745899886014,830.443899999998 -1.50525989030238,39.7463000376926,832.208299999998 -1.5053299624878,39.7463800013042,831.428599999999 -1.50541998445906,39.7464400153939,831.225699999995 -1.50554001375407,39.7464700227645,831.432000000001 -1.50561997639077,39.7464799135557,831.982000000004 -1.50578007144575,39.7465300374665,833.280700000003 -1.50584008519494,39.7465699355761,833.420700000002 -1.50591988074498,39.7465999421995,833.564100000003 -1.50618994576044,39.7466498988745,833.600300000006 -1.50644006188836,39.7467199713248,832.578200000004 -1.50647995966338,39.7467399199822,832.316200000001 -1.5065399743109,39.7467898765558,832.116500000004 -1.50660987940966,39.7468299416629,831.871599999999 -1.50673007579133,39.7468700074375,831.517500000002 -1.50676997356635,39.7468700074375,831.339300000007 -1.50681003932632,39.7468599488637,831.331900000005 -1.5069999728218,39.7467399199822,831.516199999998 -1.50704992903305,39.746679905463,831.987800000003 -1.50707004590555,39.7466400081077,831.928700000004 -1.50707004590555,39.7466100008112,831.544399999999 -1.50707993635683,39.7465699355761,831.346600000004 -1.50711011166553,39.7465099209089,831.047300000006 -1.5071200021168,39.746500030122,831.036399999997 -1.50735000137225,39.7463699433496,831.376799999998 -1.50744991379479,39.7462799210678,830.901500000007 -1.50774998613399,39.7460998782236,829.775500000003 -1.50836991171492,39.7459298929291,826.936199999996 -1.50849010809655,39.745859988207,825.823199999999 -1.50854006430784,39.7457899155728,824.946400000001 -1.50872999780331,39.7456698862086,823.482699999993 -1.50924012051042,39.7455099600071,824.712899999999 -1.5095500833009,39.7454499451073,824.666500000007 -1.50963004683593,39.7454499451073,824.717799999999 -1.51004008913557,39.7453699817977,824.444300000003 -1.51017000888186,39.745320025576,824.952799999999 -1.5102000162056,39.745320025576,825.204500000007 -1.51021996509311,39.7453299165323,825.470100000006 -1.51024997241685,39.7453299165323,825.534199999995 -1.51030009571477,39.7453500327437,825.7117 -1.51050008854477,39.7453599236957,827.236399999994 -1.51063000739276,39.745380040589,829.046600000001 -1.51115002144947,39.7455099600071,827.451700000005 -1.51121003519866,39.7455099600071,826.616599999994 -1.51126988275952,39.7455200180873,826.210800000001 -1.51136007181741,39.7455599160911,826.267500000002 -1.51157012218535,39.7456799449562,823.390499999994 -1.51161001996037,39.745720010018,823.4617 -1.51170004193163,39.7458499294858,821.721000000005 -1.51179006300457,39.7459500096561,821.305300000007 -1.51196993896214,39.7460299729833,820.357199999999 -1.51236003237424,39.7462499143052,821.118799999997 -1.51239993014929,39.7462899797263,821.808900000004 -1.51243999590927,39.7463598847028,823.739100000006 -1.51243999590927,39.7465199788431,825.0242 -1.5124500543455,39.7465898842769,825.986000000004 -1.51248006166924,39.7466400081077,826.626600000003 -1.51251995944426,39.7466700153913,825.571899999995 -1.51268005360095,39.7467499785735,824.503200000006 -1.512799914911,39.7467799858091,824.409799999994 -1.51295011861641,39.7468400002411,825.693400000004 -1.51299001639143,39.7468798981712,826.411900000006 -1.51302002371517,39.7469000146208,826.457399999999 -1.51305003103892,39.7469300217911,826.541299999997 -1.51311004568644,39.7469600289482,826.507100000003 -1.51318011787186,39.7469799782268,826.651800000007 -1.51326997185813,39.7470198760759,827.472399999999 -1.51329997918191,39.7470399924846,827.953999999998 -1.51337005226563,39.7470699995939,827.766799999998 -1.51341011712731,39.7470699995939,827.702999999994 -1.51349997111361,39.7470899488406,827.827900000004 -1.51427010039995,39.7474200281567,834.574299999993 -1.51431988952454,39.7474299188115,834.668399999995 -1.51447009322995,39.7474099696633,835.0723 -1.51470998293668,39.7473499550371,835.313599999994 -1.5147699975842,39.7473499550371,834.974799999996 -1.51519009832008,39.7473999111683,834.013999999996 -1.51543987937641,39.7473699042027,836.255699999994 -1.51555001732181,39.7473398965333,837.733600000007 -1.5156299808568,39.7472899410493,840.719700000001 -1.51579007501349,39.7471839933368,843.539600000004 -1.51591798253354,39.7472909466932,845.922999999995 -1.51615904633834,39.747354983943,848.125899999999 -1.51641201192235,39.7473769450833,849.916599999997 -1.5166929735022,39.7474329357372,851.493600000002 -1.51692498498388,39.7474828918084,852.911800000002 -1.51705708314473,39.7475489415415,853.382800000007 -1.51726897775394,39.7476119736029,853.827999999994 -1.5177579783738,39.7476959603162,858.604000000007 -1.51799702995236,39.747783970165,863.025699999998 -1.518066096923,39.7477879934026,864.247300000003 -1.51806391761011,39.7479330003981,864.1486 -1.5182359144443,39.7480639254698,866.112500000003 -1.51842802725264,39.748253021449,868.644199999995 -1.51877302703414,39.7483839466032,874.456200000001 -1.51894401775522,39.7485569489356,875.546300000002 -1.51909405347567,39.7486219927052,873.238500000007 -1.51931902396213,39.7487809136584,872.561499999996 -1.51949789380659,39.7489188799138,873.138099999996 -1.51966402284534,39.7490618753649,873.429300000003 -1.51980701846888,39.7492040320455,873.712899999999 -1.51987306799846,39.7493689881007,873.4571 -1.52001807494993,39.7496449200518,874.2503 -1.52021102588645,39.7496449200518,876.311700000006 -1.52039995416711,39.7496749274078,878.991800000003 -1.52053909332317,39.7496968878086,880.966199999995 -1.52075501148655,39.7497639430991,884.138200000001 -1.52089800711008,39.7497750075473,886.812699999995 -1.52106698560493,39.7498449124411,888.437999999995 -1.52132900441035,39.7498640231093,892.118600000002 -1.52150804134143,39.7498559768763,894.7739 -1.52167500940668,39.7498370333466,898.770000000004 -1.52194607963692,39.7498050148467,902.472699999998 -1.52217792313364,39.7497569024624,905.7834 -1.52238696828676,39.7497379595962,907.444300000003 -1.52258897244474,39.7497079522676,909.597899999993 -1.52275895705266,39.7496600076473,913.020000000004 -1.52291201021417,39.7496630251661,914.235700000005 -1.52305399972459,39.7496408969226,916.8989 -1.52325700999564,39.7496249715449,919.603799999997 -1.52343604692672,39.7496060279517,921.222599999994 -1.52364810952089,39.749581888469,922.887300000002 -1.52378087872327,39.7495150008334,925.861199999999 -1.52405798473391,39.749435875878,929.020600000003 -1.52427004642975,39.7493929605162,930.5285 -1.52448311423874,39.7493839079242,933.294500000004 -1.52464907619083,39.7493720056322,936.946899999995 -1.5248478949228,39.7493808903933,940.697899999999 -1.52505610104946,39.7493949717428,944.0864 -1.52542406715949,39.7493589298918,949.078599999993 -1.52598012252375,39.7493069618799,951.967699999994 -1.5268950907766,39.749158937473,955.221399999995 -1.52748903258795,39.7490129246762,953.0003 -1.52780100670633,39.7489079831617,952.0481 -1.52804005918323,39.7487758841659,951.567200000005 -1.528166122462,39.7485499081755,952.2209 -1.52823887791516,39.7482949312009,952.858500000002 -1.52836494119393,39.7480868920165,952.228600000002 -1.52840701828184,39.7480639254698,952.134600000005 -1.52851011613036,39.7481700403552,951.201799999995 -1.52870004962583,39.7483199089284,949.0818 -1.52885008624458,39.7484099306167,947.633300000001 -1.52921000524631,39.7485700248282,945.711899999995 -1.52934998253053,39.7486598790462,945.147700000001 -1.52943011405048,39.7487499002903,944.816099999996 -1.52947001182554,39.7488399221075,944.681800000006 -1.52960009865845,39.7492399068353,944.585000000006 -1.52986010523767,39.749809875742,946.353000000003 -1.52994006877267,39.7499500217408,946.7592 -1.53003009074393,39.7500599917579,946.944600000003 -1.53040006728357,39.7503099404167,948.152300000002 -1.53054993591739,39.7503699545364,948.560100000002 -1.53092008044199,39.7504599763087,949.5628 -1.53109006594825,39.7505298818887,949.955400000006 -1.53122987614581,39.7506100125645,950.395600000003 -1.53135007252747,39.7507399317898,951.562600000005 -1.53141997762624,39.7508799101397,953.708299999998 -1.53144998495001,39.7510498949623,956.185299999997 -1.5315099995975,39.7511799818767,957.364300000001 -1.53161996955794,39.7512899526929,957.8992 -1.53164997688168,39.7513099014083,958.078500000003 -1.53176011482712,39.7513199600231,958.245699999999 -1.53270006163475,39.7512798940738,954.691000000006 -1.53285998870478,39.7512599453497,954.962100000004 -1.53334999453946,39.7512498867262,957.527799999996 -1.53347002383446,39.7512599453497,958.142099999997 -1.53363011799112,39.7513000106199,958.802299999996 -1.53383010992282,39.7513999233336,959.382899999997 -1.53404988365541,39.7514899444505,959.894700000004 -1.53446998439129,39.7516099733443,961.419800000003 -1.53511002684468,39.7517098856084,964.005799999999 -1.53661005167242,39.7515799661405,972.237299999993 -1.53738001387212,39.7515600175032,977.090299999996 -1.53745997740712,39.7515499589235,977.676399999997 -1.53758000580383,39.7515499589235,978.376600000003 -1.53761001312757,39.7515600175032,978.485000000001 -1.53761990357885,39.7515699082543,978.517999999996 -1.53788996859428,39.7516899370088,978.815600000002 -1.53830990224353,39.7519299945809,978.473800000007 -1.53863998100814,39.7521698848721,977.928899999999 -1.53936987744788,39.7525100224629,976.892300000007 -1.53958998625205,39.7526699489908,976.074500000002 -1.5399400148025,39.7530000285069,975.506500000003 -1.54035005710215,39.7535200415809,976.138099999996 -1.54109001197808,39.7541699745353,981.466700000004 -1.54151011271396,39.7544599882887,983.838300000003 -1.54162997402401,39.7545899078498,985.000499999995 -1.54171010464567,39.7547099368669,985.878800000006 -1.54174011196941,39.7548400237757,986.947799999994 -1.54173005353318,39.7550100084947,987.720499999996 -1.54167993023526,39.755327012549,988.569199999998 -1.54178621261149,39.7559318507454,990.453200000004 -1.54193323089089,39.7564599106285,993.150500000003 -1.54263814877579,39.7559821418111,991.500100000005 -1.54277762390177,39.7558185268606,991.454400000002 -1.5429529732486,39.7556979956335,992.578399999999 -1.54302002889127,39.755659941893,993.235100000005 -1.54316000617549,39.7555300222785,995.779500000004 -1.54323996971052,39.7554400002258,997.720400000006 -1.54345002007846,39.7551598773812,1001.34759999999 -1.54355010048592,39.7550799136011,1001.9071 -1.54365001290846,39.7550499065276,1002.1534 -1.54504995822703,39.755070023354,1004.6853 -1.54725791927902,39.7548019702518,1004.8642 -1.54746796964696,39.7547119486288,1004.5156 -1.54833080237566,39.754636511316,1005.3646 -1.5491718428739,39.7545915839756,1005.84669999999 -1.54900588092178,39.754349012158,1005.0102 -1.54890630357086,39.7539087944657,1004.41959999999 -1.54900588092178,39.7535808940871,1005.6832 -1.54933009278928,39.7526499999786,1011.144 -1.54979998264979,39.7516500391016,1016.30070000001 -1.55009988700403,39.7513000106199,1015.317 -1.55027003959695,39.7511499744856,1014.0099 -1.55036006156818,39.7510498949623,1013.0341 -1.55045008264115,39.7509099169578,1012.03750000001 -1.55053993662742,39.750619903452,1010.4066 -1.5506001192599,39.7504799252644,1009.35980000001 -1.55068997324617,39.7503699545364,1008.56359999999 -1.55083011851535,39.7502698752613,1007.31630000001 -1.55104000089833,39.7501500139351,1005.74860000001 -1.55127000105208,39.7500599917579,1004.9286 -1.55146999298378,39.7499500217408,1004.5934 -1.55156001405675,39.7498599999929,1004.3337 -1.55162991915551,39.7496900149968,1003.8567 -1.55177006532299,39.7490099071291,1004.0963 -1.5517900142105,39.7484999521875,1000.8495 -1.55178012286092,39.7483799234004,999.732000000004 -1.55175011643548,39.7482899016728,998.873399999997 -1.55163997759175,39.748110026391,996.875799999994 -1.55139002944879,39.7479400412212,995.576199999996 -1.55128005859001,39.7478899176455,994.907399999996 -1.55113002286956,39.7478399611789,994.109800000006 -1.5509499798254,39.7477998959684,993.450100000002 -1.55025009070944,39.7477398809911,990.067200000005 -1.55009988700403,39.7476800344889,988.941099999996 -1.55005998922901,39.7476399691854,988.530299999999 -1.54999997458149,39.7475299987588,987.480800000005 -1.55001003301773,39.7473999111683,986.332200000004 -1.55005009877774,39.7472899410493,985.160699999993 -1.55010994544027,39.7471699115355,983.810800000007 -1.55009988700403,39.747079890299,982.841 -1.55005998922901,39.7470198760759,982.072199999995 -1.54996007680647,39.7469900360924,981.365999999995 -1.54982009862396,39.7469699196691,980.214200000002 -1.54961993960563,39.7469000146208,978.255900000004 -1.54953008561932,39.7468498909792,977.385699999999 -1.54946001253557,39.7467898765558,976.767900000006 -1.54941994677559,39.7467399199822,976.478900000002 -1.5493901074368,39.7466700153913,976.205799999996 -1.54939999788808,39.7465799935016,976.217099999994 -1.54943000521182,39.7464700227645,976.381599999993 -1.54947007097183,39.7463699433496,976.2304 -1.54959998981978,39.7461500017201,975.138699999996 -1.54962999714353,39.7460799293809,974.513000000006 -1.54960988116939,39.7459298929291,972.767600000006 -1.54960988116939,39.7458299805708,971.371599999999 -1.54963988849314,39.7457299009169,970.196400000001 -1.54967995335478,39.7454999012348,967.813800000004 -1.54967006290351,39.7453899308459,966.340400000001 -1.54962999714353,39.7453099674667,965.883900000001 -1.54958004093228,39.7452499530834,965.993900000001 -1.54952002718309,39.7451999967747,965.9611 -1.54941994677559,39.7451599314104,966.018299999996 -1.54923001328012,39.74512992416,967.135599999994 -1.54904996933762,39.7451200338657,967.727100000004 -1.54864009502293,39.745060019317,968.1391 -1.54831990581127,39.7449599392354,966.624200000006 -1.54809996499205,39.744830019471,965.1774 -1.54807012565326,39.7447798957048,964.7978 -1.54808001610454,39.7447198815505,964.552800000005 -1.54811991387956,39.7446600344973,964.261199999994 -1.54821999338873,39.7445599545254,963.563299999994 -1.54847010951668,39.7443499044317,961.536800000002 -1.54884997740592,39.7439899857018,957.147700000001 -1.54958004093228,39.7427399087124,946.069399999993 -1.54972001911479,39.742629938063,944.890799999994 -1.55114008130583,39.7420700263642,935.433300000004 -1.55102005201082,39.7419898954262,935.8024 -1.5510601177708,39.7419598881768,935.413700000005 -1.55133001480127,39.7418499176641,934.931400000001 -1.55172010911173,39.7416199181549,934.583700000003 -1.55185991930929,39.7415099477904,934.776599999997 -1.55203007190218,39.7413299049158,934.880000000005 -1.55232997625642,39.7409399786055,935.107600000003 -1.55241010687808,39.7407899427045,935.973599999998 -1.55248001197688,39.7406098993303,936.155499999993 -1.55333010479821,39.7378198987663,932.233600000007 -1.55350998075578,39.7373699582905,930.821800000005 -1.55399009613914,39.7365599309253,923.7693 -1.55407995012545,39.7364499607759,922.180500000002 -1.55441002889006,39.7362099031494,918.896699999998 -1.55458001439632,39.7361099905137,918.164600000004 -1.55475988945556,39.7360300274186,917.464699999997 -1.55582992399444,39.7357400134524,913.716400000005 -1.55603997436238,39.7356399336512,913.221699999995 -1.55695997138421,39.7353400291089,909.6057 -1.5573200583709,39.735199883789,908.792799999996 -1.55822010740352,39.7347998990743,908.099600000001 -1.5583500262515,39.7347299941144,907.935700000002 -1.5589101051699,39.7345199437629,906.871599999999 -1.55931008993161,39.7344099731219,905.8603 -1.55960010383458,39.7343000023056,904.453399999999 -1.56011005855673,39.734049886419,902.929000000004 -1.56027987607803,39.7339499741063,903.071800000005 -1.56048003599469,39.7338099965937,903.673200000005 -1.56072998413769,39.7335000339278,903.679199999999 -1.56081011475934,39.7334199026968,903.603000000003 -1.56106006380063,39.7332700341854,903.993400000007 -1.56134001926733,39.7331298888017,904.482099999994 -1.56157990897406,39.7330299765371,905.1973 -1.56183991555329,39.7329599039824,904.993199999997 -1.56206991480873,39.7328599914714,904.111000000004 -1.56393002752146,39.731630031078,905.034 -1.56436001870861,39.7314300390159,901.295800000007 -1.56443998224364,39.7313599662164,899.727299999999 -1.56453000421491,39.7312399372798,897.939700000003 -1.56465003261158,39.7309499231942,895.053899999999 -1.56469998882283,39.7308699603307,894.410000000003 -1.56473988659789,39.7308298942345,894.174799999993 -1.56480006833203,39.7307899966836,894.027799999996 -1.56480006833203,39.7307998876527,894.043300000005 -1.56482001721954,39.7308200039604,894.001999999993 -1.56483007565578,39.7308200039604,893.956699999995 -1.56506996626083,39.7309599820178,891.818599999999 -1.56514003844622,39.730970040149,891.292000000001 -1.56572006625216,39.7309899892207,885.206699999995 -1.56580992023843,39.7310099375957,884.392699999997 -1.56598007283135,39.731080010751,882.570800000001 -1.56610999257764,39.7311499152674,881.795199999993 -1.56624997076015,39.7312800024468,881.347899999993 -1.56632004294558,39.7313799151753,881.160699999993 -1.56655004220103,39.7315799073827,881.978600000002 -1.56689990276652,39.7318000157225,882.317500000005 -1.56725998975321,39.7319299351819,880.7068 -1.56747004012115,39.7319700013296,879.594500000007 -1.56751999633244,39.7319899501119,879.202300000004 -1.56768998094037,39.7321099791244,877.879199999996 -1.56774010513661,39.732179883978,877.216799999995 -1.56790003220664,39.7323299199702,875.734400000001 -1.56797010439206,39.7323699851946,875.175300000003 -1.56826011829503,39.7324398904754,873.518599999996 -1.56844988470384,39.732520021464,872.642399999997 -1.5685300153255,39.7325299121849,872.137900000002 -1.56857997153675,39.732520021464,871.975999999995 -1.568879875891,39.7323299199702,870.463799999998 -1.56890988321474,39.7322900219058,870.406600000002 -1.56890988321474,39.7322600145779,870.353300000002 -1.56892010963593,39.7322300079278,870.142900000006 -1.56889999276347,39.7322000005739,870.330700000006 -1.56885003655221,39.7321498766022,869.969100000002 -1.56880008034093,39.7320600229619,869.436900000001 -1.56880008034093,39.7320199568665,868.739000000001 -1.56883997811598,39.7319399938624,868.9133 -1.56893989053848,39.7318900375768,868.167499999996 -1.56905002848392,39.7318600307657,867.9326 -1.56960994031565,39.7318099065468,865.649600000004 -1.56986994689488,39.7318099065468,865.187099999996 -1.57015006944824,39.7318799795798,864.023499999996 -1.57023003298324,39.7319099863822,863.859100000001 -1.57032994540578,39.7319700013296,863.252399999998 -1.5704000184895,39.7320600229619,862.8986 -1.57052004688621,39.7321699932068,862.275800000003 -1.57058006153369,39.7322000005739,861.848499999993 -1.57061995930875,39.7322300079278,861.632700000002 -1.57072993016749,39.7322799639671,861.045899999997 -1.57080000235291,39.7322900219058,860.644899999999 -1.57090008276041,39.7322900219058,860.425099999993 -1.57093998053543,39.7322799639671,860.303499999995 -1.57110007469211,39.732179883978,858.9764 -1.57116997979088,39.732179883978,858.227199999994 -1.57133007394756,39.7322199492896,856.093800000002 -1.5715300667776,39.7322300079278,853.581099999996 -1.57159997187636,39.7322499566349,852.710200000001 -1.57165998562555,39.7322799639671,852.020999999993 -1.57176006603305,39.7323599272677,850.597200000004 -1.57177012446928,39.7324098832128,849.858800000002 -1.57177012446928,39.7324600069954,849.038100000005 -1.57174011714554,39.7325099635589,848.052599999995 -1.57162997830181,39.7325800358803,847.084400000007 -1.57148011056631,39.7327099552512,846.145199999999 -1.57141992793387,39.7327800280601,845.381099999999 -1.57138992061012,39.7328398750681,844.630099999995 -1.57133996529717,39.732909947745,843.810299999997 -1.57127006019837,39.7330799326876,841.921799999996 -1.57115003090337,39.7331899033779,839.621299999999 -1.57103000250669,39.7332599756989,837.504000000001 -1.57092992209919,39.7332899832823,836.046000000002 -1.57083000967669,39.7333399392443,834.243000000002 -1.57056011264618,39.7333999536375,832.3848 -1.57032994540578,39.7334700264359,830.739300000001 -1.57027998919452,39.7335000339278,830.484899999996 -1.57014001191031,39.7336599603688,829.670800000007 -1.57005988039032,39.7337300329028,829.900800000003 -1.57000003372779,39.7337699308246,830.502299999993 -1.56997002640405,39.7338099965937,830.752200000003 -1.56995007751654,39.7338498944692,831.029399999999 -1.5699400190803,39.7339000178956,831.119200000001 -1.5699400190803,39.7339799813893,831.278200000001 -1.5698600564436,39.7342299296602,834.461599999995 -1.56977003447234,39.7343999148018,837.395099999994 -1.5697400271486,39.7344798784064,838.856599999999 -1.56975997603611,39.7345300020655,839.621499999994 -1.56978009290857,39.7345499507978,839.977400000003 -1.56980993224736,39.734560009096,840.294899999994 -1.5698399395711,39.734560009096,840.654200000004 -1.5698600564436,39.7345698995242,841.119399999996 -1.57001009216402,39.7345799578196,842.675499999998 -1.57015996079781,39.7346099655192,843.816500000001 -1.57027998919452,39.7346800377782,843.162100000001 -1.57035006227824,39.7347499427888,842.125799999994 -1.57044997470078,39.7348999794044,841.034899999999 -1.57066002506872,39.7351599860041,839.143200000006 -1.57069003239247,39.7352200001943,839.005099999995 -1.57069003239247,39.7352598979445,838.871400000004 -1.57064007618121,39.7354298833094,838.142399999997 -1.57064996663249,39.7354898972646,836.975699999995 -1.57067008350496,39.73554002088,836.782500000001 -1.57072003971621,39.7355700281616,837.317999999999 -1.57089002432417,39.7356099264,839.110100000005 -1.57104006004463,39.7356898899825,840.926300000006 -1.57136997172258,39.7359198892493,844.9133 -1.57162997830181,39.7360499764075,847.502500000002 -1.5719900652885,39.7362600269321,843.575899999996 -1.57211009368517,39.7363099828139,842.4666 -1.57217999878397,39.7363299317218,842.340800000005 -1.57224001343146,39.7363299317218,842.351899999994 -1.57228996964274,39.7363200408553,842.167700000005 -1.57234009383895,39.7362900339002,841.791800000006 -1.57246012223563,39.7361899542068,840.994399999996 -1.57263010774192,39.7360999324416,839.061900000001 -1.57279003391362,39.7360399176359,836.656499999997 -1.5728399901249,39.7360300274186,835.637100000007 -1.57289011432111,39.7360399176359,834.562099999996 -1.57290989522367,39.7360699253907,834.023400000005 -1.57292012164486,39.7360999324416,833.545800000007 -1.57290989522367,39.7361599465043,832.806700000001 -1.57289011432111,39.7362099031494,832.250499999995 -1.57287988789992,39.7362600269321,831.597099999999 -1.57285004856114,39.7363099828139,831.403600000005 -1.5728399901249,39.7363699973844,830.676300000006 -1.57285004856114,39.7364098951598,830.248600000006 -1.57287988789992,39.7364699096433,829.613200000007 -1.57293990254741,39.7365500407826,828.398799999995 -1.57294996098364,39.7366098872806,827.779399999999 -1.57294996098364,39.7366499527804,827.063899999994 -1.57293001209613,39.7366900182571,826.491999999998 -1.5728399901249,39.7367299158471,825.839099999997 -1.57263010774192,39.7367800399423,823.861000000004 -1.57259004198191,39.7368098795118,822.852599999998 -1.57257998354568,39.7368499448955,823.605200000005 -1.57260010041814,39.7368900102558,823.318499999994 -1.57266011416733,39.7369399663719,822.352700000003 -1.57277008502611,39.7369999810847,822.021800000002 -1.57320996756287,39.7371200096627,817.077099999995 -1.57374003915752,39.7370998931211,811.148400000005 -1.57388001644171,39.737139959027,809.416599999997 -1.57394003108919,39.7371699663028,808.873699999996 -1.57409995815925,39.7372899952756,805.3033 -1.57421009610465,39.7373298925184,804.4277 -1.5744400953601,39.7373200024862,803.346099999995 -1.57468987641643,39.7372799366849,802.890400000004 -1.57475005815058,39.7372799366849,803.162299999996 -1.57494988299563,39.7373298925184,802.533899999995 -1.57504996250479,39.7373399511017,802.097999999998 -1.57536998373151,39.7373399511017,801.476500000004 -1.57545011525149,39.7373598997115,801.145399999994 -1.57582998314074,39.7373298925184,801.140100000004 -1.57595001153741,39.7373399511017,800.186600000001 -1.57604992395995,39.7373598997115,800.045899999997 -1.57614011301784,39.7373899075824,798.960200000001 -1.57630993053918,39.7374799290443,798.067800000004 -1.5763800036229,39.7375298847327,796.847299999994 -1.57659005399084,39.7378100081136,792.2981 -1.57662006131458,39.7378700227596,790.698199999999 -1.57662006131458,39.7379199788561,790.333100000003 -1.57665006774003,39.7380400079042,789.248699999996 -1.57667001752587,39.7380700147883,788.959400000007 -1.57673992172633,39.7381399198146,788.1489 -1.57677998748631,39.7382299416784,787.178499999995 -1.57682005324629,39.738279897514,786.567200000005 -1.57688006789381,39.7384099850534,785.642699999997 -1.57693002410506,39.7384798897349,784.226899999994 -1.57696992188008,39.7385600206096,782.945200000002 -1.57697998031631,39.7386200352932,782.536999999997 -1.57696992188008,39.7387600133991,780.475999999995 -1.57697998031631,39.7388200272178,779.871899999998 -1.57700009629048,39.7388798745078,779.381999999998 -1.57702004517799,39.7389098817169,778.797699999996 -1.57710000871302,39.7389900127824,777.251799999998 -1.57714996492427,39.7390999830236,775.050300000003 -1.57720008822219,39.7391698883868,773.386599999998 -1.57722003800803,39.739220012089,772.334300000002 -1.57720008822219,39.7392899173304,772.109500000006 -1.57714996492427,39.7393899966671,770.625799999994 -1.57712012558549,39.7394800182796,769.517600000006 -1.57710000871302,39.739629887104,768.455900000001 -1.57707000138928,39.7396598939865,768.506500000003 -1.5770399940655,39.7397100180231,768.126199999999 -1.57700998674176,39.7397299666377,768.325599999996 -1.5769600305305,39.7398099302755,768.311400000006 -1.57691996566883,39.7399700244373,767.893800000005 -1.57693991455633,39.7400499877966,769.695900000006 -1.57699003785425,39.7401198928869,770.946200000006 -1.57680010435878,39.7405198778121,771.594299999997 -1.57657010510333,39.7411099637764,772.904500000004 -1.57642995983415,39.7413999772504,773.588799999998 -1.57576007804197,39.7424899602195,774.568400000004 -1.57570006339445,39.7425300257547,775.0193 -1.5756199318745,39.7425499742438,774.883700000006 -1.57542999837903,39.742629938063,775.210699999996 -1.57521005755981,39.7428299300934,775.449500000002 -1.57514987492733,39.742930009815,776.054099999994 -1.57510008670104,39.7430399806762,776.643700000001 -1.57507996982857,39.7433199359166,778.0524 -1.5750900282648,39.7437698769179,780.498999999996 -1.57502012316601,39.7442298753218,782.731299999999 -1.57504996250479,39.7446000202385,784.012100000007 -1.57503001361728,39.7451899386478,786.661500000002 -1.57504007205352,39.7452999093559,786.971300000005 -1.57507996982857,39.7453899308459,787.493100000007 -1.57521994801109,39.7455200180873,788.045599999998 -1.57552002035026,39.7457299009169,789.624800000005 -1.57559998298696,39.7457699666404,789.978199999998 -1.5758199247045,39.7458400392949,790.580700000006 -1.57630993053918,39.745859988207,792.093599999993 -1.57651998090712,39.7459399516387,792.728400000007 -1.57667001752587,39.7460199149775,792.940400000007 -1.5770399940655,39.7461800092171,793.832800000004 -1.57716991381178,39.7462100160102,794.042700000005 -1.57729011019345,39.7462199068387,794.310800000007 -1.57756000722392,39.7462700309387,794.816099999996 -1.57765002919518,39.7463099285082,795.027900000001 -1.57775010870435,39.7463699433496,795.527499999997 -1.57779989782898,39.7464299574481,795.809099999999 -1.57782990515272,39.746489972185,795.880799999999 -1.57781012335184,39.7465699355761,796.106499999994 -1.57733000796847,39.7474099696633,799.064799999993 -1.57720997957179,39.7476699760334,800.855500000005 -1.57729011019345,39.7476599175764,800.812900000004 -1.57737996417972,39.7476699760334,801.050499999998 -1.57746009569971,39.7476899251064,801.214200000002 -1.57758012409639,39.7477599978803,801.330000000002 -1.57762991232272,39.7478099537142,801.472299999994 -1.57769009495516,39.7479698807933,801.8845 -1.57775010870435,39.7480599022483,802.154999999999 -1.57792009421061,39.7481499242764,802.6155 -1.57848989559532,39.7483499161709,804.674799999993 -1.57944995927546,39.7488199733675,808.678700000004 -1.57956009722086,39.7488898785397,809.020900000003 -1.57970996585465,39.7490600312712,809.742299999998 -1.57976008915257,39.7490900381915,810.348899999997 -1.57995002354634,39.7491498848502,811.398700000005 -1.58003987753264,39.749189950657,811.600699999995 -1.58018002280179,39.7492799718991,811.960999999996 -1.58059006599976,39.7494900228485,813.538799999995 -1.58091997767775,39.7496999053258,815.128899999996 -1.58106012294689,39.7498199345758,816.125799999994 -1.5811499769332,39.7498799491224,816.624400000001 -1.58122004911862,39.7499500217408,817.340299999996 -1.58128006376611,39.7500299845695,817.895399999994 -1.58130001265365,39.7500998898953,818.1296 -1.58128006376611,39.7501699629806,818.615900000004 -1.58100010829941,39.7505199909883,820.334099999993 -1.58096004253943,39.7505898958169,820.694900000002 -1.5809499841032,39.7506400195002,821.005999999994 -1.58096004253943,39.7506799173017,821.267200000002 -1.58104000607443,39.7507499904877,821.820099999997 -1.58134996886491,39.7509300336119,824.517600000006 -1.58143009948656,39.7509898807443,825.098800000007 -1.58146999815991,39.7510400041365,825.537700000001 -1.58149011413405,39.7511000183109,826.105500000005 -1.5815300119091,39.7511799818767,827.734400000001 -1.58157996812035,39.7512099892548,828.402600000001 -1.58163998276787,39.7512299379933,828.721699999995 -1.58177996095039,39.7512498867262,829.357000000004 -1.58248001715297,39.751459937885,834.046400000007 -1.58261010398592,39.7514798865512,834.809999999998 -1.58290011788885,39.7515900247158,837.279500000004 -1.58294990701348,39.7516200319152,837.785499999998 -1.58297002298765,39.7516599298398,838.107499999998 -1.58298008142388,39.7517098856084,838.6489 -1.58294990701348,39.7518399733484,839.841100000005 -1.58294990701348,39.7519098782187,840.301399999997 -1.58297002298765,39.751969892326,840.8698 -1.58306004495888,39.7520500233986,841.593200000003 -1.58315995738142,39.7521100380743,842.138099999996 -1.58324997845435,39.7521799433613,842.846399999995 -1.58337000774936,39.7523400370994,844.394 -1.58341007350933,39.7524298912347,846.083599999998 -1.58346002882229,39.7525100224629,847.031900000002 -1.58349003614603,39.7526199932278,847.777300000002 -1.58349003614603,39.7526598905731,849.121799999994 -1.58347008725852,39.7526999564105,849.870299999995 -1.58341996396061,39.752729963817,850.707999999999 -1.58335994931312,39.7527499121155,851.375700000004 -1.58333010997434,39.752770028923,851.831200000001 -1.58330010265059,39.7527799195003,852.084099999993 -1.58327998577809,39.752800036299,852.370999999999 -1.58326003689058,39.7528099268721,852.366299999994 -1.58324997845435,39.752829875838,852.282500000001 -1.58326003689058,39.7528799992727,852.218999999997 -1.58341996396061,39.752829875838,853.121299999999 -1.58343002239684,39.752829875838,853.190000000002 -1.58344007993478,39.7528499926221,853.283500000005 -1.58347008725852,39.7528799992727,853.384600000005 -1.58351987638315,39.7529100066009,853.737999999998 -1.58356999968106,39.7529299555378,854.029299999995 -1.58367008008856,39.7529299555378,854.590400000001 -1.58415002748697,39.752770028923,859.648199999996 -1.58427994723325,39.75275997052,860.895699999994 -1.58442009250243,39.752770028923,862.529399999999 -1.58477012105288,39.75275997052,865.886100000003 -1.58539004663381,39.7528099268721,872.483300000007 -1.58570000942429,39.7528898905249,875.868199999997 -1.58582992827224,39.7528898905249,876.4326 -1.58595012465391,39.7528699415764,878.535999999993 -1.5862200225827,39.752800036299,880.852599999998 -1.5862999852194,39.752770028923,881.069300000003 -1.58646997072566,39.7527499121155,881.754199999996 -1.58665990422114,39.752770028923,882.201300000001 -1.58672997730486,39.752800036299,882.417600000001 -1.58678999195238,39.7528399342308,882.411900000006 -1.58691002034905,39.7529499044689,881.919200000004 -1.58698998388408,39.7530399263229,881.189400000003 -1.58733012198326,39.7533498888152,879.672300000006 -1.58738996864579,39.7533498888152,879.486300000004 -1.58764008477371,39.7532799840249,878.692899999995 -1.58781995983295,39.7531498969323,879.176900000006 -1.58784996715669,39.7531198897087,879.267600000006 -1.58787008402916,39.7531099991802,879.367199999993 -1.58800000287714,39.752970021218,879.757400000002 -1.58807996641214,39.7528999482183,879.608699999997 -1.58820988615842,39.75275997052,879.0098 -1.58830996566762,39.7526898979972,878.582800000004 -1.58833997299136,39.7526598905731,878.3177 -1.58879997240059,39.7524399496859,875.626900000003 -1.58895000812101,39.7523899937561,874.984200000006 -1.58896006655725,39.7523899937561,875.003899999996 -1.58913994251482,39.7522999717434,874.037700000001 -1.58973002785862,39.7521398772216,871.327900000004 -1.58989012201531,39.7520800303977,870.976599999995 -1.58993002068866,39.7520399655811,870.920599999998 -1.59025993236665,39.7519900093612,870.942500000005 -1.59040007763579,39.7518899289864,870.259399999995 -1.5909801054417,39.7515799661405,867.637199999997 -1.59117992938845,39.7514899444505,867.226599999995 -1.59226002146526,39.751079902397,867.940400000007 -1.5924398974228,39.7509898807443,869.1296 -1.59347003328836,39.7502299772223,877.219599999997 -1.59371009098004,39.7499999773681,880.3361 -1.59390002447551,39.7497299126578,884.894199999995 -1.59394009023549,39.7496300002848,885.844700000001 -1.593960039123,39.7495500369918,886.946899999995 -1.59400999533429,39.7494300079622,887.498500000002 -1.59405006109426,39.7493798847799,887.972800000003 -1.59416003195303,39.7492999211966,888.936799999996 -1.59437997277225,39.7492098992898,890.031300000002 -1.59538999176531,39.7486099231378,890.306400000001 -1.59570012254075,39.7483899817523,889.599799999996 -1.59604998310625,39.7481998798276,891.397200000007 -1.59637000433296,39.748080019044,892.501799999998 -1.5968600101676,39.7477998959684,893.321100000001 -1.59698003946261,39.7477100420101,894.218800000002 -1.5970400532118,39.7476500269546,894.366099999999 -1.59721003871806,39.7473900205092,895.302100000001 -1.59732000867853,39.7472599333451,895.899600000004 -1.597420089086,39.7471699115355,896.364400000006 -1.59768009566522,39.7470498831939,896.848599999998 -1.59805996355446,39.7469300217911,896.338799999998 -1.59824989704994,39.7468400002411,896.100200000001 -1.59843010807909,39.7467000226617,897.107499999998 -1.59843999853037,39.7467000226617,897.183199999999 -1.59851996206536,39.7466299495004,897.046000000002 -1.59923007670421,39.7461500017201,900.900699999998 -1.59946996730927,39.7460100241203,900.795100000003 -1.59972008343718,39.7459099440372,900.170299999998 -1.59980993742349,39.745899886014,900.083799999993 -1.60081006596527,39.7459298929291,899.374899999995 -1.60084007328902,39.7459200027497,899.172999999995 -1.60087997106403,39.7459200027497,899.321500000005 -1.60090997838781,39.7459099440372,899.3364 -1.60093998571155,39.7458899951396,899.349300000002 -1.60086002217653,39.7460599805324,899.395999999993 -1.60122010826492,39.7461699505425,898.1443 -1.60150006373162,39.7463099285082,896.765799999994 -1.60172989590044,39.746459964823,895.397400000002 -1.60234998946632,39.7469600289482,891.544699999999 -1.60378999964657,39.7479899969246,883.990000000005 -1.60423994061957,39.7483599745271,882.795299999998 -1.60535004002013,39.7491599430896,881.834400000007 -1.60565011235929,39.7493299280122,882.276899999997 -1.6058199289823,39.7494098915607,882.604200000002 -1.6063800079007,39.7495899347339,884.303700000004 -1.60898007459105,39.7500698827243,880.871799999994 -1.61031011481082,39.7500899996238,875.412700000001 -1.61057012139005,39.7501298970532,874.296900000001 -1.61223996463739,39.7505898958169,868.529500000004 -1.61235010258282,39.7506100125645,868.476500000004 -1.61346003399842,39.7509799899098,867.469800000006 -1.61390997497138,39.7511600331237,867.065900000001 -1.61435002459477,39.7513099014083,866.412299999996 -1.61507002968489,39.751459937885,864.547600000005 -1.61686995976517,39.7516699877128,857.285099999994 -1.6168800182014,39.7516798784481,857.219400000002 -1.61724010518809,39.7517098856084,855.694300000003 -1.6177899576853,39.7517199441647,853.262600000002 -1.61795994229326,39.7517098856084,852.532900000006 -1.62062991408241,39.7512498867262,841.902300000002 -1.62083996445035,39.7512299379933,841.523000000001 -1.62111002946578,39.7512399966198,841.006500000003 -1.62177991125799,39.7513699160382,840.192899999995 -1.62200002006216,39.7514299306158,840.097099999999 -1.62246001857306,39.7515000030389,839.690799999997 -1.62350993623951,39.7514899444505,838.893899999995 -1.62411008001955,39.7515300102776,838.1014 -1.62477007136048,39.7516299226577,836.922200000001 -1.62696998530417,39.7520500233986,835.661099999998 -1.62739008693838,39.7521599942072,835.252800000002 -1.62765009351757,39.7522500157122,834.714999999997 -1.62798000519556,39.752399884388,833.410799999998 -1.62834998263353,39.7525998763765,831.327600000004 -1.63064997608638,39.7540098802157,826.992199999993 -1.6309000922143,39.7541399670654,826.748999999996 -1.63262994921086,39.7551898844068,825.675099999993 -1.63313001438006,39.7553999352917,825.385500000004 -1.63408001872564,39.7557399049997,825.142300000007 -1.63431001798109,39.7558599340847,824.9084 -1.63473011961526,39.7561499476286,823.937000000005 -1.63589000724215,39.7570499961265,805.089500000002 -1.63608010872258,39.7572199816068,814.013099999996 -1.63637012262551,39.7574000243945,821.372099999993 -1.63660012188096,39.7574999372379,821.674700000003 -1.6367000343035,39.7575198862266,821.792700000005 -1.63690002623521,39.7575400023316,822.204599999997 -1.63703011306815,39.7575400023316,822.575599999996 -1.63711007660315,39.7575299439345,822.7739 -1.63727989412445,39.757489878835,823.143500000006 -1.63750000292862,39.7573700176412,824.058900000004 -1.63767987888619,39.7572499884255,824.595499999996 -1.63789998769037,39.7570598867799,828.138000000006 -1.63869006586421,39.7562500273388,829.467900000003 -1.63892006511966,39.7560399769746,830.573399999994 -1.63936011474305,39.7555699200102,833.650399999999 -1.63956010757309,39.7553999352917,834.567200000005 -1.63969002642104,39.7553199717903,835.196100000001 -1.63989990970235,39.7552299501537,836.006800000003 -1.64192011567343,39.7546299732551,844.933699999994 -1.6429400260161,39.7544100324427,849.109100000001 -1.64491999914057,39.7543599087401,854.407399999996 -1.64518000571976,39.7543899154236,855.895900000003 -1.64540011452393,39.7544698793141,857.047999999995 -1.64551997583398,39.7545298932628,857.799799999993 -1.6457399166532,39.7547399440885,859.097699999998 -1.64580009838735,39.7548400237757,859.599400000006 -1.64590001080989,39.755089972356,860.712199999994 -1.64593990858491,39.7552799060958,861.247300000003 -1.64599003278115,39.7560200282478,863.714500000002 -1.64603009854113,39.7561799549135,864.447400000005 -1.64608005475238,39.7563098746833,865.150500000003 -1.64626998824785,39.7565299834595,866.788100000005 -1.64640996643037,39.7566399540218,867.677299999996 -1.64648003861579,39.7566800189252,868.110100000005 -1.6466800305475,39.7567599822288,869.186199999996 -1.64686007448999,39.7568099384423,870.103099999993 -1.64724010946589,39.7568598946195,872.017999999996 -1.64868012054444,39.7569199092482,878.508900000001 -1.65066009366891,39.7568800116079,888.527100000007 -1.65089009292436,39.7568598946195,889.914699999994 -1.65148990253115,39.7568500039374,893.336200000005 -1.65172996022283,39.7568699531145,894.637499999997 -1.65191000326703,39.7568999600856,895.710099999997 -1.65206003898745,39.7569499161976,896.548999999999 -1.65230009667916,39.7570598867799,897.989000000001 -1.65318002883932,39.7575400023316,903.606100000005 -1.65336996323308,39.7576099076326,904.594800000006 -1.65365997713602,39.7576799799843,906.232300000003 -1.65387002750399,39.7576799799843,907.127600000007 -1.65416004140693,39.7576499733529,908.403999999995 -1.65480997431163,39.7575400023316,911.167199999996 -1.65509009776329,39.7575099949487,912.256099999999 -1.6555599867255,39.7574999372379,914.378700000001 -1.65591001527595,39.7575498929146,915.926399999997 -1.65621008761512,39.7576499733529,917.179499999998 -1.65641007954683,39.7577399945888,918.280599999998 -1.65679011452273,39.7579599358172,920.159100000004 -1.65782997375291,39.7586398759059,925.193899999998 -1.65793994461168,39.7586998903646,925.195999999996 -1.65867000813804,39.7591800055327,927.224900000001 -1.65894007315346,39.7594198954347,927.642999999996 -1.65911005776143,39.7596700117757,928.8845 -1.65917996286019,39.7598198801901,929.402700000006 -1.65925003594394,39.7600299307658,930.232999999993 -1.65962001338191,39.7619899548236,941.894499999995 -1.65965002070565,39.7622199540035,943.181400000001 -1.65969997601861,39.7624600121652,944.037800000006 -1.65980005642611,39.7627699750776,944.814400000003 -1.6599499250599,39.763010032703,945.134600000005 -1.66007012144153,39.7631399520178,945.316399999996 -1.66015997542784,39.763199966698,945.258600000001 -1.6592200286202,39.7637399286689,948.411999999997 -1.65897008047721,39.7638498994573,949.267000000007 -1.65899991981599,39.7638799061493,949.365099999995 -1.65902003668849,39.7638899649999,949.3315 -1.65902992713977,39.7639000231586,949.333599999998 -1.65905004401224,39.7639000231586,949.320900000006 -1.65906999289975,39.7639099135188,949.329199999993 -1.65925992639522,39.7639099135188,948.846799999999 -1.65937006434062,39.7639499790265,948.674100000004 -1.65943996943942,39.7639600371764,948.458400000003 -1.65962001338191,39.7640099936913,948.102400000003 -1.65969997601861,39.7640198840355,947.996799999994 -1.66021009872575,39.7641799785649,946.799400000004 -1.66058996661499,39.7642198761192,946.190600000002 -1.66101995870048,39.7642198761192,945.188500000004 -1.66130997260341,39.7642798905487,944.823600000003 -1.66274009233235,39.7643499637093,941.452799999999 -1.6627600412199,39.7643600218008,941.397299999997 -1.66288007051487,39.764379970874,941.335500000001 -1.66294997561367,39.764379970874,941.122399999993 -1.66337996680082,39.7644899413306,940.086899999995 -1.66376000267502,39.7646299193578,939.353700000007 -1.66398011147919,39.7646699844466,939.041700000002 -1.66474990569394,39.7646500354575,941.080499999996 -1.66599009192741,39.7645499555247,943.468099999998 -1.66602009925119,39.7647900131592,946.024799999999 -1.66608011389867,39.7647900131592,945.960900000005 -1.66622009118289,39.7648200208226,946.093800000002 -1.66641002557666,39.7649098745585,946.950500000006 -1.6665899006359,39.7650599104117,948.154599999994 -1.66670003947963,39.7651799398257,948.904999999999 -1.66740009568221,39.7660699298547,948.540699999998 -1.66754007296643,39.7662199659421,948.544899999994 -1.6676099780652,39.7662799806998,948.593900000007 -1.66763009493766,39.7662900385094,948.594899999996 -1.66763998538894,39.7662999292167,948.662800000006 -1.66765993427645,39.7662999292167,948.621299999999 -1.66767988316399,39.7663099877139,948.695200000002 -1.66775012423267,39.7663099877139,948.718200000003 -1.66842000602488,39.7662099081224,949.771200000003 -1.66844012199905,39.7662000174021,949.847899999993 -1.66992003085262,39.765929951993,951.438800000004 -1.67033996450183,39.7657899745372,952.4519 -1.67081991190028,39.7656699454963,952.786699999997 -1.67130002728364,39.7656199894952,953.873200000002 -1.67134998349493,39.7656298802988,953.845400000006 -1.67137999081867,39.7656298802988,953.862299999993 -1.67159004118661,39.7656800040854,954.221399999995 -1.6721199456946,39.7658699376207,955.3125 -1.67253987844552,39.7661099954866,956.923599999995 -1.67283006033345,39.7662499729823,958.550199999998 -1.67401006483277,39.7666900234085,966.059999999998 -1.67446000490747,39.7668199426848,969.176399999997 -1.67452001955496,39.7668300011059,969.342499999999 -1.67458003420244,39.7668499501539,969.704500000007 -1.67468011371164,39.7668499501539,970.100600000005 -1.6749300618546,39.7668098842622,970.528000000006 -1.67564000940679,39.7667500377565,970.392900000006 -1.6758400013385,39.7667500377565,970.623300000007 -1.6765201095519,39.7668698991961,972.634999999995 -1.67663996996362,39.7669099643625,972.821200000006 -1.67703006427408,39.7670900073649,974.555800000002 -1.67798995996923,39.767429977366,977.420800000007 -1.67847007535259,39.7675598973174,978.715400000001 -1.67899997896229,39.7676100210799,978.163 -1.67924992710528,39.7676100210799,978.013600000006 -1.67941991261154,39.7675800139421,977.765899999999 -1.67977010824862,39.7675500067911,976.878400000001 -1.67990002799491,39.7675199996271,976.251399999994 -1.68036002650584,39.7674599845693,975.359500000006 -1.68115010467968,39.767440035698,974.579100000003 -1.68128002442597,39.7674199190325,974.588099999994 -1.68169006672561,39.7675298901577,975.782200000001 -1.68204009527607,39.7675999627728,976.579400000002 -1.68218007345858,39.7676100210799,977.001099999994 -1.68313007780416,39.7675999627728,975.997000000003 -1.68333996108544,39.7676299699019,977.079800000007 -1.68342998215837,39.767659977018,976.808199999999 -1.68393004642928,39.7679099253331,976.082599999994 -1.68399006107676,39.767919983595,975.953299999994 -1.68405007572428,39.7679399323272,976.151199999993 -1.68417010412096,39.7679399323272,976.330499999996 -1.68424000921976,39.7679298740682,976.631099999999 -1.68430002386724,39.7679298740682,976.926200000002 -1.68445006048599,39.7679000348571,977.088000000003 -1.68473990640401,39.7679000348571,978.434800000003 -1.68496990565945,39.767919983595,980.575700000001 -1.68496001520818,39.7678599695764,980.118700000006 -1.68496990565945,39.7678400201305,980.039399999994 -1.68496990565945,39.7678199035819,979.8986 -1.68500997141943,39.767759889476,979.036699999997 -1.68512999981611,39.7676998746273,979.206200000001 -1.68518012401235,39.7676899841211,979.233800000002 -1.68549997725411,39.7676700353165,977.861499999999 -1.68589996201582,39.7676199115977,975.8272 -1.68635996052671,39.7674998829849,972.540800000002 -1.68706001672933,39.767429977366,967.460800000001 -1.68721994379935,39.7673999701496,966.341400000005 -1.68762998699733,39.7673699629202,964.526599999997</coordinates>
</LineString>
</Placemark>
</Folder>
</Document></kml>
