<?xml version="1.0" encoding="UTF-8"?>

<kml xmlns:xsd="http://www.w3.org/2001/XMLSchema" xmlns:gx="http://www.google.com/kml/ext/2.2" xmlns:atom="http://www.w3.org/2005/Atom" xmlns="http://www.opengis.net/kml/2.2">
<Document>
<name>ES05a_10a_lugo-san_roman_da_retorta</name>
<visibility>1</visibility>
<Schema name="ES05a_10a_lugo-san_roman_da_retorta" id="kml_schema_ft_ES05a_10a_lugo-san_roman_da_retorta">
<SimpleField type="xsd:string" name="id">
<displayName>id</displayName>
</SimpleField>
<SimpleField type="xsd:string" name="nombre">
<displayName>nombre</displayName>
</SimpleField>
<SimpleField type="xsd:double" name="longitud">
<displayName>longitud</displayName>
</SimpleField>
<SimpleField type="xsd:string" name="_formato">
<displayName>_formato</displayName>
</SimpleField>
</Schema>
<Folder id="kml_ft_ES05a_10a_lugo-san_roman_da_retorta">
<name>ES05a_10a_lugo-san_roman_da_retorta</name>
<Placemark id="kml_1">
<name>&lt;img height='20' src='https://nco.ign.es/iconos/icono_todos_caminos_azul.png' /&gt;&lt;img height='20' src='https://nco.ign.es/iconos/Camino Santiago_20.png' /&gt;&lt;img height='20' src='https://nco.ign.es/iconos/icono_todos_caminos_azul.png' /&gt;  Camino de Santiago </name>
<visibility>1</visibility>
<description><![CDATA[<!DOCTYPE html>
<html>
<head>
<style>
#nco {
  border-collapse: collapse;
  overflow:hidden;
}
#nco th, #nco td {
  padding: 4px;
  text-align: left;
}
#nco th {
  color: #364B5F;
  padding-right: 5px;
}
#nco td {
  color: rgb(51, 51, 51);
  font-size: 12px;
  padding-right: 5px;
}
</style>
</head>
<body>
<table id="nco">
<tr>
<td>Caminos del Norte</td>
</tr>
<tr>
<th><b>Camino: </b></th>
<td>ES05a Camino Primitivo</td>
</tr>
<tr>
<th><b>Etapa: </b></th>
<td>10a Lugo-San Román da Retorta</td>
</tr>
<tr>
<th><b>Longitud: </b></th>
<td>18.88 km</td>
</tr>
</table>
</body>
</html>]]></description>
<Style>
<IconStyle>
<scale>0.8</scale>
</IconStyle>
<LabelStyle>
<color>ffffffff</color>
<scale>0.75</scale>
</LabelStyle>
<LineStyle>
<color>ffff0000</color>
<width>3.0</width>
<gx:labelVisibility>1</gx:labelVisibility>
</LineStyle>
<PolyStyle>
<color>66ff0000</color>
</PolyStyle>
</Style>
<ExtendedData>
<SchemaData schemaUrl="#kml_schema_ft_ES05a_10a_lugo-san_roman_da_retorta">
<SimpleData name="id">ES05a_10a</SimpleData>
<SimpleData name="_formato">kml</SimpleData>
</SchemaData>
</ExtendedData>
<LineString>
<extrude>0</extrude>
<tessellate>1</tessellate>
<coordinates>-7.55369016879126,43.0104307273759,460.101200000005 -7.55391011050881,43.01044078544,461.0 -7.55453942348447,43.0105071698037,462.619500000001 -7.55465056754298,43.0105184016885,463.0 -7.5551846626918,43.0104142989384,462.0 -7.55552697920554,43.0103319885246,461.0 -7.55593350190589,43.0101794374885,460.0 -7.55678024131629,43.0099293217313,457.0 -7.55715357126689,43.0098589140053,456.032699999996 -7.55731802404933,43.0097581635193,455.429600000003 -7.55763636901972,43.0096911083258,453.0 -7.55809452418768,43.0096212028425,452.882700000002 -7.5582564625856,43.009443171439,452.0 -7.5586386768744,43.0093251540123,450.773799999995 -7.55872953697379,43.0094570855804,452.020799999998 -7.5589635597834,43.0096542276426,453.109599999996 -7.55917226896664,43.009988665558,452.394499999995 -7.55925072333198,43.010039962562,452.0 -7.55988121040571,43.0103170682476,448.0 -7.56021430750968,43.0104483289869,447.0 -7.56034187995814,43.0103169007443,445.222299999994 -7.56044195946731,43.010225370277,443.277799999996 -7.56052980212568,43.0100711432791,441.362899999993 -7.56063809582981,43.0100069379693,441.0 -7.56085820463398,43.0101507713541,441.989799999996 -7.56090581444571,43.0101113764177,441.156900000002 -7.5608630663163,43.0100498531859,440.976200000005 -7.5612761269553,43.009867463308,438.0 -7.56165113316225,43.009706195603,434.641000000003 -7.56205514057979,43.0095566620516,430.981599999999 -7.56221557070639,43.009488433442,429.480500000005 -7.56229117471734,43.009455241047,428.981599999999 -7.56235219547795,43.0094109847114,428.127900000007 -7.56239846320665,43.0093558319173,428.010299999994 -7.56246099223865,43.0092649720134,428.140100000004 -7.56256291598909,43.009200431505,428.043799999999 -7.56267858665834,43.0091618748053,428.189700000003 -7.56276860862961,43.0091518165318,428.986999999994 -7.56285712143118,43.0091404168905,428.637600000002 -7.56300699006497,43.0091005194429,428.130999999994 -7.5631240010206,43.0090747030472,427.178799999994 -7.56317395723188,43.0089947392201,426.0 -7.5632482209564,43.0088763872308,424.800600000002 -7.56328828671641,43.0087920653228,422.994300000006 -7.56335819181517,43.0087092521825,422.0 -7.56340093904628,43.0086779032663,421.458799999993 -7.5634938104736,43.0086336470276,420.189799999993 -7.56362523849128,43.0085764827814,419.472999999998 -7.5637906973868,43.0085065773433,417.066900000005 -7.56392346658918,43.0084465627077,416.072199999995 -7.56414340830672,43.0083394426025,414.667199999996 -7.56420342295421,43.0083047413502,413.336500000005 -7.56430048502236,43.0082743985949,412.361699999994 -7.56449461005692,43.0082229339211,410.689499999993 -7.56464883641817,43.0081277151284,408.412500000006 -7.56505418591878,43.0078021622014,404.0 -7.56496399596256,43.0075565726957,402.036099999998 -7.56527513285111,43.0074660477801,400.890199999994 -7.56531318638485,43.0074367116484,399.913 -7.56536079529829,43.0072539855566,395.634999999995 -7.56533414138548,43.0070541615068,392.389200000005 -7.56527513285111,43.0069817416496,392.527199999997 -7.56529223138423,43.0068218150108,391.020799999998 -7.56533598562675,43.0065153727507,389.767200000002 -7.56530547524647,43.0063287910911,389.958499999993 -7.56521612431674,43.006127122683,389.282399999996 -7.56508653964204,43.0058357678128,388.946400000001 -7.56490196998713,43.0055370368987,389.651400000002 -7.56470968919385,43.0053657107554,389.109599999996 -7.56459938326346,43.0052228830936,389.0 -7.56455931840178,43.0050877668227,389.0 -7.5645172413139,43.0049358866298,387.390400000004 -7.56450299133854,43.0048589406262,386.668399999995 -7.56445001768624,43.0045726151658,382.209000000003 -7.56433870654106,43.0043960919148,379.740399999995 -7.5641760971016,43.0042343217377,378.361000000004 -7.56394123616383,43.0039826964227,375.270000000004 -7.56389966213246,43.0036978798265,373.924499999994 -7.56383914532673,43.0033465102402,370.0 -7.56374962641204,43.0029488726287,367.0 -7.56362607661944,43.0025964975539,367.0 -7.56367888318508,43.0025094932008,367.879100000006 -7.56369631768812,43.0024268476559,365.306100000002 -7.56348224376601,43.0015006475914,364.681700000001 -7.56346648551929,43.0014231986442,369.150699999998 -7.5636349618559,43.0013839715508,369.297200000001 -7.56370972863699,43.001353461134,368.998000000007 -7.56381936352584,43.0013289863041,369.354999999996 -7.56397191452907,43.001339547128,368.985000000001 -7.56410786915745,43.0013551377259,368.300900000002 -7.56423862613356,43.0013687166728,368.200500000006 -7.56439788306039,43.0013542994299,369.211800000005 -7.56451874958526,43.0013207721826,368.979000000007 -7.56473835533285,43.0012419821269,369.471999999994 -7.56600720770537,43.0008435063878,373.295299999998 -7.56615020332893,43.0008118229977,373.079100000003 -7.56688395533784,43.0006958170813,371.699399999998 -7.56834726781653,43.0004710143031,371.393299999996 -7.56862940259612,43.0004413423982,371.801800000001 -7.56954018020818,43.0003979244472,373.0 -7.57095018396298,43.0003491415469,371.343299999993 -7.57186297290297,43.0003067293716,369.917799999996 -7.57206380386113,43.0002733690834,370.960600000006 -7.57268473465687,43.0000705271302,372.434099999999 -7.57280174651086,43.0000515842657,372.750899999999 -7.57288288324563,43.0000737121956,373.026299999998 -7.57293082812895,43.0001037193404,373.0 -7.57293049215904,43.000171445269,373.803599999999 -7.5729412216368,43.0002230776494,374.0 -7.57298178955502,43.0002475529198,374.542499999996 -7.5730372775918,43.0002505704452,375.443599999999 -7.57310399816292,43.0002317951671,376.554199999999 -7.57319301402104,43.0001751335792,378.099700000006 -7.57325990167878,43.0001481433428,379.1584 -7.57341898972235,43.0001243388143,380.894899999999 -7.57364848592123,43.0001060667481,382.124299999996 -7.57404813561135,43.0001100894676,385.063200000004 -7.57440587530022,43.0001411030951,387.963699999993 -7.57467459913095,43.0001350680334,391.050300000003 -7.57514800859072,43.0000411907517,396.320399999997 -7.57515722889879,43.0000383407474,396.571400000001 -7.57520567594039,43.0000209063128,397.784499999994 -7.57523015143861,42.9999914017221,397.585699999996 -7.57524657982852,42.9999352431645,397.713000000003 -7.57531665291228,42.9996695367208,400.313800000004 -7.57534129549715,42.9996075109449,400.790800000002 -7.57541824159113,42.9995486701991,402.0 -7.57550306591016,42.9995075983909,402.549700000003 -7.57575821170536,42.9994858053229,404.818299999999 -7.57615216068667,42.9994658564234,409.184099999999 -7.57650453563664,42.999467030468,413.0 -7.57690468838334,42.9994824526941,417.854699999996 -7.57705304784744,42.9994594862294,419.106799999994 -7.57723862271717,42.9994093629763,421.069499999998 -7.57738798829438,42.9993247054893,423.8171 -7.57750835266101,42.9992212729558,425.010800000004 -7.5784323741353,42.9984855095688,435.293099999995 -7.57863303621021,42.9983317852685,437.0 -7.57919764173931,42.9979670050274,440.366500000004 -7.5796148930191,42.9977328140987,443.1973 -7.57999040228259,42.9975710434587,445.0 -7.58033908875002,42.9973740689204,445.517800000001 -7.58062809743817,42.9972210152809,445.700700000001 -7.5810041088599,42.9969926926254,446.0 -7.58171020084291,42.9966146687198,447.0 -7.58212342856853,42.9963684083445,448.0 -7.5824538433031,42.996167242717,447.026199999993 -7.58268166324565,42.9960515723144,446.0 -7.58273027827221,42.9960168713483,445.368400000007 -7.58285785072064,42.9959833438166,444.247499999998 -7.58291367472737,42.9959950783562,444.048800000004 -7.58295860127134,42.9959979278911,444.0 -7.58309338269995,42.9960287734237,443.021999999997 -7.583341319515,42.9960747062809,441.626600000003 -7.58378891319015,42.996087446713,438.0 -7.58414162321171,42.9961394143241,435.2215 -7.58472651269994,42.9962212220761,432.050900000002 -7.58507469700912,42.9962835830683,431.220000000001 -7.58553268419212,42.9963400774183,430.146999999997 -7.58603006609356,42.9963407482412,429.0 -7.58661478759683,42.9963397423354,430.0 -7.58673766634793,42.9963650555456,430.128700000001 -7.58723555130595,42.9963093995834,431.771399999998 -7.58760267838953,42.9961541665605,432.145199999999 -7.5880382023005,42.9959833438166,437.0 -7.58842494320001,42.9959040508588,439.628200000006 -7.58860414811604,42.9958752170904,440.585399999996 -7.58888594782402,42.9957571998784,443.0 -7.5890643146119,42.9956235923626,444.395099999994 -7.58921250698937,42.9954313113537,446.777100000007 -7.59047649767956,42.9937586185942,457.0 -7.59060105268698,42.9936293695741,457.0 -7.59091990071391,42.9934749754122,457.0 -7.59119449144175,42.9933591376489,457.862800000003 -7.59413603651772,42.9923642056789,467.536200000002 -7.59440710764626,42.9922800509993,468.641799999998 -7.59461162618868,42.9922200369387,469.0 -7.59615775165849,42.9918835869212,474.373900000006 -7.5963843984013,42.9918398337295,475.0 -7.59656662165669,42.9918322898687,475.0 -7.59716810662146,42.9918705111673,475.212400000004 -7.59735016189189,42.9918782225771,475.426999999996 -7.59754210671527,42.9918589440509,475.683600000004 -7.59794343266171,42.9919325375252,475.0 -7.59802926309385,42.9918353071503,475.152600000001 -7.59798048098067,42.9917357302083,475.536900000006 -7.59938579013977,42.9912324806491,476.951300000001 -7.59968686859209,42.9911493323818,476.969400000002 -7.59992592017066,42.9910874741035,477.0 -7.60116543626096,42.9908834585013,481.557100000005 -7.60145762947678,42.9908497632409,483.0 -7.60174194356927,42.9908383634888,484.0 -7.60227402649182,42.9909099455387,485.0 -7.60274743684992,42.9909751564318,485.0 -7.60402333021765,42.9910065045253,487.0 -7.60428383985341,42.9909889026003,488.0 -7.6044908727803,42.9909369352334,488.0 -7.60471466916873,42.9908901640399,488.373000000007 -7.6073754206498,42.990070246358,492.0 -7.60929001528619,42.9894752989007,495.0 -7.60952236094116,42.9893904739664,495.0 -7.60972403002751,42.9892853648749,495.0 -7.61011311822483,42.989052683082,496.0 -7.61150417830691,42.9881925321907,498.0 -7.61170299703887,42.9880359585226,498.0 -7.61179838285067,42.9879295079139,498.0 -7.61225452669069,42.9871171339483,500.0 -7.61235125368722,42.9868717121217,500.648000000001 -7.61250933651597,42.9862066918372,502.210300000006 -7.61257773244508,42.9859131574081,502.0 -7.61276297314151,42.9854633843836,502.2552 -7.612776719162,42.9854400827944,502.507899999997 -7.61279515887982,42.9854040405235,502.498900000006 -7.61279515887982,42.9854021965823,502.465200000006 -7.61280806767044,42.9853785598272,502.122099999993 -7.61282214876254,42.9853445290346,502.365600000005 -7.61286623807669,42.98527378559,502.129300000001 -7.61291166767723,42.9852058927562,502.0 -7.61300588028929,42.9850989391303,502.659899999999 -7.61311953873228,42.9849896393046,502.6495 -7.61334031857799,42.9847956821537,503.0 -7.61361993807477,42.9846473227561,503.744099999996 -7.61441236354647,42.9842959533187,506.824500000002 -7.61548759394096,42.9838951307241,513.797500000001 -7.61656081300754,42.9834559186611,518.0 -7.61664496718333,42.9834011013782,518.0 -7.61695224760438,42.9832148549979,519.0 -7.61719431752229,42.9830592872603,519.467799999999 -7.61730613172404,42.9829479755013,520.0 -7.61732457234019,42.9828338140529,520.868100000007 -7.61728283032387,42.982450928688,521.655599999998 -7.61728366845202,42.9823775032698,521.759099999996 -7.61745298291679,42.9818839763002,523.0 -7.61769471686479,42.9815285842202,524.0 -7.61791834616658,42.9812739414448,525.0 -7.61866752045229,42.980709336867,527.0 -7.61880733064985,42.9805963489527,527.789499999999 -7.61932985819275,42.9800872320689,531.0 -7.61950554350949,42.979905847481,532.541299999997 -7.61982053506892,42.9797846450333,534.0 -7.62132726582022,42.9792919568778,539.0 -7.62164326349277,42.9791246539425,538.0 -7.62196999064308,42.9788830876168,537.528099999996 -7.6224920151294,42.9784036430496,537.0 -7.6232111829897,42.9778033308034,535.996299999999 -7.62398449680371,42.9771192000511,534.508900000001 -7.62542517892375,42.9758481682429,534.0 -7.62559818097276,42.9757190866219,535.0 -7.62581242287979,42.9755873231614,535.0 -7.62607980552582,42.97548858418,535.0 -7.62678774085178,42.9753149113446,534.986699999994 -7.62705244112834,42.9752535557028,535.0 -7.62740146356568,42.9751615227825,535.0 -7.62817226389351,42.9747156054378,537.009099999996 -7.62845506881634,42.974545285066,536.752800000002 -7.62902805562703,42.9740618170873,537.892999999996 -7.62951370373425,42.9736484212805,537.564899999998 -7.62994939473189,42.9732906818049,538.046700000006 -7.63036614295513,42.973029501839,539.517000000007 -7.63129854571101,42.9724751224574,542.505099999995 -7.63169467490354,42.9722747948813,540.887100000007 -7.63203430904785,42.9721172151221,539.018899999995 -7.63252129744148,42.9719024707729,536.0 -7.63384580583572,42.9714476688518,533.362800000003 -7.63410162177412,42.9713583179046,533.113899999997 -7.63439431804653,42.9711868241667,533.0 -7.63578454000044,42.9703662355021,532.591 -7.63595519564991,42.9702874458572,531.915200000003 -7.6361426156592,42.9702512362932,531.022599999997 -7.63640916017707,42.970199436098,530.0 -7.63673689254216,42.9699964265276,529.9614 -7.63708742325086,42.9698324762113,529.0 -7.63748137313051,42.9696777462081,528.0 -7.63807548202851,42.9694916679412,527.406600000002 -7.63919698105,42.969166449973,528.373000000007 -7.64012737157965,42.9689525439186,525.442500000005 -7.64041721839599,42.9688880031358,524.457399999999 -7.64076221727917,42.9688685576711,523.577999999994 -7.64123545965231,42.9688412322572,522.242100000003 -7.64170199610185,42.968790270272,523.0 -7.64243658623891,42.9686647095674,529.516600000003 -7.64255845887686,42.9686496220728,530.0 -7.64314468954983,42.9686310139604,533.840599999996 -7.64331333297306,42.9686192794553,534.627600000007 -7.64348784419173,42.9685669763489,535.0 -7.64362899557402,42.9685267436149,535.582899999994 -7.64374516929982,42.9685150084327,535.738700000002 -7.643902749072,42.9685193671398,536.0 -7.6440490972082,42.9685522240647,535.950299999997 -7.64421120269282,42.9686120712656,535.902600000001 -7.64436509488074,42.9686673914378,535.0 -7.64450574320646,42.9687178506745,535.0 -7.64493003458317,42.9688174274347,534.0 -7.64502827074935,42.9688340240935,534.0 -7.64531241685688,42.9687981495642,534.020399999994 -7.6456706596023,42.9687865820503,533.0 -7.64598313677725,42.9688249714906,532.910699999993 -7.64656819425044,42.9689183456207,532.0 -7.64705669091542,42.9689989794806,531.0 -7.64745432927761,42.9690958745914,530.0 -7.64788079996718,42.9693210123327,527.208400000003 -7.64813745403374,42.9694769158788,524.0 -7.64834851051479,42.9695786723693,521.949800000002 -7.64869786802375,42.9695593940802,520.005499999999 -7.64928678016781,42.9694732276983,519.277600000001 -7.65003193179769,42.9693808594429,523.0 -7.65192473330529,42.9691744968326,531.674599999998 -7.65903325755706,42.9684643820694,530.0 -7.6593004722181,42.9684412482284,529.0 -7.65958093074138,42.9683701691616,528.658100000001 -7.66113040962215,42.9677693547102,525.0 -7.66156190997897,42.9676064100923,525.0 -7.66184437983018,42.9674429634967,525.174599999998 -7.66415527074576,42.9657481425435,536.0 -7.66436314180081,42.9656552710779,537.0 -7.66493126782753,42.9654207453686,539.044699999999 -7.66514735307754,42.96536006022,539.0 -7.66565445834363,42.9651293901103,541.121299999999 -7.66986636406344,42.9635095035456,558.200500000006 -7.6718351055519,42.9627333397597,567.139500000005 -7.67198229181626,42.9626527055751,568.0 -7.67258729817699,42.9624927786158,571.389599999995 -7.67478654197745,42.9621372185874,579.0 -7.67685854840109,42.9619992524573,577.469599999997 -7.67702836502409,42.9620684870134,575.777000000002 -7.67782330488026,42.9621925393234,571.476500000004 -7.67874732635456,42.9625670422795,568.137700000007 -7.67958199600079,42.962885722625,564.990600000005 -7.68045505515071,42.963082361978,561.147599999997 -7.68130933861287,42.9633851159989,558.364400000006 -7.68198944592794,42.9635473900998,558.407999999996 -7.68245615036244,42.9635393431615,556.0 -7.68308915182065,42.963815107806,558.081200000001 -7.68356859706084,42.964187935112,560.0 -7.68382826856845,42.9643056171996,561.0 -7.68456906067425,42.9643892685038,564.0 -7.68465707041925,42.9643072934873,564.051399999997 -7.68487952652127,42.9643669725881,564.0 -7.6850292271701,42.96436915176,564.0 -7.68557572715467,42.964388095104,562.028399999996 -7.68607998296467,42.9643738453607,558.584300000002 -7.68620906368446,42.9648093691927,555.898199999996 -7.68628869214788,42.9648829621806,555.0 -7.68659815188181,42.9650293104157,552.1253 -7.6869329252421,42.96508127799,548.607499999998 -7.6869396302674,42.9652341638346,547.859200000006 -7.68702629972599,42.9659095782055,540.813099999999 -7.68707893830671,42.9661184549521,538.891000000003 -7.68776491251889,42.9673318193533,529.075400000002 -7.68810169810544,42.9672414626182,528.0 -7.68830001378083,42.9671563020019,526.051600000006 -7.68867401387463,42.9669222796215,523.226599999995 -7.68890501924323,42.9666433296181,520.544399999999 -7.68942687664289,42.966292128121,517.0 -7.68994219610394,42.9661218074287,517.970000000001 -7.69136024606874,42.9657109265297,523.803100000005 -7.69192988036683,42.9656096730899,525.491099999999 -7.69325103624844,42.9654199072399,526.150399999999 -7.69472625140464,42.9650153967319,532.081699999995 -7.69531700778998,42.9641235622181,537.892600000006 -7.69446440058417,42.9637517409611,544.123800000001 -7.69556427356354,42.9629977044173,548.239000000001 -7.69696941563598,42.9627784343513,549.0 -7.69785856810421,42.9627499354305,554.0 -7.69861243698562,42.9626563935071,558.043999999994 -7.69882734903585,42.9626325889207,558.368700000006 -7.69949220116078,42.9623147474072,560.0 -7.69975371690966,42.9622275755885,560.5193 -7.70045042059964,42.962101344097,560.0 -7.70115785286902,42.9619752799815,560.840200000006 -7.70211892176394,42.9618503897134,565.0 -7.70388448589473,42.9617260020992,570.8508 -7.70531846209117,42.9615367390114,569.0 -7.70592497672323,42.9614618048728,566.301800000001 -7.70607685668496,42.9614294503575,565.945399999997 -7.70623745389819,42.9614297856307,565.310899999997 -7.7064781826314,42.9615023728986,563.478000000003 -7.7067992090729,42.9616014472548,564.0 -7.7071470583105,42.9616415129378,565.0 -7.70782548936925,42.9616626350747,568.0 -7.70833427089166,42.9616767164952,569.0 -7.70860584417848,42.9617102443315,568.911999999997 -7.70898940055027,42.9618027805651,567.582800000004 -7.70929265741715,42.9618689979048,566.773100000006 -7.70957311594043,42.9619529845056,565.633600000001 -7.7097146023943,42.9619920441493,564.089800000002 -7.70987536759249,42.9619893619879,563.0 -7.71028708704678,42.961854245329,561.172999999995 -7.71042454994649,42.9618436842944,561.0 -7.71057793907791,42.9619045372601,560.989100000006 -7.71088991319629,42.9620099811003,562.0 -7.71158527570153,42.9622408187078,566.985799999995 -7.71185500564538,42.9623455927499,569.0 -7.71210042717763,42.9623973929852,570.173599999995 -7.71216630962056,42.9624669623607,571.161699999997 -7.71221643291847,42.9626052640236,571.806899999996 -7.71238105368586,42.9628459923604,572.192299999995 -7.71265413614234,42.9631405322648,573.570999999996 -7.71314464503356,42.9632364216105,575.0 -7.71349417052744,42.9631329888265,576.0 -7.71386196865254,42.9628275520974,577.0 -7.71443847596086,42.962258923878,578.0 -7.7147242983247,42.9622498716222,579.053199999995 -7.71503912279747,42.9622629471023,580.0 -7.71512512121457,42.9622579180719,580.0 -7.71556030915567,42.9622766931169,581.0 -7.71581780135039,42.9622684790354,582.0 -7.71654216596456,42.9622175175214,583.319499999998 -7.71700400871676,42.9621776191907,583.830799999996 -7.71748177680231,42.9621144196086,583.0 -7.71819256248266,42.9620069636696,582.531300000002 -7.7183637211887,42.9619469496386,583.0 -7.71869312981011,42.9618177001313,583.0 -7.71890435337779,42.9617662353368,583.225699999995 -7.71934105048855,42.9616928102008,584.0 -7.71974606401924,42.96164268639,584.197700000004 -7.72011319200115,42.9615969210787,584.795700000002 -7.7209165131389,42.9616079850641,584.893899999995 -7.72112522232214,42.9615944065363,585.0 -7.72131498873095,42.9615763018279,584.106400000004 -7.72218519842478,42.9614012873999,582.349000000002 -7.72234981919218,42.961364407317,582.306400000001 -7.72256489832907,42.9613463018835,582.0 -7.72270420547005,42.9613372494935,582.0 -7.72301400117391,42.9613565283874,581.256500000003 -7.72315951028362,42.961356863661,581.0 -7.72333050190299,42.961319982894,580.0 -7.7234887518184,42.9612646626882,580.0 -7.7236473377037,42.9611674324577,579.893400000001 -7.72386610532317,42.9609562084051,578.683799999999 -7.72400557955082,42.9608728923109,578.262700000007 -7.72418277313892,42.9608267918078,578.247700000007 -7.7256697229877,42.9606767560435,582.153699999995 -7.7260115373432,42.960607688875,583.649900000004 -7.72638520236538,42.960487827636,586.0 -7.72717041885693,42.9602526313903,590.802200000006 -7.72770266976444,42.9600886814002,594.153999999995 -7.72828001520092,42.9599766989149,596.0 -7.72894218585474,42.9598420860181,597.0 -7.7327321465974,42.9584121329557,581.446599999996 -7.73318074638566,42.9582605884129,578.0 -7.7346698755473,42.9576979946877,571.0 -7.73565759925333,42.9573322087066,568.0 -7.73621465983238,42.957121152285,565.502200000003 -7.73633049758826,42.9570535945642,565.108099999998 -7.73638464533867,42.9569744690065,565.0 -7.73654825999292,42.956471387234,565.0 -7.73663358736852,42.9563133047999,566.077999999994 -7.73680373996144,42.9561664539171,568.0 -7.73692745684066,42.9560140708465,569.0 -7.73705938791488,42.9556080514239,571.0</coordinates>
</LineString>
</Placemark>
</Folder>
</Document></kml>
