<?xml version="1.0" encoding="UTF-8"?>

<kml xmlns:xsd="http://www.w3.org/2001/XMLSchema" xmlns:gx="http://www.google.com/kml/ext/2.2" xmlns:atom="http://www.w3.org/2005/Atom" xmlns="http://www.opengis.net/kml/2.2">
<Document>
<name>ES05a_09a_o_cadavo_-lugo</name>
<visibility>1</visibility>
<Schema name="ES05a_09a_o_cadavo_-lugo" id="kml_schema_ft_ES05a_09a_o_cadavo_-lugo">
<SimpleField type="xsd:string" name="id">
<displayName>id</displayName>
</SimpleField>
<SimpleField type="xsd:string" name="nombre">
<displayName>nombre</displayName>
</SimpleField>
<SimpleField type="xsd:double" name="longitud">
<displayName>longitud</displayName>
</SimpleField>
<SimpleField type="xsd:string" name="_formato">
<displayName>_formato</displayName>
</SimpleField>
</Schema>
<Folder id="kml_ft_ES05a_09a_o_cadavo_-lugo">
<name>ES05a_09a_o_cadavo_-lugo</name>
<Placemark id="kml_1">
<name>&lt;img height='20' src='https://nco.ign.es/iconos/icono_todos_caminos_azul.png' /&gt;&lt;img height='20' src='https://nco.ign.es/iconos/Camino Santiago_20.png' /&gt;&lt;img height='20' src='https://nco.ign.es/iconos/icono_todos_caminos_azul.png' /&gt;  Camino de Santiago </name>
<visibility>1</visibility>
<description><![CDATA[<!DOCTYPE html>
<html>
<head>
<style>
#nco {
  border-collapse: collapse;
  overflow:hidden;
}
#nco th, #nco td {
  padding: 4px;
  text-align: left;
}
#nco th {
  color: #364B5F;
  padding-right: 5px;
}
#nco td {
  color: rgb(51, 51, 51);
  font-size: 12px;
  padding-right: 5px;
}
</style>
</head>
<body>
<table id="nco">
<tr>
<td>Caminos del Norte</td>
</tr>
<tr>
<th><b>Camino: </b></th>
<td>ES05a Camino Primitivo</td>
</tr>
<tr>
<th><b>Etapa: </b></th>
<td>09a O Cádavo -Lugo</td>
</tr>
<tr>
<th><b>Longitud: </b></th>
<td>31.18 km</td>
</tr>
</table>
</body>
</html>]]></description>
<Style>
<IconStyle>
<scale>0.8</scale>
</IconStyle>
<LabelStyle>
<color>ffffffff</color>
<scale>0.75</scale>
</LabelStyle>
<LineStyle>
<color>ffff0000</color>
<width>3.0</width>
<gx:labelVisibility>1</gx:labelVisibility>
</LineStyle>
<PolyStyle>
<color>66ff0000</color>
</PolyStyle>
</Style>
<ExtendedData>
<SchemaData schemaUrl="#kml_schema_ft_ES05a_09a_o_cadavo_-lugo">
<SimpleData name="id">ES05a_09a</SimpleData>
<SimpleData name="_formato">kml</SimpleData>
</SchemaData>
</ExtendedData>
<LineString>
<extrude>0</extrude>
<tessellate>1</tessellate>
<coordinates>-7.24494427483253,43.0171912351204,733.257299999997 -7.24496975554557,43.0171793325469,733.260800000004 -7.24514359572271,43.0170388521868,732.246700000003 -7.24555280079252,43.0169174819149,730.0 -7.24570753021031,43.0169342455539,729.0 -7.24581213633022,43.016948494939,728.0 -7.2459668666463,43.0169699527531,727.0 -7.24608572184324,43.0169722995164,726.302299999996 -7.24618094056841,43.0169360898626,725.174100000004 -7.24623475234887,43.0168636704911,724.515700000004 -7.24650917599008,43.0167161484335,720.627299999993 -7.24652577146663,43.0166692103288,720.0 -7.24636634835147,43.0165895821665,719.214500000002 -7.24642636210066,43.0165319143275,718.607300000003 -7.24658880355516,43.0165771770176,718.868900000001 -7.24676767339962,43.0165914258288,719.0 -7.24727913729146,43.0165506898783,718.0 -7.2474340346942,43.0165845529813,717.365699999995 -7.24752690612156,43.0166745744791,716.765499999994 -7.24756931917938,43.0166948586736,716.633900000001 -7.2477161694738,43.0163512008343,710.055300000007 -7.24778138087523,43.0162504504894,707.860000000001 -7.2478341874409,43.0162092111942,707.0 -7.24790342149817,43.0160415732757,704.635599999994 -7.24793996676055,43.0159076302309,702.8891 -7.24796444136047,43.0158191176312,701.940600000002 -7.24809620534803,43.0156813192335,699.950299999997 -7.2482257891244,43.0155770478933,698.894700000004 -7.24840013325641,43.015496246547,698.834900000002 -7.24869517592833,43.0153244174696,699.405299999999 -7.24880497880214,43.01521729688,700.564799999993 -7.24933421226864,43.0148424577475,698.624200000006 -7.24948709834345,43.0147584711308,698.177500000005 -7.24966479498813,43.0146803518548,697.989300000001 -7.24979739620554,43.0146565477027,698.082999999999 -7.2499305013778,43.0146327428845,698.0 -7.25017206734084,43.0145636758866,699.839500000002 -7.25037340045728,43.014444485345,701.0 -7.25074790450596,43.0142097916921,704.0 -7.25119214477017,43.0139209514372,707.619099999996 -7.25141711525667,43.0138139985207,709.031900000002 -7.25172372553448,43.0137000047536,710.257599999997 -7.25212555363917,43.0135660618562,712.268599999996 -7.25246367951211,43.0134524032753,712.6633 -7.25270675464485,43.0133870244376,713.724199999997 -7.25307639701123,43.013222739233,714.850300000006 -7.25346481416701,43.0129867048836,714.9908 -7.25457541662414,43.0123858896056,727.242899999997 -7.2547415456629,43.0123334194485,729.0 -7.25499702652971,43.012352529965,730.754000000001 -7.25531771789959,43.0124908310991,733.0 -7.25547529767181,43.0125218443882,733.0 -7.25558878812984,43.0125520195186,733.575100000002 -7.25578241010786,43.0125835352684,734.354399999997 -7.25594166703472,43.0125826971257,735.0 -7.25669620516096,43.01247457071,738.0 -7.25692452905843,43.0124272963386,739.017000000007 -7.2569687854592,43.0124276319906,739.209499999997 -7.257208507181,43.0124846284393,740.552100000001 -7.25751444731561,43.0125583896688,742.959099999993 -7.25768610817989,43.0125892347698,745.139500000005 -7.25778937311506,43.0125922523459,746.748200000002 -7.25790856428191,43.0125853790509,749.353300000002 -7.25802557523753,43.0125417929893,750.840200000006 -7.25821165406213,43.0124516038474,753.683199999999 -7.25849864962572,43.0123324131477,757.460300000006 -7.25879067575492,43.0122063495361,762.160799999998 -7.25903978576972,43.0121205188021,765.318499999994 -7.25925285357871,43.0121364442881,769.206000000006 -7.25950196359351,43.0121585724633,771.964500000002 -7.25994821608396,43.0122335065711,776.164199999999 -7.26019212934485,43.0123012329218,777.0 -7.26030897321385,43.0123361013846,777.0 -7.2604568305197,43.0123421365615,778.0 -7.26071231048822,43.0123117938301,779.367400000003 -7.26101892076603,43.0122154016635,782.123500000002 -7.26142661666616,43.0120553073587,785.301300000006 -7.26168343781938,43.0120003224673,787.550000000003 -7.26194193612721,43.0119969698646,790.767800000001 -7.26223345830154,43.0119141564474,794.591199999995 -7.2625848280367,43.0118362049936,798.952699999994 -7.26343072931894,43.0115968172889,810.489600000001 -7.26371370222669,43.0115264095038,814.182100000005 -7.26383155220881,43.0115148428031,816.116299999994 -7.26399868736071,43.0115287564751,817.976500000004 -7.26417755720513,43.0115879325702,820.0 -7.26474232982089,43.0119025891629,824.786500000002 -7.26517416524932,43.0123014004197,826.0 -7.26532319575496,43.0124519394993,826.197499999995 -7.2656889816538,43.0127714576076,826.875799999994 -7.26581571597407,43.0128859542735,827.088000000003 -7.26603062802434,43.0130106771789,828.0 -7.2666961511908,43.0132514052472,832.906199999998 -7.26709311851149,43.0134203841731,835.452799999999 -7.26726427631919,43.0134814048287,836.0 -7.26736318352692,43.0135400778724,836.0 -7.26737072668034,43.013616521028,836.0 -7.26746108372322,43.0137536488284,837.0 -7.26788721934117,43.014167547383,839.0 -7.26818142478323,43.0143717306778,840.588900000002 -7.26857235632352,43.0146471596384,842.133199999997 -7.26901475324476,43.0150300447619,843.928799999994 -7.2697592338331,43.0156677401662,848.029200000004 -7.2699023965433,43.0158965661629,849.973899999997 -7.27008780432636,43.0161312592808,850.0 -7.27029601135135,43.016466535484,849.3027 -7.27046918138529,43.0167947708609,847.786200000002 -7.27066263537835,43.0175617151947,844.372199999998 -7.27098818843059,43.0183615163786,844.0 -7.27137325307374,43.0187137241741,844.0524 -7.27165555583833,43.0189147220571,845.493900000001 -7.27194640786942,43.0191463975511,847.0 -7.27238243483698,43.0195101726093,849.066500000001 -7.27336177636309,43.0201966504028,853.0 -7.27403886623715,43.0205832234745,855.161399999997 -7.27429501724716,43.0207599143108,856.114700000006 -7.27471813542406,43.0211547018741,858.0 -7.27547653001784,43.0215538477567,859.0 -7.27633668127544,43.0218809099066,860.0 -7.2770276851549,43.0222539046142,860.0 -7.27748332504009,43.0224820598296,860.292000000001 -7.27787207816578,43.0227475986425,860.731599999999 -7.27838320698604,43.0231626705875,861.0 -7.27885477220457,43.0236033910958,862.295400000003 -7.27931493870042,43.0239842646328,863.169500000004 -7.2797841575194,43.0242327043163,864.046300000002 -7.27995565129702,43.0242870189017,864.0 -7.28006109554508,43.0243104883305,864.117599999998 -7.28046460080442,43.0244549922239,865.0 -7.28101545941474,43.0247222076516,866.0 -7.28154871643536,43.0249138177584,862.0 -7.2818145899117,43.025038372413,859.0 -7.28205531864491,43.0251993049903,856.150500000003 -7.28223435557596,43.0253815278415,853.159100000004 -7.28241054305095,43.0256799238489,850.088099999994 -7.28255001817692,43.0259342302741,848.0 -7.28267423811272,43.0263640545509,844.566999999995 -7.28305427398692,43.0270327629799,839.264599999995 -7.28338921443386,43.0274751598214,836.213399999993 -7.28377293789231,43.0278194882645,832.751199999999 -7.28419287154157,43.0280459672898,828.408899999995 -7.2846131402624,43.0282332191157,825.162500000006 -7.28497121502286,43.0284265059366,822.138399999996 -7.28604594236077,43.0289277434801,808.832800000004 -7.28662848455119,43.029282130573,799.970199999996 -7.2868881560588,43.029568288306,794.705700000006 -7.28718236060252,43.0300163851139,787.376399999994 -7.28734865762624,43.0305258369643,782.750799999994 -7.2873629067033,43.0307142625521,780.566900000005 -7.28730758665147,43.0308373089175,779.227899999998 -7.28717364335103,43.0310949685193,776.834300000002 -7.28717515252071,43.0311593415533,776.183399999994 -7.28719241903879,43.0312404781926,775.445699999997 -7.28721689453701,43.0312986483448,774.185800000007 -7.28734765241145,43.031381126337,773.101699999999 -7.28761939368319,43.0314161625742,772.284599999999 -7.28787872922089,43.031436279706,771.922000000006 -7.28845221908819,43.0316128020668,771.711599999995 -7.28868490071307,43.031696453722,772.0671 -7.28905336898134,43.0318235233573,770.427500000005 -7.28930046766824,43.0319889821229,770.0 -7.28970380494262,43.0324058978072,765.998800000001 -7.29011351217065,43.0328191256229,761.351599999995 -7.29030797227682,43.0332368800951,759.0 -7.29044107744912,43.033213410796,757.773400000005 -7.29055993264605,43.0332139131187,755.9467 -7.29064509293499,43.033203687404,754.954100000003 -7.2909590783813,43.0331854146722,751.300199999998 -7.29160951434255,43.0331825648925,744.697400000005 -7.29356601808188,43.0331322734818,723.756899999993 -7.29416331240587,43.03318155959,719.079400000002 -7.29477116822266,43.0332787895355,715.284499999994 -7.29502916347395,43.0333421562923,713.152300000002 -7.2952377046722,43.0334494448751,710.899699999994 -7.29536142244975,43.0334973892378,709.043900000004 -7.29544809101005,43.0335619298185,707.794599999994 -7.29549771214972,43.0336397138304,706.638800000001 -7.29552000743675,43.033707272113,705.667100000006 -7.29553693888324,43.0338422210159,702.662200000006 -7.29557348414563,43.0340826139578,700.095000000001 -7.2956343369213,43.0342090128396,697.277499999997 -7.29578437264172,43.0343409441321,693.998800000001 -7.29600213504638,43.034521154892,689.6394 -7.29615988190522,43.0346646531085,686.558699999994 -7.29618636873137,43.0347764680479,684.994200000001 -7.29624386899438,43.034901190481,684.0 -7.29640144876659,43.0350681583775,681.936400000006 -7.29648292057298,43.0351300163658,682.0 -7.29663915916042,43.0352113211007,682.005300000004 -7.29693671711515,43.0353395640401,681.073999999993 -7.29716956582669,43.0354207010624,680.136499999993 -7.29732614038408,43.0354651251291,680.0 -7.29771690483772,43.0355157514671,678.0 -7.29838812691633,43.0354562399243,674.021200000003 -7.29855006531429,43.0354765244797,673.688800000004 -7.29868367354312,43.0354904386316,674.027900000001 -7.29920485990129,43.0356277336032,672.858900000007 -7.29968547834123,43.0356813782182,673.0 -7.29995436925861,43.0357551391591,673.970400000006 -7.30020415031491,43.0357636881394,673.735700000005 -7.30063782998465,43.0357548036346,671.2693 -7.30073908359189,43.0355796215005,668.905799999993 -7.30115549674352,43.0354533902501,665.271800000002 -7.30148708467782,43.0353922023276,663.189899999998 -7.3018500211206,43.0353263209077,661.007899999997 -7.3022262005273,43.0352406577531,659.0 -7.30247212601442,43.0351616997816,658.0 -7.30284260561063,43.0351218021686,658.0 -7.3031634649655,43.0350468677586,657.0 -7.30343068052487,43.0349615403993,657.227299999999 -7.30372371186885,43.0348581074673,656.196899999995 -7.30421254450375,43.0345685967625,653.174799999993 -7.30456408132557,43.0344328096425,652.0 -7.30548039076315,43.0340707113759,647.728400000007 -7.30572111859806,43.033976666649,647.103799999997 -7.3060258846346,43.0337605809015,644.427100000001 -7.30647766984887,43.0334192701649,641.850600000005 -7.30690363838019,43.033062536516,639.972099999999 -7.30745768151819,43.0326142721794,636.102499999994 -7.30801088742636,43.0321438796636,632.0 -7.30831481533474,43.0319616571877,630.0 -7.30846703036805,43.0318951049337,629.0 -7.31001315673616,43.0310706605108,620.0 -7.31020057584715,43.0309744363456,619.138800000001 -7.31057457594096,43.0308673161366,618.0 -7.31085537043415,43.0308585983702,617.0 -7.31117136810669,43.0308433435893,616.0 -7.31136482209979,43.0308575930296,615.758300000001 -7.31170663645529,43.030846360925,614.0 -7.31218323134106,43.0308356324737,613.0 -7.31247492150035,43.0308156832492,612.0 -7.31283450543046,43.0307759528849,611.0 -7.31336541515327,43.030708227211,608.0 -7.31387319056257,43.0306019450908,605.791599999997 -7.31462085657692,43.0304487233961,602.839900000006 -7.31496568747513,43.030341770375,601.0 -7.31566809097556,43.0300450511681,598.0 -7.3161480392723,43.0298133754305,595.0 -7.31636764501993,43.029712624849,594.0 -7.31669655058481,43.0296125452184,592.0 -7.31790740053603,43.0293175022548,587.0 -7.31852615291721,43.0291708184858,584.126000000004 -7.31892965727821,43.0290730855858,582.781499999997 -7.31912344724119,43.0290196092133,581.742100000003 -7.31927264483349,43.0291248860779,581.0 -7.31956601124909,43.0292831359393,580.0 -7.31988821178866,43.0293991417128,580.759300000005 -7.32018157820426,43.0295010656227,581.0 -7.32037872067988,43.029434345876,581.285300000003 -7.3206239751255,43.0294097029639,581.0 -7.3209731655478,43.0293944478228,580.0 -7.3211651112695,43.0294985512306,580.641000000003 -7.32124540987612,43.0294138938422,580.0 -7.32146719493661,43.0293498558504,578.743799999997 -7.32196507989462,43.0293411391818,575.941099999996 -7.32239305975384,43.0293687988731,574.915200000003 -7.32276890408895,43.0294170786994,574.487899999993 -7.3235474155552,43.0294333398554,575.319399999993 -7.32384162009897,43.0294682084401,576.816800000001 -7.32433564948777,43.02957583213,580.0 -7.32438493555583,43.0295573921805,580.664199999999 -7.32426557730235,43.0293572322498,581.0 -7.32421511803452,43.0292777715773,580.122000000003 -7.32462298102131,43.029242567981,584.008700000006 -7.3249756919412,43.0292568171363,588.0 -7.32529940075213,43.0292375385189,590.928599999999 -7.32567507800058,43.0291760154053,595.0 -7.32587490194733,43.0291760154053,595.6011 -7.32601353894514,43.0291619336831,596.0 -7.32611144003975,43.0291426556926,596.0 -7.32625275850867,43.0291290769756,595.581900000005 -7.3264133557219,43.0291956289457,593.958799999993 -7.32658166407354,43.0291966349701,592.083899999998 -7.32684066543792,43.0291733328913,591.0 -7.32738632729433,43.0293813721723,591.0 -7.32790164675538,43.0293500239585,592.868600000002 -7.32850497596146,43.0292318385928,594.085999999996 -7.32870429774997,43.0292328446167,595.0 -7.32894251120037,43.0292640254386,595.902900000001 -7.32930293325865,43.0292965471706,597.771399999998 -7.32992855865009,43.0293245424417,599.909499999994 -7.33025226746102,43.0293989742615,601.495500000005 -7.33037833163809,43.0293909274051,600.565100000007 -7.33060866596516,43.0292886684092,599.599100000007 -7.33096456141273,43.0292846449739,594.631399999998 -7.33112046492862,43.0293543822924,592.0 -7.33121551566883,43.0294444041108,589.982000000004 -7.33138533319014,43.0296512690054,588.866699999999 -7.33177157103306,43.0294259634651,592.907200000001 -7.33199939097565,43.0293245424417,581.087 -7.33240641673255,43.0291590837166,575.761299999998 -7.33245603697392,43.0291233770394,575.027100000007 -7.33425010015705,43.0288357101565,553.775200000004 -7.33475619931003,43.0285190415781,551.1201 -7.33501402657636,43.028291053926,548.900599999994 -7.33523748789317,43.0280094220329,547.157000000007 -7.33531275773083,43.0279400200669,546.428700000004 -7.33542876347167,43.0279071627054,545.812000000005 -7.33565473917299,43.027825523233,544.821299999996 -7.33582120418166,43.0277713759507,544.266000000003 -7.336178272829,43.0277324841784,543.113100000002 -7.33640709888467,43.0277276227051,542.401599999997 -7.33696332223389,43.0276295545651,540.223800000007 -7.33718376610965,43.027556799103,540.0 -7.33752373622387,43.0274235273638,539.0 -7.33794165764689,43.027216829642,537.804699999993 -7.33823603017558,43.027078360068,536.0 -7.33849117507248,43.0271133967914,535.270000000004 -7.33864523434706,43.0271531268997,534.545899999997 -7.33895318580961,43.0272255466123,534.251000000004 -7.33920849869147,43.0272481776319,533.0 -7.33957009394952,43.0272642712486,532.429999999993 -7.33995633179244,43.0272275580691,531.984899999996 -7.34032345977435,43.0271834695213,531.0 -7.3406379482772,43.0270862391133,530.167100000006 -7.34077859660292,43.0270091258207,530.0 -7.34104095047996,43.0267643742365,529.768500000006 -7.34112845716842,43.0266438427524,528.207800000004 -7.34112745195364,43.0264874360185,528.044200000004 -7.34146155427242,43.0260442013233,523.052500000005 -7.34187092642886,43.0257075838765,520.0 -7.34452564302784,43.0247450064014,503.147200000007 -7.34499637011821,43.0246279949268,502.348800000007 -7.34537623800745,43.024533279007,500.072100000005 -7.34555795820626,43.0244187823858,498.738599999997 -7.34586020896002,43.0241413416966,497.547900000005 -7.34656294843036,43.0238481421483,496.3802 -7.34708128533247,43.0235639962513,496.857399999994 -7.34724389387363,43.0235480704452,497.015700000004 -7.34760917761423,43.0235053229342,500.920299999998 -7.34786951926504,43.0234964379682,502.0 -7.34851391944588,43.0233462339726,499.151299999998 -7.34883008510339,43.0232753234629,498.0 -7.34896956022936,43.023245986345,498.502299999993 -7.34907047786669,43.0231888219082,499.338199999998 -7.34918044872546,43.0229977147344,500.225699999995 -7.34932025892302,43.0228014101637,500.7307 -7.3493596536415,43.0226847345211,499.679199999999 -7.34969325380203,43.0224777010078,500.854999999996 -7.35008167095785,43.0222725122582,499.094899999996 -7.35041275583558,43.0221094007937,497.804799999998 -7.3507562464474,43.0218926447537,496.941300000006 -7.35111532732097,43.0216894670006,498.0 -7.35191361968978,43.0212951826691,496.859299999996 -7.35214848062755,43.0211951024498,496.942200000005 -7.35238283850878,43.0210878141193,495.975600000005 -7.35238837033431,43.0210321582241,495.018500000006 -7.35243229166349,43.0208983830315,494.0 -7.35250739351616,43.0208536239802,494.0 -7.35254393877855,43.0208752492177,494.495200000005 -7.35270420092019,43.0209055916585,496.034700000004 -7.35278449952681,43.0208770927513,496.414099999995 -7.35300108783339,43.0207954531241,498.322700000004 -7.35341062797479,43.0206662044984,501.895799999998 -7.3537650142527,43.0205803737664,505.113100000002 -7.35410599048004,43.0205386316689,507.514599999995 -7.35445467784576,43.020503763266,507.002399999998 -7.35486572625852,43.0204660444732,505.0 -7.35525581967066,43.020430672945,501.789600000004 -7.35576208680859,43.0203986541974,493.0 -7.35609501592763,43.0203567445004,491.004100000006 -7.35644504447809,43.0203550684272,490.0 -7.35683798824461,43.0204040186786,492.0 -7.35713185771676,43.0204221231424,493.391000000003 -7.35737962654686,43.0203716643085,494.518100000001 -7.35776251187715,43.0202234722355,495.307700000005 -7.35813466862797,43.0200831590921,495.0 -7.3585121892194,43.0199832470012,494.0 -7.35868033048438,43.0199803972653,494.0 -7.35928600698828,43.0198871900084,493.0 -7.35939295950771,43.0198590268967,493.0 -7.3595838991163,43.0197956600122,494.0 -7.35999695975529,43.0195328031892,495.603300000002 -7.36015487459908,43.0194553546463,496.109299999996 -7.36063364879775,43.0193096771416,498.786900000006 -7.36088695035167,43.0192451366804,500.3655 -7.36105609683144,43.0191759021368,502.202600000004 -7.36127251715307,43.0191274546577,505.0 -7.36137947057079,43.0191073380894,506.604999999996 -7.36153101546094,43.0191123670679,508.140799999994 -7.3616471882884,43.0191866306556,510.871799999994 -7.36185271294396,43.0192697790756,512.901599999997 -7.3620595778859,43.0193049831369,513.850699999995 -7.36233215818413,43.0192976074999,513.0 -7.36262451848662,43.019266258734,513.469800000006 -7.3629390078878,43.0192355811818,513.055099999998 -7.36313966996271,43.0191953481093,511.331600000005 -7.36333144859775,43.0190999617719,510.0 -7.36347226401013,43.019005413998,509.0 -7.36354837197595,43.0190431323746,509.0 -7.36368114117829,43.0191230962546,508.134399999995 -7.36386470472008,43.0192407776288,508.960099999997 -7.36399780989237,43.0192974393643,509.0 -7.364188581516,43.0193264407843,509.133799999996 -7.36437315117091,43.0193227529672,510.020900000003 -7.36463148149378,43.019317053434,511.301200000002 -7.36485024911326,43.0193182264423,512.0 -7.36504135670677,43.0193074979465,513.004199999996 -7.36514160420093,43.0192380959942,513.0 -7.36530622496832,43.0190843717369,512.827399999995 -7.36542692440653,43.0189361798409,512.0 -7.36548274751489,43.0187876519699,511.194300000003 -7.36548375362801,43.0185983891476,510.060100000002 -7.36541569277052,43.0184235422661,509.102400000003 -7.36567988999054,43.018150124921,507.065400000007 -7.36573839546833,43.0181068738323,507.0 -7.36582405881385,43.0181160938856,506.635200000004 -7.36597442960588,43.0181362107787,506.089399999997 -7.36613351854775,43.0180683174696,505.163400000005 -7.36623711855451,43.0178572612817,506.0 -7.36626997623268,43.0178187041055,506.0 -7.36642856121967,43.0178106577015,505.775200000004 -7.36652847364221,43.0178051255108,505.325400000002 -7.36687917233587,43.0178755333224,502.883300000001 -7.36709928114004,43.0179362185267,500.898400000005 -7.36734705086844,43.0179888566336,498.796100000007 -7.36761476858605,43.0180409922485,497.024999999994 -7.36788282137524,43.0180691555374,495.318400000004 -7.36818339677099,43.0180855838977,494.077900000004 -7.36832320696855,43.0181003361188,493.777300000002 -7.36854365084434,43.0181139146482,489.728600000002 -7.36869687199076,43.0181083831416,488.194199999998 -7.36886551631232,43.0181062032471,486.269899999999 -7.36894162337981,43.018109388691,485.865999999995 -7.36925007789893,43.0180631202666,482.980800000005 -7.36945325525661,43.0180269105992,482.156499999997 -7.36966431173767,43.0180230552218,482.0 -7.36980244478061,43.0180373043542,482.0 -7.36994963104497,43.0180651320236,481.995899999994 -7.37011542501211,43.0180829015559,482.0 -7.37026764094375,43.0180668088161,482.199800000002 -7.37039705763346,43.0180233901864,482.888999999996 -7.37060073804775,43.0179264953418,483.707599999994 -7.3714605533354,43.0175566860891,486.995899999994 -7.37167999109807,43.0174726992438,488.1054 -7.37256646119686,43.0170313081358,493.756800000003 -7.37288899680802,43.0169717970607,496.138200000001 -7.37382492006152,43.016741461787,498.139200000005 -7.37398333886019,43.0167252012098,499.756200000003 -7.37417897216615,43.0167330802702,500.936799999996 -7.37439053170374,43.0167438092158,502.0 -7.37460510778409,43.0168564620464,503.116200000004 -7.37484231601972,43.0170165563146,504.0 -7.37499402799645,43.0171288736753,505.380300000004 -7.3751661928156,43.0172333118353,507.0 -7.3754771608209,43.0174814162841,510.740999999995 -7.37597437563568,43.0176292734404,515.0 -7.37662045297118,43.017711248303,517.819499999998 -7.37697601334716,43.0177146012506,518.273400000005 -7.37707693098452,43.017705212997,518.073900000003 -7.37736795100057,43.0176415108934,518.783500000005 -7.37759241843052,43.0175875313069,518.957999999999 -7.37771747649448,43.0176158622872,520.634399999995 -7.37785225702476,43.0176473780655,521.035099999994 -7.37837025885524,43.017708901568,522.256899999993 -7.37860746709087,43.0177442726938,523.012300000002 -7.37865809344532,43.0178093165246,523.732699999993 -7.37874593610369,43.0178849215499,524.0 -7.37894039620987,43.0180054531545,524.330100000006 -7.37919034435283,43.0181774494366,524.0 -7.37943140815766,43.0181740971711,523.494500000001 -7.37977405974299,43.0180471950039,522.012600000002 -7.37996282093701,43.0180136670154,522.0 -7.38019349033567,43.0180113202919,520.767500000002 -7.38034402911266,43.0180121583605,520.037100000001 -7.38055089495292,43.018054570791,519.0 -7.38080436359351,43.0181283318984,518.0 -7.38100619976649,43.0181844902444,517.497499999998 -7.38129336421336,43.0182191918258,515.820999999996 -7.38166032331198,43.018222376607,513.392800000001 -7.38183282320272,43.0182160063876,513.0 -7.38198637942076,43.0181740971711,512.0 -7.3822038058555,43.018083237177,511.1486 -7.38230003069379,43.0180319396663,511.0 -7.38241972401888,43.0178259124372,509.305800000002 -7.38249817838422,43.0177635516367,508.644799999995 -7.38261988393554,43.0176909637875,507.279999999999 -7.38279724461027,43.017635308097,506.168600000005 -7.38295197492639,43.0175880344143,504.0 -7.38317610728473,43.0175307018235,501.594400000002 -7.38339085135004,43.0175179612404,501.0 -7.38348472889048,43.0175127646476,501.0 -7.38364750541659,43.0175581947552,501.0 -7.38389862675933,43.0176465399919,501.0 -7.38403508444425,43.0176611241784,501.0 -7.38413650513812,43.0176296084072,501.0 -7.38469993656918,43.0172908121881,502.0 -7.3848794774551,43.0172121897392,502.848800000007 -7.38511534450599,43.0171719566546,503.0 -7.38530393681676,43.0171349083812,503.585500000001 -7.38599862917881,43.01696006193,505.0 -7.38630121590246,43.0169122852713,505.0 -7.3866078261803,43.0168831165392,506.0 -7.38687638202607,43.0168936773163,506.0 -7.38709012087656,43.0169285464558,506.705400000006 -7.38742070269775,43.0170256083898,507.092199999999 -7.38768858840032,43.0170976932574,508.0 -7.38811137150563,43.0171877146596,509.0 -7.38831387872011,43.0172083343105,509.0 -7.38868217900346,43.0172101779542,509.0 -7.38892223669514,43.0172230860856,510.0 -7.38911401443189,43.0172710306436,510.0 -7.38930529001039,43.0173501561266,511.0 -7.38962464019557,43.0174457093823,511.004700000005 -7.39005664360899,43.0174869485039,512.0 -7.39097949098518,43.01755718854,514.533200000005 -7.39110438196251,43.017530031232,514.916200000007 -7.39119641526167,43.0174901333231,514.334199999998 -7.3913871868853,43.0174425245608,515.0 -7.39163965031107,43.0174249223271,516.0 -7.39173520320953,43.0174053089666,516.300499999998 -7.39182069857008,43.0174250898111,517.296000000002 -7.39185808196063,43.01738502435,517.0 -7.3919003270335,43.0173431152232,517.094100000002 -7.39192832302931,43.0173027140832,517.4755 -7.3919928633892,43.0172772334767,517.770600000003 -7.39204684315466,43.0172914827823,518.0 -7.39209612832438,43.0173209869457,518.549100000004 -7.39219604074692,43.0174224080972,519.0 -7.39223074176803,43.0174292808508,519.0 -7.39229377385657,43.0174467155993,519.0 -7.39251991754284,43.0174515765732,518.0 -7.39275947217795,43.0174344781075,517.437300000005 -7.39321913561726,43.0173057320845,516.034400000004 -7.39346053449368,43.0172490698247,516.0 -7.39354955035182,43.0172183925782,516.0 -7.39405615256134,43.017252255313,514.827099999995 -7.3945149778725,43.017277904071,513.454700000002 -7.39522911606548,43.0173989386624,513.0 -7.39569464730023,43.017460629241,512.522100000002 -7.39585474145689,43.0174654908705,512.0 -7.39621734282808,43.0175063943546,512.0 -7.39652076767992,43.0175659062251,512.0 -7.39678965859727,43.01755903283,512.0 -7.39692645135378,43.0175741201447,512.0 -7.3971604741634,43.0175960808474,511.0 -7.39725150134945,43.0176022836477,511.0 -7.39681849272128,43.0185786073676,513.1774 -7.39674372594015,43.018745407526,513.024000000005 -7.39675311333489,43.0193188970143,514.0 -7.39678932352566,43.0196431094963,514.0 -7.39723775532899,43.0206765978066,514.0 -7.39793563221868,43.0211211742688,512.245299999995 -7.39805448831395,43.0213282071026,509.544599999994 -7.39806639009313,43.0214115233793,507.411099999998 -7.39799983840533,43.0215090885265,504.766499999998 -7.39777620910353,43.0215067419366,506.796100000007 -7.39759046624888,43.0216304582604,506.151199999993 -7.39750010920604,43.0216708591798,506.726899999994 -7.39757152257616,43.0217635632828,505.901700000002 -7.39769993315275,43.0218849331704,504.183000000005 -7.39782130363249,43.0221206325269,502.960099999997 -7.3979426732139,43.022270500639,501.156600000002 -7.39799262942515,43.0226082914893,500.0 -7.3979641312711,43.0228057689625,500.517399999997 -7.39804023833859,43.0228795296161,499.526299999998 -7.39818541327502,43.0229009873278,495.935100000002 -7.398299239703,43.0228825473433,495.0 -7.39870173884918,43.0228914317414,494.264999999999 -7.39894213161248,43.0229128894488,492.422200000001 -7.39917280190947,43.0229058491833,490.389200000005 -7.39936089116363,43.0228605865611,488.729000000007 -7.39947035896586,43.0227702299994,488.0 -7.39953456425414,43.0227083713752,488.0 -7.39957597119885,43.0226176789932,487.5625 -7.39966247267252,43.0226652883401,487.312399999995 -7.4000032809149,43.0227772702805,483.6875 -7.40016756571238,43.0227606743927,482.425300000003 -7.40049580113402,43.0226726642293,480.011899999998 -7.4007742483294,43.0225606820981,479.0 -7.40104313924675,43.0223347062627,478.0 -7.40128101762557,43.0219112525072,480.113400000002 -7.40144530332135,43.0217565222287,482.592900000003 -7.4016364109149,43.0216473900554,484.862599999993 -7.40174118412143,43.0216183884181,486.116599999994 -7.40205097982525,43.0215902254437,489.0 -7.40218861070995,43.0215902254437,489.157800000001 -7.4024838204685,43.0216287822219,487.391099999993 -7.40288849892757,43.0216495691674,485.0 -7.4030397087461,43.0216326380298,485.0 -7.40323752136491,43.0215152909315,484.0 -7.40344069872263,43.0212951826691,482.405299999999 -7.4039769731843,43.0206144040927,479.869699999996 -7.40437913725891,43.0200005135477,478.849199999997 -7.40468675275154,43.019138183185,480.0 -7.4045746025799,43.0188215151529,480.0 -7.40477208012713,43.0189386940088,479.077499999999 -7.40517441218669,43.0190764923215,476.059699999998 -7.40551672870043,43.0192101000638,473.027700000006 -7.40591939583157,43.0192999541742,471.089099999997 -7.40730073344733,43.0195373296983,466.768100000001 -7.40772100126987,43.0196213163468,466.0 -7.40817714510989,43.0196643995476,465.298699999999 -7.40893252226263,43.0197386631244,462.073000000004 -7.40943208347696,43.0198028681119,460.315100000007 -7.40965286242433,43.019866403123,460.0 -7.4099919944104,43.0200365558877,460.986499999999 -7.41051720432273,43.0203450100165,463.289000000004 -7.4111622755451,43.0208061820167,466.001999999993 -7.41186467904553,43.0213090960955,468.0 -7.41212703292257,43.0214976892086,468.0 -7.41234747679836,43.0215986076111,468.0 -7.41307670219656,43.02196422609,468.0 -7.41349562973267,43.0221556687961,468.067200000005 -7.41363996654093,43.022218868401,468.145199999999 -7.41426844138843,43.0224153396778,467.498999999996 -7.41461645771266,43.0225419064147,467.430200000003 -7.41478594016238,43.0226300842353,467.0334 -7.41498073534017,43.0227497777155,467.0 -7.41532992576247,43.0230270513142,466.645199999999 -7.41549102603224,43.0231088587262,466.890299999999 -7.41609435523832,43.0232679469894,469.0 -7.41630691999074,43.0233189091302,470.0 -7.41646852331708,43.0233257825373,471.0 -7.4166306297,43.0233078450842,472.353799999997 -7.41680162042108,43.0232337486955,472.230899999995 -7.41710940389866,43.0230977946423,475.303199999995 -7.41747770418198,43.0228498580275,477.648700000005 -7.41779454088102,43.0226577443236,480.175700000007 -7.41807600461911,43.0226029272007,482.063699999999 -7.41839149923509,43.0225730873517,484.787200000006 -7.41881562352513,43.0224430005196,486.0 -7.4195554104161,43.0222079716277,485.539000000004 -7.41995405399311,43.0221199619855,485.0 -7.42015203459692,43.0220996776129,485.0 -7.42069954069457,43.0221613680659,485.042600000001 -7.42113774607668,43.0221605300539,483.716700000004 -7.42135064679905,43.0221303550476,483.135999999999 -7.42140663789237,43.0221223085519,483.122499999998 -7.42177577720218,43.0220341313156,481.420599999998 -7.4221606738604,43.0219008587512,480.0 -7.42247549833317,43.0217131042379,479.343200000003 -7.42270767690151,43.0214891395546,479.0 -7.42300238450185,43.020999804185,477.094899999996 -7.42327362271705,43.0206387116447,474.856 -7.42337169089828,43.020469900354,473.486099999995 -7.42345316360297,43.0202642083764,473.0 -7.42363370970374,43.019823823153,471.0 -7.42365533484757,43.0197470448877,471.0 -7.42371467845356,43.0196734518892,471.0 -7.42397384690459,43.0195110106574,469.752800000002 -7.42407057390112,43.0194776502898,469.0 -7.42418406525749,43.0194659156379,469.0 -7.42431817564456,43.0194758067142,468.836599999995 -7.42464456682496,43.0195849388068,468.0 -7.424745150289,43.0196038822158,468.0 -7.42485847366041,43.01959516482,468.0 -7.42551024990809,43.0194474759353,468.0 -7.42567017697811,43.0193909818169,468.0 -7.42576405362025,43.0193416958003,468.0 -7.42587922123294,43.0192675998791,468.869900000005 -7.4259860066657,43.0191809311096,468.8747 -7.42608407484693,43.0191222575443,470.0 -7.42621600592115,43.0190669374534,470.780400000003 -7.42642823650028,43.0190399476359,472.926000000007 -7.42661464949816,43.0190625783892,474.302299999996 -7.42714874464694,43.0191990359341,479.481400000004 -7.42736449482537,43.0192530154174,481.966799999995 -7.42757655652124,43.0192694441177,484.0 -7.42782264909499,43.0192550271354,485.431100000002 -7.42864189646445,43.019187301229,489.0 -7.42893392259362,43.0191254429355,490.0 -7.4291270415151,43.0190660993992,491.0 -7.42958469272818,43.0189013111848,492.391300000003 -7.43021668897157,43.0186637676916,494.0 -7.43108958013654,43.0183759329138,498.523400000005 -7.43271231662871,43.0178929679442,512.730500000005 -7.43404403310481,43.0175464597365,523.0 -7.43432063605887,43.01750337702,525.0 -7.43457930145337,43.0175298637483,526.251399999994 -7.435032594939,43.0176396666058,529.278200000001 -7.43530651552363,43.0176812412205,531.103900000002 -7.43555361421053,43.0176772176813,532.679999999993 -7.43586273887282,43.0176133474083,534.157200000001 -7.43620639657129,43.0175243315323,536.0 -7.43679681788505,43.0174767227964,538.138999999996 -7.43753509560636,43.0174219049885,541.599799999996 -7.43774263158979,43.0173974299925,542.066000000006 -7.43798771894876,43.0173786540437,543.008799999996 -7.43818720782392,43.0173628960876,544.0 -7.43847738971182,43.0173709432071,545.0 -7.43879590176887,43.017403464672,545.0 -7.43910703775909,43.0174219049885,546.0 -7.43968371305237,43.0174160377948,543.708400000003 -7.44061745699298,43.0174002798483,540.0 -7.44097016791287,43.0173533409529,538.960000000006 -7.44107628230413,43.0172867886233,538.420499999993 -7.44115741903891,43.017278909634,537.917199999996 -7.44132958385806,43.0172105135801,536.030299999999 -7.44177298599408,43.017069362038,534.145099999994 -7.44251109662874,43.0170433782229,524.280100000004 -7.44311057026561,43.0170301350837,514.075200000007 -7.44348507341599,43.0170753967498,509.705600000001 -7.44370384103543,43.017102386774,508.034299999999 -7.44379319286349,43.0170428751111,507.280299999999 -7.444362324105,43.016916476346,504.0 -7.44451722150778,43.0169159732332,503.282999999996 -7.44505198679976,43.0169027300664,502.0 -7.44545850860182,43.0169201643076,501.7019 -7.44593644557062,43.0169144645514,500.243799999997 -7.44610592712201,43.0168901568385,500.0 -7.44650507375559,43.0169468187728,499.131800000003 -7.44674965715969,43.0169479918264,499.0 -7.44695467875864,43.0169295520245,499.0 -7.44715416763381,43.0168355073061,498.685800000007 -7.44716573523973,43.0168194135826,498.698000000004 -7.4473402464584,43.0166392027371,497.3799 -7.44745960471188,43.0165580658453,496.0 -7.44758164533478,43.0164574833265,495.0 -7.44769848920382,43.0164328404594,494.0 -7.44796369253692,43.0163677964843,491.897299999997 -7.44829377130157,43.0163612592424,489.0 -7.44841782415071,43.0163671265368,489.0 -7.44852729105461,43.0163890870145,489.0 -7.44892576664666,43.0164938607489,489.0 -7.44930345522301,43.016560245138,490.0 -7.44974702624232,43.016674239507,491.0 -7.45008666038663,43.0167630871592,492.045499999993 -7.4502268056558,43.0168246102342,492.0 -7.4506338314127,43.0169365929753,493.140100000004 -7.45074480748629,43.0169548652899,493.642099999997 -7.45081957426738,43.0169570445685,493.990399999995 -7.45093675320799,43.0169545303194,494.0 -7.45107823966187,43.0169412865043,494.123099999997 -7.45124487175716,43.0169552002605,495.073799999998 -7.45134579029282,43.016961068155,495.513399999996 -7.45155232016317,43.0170115271645,496.3364 -7.45166262609352,43.0170953458422,497.0 -7.4517719259108,43.0171999522006,497.0 -7.45193285909394,43.0172934939078,497.055800000002 -7.45205892237268,43.0173313801633,497.761199999994 -7.45237357886053,43.0174470505671,498.282300000006 -7.45297841723627,43.0178415027916,501.0 -7.45317002788639,43.0180056206369,502.083799999993 -7.45327010739556,43.018092624716,503.0 -7.45333112815616,43.0181479456847,503.384999999995 -7.45350094477916,43.0182386374446,505.546700000006 -7.45358157935569,43.0182634477254,506.167700000005 -7.45401257665596,43.0182359551094,507.930300000007 -7.45423151136206,43.0181851608288,507.992700000003 -7.45477734120343,43.0179047028967,508.083299999998 -7.45532367410134,43.0175855195343,505.223299999998 -7.45564252122998,43.0175669117833,504.891699999993 -7.45627535470323,43.017696161022,503.100300000006 -7.45742199936617,43.0180297604259,504.096399999995 -7.45781829564537,43.0182302554753,507.0 -7.45853494822283,43.0183486084865,508.0 -7.4598145300731,43.0184258896306,510.0 -7.46098347002307,43.0185737458262,513.0 -7.46191218519473,43.0179189520566,512.0 -7.46200505662206,43.0178368093315,512.0 -7.46470771720609,43.0175778080668,507.641900000002 -7.46582519267344,43.0174517447139,507.0 -7.46680922789689,43.0172609723846,502.537200000006 -7.46805880242343,43.0169459806896,497.0 -7.46985470894954,43.0164821261836,493.717499999999 -7.47067043582138,43.0162719078906,492.0 -7.47127879379641,43.0161408146057,491.373699999996 -7.47210977585842,43.0160452612899,488.0 -7.47237766156096,43.0160335266389,487.053899999999 -7.47390886781054,43.0160844882166,487.739600000001 -7.47542029225921,43.0162038470033,492.377099999998 -7.47617483128379,43.0162595026775,494.0 -7.47639007840567,43.0162881685879,494.094400000002 -7.47662007766112,43.0163188462991,494.982900000003 -7.47681671797849,43.0163481834429,495.0 -7.47717294849767,43.0164405514139,494.2981 -7.47746279441565,43.0165344292506,494.236000000004 -7.47771391665671,43.0166162361183,494.0 -7.4776490403269,43.0167044139108,494.437300000005 -7.47770000265127,43.0168346685647,496.546300000002 -7.47790938287601,43.0173084138035,497.875400000004 -7.47808422916626,43.0175920573026,497.0 -7.47831657571956,43.0180339514243,496.0 -7.47837340494107,43.0180949720931,496.0 -7.47850986172767,43.0182709916251,495.229900000006 -7.47872997053184,43.0185035056394,495.0 -7.47886877551462,43.0186627621513,494.0 -7.47904529806119,43.0186687967064,493.309299999994 -7.47924562506451,43.0187138916546,492.762499999997 -7.47942449490893,43.0187588184325,491.659 -7.47958241065106,43.0188024046791,492.274799999999 -7.47981274497809,43.01890650766,489.371700000003 -7.48002447160234,43.0190012230659,489.216 -7.48022312324765,43.0190431323746,488.366999999998 -7.48054984949966,43.0191014703999,487.786399999997 -7.48078823093503,43.0191465650303,486.5769 -7.48104052637584,43.019198868455,484.390299999999 -7.48118787972682,43.0192486570232,482.960699999996 -7.48131796745806,43.0192691085031,483.176000000007 -7.48178601307729,43.0193646627132,478.879799999995 -7.48230351095291,43.0193351582183,475.723199999993 -7.48250802949532,43.0193302967367,474.0 -7.48265236630359,43.0193467254164,473.505600000004 -7.48292662195984,43.019350413232,473.0 -7.48327648252534,43.0193053187514,472.0 -7.48355476173572,43.0191898160434,471.018100000001 -7.48377386442678,43.0190109460806,470.313500000004 -7.48391585393723,43.0188897439027,470.555500000002 -7.48438943138199,43.0187506040146,468.970199999996 -7.48473627450644,43.0186795259706,468.0 -7.48491212690984,43.0186446571687,468.0 -7.48514933514543,43.018612973108,467.0 -7.48537531084675,43.0186049268081,468.0 -7.48551914459844,43.0185903421891,468.123600000006 -7.48562710323098,43.0185846425878,469.0 -7.48585660032818,43.0184924413824,470.0 -7.48595517156599,43.0184927770013,470.867299999998 -7.48607017119371,43.0185023319587,471.0 -7.48667115310195,43.0185065229249,471.0 -7.48746274044548,43.0185616760398,472.839099999997 -7.48755762320074,43.018557820696,473.0 -7.48773548783038,43.0185281483323,473.0 -7.48793128912125,43.0184681342942,474.0 -7.48804427652275,43.018420859939,474.005799999999 -7.48819850378232,43.0183737536856,475.413799999995 -7.48865464672401,43.0183538050086,476.673699999999 -7.48891515635978,43.0183506195774,477.830400000006 -7.48928178128511,43.0184215305208,478.0 -7.48971613109802,43.0185504443124,479.103300000002 -7.48985392996768,43.0186361071174,480.0 -7.48992819369222,43.0186994745419,480.669399999999 -7.49006984723272,43.0187796056929,481.744900000005 -7.49018182941943,43.0188101159927,482.473700000002 -7.49052884052884,43.018853366586,483.407800000001 -7.49065825721855,43.0188803558288,484.0 -7.49090367964913,43.0188587305455,485.0 -7.4909854865271,43.0188438110265,485.2644 -7.49130047898486,43.0187697151612,487.223499999993 -7.49138496823227,43.0187568066982,488.010500000004 -7.49178998176296,43.0186723170822,490.762499999997 -7.49197689781739,43.0186495187045,492.0 -7.4923814091898,43.0185930245087,493.619300000006 -7.4928789581779,43.0185702254447,495.697100000005 -7.49302698257042,43.0185688842844,496.0 -7.49314734693705,43.0185744164063,496.498600000006 -7.49330911824835,43.0185903421891,497.0 -7.49359460554058,43.0186267196615,498.051399999997 -7.49384555979668,43.0186884103201,499.160099999994 -7.49406198011831,43.0187650211153,500.0 -7.49436875838108,43.0188577250084,500.364300000001 -7.49458869920029,43.0189217627803,501.0 -7.49492196339092,43.0190312301601,502.0 -7.49528372663396,43.0191098529071,502.0 -7.49569376893357,43.0191512590471,502.0 -7.49603088959173,43.0191854576447,502.0 -7.4963591250134,43.0191742253745,502.0 -7.49657973687412,43.0191624906646,502.0 -7.49681040627277,43.0191509240886,502.0 -7.49700017268161,43.0191137082163,501.152900000001 -7.4971173516222,43.0191041526973,501.0 -7.49722061655737,43.0191095172916,501.0 -7.49748012008002,43.0191385188003,500.0 -7.49754885197904,43.0191438833916,500.0 -7.49768832710502,43.0193792471484,501.0 -7.49772218999797,43.0194602161179,501.604099999997 -7.49773912144443,43.0195031312967,502.0 -7.49777667192163,43.0195386708374,502.0 -7.49822661289459,43.0198291876844,503.0 -7.49842543162656,43.0199384872828,502.755399999995 -7.49860782196857,43.0199695007514,502.7356 -7.4988280978594,43.0199780499603,502.0 -7.49910822131106,43.0199639687553,500.205700000006 -7.49927720070424,43.019939493459,498.705499999996 -7.4994632786305,43.0199125033682,497.640199999994 -7.49970836598947,43.0198377369128,496.300399999993 -7.49990181998253,43.0197626354112,495.801399999997 -7.50008773082213,43.0197089913313,494.218999999997 -7.50027950855888,43.0197019500416,492.868400000007 -7.50044647572579,43.0197467099325,492.924299999999 -7.50063205149385,43.0198030362461,492.641699999993 -7.50085216029802,43.0198367313917,491.936000000002 -7.50103790315266,43.0198652294683,492.0 -7.50124141558196,43.0198332110827,491.237200000003 -7.50144073737047,43.0197793989302,491.880699999994 -7.50155523394165,43.0197309519273,492.0 -7.50164844133889,43.0196461267257,492.0 -7.50176813466398,43.0194650775891,492.381699999998 -7.50189185154324,43.0192964338344,492.680399999997 -7.502024285674,43.0191403630429,493.0 -7.50219527639504,43.0189624984714,493.0 -7.50230843178149,43.0188345910824,493.0 -7.50252351181671,43.0185470914105,492.0 -7.50265929846011,43.0184136516771,492.0 -7.50278418853914,43.0183025077239,491.934599999993 -7.5031415931564,43.0180443451781,492.0 -7.50330772219515,43.0179476178491,492.536300000007 -7.50357175232851,43.0178178660342,493.187399999995 -7.50388942625737,43.0176912994108,494.0 -7.50411858738466,43.0176250824143,494.008700000006 -7.5043757445078,43.0175796523562,495.0 -7.50476298846384,43.0175478009191,495.0 -7.5052908807456,43.0175110884967,496.388600000006 -7.50555826339159,43.0175043825793,497.0 -7.50593813128087,43.0175265107907,497.413499999995 -7.50632621336507,43.0175700972552,496.993600000002 -7.50641841464919,43.0175814966455,496.516499999998 -7.50655286010788,43.0176002718755,496.590899999996 -7.50667506871575,43.0175970864052,496.0 -7.50683231251805,43.0175612120871,496.0 -7.50701487084501,43.017488792796,496.0 -7.5072549285367,43.0173764747801,496.092199999999 -7.50752214319777,43.0173062345373,497.0 -7.50772029178649,43.0172328093819,497.0 -7.50815279825646,43.017074894295,497.322499999995 -7.50837508547519,43.0170048211924,497.0 -7.50898629470291,43.0167669432726,494.424700000003 -7.50915979980847,43.0167350920708,493.657000000007 -7.50961778699146,43.0166801067716,492.042199999996 -7.509722560198,43.0166687072139,492.0 -7.50987611731434,43.0166219359023,492.0 -7.51000134246496,43.016589917139,492.0 -7.51017501555547,43.0165344292506,491.091199999995 -7.51038540189332,43.0164318342258,490.0 -7.51076962840835,43.0162677167719,487.317200000005 -7.51121403665749,43.0161364559905,485.160600000003 -7.51148225743164,43.0160628632622,484.0 -7.51155098933066,43.0160159246581,483.210699999996 -7.51168057310703,43.0159513840189,483.108999999997 -7.51195181132223,43.0157780461916,482.0 -7.51206513469364,43.0157252400146,482.050799999997 -7.51237627158219,43.0156140957929,481.007800000007 -7.51251775803606,43.0155644750508,481.207800000004 -7.51268757465907,43.015462048522,480.874400000001 -7.51277340598951,43.0154221505832,480.559500000003 -7.51283694023629,43.0153844319528,480.0 -7.51295881377257,43.0153120120651,480.0 -7.51305000894357,43.0152531712538,480.0 -7.51313382714948,43.0152218230504,479.527199999997 -7.51328084632722,43.0151737107159,479.587499999994 -7.51347295913555,43.0150965975669,479.5003 -7.51366473777062,43.0150154606073,479.286800000002 -7.51391217152911,43.014926612397,479.0 -7.51415792813294,43.0148320647655,479.0 -7.51431802318796,43.0147839521256,479.0 -7.51451047106791,43.0147308114247,479.0 -7.51462530360897,43.0147070066353,479.0 -7.51478791215013,43.0147497543607,479.0 -7.51500483642663,43.0147013066736,479.0 -7.51516660683963,43.0146650969944,478.944600000003 -7.51609565708288,43.0144845507542,477.036500000002 -7.5160736959691,43.014753777435,477.0 -7.51603111582465,43.0150370859305,477.0 -7.51596121072589,43.0154281854568,476.0 -7.51594025662356,43.015513010574,476.0 -7.51594796776194,43.0155507291254,476.219400000002 -7.51601586153281,43.0157435126896,477.0 -7.51606129113335,43.0159098095466,477.115300000005 -7.51611812035486,43.0160132422258,477.0 -7.516159024243,43.0160767772174,477.0 -7.51620881246933,43.0161431620574,477.123099999997 -7.51624669891641,43.0162457562509,477.684699999998 -7.51629900152722,43.0163654496979,478.0 -7.51631056913314,43.0164249613605,478.0 -7.51631794519991,43.0165892465372,478.9323 -7.516312748446,43.016739115015,479.196400000001 -7.51631911839969,43.0169974452791,479.0 -7.51632314195385,43.0170534365176,479.0 -7.5163422527132,43.0170935021951,479.0 -7.51640411070367,43.017130214867,479.138999999996 -7.51647150141795,43.017164748246,479.0 -7.51653134808052,43.0172227511166,479.0 -7.51666830882198,43.0173208194614,479.025099999999 -7.51676889138772,43.0173699369888,479.0 -7.51706326391644,43.0175120940559,479.0 -7.51733751957266,43.017652574647,479.126999999993 -7.5174852088936,43.0177172829517,480.0 -7.51763759191187,43.0178108251844,480.0 -7.51777790516597,43.0178725160059,480.0 -7.51794604553265,43.0179603583429,480.020600000003 -7.51817084893249,43.0180401541803,481.0 -7.51836162055612,43.0181072094533,481.0 -7.51847309968626,43.0181464363764,481.271500000003 -7.51866387220822,43.0181715823151,482.0 -7.51883972461159,43.0181767788522,483.0 -7.51902865289227,43.0181751027194,483.799499999994 -7.51916980337624,43.0181598474136,484.968699999998 -7.51948194547957,43.0181251464555,485.400599999994 -7.5195895690405,43.0181112329644,483.850999999995 -7.51990942318055,43.0180701610874,478.0 -7.52014763663099,43.018040657284,478.755799999999 -7.52033572678349,43.0180193673264,485.0 -7.52049414468382,43.0180015971189,484.0 -7.52056555805398,43.0179809777344,484.0 -7.52071324737488,43.0179363860092,483.0 -7.5208336117415,43.0178740246641,482.180500000002 -7.52103527992953,43.0177995933196,481.0 -7.5212245432818,43.0177270061697,480.0 -7.52144699938379,43.0176539158273,479.0 -7.52157004522151,43.0176056359444,478.4804 -7.52176433824107,43.017531372415,478.0 -7.52204077321018,43.0174192226177,478.060200000007 -7.52246472951526,43.0173080788349,479.0 -7.52267980955049,43.0172192306576,480.0 -7.52284308913315,43.0171280355946,480.0 -7.5229562445196,43.0170646685189,480.0 -7.52306470620868,43.0169925836125,481.0 -7.52322815377633,43.0168794279185,481.361799999999 -7.52335002641428,43.0167800189829,482.0 -7.52341842234339,43.0167428029872,482.0 -7.52355018633094,43.0166797711428,482.058499999999 -7.52367205896893,43.0165982993322,482.0 -7.52369653446715,43.0165156536948,482.687099999996 -7.52372754700571,43.0164030008958,483.0 -7.52376358921152,43.0163522064124,483.0 -7.52387255395718,43.0162916891002,483.0 -7.52391379291693,43.0162588320722,483.0 -7.52397481367756,43.0161714923904,483.0 -7.52412116181373,43.0160227975691,483.0 -7.52424253139514,43.0159240591694,483.037899999996 -7.52431159836578,43.0158786291665,483.0 -7.52439441135687,43.0158365515233,483.0 -7.5244413501271,43.0158157645802,483.0 -7.52445258176308,43.0158077179138,483.0 -7.52446683084014,43.0157748612836,483.0 -7.52443246578894,43.0157031118109,483.0 -7.5242433695233,43.0153302848631,481.0 -7.524110432336,43.0151443743246,480.549599999998 -7.52406500273545,43.0150184780642,480.0 -7.52407422304353,43.0149633250509,480.0 -7.52410590662359,43.0149110219594,480.0 -7.52427890867257,43.0148189886404,479.373500000002 -7.52446180207115,43.014735337631,480.0 -7.52454914167299,43.0146384428525,480.0 -7.52463111653592,43.0145516059689,480.005900000004 -7.52471460056854,43.0144691283531,480.992199999993 -7.52480009592906,43.0144035817919,480.982199999999 -7.52498684489686,43.0143889968317,479.957299999995 -7.5250880976058,43.0143960380739,475.917799999996 -7.52526344695263,43.014420010476,474.0 -7.52541264544322,43.0144475028299,476.880900000004 -7.52552278338862,43.0144548790495,480.255999999994 -7.52565018875042,43.0144632608773,479.937000000005 -7.52571305285401,43.0144535377993,479.517399999997 -7.52617288337995,43.0144205129524,477.0 -7.52644194318059,43.0144652727522,476.0 -7.52659583447022,43.0145101993545,475.944600000003 -7.52685232055185,43.0146052499566,476.0 -7.52704745169953,43.0146533620797,476.131099999999 -7.52715289594759,43.0146810224774,476.996100000004 -7.52724325299044,43.0147051622597,476.770799999998 -7.5272756067137,43.014707844749,476.567899999995 -7.52730226152481,43.014685884327,476.077999999994 -7.52731986311451,43.0146746525474,476.0 -7.52737870456225,43.0146696232055,476.0 -7.52743067210144,43.0146662707485,476.0 -7.52751566440542,43.0146791787578,476.012700000007 -7.52774130593342,43.014706839144,476.0 -7.52805797374916,43.0147333257648,476.0 -7.52829216454373,43.0147628298437,475.659 -7.52853138410726,43.0147898195707,475.0 -7.52884587261015,43.014807253755,474.6342 -7.5289892033053,43.0148290472994,474.744000000006 -7.52916874329292,43.0148590544621,474.214300000007 -7.52927267926963,43.0148816854426,473.756999999998 -7.52941181842565,43.0147185733917,472.0 -7.52952966840777,43.0147344988608,472.817299999995 -7.52960594346025,43.0147319845207,473.131099999999 -7.52972245225763,43.0146845430819,473.0 -7.52978665754594,43.0146677794856,472.9899 -7.52987718167545,43.0146463215238,472.267600000006 -7.52994138786206,43.0146344191139,472.0 -7.5300198422274,43.014613129289,472.0 -7.53020558508205,43.0146012268726,470.754700000005 -7.53030130596546,43.014589324454,470.0 -7.53039065779353,43.0146064237119,470.005099999995 -7.53041831781945,43.0146136324207,470.0 -7.53045570121,43.0146072618269,470.0 -7.53049945455423,43.0145906657012,470.0 -7.53075359423631,43.0145279692588,469.0 -7.5311291034998,43.0144342591308,469.0 -7.53130277659031,43.01440894614,469.0 -7.53167325618652,43.0143388732793,469.0 -7.53183150700023,43.0142936109099,469.0 -7.5320757553327,43.0142708122201,468.937099999996 -7.53240348769784,43.0142627653512,468.058000000005 -7.53266734984624,43.0141993986029,467.5524 -7.53291847208727,43.0141445804967,466.0 -7.53305241448939,43.014083393007,465.0 -7.53339540204466,43.0138693194031,462.3073 -7.53370536483514,43.0137137510933,460.166400000002 -7.53382338190388,43.0135846695058,457.350000000006 -7.53383880507901,43.01354644792,456.681700000001 -7.53388222335163,43.0134264192434,454.981499999994 -7.53397660305034,43.0134161935166,454.753800000006 -7.53415010905419,43.0134433506734,454.241099999999 -7.53426292936906,43.0134980005973,453.0 -7.53439703975614,43.013640158089,451.7837 -7.53445738947524,43.0136946403436,451.765499999994 -7.53456249865169,43.0137467756634,451.0 -7.53466073391958,43.0137467756634,450.359800000006 -7.53484949511361,43.0136780439712,450.220100000006 -7.53514973453944,43.0135486273196,449.7304 -7.53548735735581,43.0135320315646,449.925099999993 -7.53576966012036,43.0135264989885,449.785699999993 -7.53667172048091,43.0134669878011,453.259600000005 -7.53683030636624,43.0134470388437,454.0 -7.53697564838929,43.0134031177469,454.069300000003 -7.53707472268367,43.0133607053879,454.077000000005 -7.53736222130383,43.0131600427077,454.011599999998 -7.53756456053339,43.0130846052723,453.0 -7.53802891856837,43.0130341463204,449.960399999996 -7.53832027275771,43.0130185560591,449.752699999997 -7.53907397365412,43.0128807572887,450.0 -7.53938226018828,43.0127929149107,449.805800000002 -7.5396566838295,43.0126836150732,449.0 -7.53994300924988,43.0125308971259,448.0 -7.54030544353442,43.012273069615,445.262600000002 -7.54048330726573,43.012145664581,443.271599999993 -7.54076091543461,43.0120655333122,442.0 -7.54118084908383,43.0120055188698,441.0 -7.54148209462281,43.0120278152476,440.0 -7.5417610439764,43.0121314153951,438.822400000005 -7.5421705841178,43.0122422243552,436.0 -7.54273837417461,43.0123672822497,431.173899999994 -7.54329644176507,43.0125744825384,426.4179 -7.54355175464693,43.0127169751909,423.335300000006 -7.5438900476065,43.0130277762195,419.024000000005 -7.54399264239848,43.0131184683162,418.0 -7.54437418654404,43.0133099110155,416.0 -7.54446521373008,43.0133523234096,415.209499999997 -7.54467325277012,43.0134306105561,413.481899999999 -7.54473393756081,43.01347687853,412.987299999993 -7.54495656074946,43.0136428399681,409.549700000003 -7.54500048207864,43.0136780439712,408.609800000006 -7.54508513931104,43.0136810614938,407.4997 -7.54529133410977,43.0136736851812,405.595799999996 -7.54542393622549,43.0136525631744,404.0 -7.54551613661131,43.0136178622965,403.397599999997 -7.5456473975423,43.0135130882529,401.131599999993 -7.54583029094088,43.0133878625693,398.816699999996 -7.54591025447591,43.0133546703111,397.780400000003 -7.54597462685085,43.0133558434334,397.0 -7.54600631043091,43.0133731105297,397.0 -7.54603497656996,43.0134017764738,396.623999999996 -7.54604285569333,43.0134716815952,396.0 -7.54605492545747,43.0135583505408,396.0 -7.54609297988954,43.0136507187671,396.0 -7.54611980178728,43.0136998372595,395.145699999994 -7.54637746106865,43.013866636877,396.244300000006 -7.54644351059824,43.0139100551617,397.270099999994 -7.54647988787567,43.013972249098,398.789099999995 -7.54655230825724,43.0141318405247,401.843800000002 -7.54661031067853,43.0142776853264,402.644100000005 -7.54663579139153,43.0143291501817,402.998000000007 -7.54668692170089,43.0143752506431,403.0 -7.54674173869617,43.0143967086996,403.766399999993 -7.54682103208796,43.0144220216955,403.958199999994 -7.54689881541181,43.0144302360357,404.3079 -7.54699487226514,43.0144014024226,404.863500000007 -7.54723694218305,43.014297299029,406.126499999998 -7.54752997352704,43.0141838079806,407.805300000007 -7.54778947704969,43.0140991511478,410.010200000004 -7.54787648068157,43.0140471829634,410.562399999995 -7.54796616758125,43.0139256451966,410.597800000003 -7.54806742029016,43.0136944728495,412.0 -7.54821812705214,43.0135080588159,414.855200000005 -7.54841493445614,43.0132472145792,416.798899999994 -7.54853110728364,43.013077229545,417.032000000007 -7.5485674854594,43.0128931625275,418.223100000003 -7.54866790004015,43.012764416836,419.251399999994 -7.54868868705582,43.0127074199901,419.0 -7.54878960559147,43.0127230103303,419.464099999997 -7.54880603398139,43.0127704513139,420.0 -7.54904190103228,43.0125302264798,422.251300000004 -7.54912622229473,43.012463338526,426.689700000003 -7.54924993917399,43.0123136376208,427.0 -7.54923216959937,43.0121191775009,424.960900000005 -7.54949653480431,43.0121118016577,426.486999999994 -7.54967724889004,43.0120291558939,427.0 -7.54989132281211,43.0119584129499,428.926399999997 -7.55008125720591,43.0118958839466,430.306100000002 -7.55031477695896,43.0118288284596,432.985799999995 -7.55061987806711,43.0117212051858,435.071899999995 -7.55100024901293,43.0115921233515,437.445999999996 -7.5515400430739,43.0113933046228,441.162500000006 -7.55173785569271,43.0113220584445,442.796400000007 -7.55196986717439,43.0111664909078,444.247900000002 -7.55226172531864,43.0108717829718,448.0 -7.55244160037788,43.0107809233398,450.392999999996 -7.55263203782822,43.0106736345483,455.0 -7.55280118430799,43.0105490796545,454.063800000004 -7.5529822334653,43.0103083515041,457.0 -7.55312154060632,43.0101333371617,457.842099999994 -7.55320318039763,43.010180778832,458.0 -7.55315272112981,43.0102679503341,458.0 -7.55327627092241,43.0103616602505,459.0 -7.55346352204844,43.0104203336472,459.433399999994 -7.55327627092241,43.0103616602505,459.0 -7.55369016879126,43.0104307273759,460.101200000005</coordinates>
</LineString>
</Placemark>
</Folder>
</Document></kml>
