<?xml version="1.0" encoding="UTF-8"?>

<kml xmlns:xsd="http://www.w3.org/2001/XMLSchema" xmlns:gx="http://www.google.com/kml/ext/2.2" xmlns:atom="http://www.w3.org/2005/Atom" xmlns="http://www.opengis.net/kml/2.2">
<Document>
<name>ES05a_04a_tineo-pola_de_allande</name>
<visibility>1</visibility>
<Schema name="ES05a_04a_tineo-pola_de_allande" id="kml_schema_ft_ES05a_04a_tineo-pola_de_allande">
<SimpleField type="xsd:string" name="id">
<displayName>id</displayName>
</SimpleField>
<SimpleField type="xsd:string" name="nombre">
<displayName>nombre</displayName>
</SimpleField>
<SimpleField type="xsd:double" name="longitud">
<displayName>longitud</displayName>
</SimpleField>
<SimpleField type="xsd:string" name="_formato">
<displayName>_formato</displayName>
</SimpleField>
</Schema>
<Folder id="kml_ft_ES05a_04a_tineo-pola_de_allande">
<name>ES05a_04a_tineo-pola_de_allande</name>
<Placemark id="kml_1">
<name>&lt;img height='20' src='https://nco.ign.es/iconos/icono_todos_caminos_azul.png' /&gt;&lt;img height='20' src='https://nco.ign.es/iconos/Camino Santiago_20.png' /&gt;&lt;img height='20' src='https://nco.ign.es/iconos/icono_todos_caminos_azul.png' /&gt;  Camino de Santiago </name>
<visibility>1</visibility>
<description><![CDATA[<!DOCTYPE html>
<html>
<head>
<style>
#nco {
  border-collapse: collapse;
  overflow:hidden;
}
#nco th, #nco td {
  padding: 4px;
  text-align: left;
}
#nco th {
  color: #364B5F;
  padding-right: 5px;
}
#nco td {
  color: rgb(51, 51, 51);
  font-size: 12px;
  padding-right: 5px;
}
</style>
</head>
<body>
<table id="nco">
<tr>
<td>Caminos del Norte</td>
</tr>
<tr>
<th><b>Camino: </b></th>
<td>ES05a Camino Primitivo</td>
</tr>
<tr>
<th><b>Etapa: </b></th>
<td>04a Tineo-Pola de Allande</td>
</tr>
<tr>
<th><b>Longitud: </b></th>
<td>28.49 km</td>
</tr>
</table>
</body>
</html>]]></description>
<Style>
<IconStyle>
<scale>0.8</scale>
</IconStyle>
<LabelStyle>
<color>ffffffff</color>
<scale>0.75</scale>
</LabelStyle>
<LineStyle>
<color>ffff0000</color>
<width>3.0</width>
<gx:labelVisibility>1</gx:labelVisibility>
</LineStyle>
<PolyStyle>
<color>66ff0000</color>
</PolyStyle>
</Style>
<ExtendedData>
<SchemaData schemaUrl="#kml_schema_ft_ES05a_04a_tineo-pola_de_allande">
<SimpleData name="id">ES05a_04a</SimpleData>
<SimpleData name="_formato">kml</SimpleData>
</SchemaData>
</ExtendedData>
<LineString>
<extrude>0</extrude>
<tessellate>1</tessellate>
<coordinates>-6.41504432971363,43.3354257794827,673.998099999997 -6.41538497086938,43.335553854571,673.503200000006 -6.41574924849687,43.3357055669151,665.734700000001 -6.41557440130828,43.3361575190569,664.981 -6.41528103489271,43.336677867729,669.221799999999 -6.41547599805543,43.3373784272549,671.574900000007 -6.41514256587985,43.3377782442791,679.097299999994 -6.4151006567769,43.3380231634519,684.425799999997 -6.41541933681888,43.3383547514422,690.784599999999 -6.41542201829001,43.3388013394473,693.857199999999 -6.41575075676823,43.3389134891788,693.341700000004 -6.4164394142482,43.3389012512634,696.155899999998 -6.41733359548538,43.3391832185848,697.0 -6.41846498495818,43.3395310678588,698.887300000002 -6.41921281805916,43.3395820299895,694.072799999994 -6.42036532961921,43.3397101054584,707.368300000002 -6.42170878168618,43.3398730494492,704.592099999994 -6.42268124930374,43.3401607165467,695.797999999995 -6.42364801800915,43.3405459485341,689.946599999996 -6.42396083115402,43.3407722601373,695.390499999994 -6.42412930749062,43.3411975580627,706.597899999993 -6.42448117938402,43.3407326976769,714.046900000001 -6.42486540589904,43.3402507378799,723.5717 -6.4250456169282,43.3398965187419,715.045100000003 -6.42561189871362,43.3396849596168,710.378299999997 -6.42535826208811,43.3391327598509,707.574399999998 -6.42551567387533,43.3387711643766,711.903200000001 -6.42571097210967,43.3384895322731,711.376699999993 -6.42634564982423,43.3383084833073,716.763800000001 -6.42662778460382,43.3381866104825,722.155599999998 -6.42668679313819,43.3378523401754,723.275899999993 -6.42702274059658,43.3375016411021,721.476699999999 -6.42754878863706,43.3371695505854,719.282999999996 -6.42846794842903,43.3369068614696,723.938800000004 -6.4289614747613,43.336786832919,723.945600000006 -6.43017685042493,43.336848020682,728.927500000005 -6.43061975040274,43.3364210464311,732.963799999998 -6.43115870633552,43.3361209741694,742.7745 -6.43181601530702,43.3359473013666,750.012600000002 -6.43253987686465,43.335771616296,757.211299999995 -6.43334235987425,43.335609845888,759.115300000005 -6.43404107579046,43.3357758077582,767.807799999995 -6.43454365444585,43.3360125121954,769.2739 -6.4344620146545,43.3363399092886,776.820999999996 -6.43477952149674,43.3366471904642,775.318799999994 -6.43526298939274,43.3369413948051,770.686000000002 -6.43635448109052,43.3369737491264,776.883100000006 -6.43746726196218,43.3369891719632,779.291299999997 -6.43786070878528,43.3370667885304,783.608300000007 -6.43835071461992,43.3372795210804,788.3024 -6.4387855674894,43.337891567378,793.915299999993 -6.43936609835188,43.3385235629319,796.767099999997 -6.44007554284753,43.3384861799066,794.929799999998 -6.44095698327904,43.3385409970545,793.507899999997 -6.4414714646119,43.3389884232446,794.846000000005 -6.44183758648068,43.3393672853607,810.183499999999 -6.44237989582443,43.3395216799556,807.2451 -6.44298439823029,43.3393981304677,799.615099999995 -6.44353844226658,43.3393654416184,800.984299999996 -6.44433388517933,43.3394715560156,796.743400000007 -6.4447876808232,43.3400262706682,810.466199999995 -6.44524147736537,43.3405809848262,815.291899999997 -6.44582117009969,43.3410020916836,816.753200000006 -6.44637940477681,43.3408475296807,827.020000000004 -6.44690109419155,43.3406373112406,831.991099999999 -6.44767759343157,43.3406059630435,855.201100000006 -6.44863028104487,43.3407397379739,866.863700000002 -6.44964952034601,43.3408715016606,872.042300000001 -6.45064378199068,43.3409553205428,876.571299999996 -6.45119262837477,43.341223038434,878.0 -6.45190995199376,43.3411284909866,879.0 -6.45252518387735,43.3408017645498,880.947700000004 -6.45318064860754,43.3404007737919,882.0 -6.45391205331863,43.3399649149331,886.028300000005 -6.45460775089546,43.339489660851,887.772200000007 -6.45557904621158,43.3393630941463,891.065499999997 -6.45624322819331,43.3391159962339,885.709199999998 -6.45651111389587,43.3387428337054,883.760899999994 -6.4573296902238,43.3386695758415,883.522599999997 -6.45802488564239,43.3381861073964,880.038199999995 -6.4588828566888,43.3378276973069,874.343900000007 -6.45928485277844,43.3372719772884,865.838000000003 -6.45981257797354,43.3369722404911,852.761700000003 -6.46079627812544,43.3370644409695,860.0 -6.46138552534109,43.3366735090651,857.239799999996 -6.46198131139372,43.3362012726645,845.428799999994 -6.46278144800383,43.3359987663426,846.104099999997 -6.46375827514547,43.3357746342795,846.386299999998 -6.46447475973797,43.3352742343608,840.157200000001 -6.46521152918792,43.3347408103218,836.476800000004 -6.46566297843228,43.3340781366915,827.992599999998 -6.46618835632956,43.333543035954,819.473299999998 -6.46671373422685,43.3330079357289,812.095400000006 -6.46710030714136,43.3323796281787,804.1446 -6.4673619899769,43.3317063935586,798.063299999994 -6.46803438705188,43.3314103447016,797.000899999999 -6.46880233702536,43.3320121652452,795.099499999997 -6.46976960788898,43.3325999045334,793.831099999996 -6.47124985271249,43.3328230309449,790.921600000001 -6.4728082159314,43.3330518569195,790.856599999999 -6.47446615650122,43.333269450542,780.813299999994 -6.47612409707108,43.333487045345,771.575599999996 -6.47798186158766,43.3336986045023,740.624899999995 -6.47867186025234,43.3340999296327,727.1679 -6.47947652257483,43.3347574065707,721.879700000005 -6.48053834202045,43.3352447298759,711.523400000005 -6.48135876258965,43.3357880449967,713.993900000001 -6.4814363788268,43.3361754569618,712.866200000004 -6.48103907733285,43.3366180211746,710.0 -6.48057388116972,43.3372330848638,699.945200000002 -6.48010214796623,43.3379294538577,664.659499999994 -6.48011136827431,43.3382865226568,648.710200000001 -6.48018663721364,43.3386335335881,632.767999999996 -6.48053348033812,43.3388667183891,621.043999999994 -6.48053716882067,43.3391265569604,605.690900000001 -6.48032946485225,43.3393847198944,603.705300000001 -6.48046961012143,43.3396971973743,607.035600000003 -6.480674966792,43.3399833554377,610.977700000003 -6.48056164342059,43.3403360655175,616.980100000001 -6.48135859550299,43.3404663202251,617.409799999994 -6.48149169977695,43.3400728739634,609.955000000002 -6.48163637165684,43.3396873064231,605.0 -6.48177970235199,43.339277431281,600.285600000003 -6.48215655280021,43.3390633578713,598.0 -6.48265544297301,43.3388454282793,595.0 -6.48355867743164,43.3386963979544,590.167300000001 -6.48449426561353,43.3385301010551,586.143400000001 -6.48566571994797,43.3386001733324,610.267000000007 -6.48676324652782,43.3389320972606,610.449900000007 -6.48722056266929,43.3391537146924,615.775999999998 -6.4881112243072,43.3391755071188,624.303899999999 -6.48852059646365,43.3397233487043,637.841 -6.48947948604568,43.3401568605492,631.587 -6.49084992709704,43.340594060629,655.149799999999 -6.49105075715691,43.3413836361972,643.901599999997 -6.49132836622409,43.342154603555,641.712499999994 -6.49187101063945,43.3425034582391,640.885899999994 -6.4924649524508,43.3427777141559,633.013900000005 -6.49311203500111,43.3428149299051,637.8989 -6.49366926446341,43.3426439391428,636.506299999994 -6.49414870880528,43.3422804993663,639.021599999993 -6.49482848104877,43.3419190722483,638.366599999994 -6.4958597910124,43.3418714629523,636.0 -6.49696419060248,43.3419353326897,631.2549 -6.49758981509559,43.341794684203,629.0 -6.49761730803485,43.3413071932933,630.452099999995 -6.49751672546911,43.3407181127085,633.609400000001 -6.49740256396955,43.3400887997368,640.077399999995 -6.49767430524132,43.3397885600513,640.1005 -6.49791402786139,43.3393188377802,637.005000000005 -6.49856211652482,43.3387959747736,629.9807 -6.4989719908395,43.338191136951,626.113700000002 -6.49925446158901,43.3378825150494,626.653399999996 -6.49999374542345,43.3373975382464,622.339699999997 -6.50073302925788,43.3369125614902,617.416599999997 -6.50143124121919,43.3366803825688,613.938899999994 -6.50211185248913,43.3365298435109,611.010899999994 -6.50289153715516,43.3365548214347,605.630699999994 -6.50374380839108,43.3364884370699,600.250199999995 -6.50450840585189,43.3368304188096,596.0 -6.50534039402702,43.33679705887,590.017099999997 -6.50658493888624,43.3367834798051,588.0 -6.50797884932274,43.3368545583323,590.465700000001 -6.50937410094391,43.3369499441776,597.717600000004 -6.51030700675636,43.3371244556534,605.0196 -6.51106774774966,43.3370119707049,602.372099999993 -6.51195421784846,43.3369606731974,597.001399999994 -6.51325391567287,43.3373267948792,591.535799999998 -6.51494706032038,43.3379567787323,589.287400000001 -6.51663970191135,43.3385785479582,590.0 -6.51754796513893,43.3390945383007,591.302299999996 -6.51837257634893,43.3397023940594,594.0 -6.51885269173229,43.3397365919473,596.177100000001 -6.5194783171237,43.3395957763378,602.521699999998 -6.5200967344333,43.3391386269198,606.281199999998 -6.52091078504882,43.3386025208339,613.678599999999 -6.5214933272392,43.3379111812965,620.016900000002 -6.52198299800226,43.3373443966077,622.209300000002 -6.52276217961171,43.336784988445,619.767099999997 -6.52373347402953,43.3364711702758,615.949999999997 -6.52511699095818,43.3363638817414,607.019 -6.52572099120576,43.3364265785793,603.286399999997 -6.52662506289421,43.3368696460191,601.0 -6.52754791116873,43.3372553810734,598.0 -6.52836581735346,43.3375549505182,595.0 -6.52999056517353,43.3375780842237,590.084099999993 -6.53097828887957,43.3375477419369,585.408800000005 -6.53207916797205,43.3377411959703,583.0 -6.533432509592,43.3374966121437,580.0 -6.53478585211024,43.3372520279853,577.0 -6.53546545636878,43.3370852286085,577.0 -6.53631219667747,43.3371160735682,579.408100000001 -6.53704997134221,43.3368012496081,583.0 -6.53797550108787,43.3364644646663,586.0 -6.53902307145646,43.3361238242166,586.219400000002 -6.54004013144471,43.3358328044285,588.0 -6.54056031258808,43.3357925709906,588.991299999994 -6.54126606860118,43.3358846046872,589.0 -6.54265260297085,43.3360203913289,592.0 -6.54330169774736,43.335903044471,594.093399999998 -6.54409630253194,43.3359922279468,596.821500000005 -6.54469577616882,43.3361685834009,593.590599999996 -6.54505033043168,43.3365311848927,598.496499999994 -6.54578609376849,43.3365653826066,600.759000000005 -6.54637165339992,43.3363120818914,605.657200000001 -6.54647525430501,43.3359925637853,605.829199999993 -6.54706299324933,43.3355850354959,609.487299999993 -6.54834408337094,43.3356266098197,612.687099999996 -6.5495587888914,43.3358649907675,616.020000000004 -6.55039295548109,43.3362532405275,618.124599999996 -6.55068045499955,43.3366098069371,623.0 -6.55133306937535,43.3363625410092,625.148100000006 -6.55205911024588,43.3360398372793,625.057400000005 -6.55309259862407,43.3360322939866,630.957399999999 -6.55410110934577,43.3363583495874,633.922200000001 -6.55499663176768,43.3368419854749,631.275099999999 -6.55574614202327,43.3374925887153,635.595100000006 -6.55600648367408,43.3375740608008,635.719899999996 -6.55639439777336,43.3375541122503,636.064899999998 -6.55674258208251,43.3372350965866,633.099499999997 -6.55697526370742,43.3366518843115,635.265499999994 -6.55733551867907,43.335967250445,638.221699999995 -6.55760055402725,43.3357481473691,638.043099999995 -6.55808435789316,43.3354655094015,637.8989 -6.55820220697698,43.3357704428172,643.690499999997 -6.55837269464148,43.3360250852246,648.517999999996 -6.55903805072128,43.3359964193938,654.625599999999 -6.55969636490757,43.3358462157863,662.711500000005 -6.56036825892601,43.3355494958264,672.129300000001 -6.56109765141087,43.3352834543461,676.619699999996 -6.56207548466563,43.3350827914493,697.001799999998 -6.56269825970265,43.334706444311,700.077799999999 -6.56306153121701,43.3346465977738,706.720199999996 -6.56338674919763,43.3341254110224,707.363299999997 -6.5640407056565,43.3335209076142,710.752299999993 -6.56461989533425,43.3327807856029,711.194300000003 -6.56514225489218,43.3320180323486,710.234700000001 -6.56545188261105,43.331611007318,712.310800000007 -6.56578531478663,43.3310408705098,713.380600000004 -6.56600056190848,43.330352716018,715.588000000003 -6.5660195055812,43.3297274260737,713.489100000006 -6.56595345605161,43.3291696944306,712.947899999999 -6.56635930771046,43.3290761521815,716.618100000007 -6.56690362838214,43.3288808539284,720.429000000004 -6.56749639699371,43.3285623416091,720.098899999997 -6.5677974745477,43.3280094715263,714.897500000006 -6.56795991600224,43.3275581893284,709.048800000004 -6.56846970363776,43.3271530085827,710.054300000003 -6.56837783742523,43.3267260341292,698.489600000001 -6.56909264665974,43.326403666056,698.738800000006 -6.56951073516938,43.3259525522911,693.134000000005 -6.56997308097813,43.3256866785411,690.856499999994 -6.57059501878532,43.3254888651963,691.0 -6.57111335568739,43.3252293616765,688.489600000001 -6.57161090557382,43.3249950037552,686.504000000001 -6.57185029222397,43.3247199094547,682.684699999998 -6.57243099107141,43.3247668479808,681.082699999999 -6.57314982296176,43.3247039842252,678.896299999993 -6.57380679596335,43.3247242683231,690.672300000006 -6.57414441967805,43.3247951792907,696.889999999999 -6.57496651650357,43.3247859590202,700.0 -6.57627493157948,43.3247289617849,709.471600000004 -6.57726014000274,43.3246577161457,712.6247 -6.57769516085718,43.3241167475387,717.110400000005 -6.57802758781794,43.3239117267239,719.0 -6.57893534709065,43.3240377904074,720.0 -6.57959902691413,43.3241713979426,721.888399999996 -6.57996850129556,43.3242168279405,722.0 -6.58013312116462,43.3239928634794,718.294299999994 -6.58049253710981,43.3238681407107,714.774099999995 -6.58090643587696,43.3237254806837,708.271299999993 -6.5813421268746,43.3235741037278,702.0 -6.58170640450208,43.3235305174724,698.311799999996 -6.58226095159495,43.3236999995052,698.447400000005 -6.58323677262347,43.323848191579,698.944699999993 -6.58362804013368,43.3236981552873,694.968500000003 -6.5839494016468,43.3234934696208,689.859400000001 -6.58430513000774,43.323117289855,702.812300000005 -6.58462146275187,43.3226368390933,705.209700000007 -6.58527106058499,43.3221540416231,707.934200000003 -6.58596927344462,43.3217428253749,712.382500000007 -6.58668039329826,43.3215503764956,713.201100000006 -6.58772813165178,43.3215988238738,713.936300000001 -6.58838024386937,43.3217247204769,723.0 -6.58877251659436,43.32159094483,723.892999999996 -6.58923888595728,43.3215845748027,724.830799999996 -6.58938607222164,43.3212555015657,725.007500000007 -6.58928548875756,43.3208692629572,726.953399999999 -6.58837437607393,43.3205004592345,729.0 -6.58822400528189,43.3202132956979,737.023799999995 -6.58808486522753,43.3197390477562,736.095199999996 -6.58829407746731,43.3191402440211,732.153900000005 -6.58813230705431,43.318658620024,728.302899999995 -6.58841779434654,43.3180329946746,730.841100000005 -6.5887254107375,43.3174066988439,730.926699999996 -6.58932387826126,43.3168119191439,732.930200000003 -6.58998101924777,43.3164587057711,734.539099999995 -6.5911459365419,43.3162357473508,740.608600000007 -6.59177441138941,43.3161512577474,739.445399999997 -6.59212594821122,43.3160836994443,738.794200000004 -6.59248787943922,43.3158127961948,744.017600000006 -6.59234371061587,43.3154441604752,746.118600000002 -6.59161984905824,43.3150451814089,746.2552 -6.59131022133938,43.314698003018,742.348199999993 -6.59118834870143,43.3143286964627,744.3897 -6.59133184738154,43.3137481656529,750.0 -6.59132128588873,43.3135701345706,750.0 -6.59180123328717,43.3134170806016,751.0 -6.59229425746116,43.3132963814163,751.168999999994 -6.59251721572143,43.3129324391846,749.059899999993 -6.59283606374837,43.3126873521595,747.018899999995 -6.59329438600298,43.3123566025272,741.390400000004 -6.59469516944968,43.3121748828084,742.934399999998 -6.59611908720992,43.3120085858436,739.339999999997 -6.59679869146845,43.3118494974415,737.781600000002 -6.59731384384284,43.3115413783359,737.504799999995 -6.59772036564489,43.3114639298184,737.0 -6.59781072268774,43.3111123926942,736.856899999999 -6.59732172296622,43.3107383920313,738.138399999996 -6.59599486727412,43.3106668110027,743.0 -6.59553771821928,43.3102674966202,750.578599999993 -6.59470824532696,43.3099610546356,748.0 -6.59424154089246,43.3095863834166,752.089099999997 -6.59461805626907,43.308998477022,757.505000000005 -6.59475099255807,43.3084264957485,751.359700000001 -6.59466683838225,43.3077557757869,753.394499999995 -6.59431899004298,43.306947257585,760.859700000001 -6.59392202272232,43.3060591107736,769.0 -6.59401439109307,43.3053665980553,768.0 -6.59462861686355,43.3046657033053,768.506899999993 -6.59549111541896,43.3040300194891,756.558799999999 -6.59637104757911,43.3033126966909,751.246100000004 -6.59720622028192,43.3025886678468,744.215599999996 -6.59777501555352,43.302059769669,741.366099999999 -6.59851212097339,43.3015580290107,746.155799999993 -6.59937931232784,43.3011900632247,735.777700000006 -6.60030249477567,43.3008284680691,721.787400000001 -6.60129072153825,43.3004403861088,735.194799999997 -6.60242546352368,43.3002749272019,731.013000000006 -6.60360060634071,43.3004167492431,729.896099999998 -6.60504279673212,43.3007530306002,728.629799999995 -6.60683753005848,43.3010375128544,732.104200000002 -6.60829581286989,43.3008943500923,739.181200000006 -6.60864835580486,43.3006561359077,728.488899999997 -6.60856738705504,43.3002288268442,746.426999999996 -6.60784738106659,43.3000813054648,756.486999999994 -6.6069788485274,43.3000521362678,744.4519 -6.60592759057459,43.2999394832949,741.0 -6.60493332892992,43.2996627130402,748.896699999998 -6.60443175548935,43.2994514890714,748.395600000003 -6.60403830956458,43.2991881295088,741.279999999999 -6.60338737054676,43.2988924157926,746.096300000005 -6.60268781740072,43.2985251210021,762.0 -6.6020538098294,43.2981395531973,757.253400000001 -6.60175943730068,43.2974835857595,758.426900000006 -6.60199396316684,43.2967540249627,767.943799999994 -6.60226369311068,43.2960558122347,768.6204 -6.60226251901261,43.2952850122727,772.465899999996 -6.60212203867185,43.2944131271278,778.276199999993 -6.60204861307549,43.2935472761836,786.760299999994 -6.6019751874791,43.2926814259886,790.063099999999 -6.60170679871996,43.2919029148275,803.523400000005 -6.60157252124626,43.2913230545091,804.0 -6.60204559563444,43.2908700966405,795.824399999998 -6.60319525773843,43.2903958485778,786.257299999997 -6.60434056031835,43.2898486776346,779.643700000001 -6.60544915144754,43.2892458516023,779.977499999994 -6.6067076103122,43.288735560865,771.353000000003 -6.60741252819711,43.288445714709,764.298800000004 -6.60778770238902,43.287841714753,759.515299999999 -6.60814845951891,43.287367969471,758.396999999997 -6.60851692778721,43.2868372276128,733.554499999998 -6.60940423601413,43.2862494883407,734.305900000007 -6.61052674025048,43.2858815227727,726.916700000002 -6.61143600959117,43.2856662757337,725.908500000005 -6.61260981122346,43.2857916693584,729.420499999993 -6.61325052382006,43.2859177329935,721.528000000006 -6.61360055237051,43.2856391182848,716.210500000001 -6.6136894002437,43.2850765247764,715.4755 -6.61363743270451,43.2843885383076,706.881899999993 -6.6133254576878,43.2840009589386,702.907300000006 -6.61244804081046,43.2836313174404,698.397500000006 -6.61117097334466,43.2834527828986,679.159899999999 -6.6102462817272,43.2834091966421,687.800399999993 -6.60913651829656,43.2830549776137,677.923500000004 -6.60819808065858,43.2824030334549,659.792700000005 -6.6070936810685,43.2817644997201,654.5236 -6.60679059128825,43.2811494355767,657.220700000005 -6.60693207774213,43.280536550812,645.938699999999 -6.60753808931764,43.2802659828986,642.482099999994 -6.60862907795885,43.2801181266472,640.369099999996 -6.60861667222476,43.2795344105462,635.478000000003 -6.60853050672104,43.2790179176023,635.0 -6.60718470825455,43.2784276640135,643.563399999999 -6.60635758176175,43.2777804137916,614.069399999993 -6.60637216680869,43.2770902480392,610.551999999996 -6.6063988207215,43.2764160071133,592.333700000003 -6.60642497247603,43.2757337206852,578.372199999998 -6.60647341951763,43.275050762759,601.521900000007 -6.60660618872001,43.2744786145174,595.611099999995 -6.60701405260509,43.2740521431424,589.444600000003 -6.60794192964856,43.273779563311,585.016799999998 -6.60836270052764,43.2735716923839,575.987999999998 -6.60771628812056,43.2733489017337,563.513800000001 -6.60680802579128,43.2733939962544,557.934699999998 -6.60595340635921,43.2732183114864,546.368700000006 -6.60535912947628,43.2729370145293,539.581999999995 -6.60561695674261,43.2727911693687,533.732000000004 -6.60619245883611,43.2727569717335,530.353400000007 -6.60702243478501,43.2727066802121,531.547699999996 -6.6078948228934,43.2726225258187,531.3505 -6.60875380005289,43.2724983059146,530.0 -6.60954337606849,43.2723274828563,529.0821 -6.61047745508072,43.2721601801703,527.2215 -6.61093728650499,43.2720485331629,526.968399999998 -6.61118790479115,43.2717811501225,526.0</coordinates>
</LineString>
</Placemark>
</Folder>
</Document></kml>
