<?xml version="1.0" encoding="UTF-8"?>

<kml xmlns:xsd="http://www.w3.org/2001/XMLSchema" xmlns:gx="http://www.google.com/kml/ext/2.2" xmlns:atom="http://www.w3.org/2005/Atom" xmlns="http://www.opengis.net/kml/2.2">
<Document>
<name>ES05a_05a_pola_de_allande-a_mesa</name>
<visibility>1</visibility>
<Schema name="ES05a_05a_pola_de_allande-a_mesa" id="kml_schema_ft_ES05a_05a_pola_de_allande-a_mesa">
<SimpleField type="xsd:string" name="id">
<displayName>id</displayName>
</SimpleField>
<SimpleField type="xsd:string" name="nombre">
<displayName>nombre</displayName>
</SimpleField>
<SimpleField type="xsd:double" name="longitud">
<displayName>longitud</displayName>
</SimpleField>
<SimpleField type="xsd:string" name="_formato">
<displayName>_formato</displayName>
</SimpleField>
</Schema>
<Folder id="kml_ft_ES05a_05a_pola_de_allande-a_mesa">
<name>ES05a_05a_pola_de_allande-a_mesa</name>
<Placemark id="kml_1">
<name>&lt;img height='20' src='https://nco.ign.es/iconos/icono_todos_caminos_azul.png' /&gt;&lt;img height='20' src='https://nco.ign.es/iconos/Camino Santiago_20.png' /&gt;&lt;img height='20' src='https://nco.ign.es/iconos/icono_todos_caminos_azul.png' /&gt;  Camino de Santiago </name>
<visibility>1</visibility>
<description><![CDATA[<!DOCTYPE html>
<html>
<head>
<style>
#nco {
  border-collapse: collapse;
  overflow:hidden;
}
#nco th, #nco td {
  padding: 4px;
  text-align: left;
}
#nco th {
  color: #364B5F;
  padding-right: 5px;
}
#nco td {
  color: rgb(51, 51, 51);
  font-size: 12px;
  padding-right: 5px;
}
</style>
</head>
<body>
<table id="nco">
<tr>
<td>Caminos del Norte</td>
</tr>
<tr>
<th><b>Camino: </b></th>
<td>ES05a Camino Primitivo</td>
</tr>
<tr>
<th><b>Etapa: </b></th>
<td>05a Pola de Allande-A Mesa</td>
</tr>
<tr>
<th><b>Longitud: </b></th>
<td>21.27 km</td>
</tr>
</table>
</body>
</html>]]></description>
<Style>
<IconStyle>
<scale>0.8</scale>
</IconStyle>
<LabelStyle>
<color>ffffffff</color>
<scale>0.75</scale>
</LabelStyle>
<LineStyle>
<color>ffff0000</color>
<width>3.0</width>
<gx:labelVisibility>1</gx:labelVisibility>
</LineStyle>
<PolyStyle>
<color>66ff0000</color>
</PolyStyle>
</Style>
<ExtendedData>
<SchemaData schemaUrl="#kml_schema_ft_ES05a_05a_pola_de_allande-a_mesa">
<SimpleData name="id">ES05a_05a</SimpleData>
<SimpleData name="_formato">kml</SimpleData>
</SchemaData>
</ExtendedData>
<LineString>
<extrude>0</extrude>
<tessellate>1</tessellate>
<coordinates>-6.61124054337184,43.271828591962,526.0 -6.61188008276872,43.2716242411404,527.0092 -6.61371303761376,43.2716894523257,535.883300000001 -6.61578755842191,43.272284734993,541.623099999997 -6.61770332625807,43.2730386030929,552.716400000005 -6.61888299478748,43.2734317143099,558.278699999995 -6.61982461785146,43.2730027285879,545.412100000001 -6.62097327384231,43.2728743182372,549.862599999993 -6.62199419029809,43.2734260148743,555.432700000005 -6.62301510585557,43.2739777117426,577.262499999997 -6.62348298348982,43.2747773456504,550.408800000005 -6.62416359386146,43.2756163738089,553.423500000004 -6.62496272435846,43.276328668175,557.052100000001 -6.62611054222114,43.2768915963384,560.225600000005 -6.62713883474372,43.2772126234061,563.624500000005 -6.62756480237671,43.2780135980285,569.268100000001 -6.62740051757927,43.2784338665616,581.4516 -6.62829369270333,43.2789587414935,582.5628 -6.62909567355468,43.2797169687999,592.092799999999 -6.62981014681928,43.2804165220704,595.100000000006 -6.63089241820895,43.2809355294449,603.139899999995 -6.63186605992458,43.2813963664199,602.057499999995 -6.634056083417,43.2814498434357,594.681800000006 -6.63530163438936,43.2818867080807,599.346600000004 -6.63642313341089,43.2823582738977,619.821800000005 -6.63741773012715,43.2828184402564,634.279299999995 -6.63794344309605,43.2835240291063,644.761400000003 -6.63884600651314,43.2842022927752,648.771900000007 -6.64005786167918,43.2847784647887,648.147200000007 -6.64112202842265,43.2853439075977,672.3845 -6.64180934471786,43.2859368438257,657.567899999995 -6.64230320612175,43.2868124169201,674.441200000001 -6.64256254255774,43.287634011529,684.957699999999 -6.64346879355908,43.2880200820942,690.938299999994 -6.64518641280652,43.2882574571375,691.323699999994 -6.64657378530434,43.2889508081593,702.779399999999 -6.6481344958211,43.2893774471271,694.192599999995 -6.64993794639897,43.2896426506214,699.790999999997 -6.65200961775099,43.2898225264109,709.231700000004 -6.65376730275843,43.2896743344048,723.500899999999 -6.65443349606806,43.289914391738,724.620299999995 -6.65513288212747,43.2907064817578,716.556299999997 -6.6559279899686,43.2913418301732,726.165099999998 -6.65696751322886,43.2914932069958,724.978900000002 -6.65814382924563,43.2914710790328,726.186799999996 -6.65942491936727,43.291092384394,743.858200000002 -6.66061012062053,43.2905168829009,751.548699999999 -6.6613351553779,43.2896335982956,775.993700000006 -6.66199095517971,43.2889982496905,787.153000000006 -6.66286401432961,43.2884789069939,780.336500000005 -6.66347404945929,43.2877835444253,810.549799999993 -6.66341688516619,43.2868332040989,799.105299999996 -6.66348662228,43.285894095714,796.168600000005 -6.66391862569338,43.2850354540452,834.487500000003 -6.66457241416729,43.2843694276429,829.493400000007 -6.66489142928086,43.2837295530348,814.816900000005 -6.66588837239667,43.2831755092694,830.870699999999 -6.66715387225654,43.2828893510749,848.156199999998 -6.66799675699606,43.2825706715808,864.910900000003 -6.66810672695651,43.2819529251821,860.844400000002 -6.66801871721148,43.2815412060812,859.357900000003 -6.66798083076439,43.2809127305868,872.582800000004 -6.66805526247386,43.2804036138132,877.903099999996 -6.6677509994939,43.2798913124476,892.173200000005 -6.66786096945434,43.2792735656573,902.242100000003 -6.66856873769364,43.2788055205962,921.2258 -6.66947632987972,43.2785155067894,945.715700000001 -6.67018962994454,43.2781394946602,965.532900000006 -6.67121758649721,43.2777534241727,978.154999999999 -6.6722436997069,43.2773366754162,991.267999999996 -6.67335463723561,43.2769325005608,1009.81389999999 -6.67440656533163,43.2769450733895,1039.1988 -6.67538087808879,43.2767142356048,1069.7908 -6.67618503825304,43.2761048712612,1099.83590000001 -6.67678283563359,43.2752101868313,1134.89230000001 -6.677029095294,43.2740657218384,1135.2686 -6.67727099722696,43.2731978597654,1141.91 -6.67802587132315,43.2724671253184,1146.0 -6.67904578166582,43.2722963021726,1140.0 -6.67995320676524,43.2720061206417,1126.3872 -6.68129146117997,43.2718864269633,1094.84759999999 -6.68261680770237,43.271551988766,1058.93949999999 -6.68370578411735,43.2711330613142,1038.4706 -6.68476726849135,43.2706075164679,1019.5065 -6.68578214916674,43.2700065339922,1002.3461 -6.68697690579969,43.2695995083036,980.978400000007 -6.68817166243261,43.2691924831636,967.781499999997 -6.6889374330932,43.2686456480609,957.781099999993 -6.68985474864389,43.2681707289599,944.749500000005 -6.69060962274005,43.2677932086224,927.008300000001 -6.69193379606271,43.2674433480032,926.103300000002 -6.69319594251162,43.2671109216763,918.517399999997 -6.69445808985887,43.2667784948423,917.584600000002 -6.69553097295551,43.2660987227872,913.582899999994 -6.69624075252277,43.2653232291385,915.260800000004 -6.69667677949029,43.2645411978426,921.471600000004 -6.69751698186038,43.2638382913649,930.656000000003 -6.6985223071561,43.2630839200796,939.877900000007 -6.69956216548795,43.2622054967505,951.093200000003 -6.7006494665449,43.2614177654032,964.139899999995 -6.70196425157453,43.2609145158465,984.992199999993 -6.70277645794878,43.2604429500152,997.937900000004 -6.70380307331672,43.2600412889198,993.502099999998 -6.70474335519597,43.2592582516394,992.861999999994 -6.70641889825379,43.2584666648104,972.058699999994 -6.70765472586154,43.258396089276,973.798699999999 -6.70899583063066,43.2579840348081,952.804999999993 -6.71035101649185,43.2578019798792,935.422500000001 -6.71233031857483,43.2578608206633,918.991500000004 -6.71433057655673,43.2579189914675,903.863400000002 -6.71645773594553,43.2579883932283,875.631800000003 -6.71815406512072,43.2578873075025,860.798599999995 -6.71887474125234,43.2579870520753,852.4035 -6.71980043898295,43.2580033133895,847.566099999996 -6.72085521743339,43.2577233572764,841.808999999994 -6.72192910664314,43.2574120538992,843.349300000002 -6.72251868982874,43.2570858298564,849.554099999994 -6.72224527230065,43.2560503296417,851.550499999998 -6.72238256811373,43.2552010753709,855.286699999997 -6.72296980400148,43.2544907929002,842.024799999999 -6.72416858418857,43.2541600427247,842.414900000003 -6.72558378469728,43.253929875506,835.801699999996 -6.72663169013746,43.2538805903914,834.863400000002 -6.72701457546775,43.2532692138934,843.568599999999 -6.72724038318411,43.2524938878888,842.385899999994 -6.72787271449912,43.2521815783152,850.188200000004 -6.72890050306683,43.2521482183615,858.359400000001 -6.72928087401261,43.252182081459,856.1685 -6.72968454635857,43.2525991647185,858.585600000006 -6.73015493927565,43.2530755923581,866.345000000001 -6.73094132896695,43.2532190901214,861.926800000001 -6.73185445387685,43.2533738200641,878.019700000004 -6.73231210598823,43.2532977126514,884.167499999996 -6.73253204680744,43.2534598186303,890.747900000002 -6.73273673243652,43.2537144611371,899.758499999996 -6.73357794091969,43.2533798550551,910.917799999996 -6.73432862347676,43.2529408111655,926.262499999997 -6.73496950405834,43.2527664675169,932.828500000003 -6.73534484623517,43.2520323805942,929.0 -6.73571918140059,43.2512830384899,924.0 -6.73578858344281,43.250359184828,916.152000000002 -6.73600483667781,43.249430637507,903.629400000005 -6.73645192729638,43.2484945467364,912.078200000004 -6.73729062049678,43.2477760501002,915.427100000001 -6.73838932027637,43.2471873053868,913.598499999993 -6.73992354396697,43.2468454912167,912.306500000006 -6.74163479326072,43.2466513663546,926.037299999996 -6.7435891176872,43.2466490192271,927.6927 -6.74455001949546,43.2465563157986,926.732199999999 -6.74539407743476,43.2459296841922,927.767999999996 -6.74642689566972,43.2452968506851,928.137700000007 -6.74775425352006,43.2446697166585,929.070999999996 -6.74898337610251,43.2441533918016,929.102199999994 -6.75060695072284,43.243900593258,931.670499999993 -6.75276981634757,43.2438759509011,931.0 -6.75354195786014,43.2437894493311,930.0 -6.75364656398005,43.2427569668193,927.990300000005 -6.7552012387164,43.2427522729185,933.485000000001 -6.75678474847506,43.2425314936146,941.232699999993 -6.75820816317873,43.2421008308457,940.209300000002 -6.75945337818118,43.2415070572026,937.0 -6.76053380622787,43.2406267893308,935.809399999998 -6.76174281193785,43.2397884319829,934.0 -6.76312247329729,43.238990474513,935.0916 -6.76437439422335,43.2381660308212,927.198199999999 -6.76501728613283,43.2370081541536,918.597599999994 -6.76531333491787,43.2356774434395,916.456900000005 -6.76567191273487,43.2350206376229,912.975300000006 -6.76614465205146,43.2348516584173,907.127999999997 -6.76666332402515,43.2344045677285,903.119099999996 -6.76694462067659,43.2338578999208,897.139599999995 -6.76735835145878,43.2334143296151,894.0 -6.76758633938633,43.2330230622196,891.880399999995 -6.76842503258673,43.2329955697432,891.5429 -6.76892325261633,43.2332404890091,892.262799999997 -6.76959799609086,43.2332798838652,898.829400000002 -6.77059678344795,43.2331243155299,908.823099999994 -6.77170051289482,43.2329652269517,919.000100000005 -6.77180981271206,43.2333766109828,922.363200000007 -6.77276082317075,43.2334683088896,928.098599999998 -6.77368802917272,43.2338527033481,939.608399999997 -6.77459813664157,43.2339611650216,954.028000000006 -6.77543314135942,43.2335343587591,964.031099999993 -6.776341404587,43.2332741839431,974.031000000003 -6.77766138726883,43.2332155111701,987.0677 -6.77881758641314,43.2328855990594,989.566300000006 -6.78059991490376,43.2324889673022,987.996499999994 -6.78129561248059,43.2321897334812,984.370299999995 -6.78237838692683,43.2313552309437,973.948199999999 -6.78312672308438,43.2305472157087,972.267800000001 -6.78447335967903,43.2305797372768,970.059099999999 -6.78541498274299,43.2301800882314,964.268700000001 -6.78635275023776,43.229719084078,957.533299999996 -6.78676731914812,43.2289528102883,949.482600000003 -6.78713612248801,43.228464647928,947.890899999999 -6.78792335120579,43.2279471496013,957.811700000006 -6.78883630813074,43.2274254597296,959.026400000002 -6.78948540200895,43.226712830139,956.462499999994 -6.78982755143603,43.2257953472093,948.3511 -6.79060522477412,43.2251246273096,945.166700000002 -6.79148867743187,43.2244656419055,940.097500000003 -6.7921272107156,43.2235843685301,929.531499999997 -6.7923749795457,43.2225009239433,915.417400000006 -6.79290387794058,43.2215465602699,932.0579 -6.79387383207199,43.2212687840466,916.631899999993 -6.79460842131073,43.2215980252174,925.270300000004 -6.79531451329374,43.2218052258677,918.539399999994 -6.7960519528869,43.2215044830821,914.784499999994 -6.79684856899938,43.220802247726,909.013200000001 -6.79714763522544,43.2202088085772,907.694699999993 -6.796650253324,43.2193038982495,907.986699999994 -6.79726196470996,43.2186692209906,908.100900000005 -6.79854070753375,43.2186269761922,892.451700000005 -6.79981073400436,43.2187847235183,885.221799999999 -6.80119140057859,43.2183548991141,869.884699999995 -6.80193169052614,43.2181000898199,866.0 -6.80229747642498,43.218241743994,868.555500000002</coordinates>
</LineString>
</Placemark>
</Folder>
</Document></kml>
