<?xml version="1.0" encoding="UTF-8"?>

<kml xmlns:xsd="http://www.w3.org/2001/XMLSchema" xmlns:gx="http://www.google.com/kml/ext/2.2" xmlns:atom="http://www.w3.org/2005/Atom" xmlns="http://www.opengis.net/kml/2.2">
<Document>
<name>ES25a_14a_calatayud-cervera_de_la_canada</name>
<visibility>1</visibility>
<Schema name="ES25a_14a_calatayud-cervera_de_la_canada" id="kml_schema_ft_ES25a_14a_calatayud-cervera_de_la_canada">
<SimpleField type="xsd:string" name="id">
<displayName>id</displayName>
</SimpleField>
<SimpleField type="xsd:string" name="nombre">
<displayName>nombre</displayName>
</SimpleField>
<SimpleField type="xsd:double" name="longitud">
<displayName>longitud</displayName>
</SimpleField>
<SimpleField type="xsd:string" name="_formato">
<displayName>_formato</displayName>
</SimpleField>
</Schema>
<Folder id="kml_ft_ES25a_14a_calatayud-cervera_de_la_canada">
<name>ES25a_14a_calatayud-cervera_de_la_canada</name>
<Placemark id="kml_1">
<name>&lt;img height='20' src='https://nco.ign.es/iconos/icono_todos_caminos_azul.png' /&gt;&lt;img height='20' src='https://nco.ign.es/iconos/Camino Santiago_20.png' /&gt;&lt;img height='20' src='https://nco.ign.es/iconos/icono_todos_caminos_azul.png' /&gt;  Camino de Santiago </name>
<visibility>1</visibility>
<description><![CDATA[<!DOCTYPE html>
<html>
<head>
<style>
#nco {
  border-collapse: collapse;
  overflow:hidden;
}
#nco th, #nco td {
  padding: 4px;
  text-align: left;
}
#nco th {
  color: #364B5F;
  padding-right: 5px;
}
#nco td {
  color: rgb(51, 51, 51);
  font-size: 12px;
  padding-right: 5px;
}
</style>
</head>
<body>
<table id="nco">
<tr>
<td>Caminos del Este</td>
</tr>
<tr>
<th><b>Camino: </b></th>
<td>ES25a Camino de Sagunto</td>
</tr>
<tr>
<th><b>Etapa: </b></th>
<td>14a Calatayud-Cervera de la Cañada</td>
</tr>
<tr>
<th><b>Longitud: </b></th>
<td>16.87 km</td>
</tr>
</table>
</body>
</html>]]></description>
<Style>
<IconStyle>
<scale>0.8</scale>
</IconStyle>
<LabelStyle>
<color>ffffffff</color>
<scale>0.75</scale>
</LabelStyle>
<LineStyle>
<color>ffff0000</color>
<width>3.0</width>
<gx:labelVisibility>1</gx:labelVisibility>
</LineStyle>
<PolyStyle>
<color>66ff0000</color>
</PolyStyle>
</Style>
<ExtendedData>
<SchemaData schemaUrl="#kml_schema_ft_ES25a_14a_calatayud-cervera_de_la_canada">
<SimpleData name="id">ES25a_14a</SimpleData>
<SimpleData name="_formato">kml</SimpleData>
</SchemaData>
</ExtendedData>
<LineString>
<extrude>0</extrude>
<tessellate>1</tessellate>
<coordinates>-1.64270684133464,41.3510826225804,530.0 -1.6424894148999,41.3513376000072,529.0 -1.64253015080311,41.3515211633376,529.0 -1.6425740721323,41.352031956674,528.0 -1.64252596016228,41.352576947913,529.0 -1.64265705310834,41.3529400521422,530.007700000002 -1.64391299669023,41.3537480679364,533.0 -1.64399296022523,41.3545460251743,535.0 -1.64452001437886,41.3555530265765,537.099400000006 -1.64572600264779,41.3560100081057,541.0 -1.64620997360037,41.3562889581232,542.0 -1.64661699935729,41.3567390662231,544.647500000006 -1.64720993505549,41.3575170740634,546.217199999999 -1.64815407250395,41.3597109535716,556.975900000005 -1.64911597952703,41.35982494754,560.0 -1.64958704258728,41.3600690285552,561.0 -1.65120206794107,41.3622699486232,568.260299999994 -1.65335202567348,41.3641550385819,576.0 -1.65627194560559,41.3655199477682,587.0 -1.65816206474379,41.3666649160002,594.186100000006 -1.66047999665455,41.3684039931407,605.0 -1.66042903433015,41.3688700267054,607.0 -1.65982905763673,41.36962506884,609.017800000001 -1.65981497654466,41.3700679684149,611.0 -1.660798005655,41.3716159379878,615.0 -1.66190408150142,41.3729169772035,618.0 -1.66221404429187,41.3735239944582,619.0 -1.66222997052354,41.3739199557554,618.0 -1.65804706511603,41.3841249231158,588.0 -1.65770005400663,41.3861959234346,579.0 -1.65735907867762,41.3872069486205,580.287899999996 -1.65739897645264,41.387802063775,581.0 -1.65793893849857,41.3888549986272,580.050399999993 -1.65841402511298,41.3908619616843,585.0 -1.65908407399182,41.3912770331002,583.022200000007 -1.65953602629275,41.3919529497356,583.0 -1.65931591748857,41.3927839318526,584.277300000002 -1.65952194520064,41.3938219467374,581.0 -1.66013499687305,41.3945350789397,574.0 -1.66023993896283,41.3949169587715,575.112800000003 -1.66068099469937,41.3955080503541,574.328099999999 -1.66132505980863,41.3957900178099,578.080400000006 -1.66210306821831,41.3963660221782,579.875 -1.66311107588347,41.3967130326249,581.333599999998 -1.66374005378751,41.3971180462926,578.215899999996 -1.66485602008521,41.3974719301648,574.720799999996 -1.66669702114025,41.3976779572176,581.8701 -1.66784198954688,41.398060004569,578.084799999997 -1.66854204574949,41.3984829551975,572.984400000001 -1.66970495171569,41.3984569714604,580.951300000001 -1.66931904894438,41.3987880564583,572.417799999996 -1.66935995193422,41.3992200601649,571.0 -1.67052503631498,41.3998220483341,573.0 -1.67088696754298,41.4006729789721,575.0 -1.67140999814241,41.4013210680928,573.0 -1.67214106778189,41.4015770514243,572.546300000002 -1.67257307119528,41.4020080487784,575.092099999994 -1.67313298212871,41.4021719986438,578.796100000007 -1.67633805428147,41.4026110427245,584.320699999997 -1.67738495360853,41.4029500069316,586.0 -1.67748503401603,41.4033240077461,588.011299999998 -1.67813194947968,41.4037320385832,588.248800000001 -1.67852707166077,41.4045259720718,590.0481 -1.67977396381783,41.405319067783,590.0 -1.68037997539335,41.4062960625513,593.200599999996 -1.68032297908518,41.4065860765049,595.191500000001 -1.68090803566007,41.4072339975041,603.001499999998 -1.68023496844185,41.4071310675935,607.887400000007 -1.67999591686328,41.4072150547044,607.904399999999 -1.6797719524899,41.4075930782322,608.475200000001 -1.67988695211766,41.408443003616,611.0 -1.68069496785108,41.4101299453528,619.763099999996 -1.6805849969923,41.4116170626131,622.254000000001 -1.68072296294859,41.4118160489783,622.168699999995 -1.68144598637806,41.4121399252578,624.404899999994 -1.68175192561437,41.4129219574634,632.052200000006 -1.68230798097863,41.4133610009933,637.0 -1.68232994119405,41.4135740689905,639.566300000006 -1.68285096046558,41.4141770633927,644.830199999997 -1.68265096853387,41.4147339567711,644.0 -1.68278206147993,41.4152789482262,646.061100000006 -1.68264392753869,41.4158899893025,646.287800000006 -1.68293293532851,41.4165570209986,648.0 -1.68301910173057,41.416618376315,648.0 -1.68319294190774,41.4167179531949,647.995699999999 -1.68363198631631,41.4169239805314,645.0 -1.68427906886662,41.4176899188388,644.310100000002 -1.68447403202934,41.4182399391926,649.826300000001 -1.6845030341383,41.4182399391926,650.0 -1.68460780734483,41.4182181467057,650.039999999994 -1.6848037766207,41.4181769073515,651.1587 -1.68493889312089,41.4181826070848,652.468200000003 -1.68505607206151,41.4182240134999,652.578999999998 -1.68510384895987,41.4183229203348,653.156000000003 -1.68529981733744,41.4184411053946,654.0 -1.68574606982786,41.418545040651,655.031400000007 -1.68592661592863,41.4187178752208,658.109800000006 -1.68606122937224,41.4189770436923,664.232300000003 -1.68627798566378,41.4193949655615,672.662100000001 -1.68692506821409,41.4196700600412,681.118499999997 -1.68827706954761,41.4209709312612,701.027100000007 -1.69011404704852,41.422332990273,714.697899999999 -1.69252099481743,41.4251630562243,723.918699999995 -1.69376201917905,41.4262699700813,726.430600000007 -1.69410701806226,41.4272540056431,730.752299999993 -1.69446391962294,41.4277879327395,726.208899999998 -1.69438093864689,41.4285619176734,716.464699999997 -1.69448806004957,41.4287639214386,713.431200000006 -1.69552205148431,41.4298059597528,698.606199999995 -1.69625194702571,41.4302520446525,689.573999999993 -1.697255932035,41.4319309400405,685.449600000007 -1.69701101266099,41.4324799547983,687.535300000003 -1.6979279931401,41.4337459575981,695.316000000006 -1.69967897222391,41.4350929295514,695.639999999999 -1.70022396393712,41.4352649260555,693.0 -1.70102996744431,41.4383699183655,705.3361 -1.70139105964582,41.4386369657144,706.083599999998 -1.70265102768017,41.4402199716644,712.192299999995 -1.70306794388837,41.4404979153564,710.993499999997 -1.70378208118305,41.4423679179814,701.207800000004 -1.70390697216035,41.4432830543667,696.712199999994 -1.70473108031381,41.4435499340276,702.779999999999 -1.70479193308945,41.4438860483166,702.041400000002 -1.7040819864356,41.4442669222734,711.962199999994 -1.70385299239493,41.4445460398311,714.5861 -1.70412389553855,41.4445314552185,716.950599999996 -1.70422766353027,41.4446278466599,717.585999999996 -1.70432606678312,41.4447210535804,717.721000000005 -1.70433830453224,41.4449530649545,718.709000000003 -1.70430444163929,41.4452321822542,720.660099999994 -1.7042605203101,41.4454881655973,721.561100000006 -1.70432958728071,41.4456682088437,719.852599999998 -1.70425079784378,41.4457754969516,719.922600000005 -1.70426219746475,41.4458516049264,718.824600000007 -1.70429220389016,41.445995270968,719.863200000007 -1.70439697799503,41.4460909922636,717.161900000006 -1.70477097898716,41.4460599787274,710.842799999999 -1.70493694004096,41.4452100540627,707.0 -1.70618802283881,41.4451289172959,705.989400000006 -1.70754505294131,41.443890071768,704.0 -1.70851903062686,41.4429020130212,706.748999999996 -1.70852892107814,41.4423519928193,711.766399999993 -1.70872203999962,41.4420660018591,714.844100000002 -1.70923501216282,41.4420700254234,719.0 -1.70977396899393,41.4418299680312,722.311000000002 -1.71281307919459,41.4412879940495,723.0 -1.71495901427116,41.4405059620058,720.222899999993 -1.71690294518979,41.4404070559628,717.536399999997 -1.71865694261298,41.4392590703085,715.0 -1.71943394490954,41.438987999744,711.885999999999 -1.71966293805187,41.4386019288772,713.219500000007 -1.71991892197523,41.4384689925052,714.566399999996 -1.72251295288522,41.4380949913308,713.781400000007 -1.72463508350507,41.4371679532962,707.713600000003 -1.7253059705121,41.4365349516501,704.0 -1.72575104980277,41.4363059582569,702.219800000006 -1.7295569367771,41.4351650132672,686.0 -1.73075403980954,41.4350399555492,682.0 -1.73304397572449,41.4344440021172,677.956000000006 -1.73335896818222,41.4330750695789,678.0 -1.7336689309727,41.4328380298503,677.012600000002 -1.73424795266549,41.4327890794946,681.040099999998 -1.73459278446204,41.4325867400552,680.549299999999 -1.73494398621223,41.432441900726,677.164099999995 -1.73533039204015,41.4326130590147,679.953599999993 -1.73598015695986,41.4324286576988,677.058699999994 -1.73643680295813,41.432283818017,671.100600000005 -1.73680560629802,41.4321916169569,668.340299999996 -1.73727985478431,41.4319941397042,667.0</coordinates>
</LineString>
</Placemark>
</Folder>
</Document></kml>
