<?xml version="1.0" encoding="UTF-8"?>

<kml xmlns:xsd="http://www.w3.org/2001/XMLSchema" xmlns:gx="http://www.google.com/kml/ext/2.2" xmlns:atom="http://www.w3.org/2005/Atom" xmlns="http://www.opengis.net/kml/2.2">
<Document>
<name>ES25a_15a_cervera_de_la_canada-berdejo</name>
<visibility>1</visibility>
<Schema name="ES25a_15a_cervera_de_la_canada-berdejo" id="kml_schema_ft_ES25a_15a_cervera_de_la_canada-berdejo">
<SimpleField type="xsd:string" name="id">
<displayName>id</displayName>
</SimpleField>
<SimpleField type="xsd:string" name="nombre">
<displayName>nombre</displayName>
</SimpleField>
<SimpleField type="xsd:double" name="longitud">
<displayName>longitud</displayName>
</SimpleField>
<SimpleField type="xsd:string" name="_formato">
<displayName>_formato</displayName>
</SimpleField>
</Schema>
<Folder id="kml_ft_ES25a_15a_cervera_de_la_canada-berdejo">
<name>ES25a_15a_cervera_de_la_canada-berdejo</name>
<Placemark id="kml_1">
<name>&lt;img height='20' src='https://nco.ign.es/iconos/icono_todos_caminos_azul.png' /&gt;&lt;img height='20' src='https://nco.ign.es/iconos/Camino Santiago_20.png' /&gt;&lt;img height='20' src='https://nco.ign.es/iconos/icono_todos_caminos_azul.png' /&gt;  Camino de Santiago </name>
<visibility>1</visibility>
<description><![CDATA[<!DOCTYPE html>
<html>
<head>
<style>
#nco {
  border-collapse: collapse;
  overflow:hidden;
}
#nco th, #nco td {
  padding: 4px;
  text-align: left;
}
#nco th {
  color: #364B5F;
  padding-right: 5px;
}
#nco td {
  color: rgb(51, 51, 51);
  font-size: 12px;
  padding-right: 5px;
}
</style>
</head>
<body>
<table id="nco">
<tr>
<td>Caminos del Este</td>
</tr>
<tr>
<th><b>Camino: </b></th>
<td>ES25a Camino de Sagunto</td>
</tr>
<tr>
<th><b>Etapa: </b></th>
<td>15a Cervera de la Cañada-Berdejo</td>
</tr>
<tr>
<th><b>Longitud: </b></th>
<td>28.52 km</td>
</tr>
</table>
</body>
</html>]]></description>
<Style>
<IconStyle>
<scale>0.8</scale>
</IconStyle>
<LabelStyle>
<color>ffffffff</color>
<scale>0.75</scale>
</LabelStyle>
<LineStyle>
<color>ffff0000</color>
<width>3.0</width>
<gx:labelVisibility>1</gx:labelVisibility>
</LineStyle>
<PolyStyle>
<color>66ff0000</color>
</PolyStyle>
</Style>
<ExtendedData>
<SchemaData schemaUrl="#kml_schema_ft_ES25a_15a_cervera_de_la_canada-berdejo">
<SimpleData name="id">ES25a_15a</SimpleData>
<SimpleData name="_formato">kml</SimpleData>
</SchemaData>
</ExtendedData>
<LineString>
<extrude>0</extrude>
<tessellate>1</tessellate>
<coordinates>-1.7372840454251,41.4319420043808,667.0 -1.73782501358415,41.4317130102747,665.0 -1.74051191681976,41.4327890794946,670.0 -1.74159402022447,41.4326097063417,667.353900000002 -1.74223188336501,41.432783882798,668.0 -1.74325548129192,41.4330656824301,669.364000000001 -1.7434284833409,41.4328172424038,668.277700000006 -1.74400214119316,41.4328432265426,668.548200000005 -1.74506597196668,41.4329989621098,666.0 -1.74564382045973,41.4331176498249,665.702000000005 -1.74633113675494,41.4335105932653,667.0 -1.74679901438921,41.43373506059,667.0 -1.74789369061467,41.4338331288827,667.0 -1.74839308474234,41.4337330495597,666.996599999999 -1.74856005280759,41.43373506059,667.0 -1.74943294397252,41.433968077691,668.617299999998 -1.75224691660002,41.4342800522059,670.790399999998 -1.75397895290947,41.4341700814717,669.010999999999 -1.75619797761248,41.4345400590071,675.0 -1.75813302419298,41.4351650132672,677.101500000004 -1.75889192184331,41.4356000346676,679.0 -1.7632780037102,41.4374009701957,685.0 -1.76854301252243,41.4401819180893,692.0 -1.76999894893435,41.4417530216662,696.0 -1.77063798527463,41.4427300165536,697.509999999995 -1.7707479561334,41.4431380476635,697.556200000006 -1.77114592866888,41.4435620044436,693.839800000002 -1.7717740684448,41.4451480281535,701.715800000005 -1.77169008225393,41.4458239446132,704.397800000006 -1.77202401658776,41.4476699749711,711.944199999998 -1.7727200501345,41.4488830042686,715.529299999995 -1.77280101888432,41.4492910350662,715.517800000001 -1.77313596022959,41.449706945189,715.253200000006 -1.77365496727489,41.4511219776422,718.7068 -1.77507704079383,41.451992019733,716.080300000001 -1.77583795067042,41.4528499908951,716.400999999998 -1.77674906335405,41.4540710666042,718.372499999998 -1.77689792587473,41.4544680338969,720.4326 -1.77860297230145,41.4565930139652,726.037899999996 -1.77889097487649,41.4574280192887,726.982699999993 -1.78000392373311,41.4584269738728,727.062000000005 -1.77994592131185,41.4588430516255,725.295599999998 -1.78059400997528,41.4591870448476,726.967499999999 -1.7821109671478,41.4609110349334,734.0 -1.78248396112849,41.4616010333634,732.0 -1.78244573960979,41.4621450188052,731.887100000007 -1.78299877753296,41.4621938016086,731.0 -1.78376639243482,41.4624035164196,729.0 -1.78419588146373,41.4627057680678,730.311600000001 -1.78467733803183,41.4632128734885,731.297699999996 -1.784839946573,41.4630665252484,730.0 -1.78543204414307,41.4624668836517,728.907600000006 -1.78578341387826,41.4625547258951,728.782800000001 -1.7860779534936,41.4624519637809,729.0 -1.78624542461539,41.4623790412893,729.425199999998 -1.78712200336457,41.4617839266324,733.167799999996 -1.78735787041546,41.4614186431315,737.449600000007 -1.78744604814545,41.4611400283401,737.006699999998 -1.78788492456907,41.460921260906,737.631399999998 -1.78888505311088,41.4600220504353,735.0 -1.78951151663045,41.4598242371076,736.0 -1.78983992003708,41.4596210603247,739.914799999999 -1.78999951113719,41.4594584511181,739.800300000003 -1.79009506493395,41.4592130291998,743.365999999995 -1.79028701065565,41.4583470109192,755.0 -1.79059093856406,41.4580459325995,759.177100000001 -1.79174965209284,41.4575519034944,761.0 -1.79218551107544,41.4574397538689,765.0 -1.79275816281454,41.4571375019136,768.0 -1.79343994728426,41.4569819340101,775.750100000005 -1.79371504106867,41.4567180718902,780.435400000002 -1.7945798860236,41.4565621683757,785.0 -1.79538656057236,41.4562403031729,788.468099999998 -1.79590506456109,41.4561350265485,790.354600000006 -1.79619994014635,41.4558941304755,789.042199999996 -1.79686093670207,41.4551090818502,789.607000000004 -1.79746862543223,41.4549188123012,790.815700000006 -1.79813196838747,41.4547689436767,795.957800000004 -1.79835995631502,41.4549578718459,797.099900000001 -1.79858123921726,41.45518217208,800.788700000005 -1.79891198902341,41.4552079883743,800.0 -1.7989389789061,41.4552698464492,800.892800000001 -1.79920585849555,41.4552845989834,801.758499999996 -1.79998705143294,41.4551119317789,808.751000000004 -1.80055920011547,41.4553819964604,812.652799999996 -1.80099707132433,41.4555439345485,814.501900000003 -1.80206861323624,41.4554844230483,816.9326 -1.80274520095205,41.4554259173458,819.936900000001 -1.80309506151755,41.4554480460926,821.0 -1.8045409394932,41.4558502092339,821.5196 -1.80605504631134,41.4562800338277,826.0 -1.8066359122454,41.4563182550272,827.0 -1.80848998917776,41.4559670535265,827.168099999995 -1.81024197527298,41.4566610747038,832.0 -1.81246904618603,41.4581180170755,836.0 -1.8126608248211,41.4581662973104,836.0 -1.81371476514335,41.4581761877727,839.020199999999 -1.81514907641141,41.4581639497476,844.948900000003 -1.8156670782419,41.4583850646127,848.631399999998 -1.816042922577,41.4587749904837,852.237399999998 -1.81833503780482,41.4591409445944,858.0 -1.8186530468053,41.4593268554448,857.557400000005 -1.81890400106137,41.4596790627159,859.186700000006 -1.81918999141017,41.4597360599431,859.765899999999 -1.82097902492606,41.4597360599431,861.998500000002 -1.82133358008722,41.4597169493434,861.493499999997 -1.82196993405807,41.4595030431352,861.550900000002 -1.82358294718563,41.4594760531097,868.067800000004 -1.82380590544586,41.4594681744249,870.906700000007 -1.82420941070519,41.4590683576843,874.733800000002 -1.82474283481248,41.45874179839,875.022400000002 -1.82501608525391,41.4585711432441,877.065400000007 -1.82509906622999,41.4583550573747,877.068199999994 -1.82595955166084,41.4579079665992,876.0 -1.82601101704179,41.4579850802918,875.993100000007 -1.82658199252457,41.4585800278412,880.0 -1.82902397548788,41.4598959863658,886.611199999999 -1.82966904671026,41.4604679673713,886.760200000004 -1.82984406098547,41.4607090309148,885.625799999994 -1.83003902414822,41.4616478043913,888.0 -1.83026600596266,41.4623679774261,887.0 -1.83109950240911,41.4633250232285,886.460800000001 -1.83134676908097,41.4639734471057,886.0 -1.83143779626702,41.4642904506732,885.628100000002 -1.83130770943411,41.4646463461873,885.765400000004 -1.83088475834384,41.4650461628698,883.878500000006 -1.83025376911183,41.4655336544104,885.268899999995 -1.83013658927291,41.4656652502785,885.792499999996 -1.83005846997919,41.4658067371976,886.0 -1.82999342656272,41.4660845133872,884.0 -1.82992838314625,41.4669084545821,880.407099999997 -1.82971900292151,41.4679109296802,882.632100000003 -1.82988932349939,41.4682297778898,882.848400000003 -1.82987306309443,41.468638982078,880.997099999993 -1.83108894181463,41.4697990377735,892.050799999997 -1.83164600239368,41.4705892833118,897.197700000004 -1.83199737212887,41.4712474301246,900.0766 -1.8321014751922,41.4716375243335,906.088000000003 -1.83220557825554,41.4718861314089,907.863299999997 -1.83258695531443,41.4727169457512,908.669800000003 -1.83279767672391,41.4731388905685,906.0 -1.83320755103859,41.4739482469008,897.056200000006 -1.83342866595588,41.4743624811519,897.198000000004 -1.83375103358211,41.4766500697432,905.503500000006 -1.83395706129422,41.4771120803847,909.137000000002 -1.83517796878338,41.4788169593537,917.463900000002 -1.83580694758575,41.479194983261,923.789900000003 -1.8365720472048,41.4809040533747,929.0 -1.83708200192699,41.4815479512287,931.0 -1.83766001840499,41.4819410623584,931.044200000004 -1.83783201523915,41.4824409591053,933.393599999996 -1.83827709363153,41.4828312208184,932.689400000003 -1.83846501669739,41.4829690187092,933.8508 -1.83856107265239,41.4832459568647,933.974400000006 -1.84110296893654,41.4850309673394,941.064199999993 -1.84149758895938,41.4853902153593,941.001199999999 -1.84186589014103,41.48600393826,939.453699999998 -1.84223050284013,41.4862572398508,938.532099999997 -1.84232823594978,41.4866542066039,937.371100000004 -1.84230560469283,41.4870905684412,937.122900000002 -1.84199379766108,41.4875073168708,941.8992 -1.84176832411804,41.4878591886942,944.290599999993 -1.84179397281604,41.488033029754,944.329700000002 -1.84289183446747,41.4888388658023,942.834499999997 -1.8430899830562,41.4890519336747,943.188599999994 -1.84339927480514,41.489452421455,944.981 -1.84369616171834,41.4899028644625,952.710500000001 -1.84382759063431,41.4902181915456,956.0 -1.84405306327905,41.4905362012787,954.098599999998 -1.84481598448354,41.4911021473075,950.930500000002 -1.84544999115657,41.4919240768623,954.187900000004 -1.84578560264504,41.4924278288838,956.442299999995 -1.84605985919959,41.4928051826072,956.314799999993 -1.84661893200487,41.49378603241,960.034499999994 -1.84710307004407,41.4943050404554,963.806599999996 -1.84741286574793,41.4949978882438,968.0 -1.84776792306733,41.4961359830556,969.0 -1.8480666542218,41.4964784677185,968.321800000005 -1.84829598333405,41.4966952238278,967.484700000001 -1.84833906563678,41.4969180145006,967.0 -1.84846127424465,41.4973538739054,965.934699999998 -1.84857778214373,41.4983221512213,968.526299999998 -1.84884466263151,41.4986795553716,968.878500000006 -1.84905873655358,41.4989638696616,968.289999999994 -1.84957891679866,41.4995269660729,963.445600000006 -1.84969760490894,41.4997153910869,964.271200000003 -1.84982920091154,41.5000530140236,963.845000000001 -1.84997202855015,41.5003036327451,963.750899999999 -1.85010345656779,41.500455513396,963.665699999998 -1.85020873283086,41.500776372597,964.0 -1.85027645861677,41.50122111641,965.0 -1.85049807659063,41.5016236152502,962.191600000006 -1.85099797287655,41.5021808441328,960.204500000007 -1.85174597396252,41.5029680723755,960.423899999994 -1.85205761300928,41.5036247103435,963.0 -1.85228995956258,41.5043219174454,965.0 -1.85283562141899,41.504781413162,969.146800000002 -1.85430128119553,41.5057382915434,968.950500000006 -1.85556393159931,41.5067630630124,963.704899999997 -1.85620279995466,41.5074071283516,961.048299999995 -1.85725875160481,41.5084738095101,963.060400000002 -1.85779703739442,41.5091629693213,968.066000000006 -1.85906605775189,41.510239037894,969.108399999997 -1.85961507301927,41.5109560260422,969.116399999999 -1.85965647906565,41.5113526577929,971.0 -1.85981204750992,41.5117000041386,972.0 -1.8603300493404,41.5123330053903,972.420400000003 -1.86083262799579,41.5126639226455,973.629000000001 -1.86136303466203,41.5128939218111,973.701300000001 -1.86167819420641,41.5129200736523,974.0 -1.86200508844335,41.5128665968321,973.898300000001 -1.86230801023865,41.5128900660987,973.623699999996 -1.86345498997317,41.5136110776432,975.217099999994 -1.86371130896815,41.5137726805825,975.215200000006 -1.86406083446206,41.5141300848828,976.883000000002 -1.86510806886071,41.5153010368792,979.0046 -1.86571424842118,41.5157509779259,979.0671 -1.86608606920209,41.516059934454,979.778000000006 -1.86660122157652,41.5163925283516,981.049599999998 -1.86708217508804,41.5165641895268,981.0 -1.86752574520905,41.5166401296595,979.870200000005 -1.86842763758461,41.517079006201,983.979300000006 -1.86896793560046,41.5174060679641,982.0 -1.8696089832687,41.5181270796506,979.998600000006 -1.87016386543315,41.5184776107566,982.006599999993 -1.87066359463245,41.5188940233859,981.417700000005 -1.87129877540355,41.5190852990182,982.400200000004 -1.87176480879655,41.5191330758005,982.590400000001 -1.87202800080175,41.5192380167168,982.168099999995 -1.87250392554432,41.5195199841787,982.0 -1.87333188926698,41.5197127679335,986.0 -1.87409397234332,41.5199169508669,989.197 -1.87481246916205,41.5202163528974,994.439899999998 -1.87541998900892,41.5204659660773,996.415999999997 -1.87584210197103,41.520748268516,997.463099999994 -1.87635322989296,41.5209536251984,999.0 -1.87716493410896,41.5211365177758,1001.9676 -1.87874894602586,41.5215380110637,1006.4425 -1.87922436771189,41.5216374208712,1007.5469 -1.87965285062769,41.5216260214214,1007.6971 -1.88018275423738,41.5216766480381,1008.0 -1.88078004856136,41.52178997113,1009.0 -1.8825089003431,41.5224757783501,1012.0 -1.88384396933183,41.5228960472725,1014.4963 -1.88421126440036,41.52305815297,1015.0316 -1.88446506901086,41.5231780142648,1015.861 -1.8851094691917,41.523846052114,1013.7862 -1.88569603493625,41.5243950669452,1013.1238 -1.88607523178399,41.5245380619327,1014.0 -1.88667906404662,41.524677034131,1016.4319 -1.88702221958685,41.5249207796848,1016.8763 -1.88804816481158,41.5252894156424,1019.0 -1.88881477360033,41.5256017256142,1020.3187 -1.88999863366885,41.5261136921872,1020.0 -1.89087806277243,41.5265349664411,1018.7852 -1.89118701944979,41.5266189530302,1018.2812 -1.893339492465,41.5260265205227,1017.0 -1.89453072860033,41.5257085108819,1020.03479999999 -1.89532751179948,41.525550931245,1021.0 -1.89557544861454,41.5255341670163,1022.0 -1.89623007521657,41.5256880592042,1022.8366 -1.89725903788236,41.5254272139999,1025.412 -1.89809303738539,41.5253299843206,1029.0 -1.89877733623958,41.5253541242929,1031.0 -1.89982960030554,41.5253174112747,1025.261 -1.90099401364481,41.5252419742929,1018.1632 -1.90147932578208,41.525337192552,1017.1406 -1.90192658438564,41.5253118789992,1013.4719 -1.90232874846025,41.5254525275075,1011.0699 -1.90256092702859,41.5256349177663,1009.9813 -1.9029580614359,41.5260660826377,1007.0702 -1.90304892153533,41.5263059727532,1005.17359999999 -1.90301639982707,41.5265750319644,1002.10769999999 -1.90291699046111,41.5267490401277,1002.0 -1.90261054816826,41.5267748568358,999.0 -1.90250996470418,41.5268330271113,998.0 -1.9027346001191,41.5271884197539,994.231 -1.90292503667111,41.5274509411583,993.785099999994 -1.90353004303181,41.5276720556928,990.583199999994 -1.90394092345961,41.5276583095703,988.019799999995 -1.90417762863866,41.5276470772915,986.905499999993 -1.90569961458014,41.528656929517,974.314400000003 -1.90588904501907,41.5287209670073,972.365300000005 -1.90619951086609,41.5287442684524,970.0 -1.90674064701009,41.5288371399169,965.469299999997 -1.90711598828862,41.5289380583554,963.011700000003 -1.90748093605931,41.5286683284007,960.0334 -1.9076140412316,41.5284460403914,958.686300000001 -1.90753508380968,41.5280760632827,954.463799999998 -1.90698858382515,41.5271855696317,940.118100000007 -1.90684206770399,41.527056153239,939.799899999998 -1.90680451722679,41.5269548996409,937.792100000006 -1.90684692938631,41.5269170139859,937.082999999999 -1.90705245404184,41.5269436679124,933.658200000005 -1.90742695719222,41.5270420713996,929.527400000006 -1.90781906283059,41.527005526796,926.537700000001 -1.90824000169462,41.5269042731187,923.296199999997 -1.90889395815346,41.5268630342533,919.964699999997 -1.9093148970175,41.5269493681779,920.070999999996 -1.9099950043326,41.5269802132234,920.612699999998 -1.9103971684072,41.5271714884929,920.559699999998 -1.91094953528888,41.5273121363214,918.310400000002 -1.91147206373007,41.5273739948528,916.091400000005 -1.9128889404951,41.5270579972812,911.731499999994 -1.91368907710518,41.5271040976457,906.0 -1.91464394313308,41.5272179243619,901.992299999998 -1.91509840981848,41.5275879009979,902.0 -1.91598907145637,41.5283980963065,902.0 -1.9167444486091,41.5291127373667,902.0 -1.91747602040682,41.5297930124185,902.0 -1.91869106099887,41.5304152847974,902.555200000003 -1.91928483572359,41.5306459545554,901.549899999998 -1.91980719528149,41.5309301015692,900.987699999998 -1.92019058366836,41.5312058656187,901.5576 -1.92047238337637,41.5315153260162,901.929999999993 -1.92054748522904,41.5320497559018,903.034400000004 -1.92076541472035,41.5324324736028,903.321400000001 -1.92105106999754,41.5328178734891,903.911099999998 -1.92138550828623,41.5334253941309,904.801900000006 -1.92178767146254,41.5336813775649,903.9951 -1.92199068173359,41.5337883303852,903.638099999996 -1.92205706633476,41.5338860631193,903.638800000001 -1.92240776502842,41.5342047433367,903.291800000006 -1.92274589090137,41.5347785685957,906.064499999993 -1.92281730516982,41.5350400834981,906.933000000005 -1.92280406130758,41.5350610385622,907.0 -1.92330596981976,41.5351021101454,906.161500000002 -1.92314436649342,41.5356281581687,907.450700000001 -1.92285871121623,41.536165438095,908.5573 -1.92274589090137,41.5363510136674,909.0 -1.92263323857149,41.5364861297191,909.083100000003 -1.92216351669595,41.5366886365081,911.635899999994 -1.92201901190272,41.5367699410955,912.375100000005 -1.92180275956605,41.5372540796432,915.085800000001 -1.92159220614154,41.5374902818006,915.485499999995 -1.92128794226325,41.537850368456,915.898700000005 -1.9211109166601,41.5382119633198,916.031000000003 -1.920530050726,41.538715045247,915.5196 -1.92070540007283,41.5389951688523,915.077799999999 -1.92053625359306,41.5393103281426,915.672600000005 -1.9203220125843,41.539704110025,916.104999999996 -1.92032586815351,41.5397855822798,916.014200000005 -1.92017901696076,41.5398670544319,918.042000000001 -1.92032586815351,41.5401681318359,919.278999999995 -1.92038202633349,41.5404620012929,920.894199999995 -1.92044505842202,41.5405240274471,921.0 -1.92046701863747,41.5405159811086,920.974900000001 -1.92067304634957,41.5403399612367,919.669099999999 -1.92086700339921,41.5403709740436,918.284700000004 -1.92294001593596,41.5418170200851,923.0 -1.9228640759551,41.5419729235712,923.058699999994 -1.92203007645207,41.5423740811446,924.043900000004 -1.92186998229538,41.5429799252777,922.969599999997 -1.92196201559455,41.5434799896026,923.436499999996 -1.92234205057045,41.5440749368413,921.0 -1.92235797680212,41.5441250611344,921.366999999998 -1.92219302096315,41.5444489378152,924.0 -1.92264296103781,41.5450400297375,932.478499999997 -1.92235596457589,41.5452839426226,934.0 -1.92231606680087,41.5455060631804,935.0 -1.92343002177061,41.5465660386831,936.9856 -1.92428799371531,41.5469819484995,937.0 -1.92509299110942,41.5482600214807,938.990699999995 -1.92588206406848,41.5487399689965,939.701300000001 -1.9269034826825,41.5489553843671,938.056299999997 -1.92755693608476,41.5492589768333,940.534899999999 -1.92811399666381,41.5503729316406,940.0 -1.92912099911415,41.551551930198,941.0 -1.92978903666509,41.5518650780652,942.016499999998 -1.93201392916357,41.5524179484496,947.0 -1.93257501329675,41.5527109797349,946.788799999995 -1.9331339190154,41.5543519888692,950.0 -1.9334690274473,41.5547330298096,952.0 -1.93497693139838,41.5554280575423,955.1636 -1.93829298052302,41.5554429768405,955.734200000006 -1.93882959005632,41.555469967223,956.723800000007 -1.93905808014208,41.5556719708974,957.925099999993 -1.93941514968775,41.5558838649491,955.978600000002 -1.9396409583024,41.5564119252483,958.854999999996 -1.93963307917903,41.5578579708229,960.0 -1.93960374199849,41.5584447040024,959.734800000006 -1.93965001062552,41.5591429169592,960.959499999997 -1.93985804876723,41.5595549709027,960.542499999996 -1.94064293018717,41.5601690293146,960.046400000007 -1.94108398592367,41.5604060699839,960.621899999998 -1.94183601056377,41.5605470535475,960.0 -1.94261619828634,41.5605721987118,960.0 -1.94370266031684,41.5608301940261,959.0 -1.94461394098543,41.5608519869895,959.0 -1.94545296925744,41.5607767171466,959.185599999997 -1.94641621746523,41.5607255881027,961.862699999998</coordinates>
</LineString>
</Placemark>
</Folder>
</Document></kml>
