<?xml version="1.0" encoding="UTF-8"?>

<kml xmlns:xsd="http://www.w3.org/2001/XMLSchema" xmlns:gx="http://www.google.com/kml/ext/2.2" xmlns:atom="http://www.w3.org/2005/Atom" xmlns="http://www.opengis.net/kml/2.2">
<Document>
<name>ES25a_04a_viver-barracas</name>
<visibility>1</visibility>
<Schema name="ES25a_04a_viver-barracas" id="kml_schema_ft_ES25a_04a_viver-barracas">
<SimpleField type="xsd:string" name="id">
<displayName>id</displayName>
</SimpleField>
<SimpleField type="xsd:string" name="nombre">
<displayName>nombre</displayName>
</SimpleField>
<SimpleField type="xsd:double" name="longitud">
<displayName>longitud</displayName>
</SimpleField>
<SimpleField type="xsd:string" name="_formato">
<displayName>_formato</displayName>
</SimpleField>
</Schema>
<Folder id="kml_ft_ES25a_04a_viver-barracas">
<name>ES25a_04a_viver-barracas</name>
<Placemark id="kml_1">
<name>&lt;img height='20' src='https://nco.ign.es/iconos/icono_todos_caminos_azul.png' /&gt;&lt;img height='20' src='https://nco.ign.es/iconos/Camino Santiago_20.png' /&gt;&lt;img height='20' src='https://nco.ign.es/iconos/icono_todos_caminos_azul.png' /&gt;  Camino de Santiago </name>
<visibility>1</visibility>
<description><![CDATA[<!DOCTYPE html>
<html>
<head>
<style>
#nco {
  border-collapse: collapse;
  overflow:hidden;
}
#nco th, #nco td {
  padding: 4px;
  text-align: left;
}
#nco th {
  color: #364B5F;
  padding-right: 5px;
}
#nco td {
  color: rgb(51, 51, 51);
  font-size: 12px;
  padding-right: 5px;
}
</style>
</head>
<body>
<table id="nco">
<tr>
<td>Caminos del Este</td>
</tr>
<tr>
<th><b>Camino: </b></th>
<td>ES25a Camino de Sagunto</td>
</tr>
<tr>
<th><b>Etapa: </b></th>
<td>04a Viver-Barracas</td>
</tr>
<tr>
<th><b>Longitud: </b></th>
<td>20.46 km</td>
</tr>
</table>
</body>
</html>]]></description>
<Style>
<IconStyle>
<scale>0.8</scale>
</IconStyle>
<LabelStyle>
<color>ffffffff</color>
<scale>0.75</scale>
</LabelStyle>
<LineStyle>
<color>ffff0000</color>
<width>3.0</width>
<gx:labelVisibility>1</gx:labelVisibility>
</LineStyle>
<PolyStyle>
<color>66ff0000</color>
</PolyStyle>
</Style>
<ExtendedData>
<SchemaData schemaUrl="#kml_schema_ft_ES25a_04a_viver-barracas">
<SimpleData name="id">ES25a_04a</SimpleData>
<SimpleData name="_formato">kml</SimpleData>
</SchemaData>
</ExtendedData>
<LineString>
<extrude>0</extrude>
<tessellate>1</tessellate>
<coordinates>-0.595624912829793,39.9201120433644,543.893299999996 -0.59587569910091,39.9201792659386,545.0 -0.597819965091158,39.9202459862004,544.0 -0.601160991872264,39.9186549331378,552.0 -0.601956937841549,39.9194530578819,560.052500000005 -0.601583942962533,39.9207609700752,565.0 -0.602242928190352,39.9209589505201,568.748699999996 -0.603354032805728,39.9209710208416,578.342999999993 -0.604592040624633,39.9204860437082,591.035000000003 -0.605034939704115,39.9194720008483,596.488100000002 -0.605450011671009,39.919372926906,600.376900000003 -0.606021993266946,39.9187969225154,606.771599999993 -0.606861021538927,39.9184990297161,619.820600000006 -0.608488954785011,39.9186059825951,635.291800000006 -0.61090998364599,39.9200820359719,643.020999999993 -0.611547007760067,39.9202459862004,648.277300000002 -0.612088982032227,39.920887033544,654.285699999993 -0.613943058964551,39.921504947868,664.0 -0.614582933433019,39.9219590789815,665.0 -0.621603950996338,39.9237940452449,662.0 -0.623684003629978,39.9245569660871,655.523000000001 -0.625733043725056,39.925937968372,663.0 -0.627638082981783,39.9280430001204,663.0 -0.627679992084737,39.9280689837565,663.0 -0.627679992084737,39.928299988932,667.622499999998 -0.629224945253104,39.9296819972194,670.934500000003 -0.630108900069091,39.9308970382054,675.0 -0.630537047913268,39.9317307020132,675.640100000004 -0.63065674123836,39.9325710717457,676.0 -0.631324611702637,39.9336278622093,676.0 -0.631821155475954,39.9345862484379,678.0 -0.632057022526844,39.9356380098711,681.0 -0.632232036802055,39.9375269555272,684.2546 -0.632351897213808,39.9379209054604,685.0 -0.63252305591981,39.9378748043793,683.883499999996 -0.632745679108492,39.9375269555272,678.827399999995 -0.633086990407414,39.9371189246087,675.600099999996 -0.633216072025538,39.9365920382299,671.328899999993 -0.632822793187429,39.9362272578699,672.5429 -0.633019599693127,39.9359778121879,676.0 -0.634278058557786,39.9363125853332,680.001900000003 -0.635404922318176,39.9363950631659,686.032300000006 -0.637465026064307,39.9371519496663,690.964000000007 -0.637599639507957,39.937323443182,690.6247 -0.638079084748121,39.937270972539,694.902799999996 -0.638601277219431,39.9374875608225,695.128700000001 -0.640159305366719,39.9385641325614,701.836899999995 -0.640596002477473,39.9388989054528,702.0 -0.640938318991214,39.9388923676969,704.0 -0.641922857271272,39.9386296791544,708.0 -0.642222594538857,39.9389709901629,705.308199999999 -0.642872024386984,39.939619917194,708.0 -0.645520538118936,39.9385637971313,723.5432 -0.646519996517519,39.9379740464711,714.999299999996 -0.648750923898068,39.9370530431975,729.223100000003 -0.649008918251062,39.9360329652961,730.678199999995 -0.649695061346531,39.9351119620737,734.0 -0.650853942860268,39.9353419612515,741.717399999994 -0.651970077142926,39.934650957118,744.0 -0.652914047504729,39.9344209576845,744.0 -0.654329918156642,39.9341240703368,743.0 -0.655574966072434,39.9336640719773,744.423500000004 -0.656304024383973,39.9326439938475,754.2889 -0.655618049273461,39.9317880338893,746.065300000002 -0.655360054022169,39.9308009814094,737.770900000003 -0.656133033662894,39.9299780462112,732.971000000005 -0.656175948878964,39.9290240179655,731.0 -0.656251217818296,39.9287899952424,732.138500000001 -0.65639002280107,39.9285960377008,733.0 -0.656568054517331,39.928492940185,732.380699999994 -0.657578073510392,39.9289629976587,741.997499999998 -0.661767013800004,39.9303550642492,781.325299999997 -0.664947945526127,39.9340900402171,812.0 -0.667760073912323,39.9366609376624,851.600399999996 -0.668269023419723,39.9372860596007,862.981199999995 -0.672018919300698,39.9400859510116,896.816999999995 -0.673922952444309,39.9425200554004,901.603199999998 -0.675781052930799,39.9439089364388,906.0 -0.675912984005016,39.9442599711949,907.0 -0.67695904520392,39.9449010188761,910.058999999994 -0.677688941643618,39.9449690800546,911.031199999998 -0.678996015534831,39.9465680116992,919.210200000001 -0.680309962436303,39.9471440158911,922.0 -0.681738070837341,39.9482499245873,930.0 -0.6813830135179,39.9486919856937,928.361199999999 -0.681641008769191,39.9490359791235,929.0 -0.682568046786205,39.9485820152487,930.605599999995 -0.682914051782495,39.9485630720734,933.856199999995 -0.682795029498934,39.9484480727624,932.303499999995 -0.683090072170855,39.9481890715523,932.025099999999 -0.684768967741341,39.9471699998513,933.983099999998 -0.687330979999621,39.9461670214692,939.350099999996 -0.68853193860127,39.9460600682602,942.610499999995 -0.689339954334723,39.9462469847219,944.606 -0.690542925162603,39.9469949856715,948.733999999997 -0.692452993188314,39.9504659317961,956.531400000007 -0.695424042531455,39.9534069742271,965.155100000004 -0.695743057645018,39.954173918391,967.417300000001 -0.69651201373161,39.9578170289611,976.091799999995 -0.696380920785551,39.9591750645293,980.0 -0.695482045851007,39.9613040679243,981.659100000004 -0.694742929103234,39.9627950407281,984.737899999993 -0.694350991449824,39.9632069277682,985.847999999998 -0.694276057582076,39.9636459715215,986.654699999999 -0.693736932766009,39.9641720202549,986.0 -0.694236997935215,39.9646870041059,985.0 -0.69387892227646,39.9653590651721,984.0 -0.694181006841895,39.967392011726,981.902199999997 -0.693902056589978,39.968147053743,982.073999999993 -0.693817064285997,39.9690209510968,981.0 -0.69247696562999,39.9711910259002,978.0 -0.693011060778775,39.9719660166433,975.0 -0.693647078779704,39.9725190544495,973.0 -0.694651063789027,39.9729840827712,972.0 -0.695174932516621,39.9729649714959,972.680300000007 -0.695308036790581,39.9731560791894,972.840800000005 -0.696731954550826,40.0116040368346,989.878299999997 -0.696946028472931,40.0130970213847,993.502999999997 -0.69627597959406,40.0131860370207,988.580900000001 -0.696407072540119,40.0142639495019,987.780199999994 -0.696779061306019,40.0150659302816,984.302299999996 -0.697517003955719,40.0159009354444,982.0 -0.697761923329726,40.0165460068517,982.0 -0.69827271618007,40.0176846045149,979.613299999997</coordinates>
</LineString>
</Placemark>
</Folder>
</Document></kml>
