<?xml version="1.0" encoding="UTF-8"?>

<kml xmlns:xsd="http://www.w3.org/2001/XMLSchema" xmlns:gx="http://www.google.com/kml/ext/2.2" xmlns:atom="http://www.w3.org/2005/Atom" xmlns="http://www.opengis.net/kml/2.2">
<Document>
<name>ES25a_10a_santa_eulalia_del_campo-monreal_del_campo</name>
<visibility>1</visibility>
<Schema name="ES25a_10a_santa_eulalia_del_campo-monreal_del_campo" id="kml_schema_ft_ES25a_10a_santa_eulalia_del_campo-monreal_del_campo">
<SimpleField type="xsd:string" name="id">
<displayName>id</displayName>
</SimpleField>
<SimpleField type="xsd:string" name="nombre">
<displayName>nombre</displayName>
</SimpleField>
<SimpleField type="xsd:double" name="longitud">
<displayName>longitud</displayName>
</SimpleField>
<SimpleField type="xsd:string" name="_formato">
<displayName>_formato</displayName>
</SimpleField>
</Schema>
<Folder id="kml_ft_ES25a_10a_santa_eulalia_del_campo-monreal_del_campo">
<name>ES25a_10a_santa_eulalia_del_campo-monreal_del_campo</name>
<Placemark id="kml_1">
<name>&lt;img height='20' src='https://nco.ign.es/iconos/icono_todos_caminos_azul.png' /&gt;&lt;img height='20' src='https://nco.ign.es/iconos/Camino Santiago_20.png' /&gt;&lt;img height='20' src='https://nco.ign.es/iconos/icono_todos_caminos_azul.png' /&gt;  Camino de Santiago </name>
<visibility>1</visibility>
<description><![CDATA[<!DOCTYPE html>
<html>
<head>
<style>
#nco {
  border-collapse: collapse;
  overflow:hidden;
}
#nco th, #nco td {
  padding: 4px;
  text-align: left;
}
#nco th {
  color: #364B5F;
  padding-right: 5px;
}
#nco td {
  color: rgb(51, 51, 51);
  font-size: 12px;
  padding-right: 5px;
}
</style>
</head>
<body>
<table id="nco">
<tr>
<td>Caminos del Este</td>
</tr>
<tr>
<th><b>Camino: </b></th>
<td>ES25a Camino de Sagunto</td>
</tr>
<tr>
<th><b>Etapa: </b></th>
<td>10a Santa Eulalia del Campo-Monreal del Campo</td>
</tr>
<tr>
<th><b>Longitud: </b></th>
<td>28.86 km</td>
</tr>
</table>
</body>
</html>]]></description>
<Style>
<IconStyle>
<scale>0.8</scale>
</IconStyle>
<LabelStyle>
<color>ffffffff</color>
<scale>0.75</scale>
</LabelStyle>
<LineStyle>
<color>ffff0000</color>
<width>3.0</width>
<gx:labelVisibility>1</gx:labelVisibility>
</LineStyle>
<PolyStyle>
<color>66ff0000</color>
</PolyStyle>
</Style>
<ExtendedData>
<SchemaData schemaUrl="#kml_schema_ft_ES25a_10a_santa_eulalia_del_campo-monreal_del_campo">
<SimpleData name="id">ES25a_10a</SimpleData>
<SimpleData name="_formato">kml</SimpleData>
</SchemaData>
</ExtendedData>
<LineString>
<extrude>0</extrude>
<tessellate>1</tessellate>
<coordinates>-1.31281893726404,40.5654600815318,985.0 -1.31275892261656,40.5653879970697,985.0 -1.31269907595399,40.565316080405,985.0 -1.31264207874752,40.5652419846974,985.0 -1.31258591966925,40.5651690619883,985.0 -1.31251702068357,40.5651090471922,985.0 -1.31241006816417,40.5650989889899,984.969400000002 -1.31228400398707,40.5650909425635,984.902100000007 -1.31215106679977,40.5650790404564,984.473800000007 -1.31209306437851,40.5650790404564,984.492700000003 -1.31198192031996,40.5650649586935,984.216100000005 -1.31186407033785,40.5650629469153,984.209700000007 -1.31179299203931,40.5650780345675,984.5677 -1.31174303582802,40.5651080419862,985.0 -1.31172794862284,40.5651469338246,984.915699999998 -1.31172593639661,40.5651970575921,984.275399999999 -1.31172392506867,40.5652969699467,984.0 -1.31170196485326,40.565496962083,984.104399999997 -1.31170297006805,40.5656989660632,985.0 -1.31169106828887,40.5658989583631,985.0 -1.3116810098526,40.566300954276,985.0 -1.31168302118054,40.5665019520093,985.0 -1.31167799241158,40.5667039563683,985.0 -1.31172392506867,40.5669059601176,984.0 -1.311731972177,40.567103940506,984.0821 -1.31174102450012,40.5675049308352,984.0 -1.3116870447347,40.5683089227904,984.0 -1.31164195020574,40.5687900443672,984.0 -1.3116360824103,40.5690250724786,984.0 -1.31163792665157,40.5692579216123,984.0 -1.31170498229428,40.569598059862,984.0 -1.31180305047554,40.5699380298842,985.0 -1.31195291910934,40.5703849524836,985.0 -1.31212307170226,40.5708270143591,985.0 -1.31228299787395,40.571271925571,985.923800000004 -1.31252003812462,40.5717119754676,986.0 -1.31275607316046,40.5720140595327,986.094700000001 -1.3129709843124,40.5723659317409,986.589099999997 -1.31314197593181,40.572604983361,987.0 -1.31322797345057,40.5727240066462,987.0 -1.31323803188681,40.572752001819,986.952799999999 -1.31326099821537,40.5727739623412,986.977799999993 -1.31332000674974,40.5728160396752,986.934099999999 -1.31529595721838,40.5726019660338,989.0 -1.31559804088548,40.5726470608012,989.0 -1.31580105025824,40.5727169655459,989.0 -1.31589693912661,40.5728450412639,989.0 -1.31594806943594,40.5729840130346,989.0 -1.3160769830691,40.5732609513091,989.0 -1.31628401599599,40.573803930986,989.0 -1.3163899633006,40.5741249579787,990.0 -1.31660303110959,40.574530977276,990.0 -1.31686303768878,40.5750290302356,989.426000000007 -1.31712304426801,40.5755279207817,989.0 -1.31737802207825,40.5765649300327,989.0 -1.31758606021996,40.5770609707623,989.873900000006 -1.31782008302957,40.5775020264975,989.0 -1.31862005255299,40.578941031568,990.0 -1.31906194641769,40.5796600312597,990.0 -1.31941901506503,40.5803810427286,990.0 -1.31957692990882,40.5807149779404,990.0 -1.31978094539466,40.5812730445743,990.0 -1.31997892599847,40.58186396918,990.0 -1.32014304370928,40.5822840701403,990.0 -1.32020708191094,40.5824999876079,990.0 -1.32033901298516,40.5827239520971,990.0 -1.3206020370054,40.5831450594136,990.0 -1.32111098651276,40.5840110772238,989.141799999998 -1.32165798955388,40.585024952644,989.960500000001 -1.32198605699059,40.5854740544254,989.958599999998 -1.32212502905999,40.5858929825077,989.0 -1.32224002868772,40.5860120053483,990.0 -1.32237497720295,40.5862440162879,990.0 -1.32248595327654,40.586473009721,990.0 -1.32278803694365,40.5870749979648,990.0 -1.32293304389511,40.5873819435599,990.0 -1.32304301475389,40.5876860389181,990.0 -1.32332699377475,40.5882910444602,989.461200000005 -1.32346093617687,40.5885859200959,989.247099999993 -1.32353603802958,40.5887490322144,989.192999999999 -1.323590017795,40.5889139878625,989.960800000001 -1.32375296230607,40.5894950210018,989.0 -1.32408907595279,40.5902829204681,988.0 -1.32482802471561,40.5916949355643,988.0 -1.32501695299626,40.5921130252041,988.0 -1.32528198924277,40.5925230677378,988.0 -1.32530596078611,40.5925599476972,988.0 -1.32563302300801,40.5930769437176,988.0 -1.325970980896,40.5935760025306,988.0 -1.32652904848646,40.5945050524434,987.099000000002 -1.32711896674368,40.5954300793127,987.0 -1.32719993549349,40.595612972294,987.0 -1.32737193232768,40.5958000563278,987.0 -1.32750000783266,40.5959450634367,987.0 -1.32783696050586,40.5964870370588,987.0 -1.3280599187661,40.5968110819301,987.0 -1.32875092354392,40.5976239585658,986.0 -1.32941292621276,40.598481929953,986.0 -1.33005095643992,40.5993449308392,985.0 -1.33054599194188,40.6000530341519,984.5867 -1.33105007886862,40.6006260211058,984.0 -1.33120195972865,40.6007760574672,984.005000000005 -1.33145995408161,40.6011430168219,984.0 -1.3316540791162,40.6014819807939,984.0 -1.33196806546082,40.6020309959696,984.0 -1.33254608104049,40.6031290250697,982.0 -1.33291605847845,40.6038319314997,982.0 -1.33339801810313,40.6047720457858,981.0 -1.33399195991448,40.6057279182525,980.0 -1.33491497527565,40.60690205523,979.0 -1.3358829171808,40.607889945739,979.0 -1.33797403436379,40.6093150374315,978.0 -1.34017596053371,40.6105379566112,980.0 -1.34057393306919,40.6108170744084,979.0 -1.34090703017319,40.6111169789729,978.653699999995 -1.34122001040468,40.6114420290383,978.0 -1.34163206403226,40.6118220647666,977.8704 -1.3418340681902,40.6119900376861,977.0 -1.34198393682399,40.6121360503171,977.0 -1.34230596937864,40.6125189360057,977.0 -1.3426390664826,40.6129430600896,976.0 -1.34295003448787,40.6132850417656,976.0 -1.34327206794081,40.6136759737285,975.0 -1.34371194957924,40.6142290116256,975.0 -1.34432299082204,40.61484793146,975.0 -1.34484903886253,40.6154750652698,975.0 -1.34497191761363,40.6157600500049,974.380799999999 -1.34499102837298,40.6160510697143,974.0 -1.34497191761363,40.6168840634606,974.0 -1.34500393626527,40.61772392976,974.0 -1.34491894396132,40.6179720342098,974.0 -1.34476404655855,40.6184499708244,974.0 -1.34454008218516,40.6190239633304,974.0 -1.34427001716974,40.6193449900955,974.0 -1.34400095826743,40.6195429707418,974.0 -1.34421100863537,40.6197709582461,974.0 -1.34419994408598,40.6199060747679,974.0 -1.34411595789515,40.6200329766424,974.161600000007 -1.34373307256486,40.6205610367068,974.330199999997 -1.34344993167215,40.6210879232245,975.691399999996 -1.34335504801856,40.6215620035326,974.0 -1.34329302204314,40.621852017479,974.0 -1.34324993974044,40.6222590425086,973.996499999994 -1.34292807427246,40.6227969933641,974.0 -1.34204898024046,40.6234640252714,974.0 -1.34127600149804,40.6242790813848,973.319099999993 -1.34027805137081,40.6258909215141,973.0 -1.33996708336555,40.6264530113934,973.0 -1.33985996286117,40.6266399279697,973.0 -1.33971998467865,40.6267220710378,972.816500000001 -1.33924808349024,40.6268759622902,972.0 -1.33873293201415,40.6271409983633,972.0 -1.33833093592451,40.6274420759554,972.0 -1.33803606033921,40.6277639410798,974.856700000004 -1.33768703790187,40.6280859737339,978.093999999997 -1.33731706046391,40.6283300553991,981.624299999996 -1.33689897105596,40.6284440489106,973.0386 -1.33651306828462,40.6285250184721,979.894199999995 -1.33665505779507,40.6287409359137,972.010399999999 -1.33672395678072,40.6287570291324,972.0 -1.33677307486381,40.6288100027585,972.047000000006 -1.33680492642886,40.6288899662653,972.464399999997 -1.33683694508054,40.6289689240665,972.194099999993 -1.33691992605659,40.6291560081338,972.0 -1.33696300925762,40.6292500531146,972.358200000002 -1.33700592447369,40.6293439302485,972.154299999995 -1.33705202511573,40.629451050526,972.034599999999 -1.33709695165973,40.6295569979987,972.0 -1.33714305230181,40.6296649571837,972.432799999995 -1.33719099718513,40.6297729161942,972.520499999999 -1.33750498263144,40.6305239345987,972.0 -1.33801996702091,40.6317049447998,972.2261 -1.33818106729071,40.6320789450523,972.0 -1.33856194129307,40.6329469747691,972.041299999997 -1.33893694749999,40.6338709957844,972.0 -1.33939895823715,40.634941029516,972.034700000004 -1.33960196760988,40.6353609632861,972.628400000001 -1.33982207641405,40.6359220477095,972.354399999997 -1.34003195879703,40.6364110479261,972.285199999998 -1.34020898529851,40.6368199174973,972.522599999997 -1.34056806527378,40.6376480495314,973.0 -1.3408470155257,40.6383489438562,973.0 -1.34171906856248,40.6403530572906,974.0 -1.34219096975088,40.6414750584407,974.0 -1.34294701704685,40.6432679475669,974.0 -1.34311901388104,40.6436830194545,975.0 -1.34331699448482,40.6441019467011,973.987399999998 -1.3435159812017,40.6445869241199,974.0 -1.34374396912925,40.6450730744647,974.0 -1.34438803423851,40.6465709205923,974.719899999996 -1.34460194017563,40.6471179233309,974.931700000001 -1.34471693980335,40.6473889942041,974.896800000002 -1.34483797431318,40.6476520186233,974.741299999994 -1.34500393626527,40.648028030154,974.3226 -1.345038972358,40.6481200638094,974.403699999995 -1.34507400934902,40.6482129349909,974.0 -1.34511994200614,40.6483130150288,974.0 -1.3451060280007,40.648368000132,974.0 -1.34508507300008,40.6484109159347,974.0 -1.34502908190672,40.6484620453141,974.149600000004 -1.34495599228025,40.6484940641163,974.0 -1.3448220489798,40.6485569286939,974.151400000002 -1.34466899581833,40.648634042086,973.087199999994 -1.34452700630791,40.6487339545083,973.0 -1.34437696968916,40.6488279991747,972.521399999998 -1.34425593517934,40.6489480283923,972.232099999994 -1.34420195631225,40.6490130715046,972.713699999993 -1.34416004631096,40.6490459290482,972.677899999995 -1.34414093555161,40.6490819708426,973.0 -1.34419407718887,40.6491049374999,973.0 -1.34425895262039,40.6490819708426,972.974600000001 -1.34437093480706,40.6490090482282,973.994699999996 -1.34447906142456,40.6489619418658,974.920700000002 -1.34453806995893,40.648962947856,975.0 -1.34458299740123,40.6489730063944,975.0 -1.34465994349521,40.6490040189619,974.685400000002 -1.34478399544605,40.6490209503918,974.0 -1.34492900239756,40.6489850762295,974.0 -1.34505808311735,40.6489150031354,974.0 -1.34521398663321,40.6488950543865,974.0 -1.34534105692343,40.6489560749523,974.0 -1.34543593967869,40.6490579988701,973.970499999996 -1.3454860638749,40.6491760157001,974.0 -1.34558597539911,40.649412050097,973.725200000001 -1.34580407287538,40.6498760726645,973.0 -1.34591102629311,40.6501129449407,973.0 -1.34596500516019,40.6502299566601,973.0 -1.34598998371498,40.6502939939158,973.0 -1.34602602592083,40.6503610496991,973.0 -1.34613499066649,40.6506069746249,972.786500000002 -1.34620506285191,40.650777965358,972.0 -1.34627597406379,40.6509489563344,972.000599999999 -1.34640706700985,40.6512500342522,971.377500000002 -1.34646104677527,40.6513879999859,971.114600000001 -1.34649692099612,40.6514850628578,971.0 -1.34652491699196,40.6515390421221,971.0 -1.3465510678482,40.6515879922712,971.0 -1.34657101673571,40.6516459952515,971.0 -1.34669993036888,40.6519400324964,971.0 -1.34684996698763,40.652296933589,971.0 -1.34700402626221,40.6526519912854,970.057100000005 -1.34707493747412,40.6528179525699,970.252800000002 -1.34711097967993,40.6529109916836,970.0 -1.3471480271006,40.6529849200527,970.058699999994 -1.34740401102395,40.653563942471,970.064100000003 -1.34751800453856,40.6538450715432,970.027900000001 -1.34759897328838,40.6540410403062,970.0 -1.34768798914649,40.6542440498681,970.088699999993 -1.34783400221111,40.654571950023,970.0 -1.34797599172153,40.6549100759043,970.266699999993 -1.3481270335551,40.6552480344673,970.129300000001 -1.34819392121284,40.6554129902166,970.0 -1.34826198207033,40.6555739226773,970.0 -1.34831797316368,40.6557130618665,970.0 -1.34837497037015,40.6558530396856,970.0 -1.34849399355204,40.656127966395,970.0 -1.3486130167339,40.656407922043,969.0 -1.34867001304207,40.6565259395034,969.0 -1.34870203169372,40.6566070760455,969.4185 -1.34871896314021,40.656647979571,969.191300000006 -1.34873505645851,40.6566749691647,969.008700000006 -1.34873807389956,40.6567029653024,969.071299999996 -1.3487850126698,40.6567970096412,969.0 -1.34882407231666,40.6568900493397,969.0 -1.34890705329271,40.6570850121504,969.084400000007 -1.34903999048004,40.6573649678712,969.448799999998 -1.34923797108381,40.6578320072203,969.992299999998 -1.34938700158945,40.6582009790376,970.0 -1.34947702266238,40.658389068811,970.0 -1.34951608230927,40.6584839517043,970.0 -1.34953603119678,40.6585320640051,970.0 -1.34955899752534,40.6585729677133,970.0 -1.3497289830316,40.6589950800053,970.0 -1.34982604509972,40.6592009400349,970.0 -1.34987097254202,40.6593030316162,970.209700000007 -1.34991606707098,40.6594079729008,970.112999999998 -1.35009007523308,40.6598139921368,970.224300000002 -1.35017791789145,40.6600260542616,970.0 -1.35022804118936,40.6601370307025,970.193700000003 -1.35027900351376,40.6602500185989,970.472899999993 -1.35034907569919,40.6604200040155,970.855800000005 -1.35041998691107,40.660589988999,971.0 -1.3505609703084,40.6609319706488,970.0 -1.35071100692715,40.6612749577129,971.0 -1.35078895823592,40.6614519838573,970.722999999998 -1.3508610426476,40.6616300153311,971.0 -1.35095005850572,40.6618330249692,970.517500000002 -1.35103907436386,40.6620380462571,970.195800000001 -1.35112406666785,40.6622489347043,970.0 -1.3511740228791,40.6623459974487,970.0 -1.35121492676723,40.6624549618634,970.044699999999 -1.35135607814953,40.6627780005866,970.0 -1.35139496981143,40.6628569585102,970.0 -1.35142598324829,40.6629340717297,970.061799999996 -1.35145498445892,40.6630180583603,970.0 -1.35149806765994,40.6631030506622,970.0 -1.35162698129311,40.6633759659298,970.0 -1.35168297238647,40.663511082117,969.948499999999 -1.35173896347982,40.6636480426214,970.0 -1.35182697322482,40.6638589307482,970.0 -1.35186804419961,40.6639630342241,970.0 -1.35190693675985,40.664069987198,969.714500000002 -1.35201003371006,40.6643189299754,969.0 -1.35212805077881,40.6645740746602,969.787899999996 -1.35234396894219,40.6650800069522,969.0 -1.35245393980096,40.6653510770821,969.0 -1.35252099454533,40.6654860257329,969.0 -1.35255401931013,40.6655629716965,969.0 -1.35258805018803,40.6656429354689,968.884300000005 -1.35277295491456,40.6660690709229,968.187600000005 -1.35285794721854,40.6662900182245,968.0 -1.35294394563563,40.6664879986771,968.252600000007 -1.35301603004729,40.6666579838685,968.209099999993 -1.35308593514605,40.6668279686266,968.0 -1.3532440179748,40.6671580479855,968.0 -1.35334108004295,40.6673930764232,968.057700000005 -1.35347200590235,40.667676049615,968.0 -1.35358901685801,40.6679360559878,968.0 -1.3537430761326,40.6681970690912,968.473299999998 -1.35428102685059,40.6695510814635,968.0 -1.3543680313808,40.6697819193258,968.0 -1.35446106989479,40.6700119183283,968.0 -1.3546010480773,40.6703109847298,968.0 -1.35469894827361,40.6705389726218,968.0 -1.35479500512694,40.670759081371,968.0 -1.35506305881443,40.6713830301387,968.0 -1.3552060535397,40.6717209883674,968.0 -1.35529506939782,40.6718980140391,968.0 -1.35537000416389,40.6720750399222,968.0 -1.35544594414473,40.6722659800807,968.0 -1.35552791900769,40.6724629548707,968.0 -1.35558793365518,40.672620031467,968.0 -1.35564593607643,40.6727650380745,967.829299999998 -1.35567996695434,40.6728760144402,967.308600000004 -1.35572405537019,40.6729940320608,967.0 -1.35579396046895,40.6731620050879,967.2065 -1.35586202132647,40.6733430541935,967.373699999996 -1.35596897474419,40.6736890596911,967.082999999999 -1.35602798327856,40.6738520035741,967.277199999997 -1.35607793948982,40.674027017814,967.0 -1.35618204255315,40.6743949830072,967.0 -1.3562239516561,40.6745740209633,967.039900000003 -1.35624004497444,40.674667059711,967.0 -1.35625597120611,40.6747540640399,967.0 -1.35627793142152,40.6749260604784,967.0 -1.35629704218091,40.6751099594329,967.0 -1.35631497974048,40.675473063746,966.724700000006 -1.35631296751425,40.6756579681419,966.617700000003 -1.35631799718153,40.6758539375458,967.0 -1.35633895218216,40.6760629816606,967.0 -1.35639293104928,40.6762810794129,967.0 -1.35646400934782,40.6764959914495,967.0 -1.35651497167219,40.6766430096296,967.0 -1.35656593399656,40.6767860052031,966.508199999997 -1.35660801108447,40.6769080456721,967.0 -1.35665092630054,40.6770309238902,967.0 -1.35671898715806,40.6772780224419,967.0 -1.35684002166785,40.6777700401371,966.824800000002 -1.35686399410953,40.6778379335155,967.090899999996 -1.35687505865888,40.6779070006521,967.0 -1.35689903020222,40.6780449671186,966.982799999998 -1.35691696776183,40.6783210667863,967.0 -1.35696591785997,40.67858392293,967.0 -1.35698704084559,40.6787250742539,967.0 -1.35700598361998,40.6788799717356,967.0 -1.35707404447747,40.6793129809403,967.0 -1.35714294346312,40.6797459900573,967.0 -1.35720798777792,40.6801779935672,967.0 -1.35723497676231,40.6803840205176,967.0 -1.35724604131166,40.6806140204166,966.845499999996 -1.35727303119436,40.6808820735481,967.0 -1.35729700363603,40.6810019347323,967.0 -1.35730002107708,40.6810790480885,967.0 -1.35727805996334,40.6811650467197,967.0 -1.35724101254271,40.6813010008881,966.954299999998 -1.35718703277726,40.6814309204132,967.0 -1.35714394957623,40.6815879969992,967.0 -1.35708795848291,40.6817400450543,967.0 -1.35698603473244,40.6820600658517,966.983900000007 -1.35689199010537,40.6823380099941,967.0 -1.35681403789828,40.6826010342279,967.0 -1.35674698315387,40.6828610409868,967.114600000001 -1.35673591860452,40.6830000128953,968.0 -1.35670993483494,40.6831279202026,968.846999999994 -1.35672301071219,40.6833210399276,969.0 -1.35670691739389,40.6835099675943,968.0 -1.3566180695207,40.6837049309297,967.0 -1.35653005887737,40.6839149810933,967.0 -1.35648697657468,40.6841590622725,967.0 -1.35651094811802,40.6844049872559,967.0 -1.35657398020656,40.6849080688177,967.0 -1.35666701961887,40.685505028507,967.0 -1.35671194616284,40.6857940364594,967.0 -1.35673591860452,40.6859690506831,967.0 -1.35670892872183,40.6861289768722,967.0 -1.3565490025501,40.6863450628542,967.0 -1.35625395897988,40.6864979488098,967.0 -1.35594500230252,40.6865869642108,967.0 -1.35552791900769,40.6865670151476,966.8848 -1.35510798535844,40.6865339908043,966.127600000007 -1.35488603231299,40.6865529337729,966.0 -1.35472208258709,40.6866040632085,965.973299999998 -1.35449694501397,40.6867140342766,965.521399999998 -1.3542659396454,40.6868270221022,965.0 -1.35397592574244,40.6869800758839,965.0 -1.35360393697654,40.6871609573587,964.0 -1.35298401139561,40.6876209559128,963.967300000004 -1.3524899820068,40.6879719899247,963.0 -1.35225998275135,40.6881780173058,963.0 -1.35207993880883,40.688397958153,963.0 -1.35182294967069,40.6888549394956,963.0 -1.35168800115542,40.6893829993799,963.0 -1.35156696664563,40.6898170145239,963.0 -1.3514870031106,40.6900119778001,962.253800000006 -1.35143604168452,40.6900899294385,962.207999999999 -1.35137502092392,40.6901529612021,962.0 -1.35092793030532,40.6903579826046,962.0 -1.35061495007382,40.6905410434148,961.0 -1.35028101484166,40.6909490745304,961.0 -1.34998999572391,40.6912620545121,961.0 -1.34987700742412,40.6914109173231,961.0 -1.34964499594241,40.691778044811,961.0 -1.34947802877549,40.6920549825911,961.0 -1.3494510388928,40.6921899310033,961.0 -1.34933805059298,40.6923850617038,961.0 -1.34908307368107,40.6926819489675,960.0 -1.34875601145917,40.6930940032564,960.0 -1.34856306052265,40.6933570272701,960.0 -1.34800197549114,40.6939729297813,960.0 -1.34761506660668,40.6943650354875,959.0 -1.34745296112209,40.694535020439,959.0 -1.34698793294391,40.6944659535051,959.0 -1.34677100956575,40.6944260553223,959.0 -1.34660605372673,40.6943579942622,959.0 -1.34651200820134,40.6943090441718,959.0 -1.34643305077942,40.6943140734277,958.858800000002 -1.34624194318588,40.6944599182756,958.646099999998 -1.34614706043062,40.6945189267362,958.402300000002 -1.34605502713146,40.6945769298422,958.0 -1.34586391953791,40.6947960329337,958.0 -1.34574104078685,40.6950489986398,958.0 -1.34571405090412,40.695198028712,958.0 -1.34568203225244,40.6953490703944,958.0 -1.3456439787187,40.6956809939202,958.042700000005 -1.34559905127639,40.6959200457799,958.0 -1.34554892797848,40.6960080555737,958.0 -1.34551003541825,40.6960549945369,958.0 -1.34546007920699,40.6960930480508,958.0 -1.34536905202094,40.6961450160718,958.0 -1.34528892139929,40.6962040250832,958.0 -1.34511692456509,40.6963039370823,958.0 -1.34478701288711,40.6965079526746,957.0 -1.34411092822787,40.6969330824186,957.0 -1.34328497583314,40.6974549398036,956.0 -1.34125001772846,40.6983779551383,956.0 -1.34024905016019,40.6988280636094,956.0 -1.3395779951682,40.6990909199216,955.0 -1.33888598517562,40.699316057941,955.0 -1.33813496664864,40.6995639946513,955.0 -1.33776498921067,40.6996860349572,955.0 -1.33743004876373,40.6997939937388,955.0 -1.33687097595845,40.6999730315769,955.0 -1.33631106502501,40.7001520689339,955.661800000002 -1.33605005233267,40.7002390726872,955.932499999995 -1.33578803352725,40.7003270829046,955.792199999996 -1.3355189746249,40.7004139195747,955.976999999999 -1.33524907759443,40.700501929561,956.0 -1.33475404209248,40.7006590061455,955.962799999994 -1.33426001270367,40.700816921395,956.0 -1.33378693831549,40.7009669573909,956.0 -1.3333180545681,40.7011270518943,955.961200000005 -1.3332769835933,40.7011919276653,955.609299999996 -1.33323993527438,40.7012660238486,955.0 -1.33320104361247,40.7013399524161,955.0 -1.33316399529351,40.7014140484347,955.0 -1.33316600662145,40.7015890624948,955.0 -1.33316801884768,40.7017640760951,955.0 -1.33315796041144,40.7018500745935,955.0 -1.333144046406,40.7019370788532,955.0 -1.33312594175977,40.7021109195,955.0 -1.33311906785121,40.7021960798945,955.0 -1.33311001552809,40.7022800661011,955.0 -1.33309492832291,40.7024490454231,956.0 -1.33310196931809,40.7025110718893,956.0 -1.33312108007744,40.7025729300864,956.0 -1.33316097785246,40.7026959761885,955.0 -1.33320406105349,40.7028200286033,955.0 -1.33324697626956,40.7029449191146,955.0 -1.33340707042625,40.703437942499,955.0 -1.33347395808399,40.7036870529034,955.0 -1.33354101372669,40.7039359948493,955.0 -1.33367596224193,40.7044350533957,955.0 -1.33371904454463,40.7045689967768,955.0 -1.33375307542254,40.7047029392075,955.0 -1.33383605639858,40.7049699870015,955.0 -1.33390897893843,40.7052360285833,955.0 -1.33401492624304,40.7055020697834,955.0 -1.3343319300287,40.7065689185805,954.0 -1.33444491743019,40.7069860017592,954.0 -1.33455706760182,40.7074029182124,954.0 -1.33462395525957,40.7076109570067,954.0 -1.33469000478916,40.7078200016156,954.0 -1.33482294197646,40.7082369176143,954.0 -1.33495403492251,40.7086630531783,953.137499999997 -1.33508395377047,40.7090890219062,953.0 -1.33513407796671,40.7093049394555,953.0 -1.33520498828029,40.7095149899521,953.0 -1.33534597257592,40.7099399522456,953.0 -1.33541805698758,40.7101310597128,953.0 -1.33548896730116,40.710320994056,953.0 -1.33555401071763,40.7105119336002,953.0 -1.33563296903784,40.7107010293079,953.0 -1.33570404733638,40.7108909633873,953.0 -1.33577495854826,40.7110810644337,953.0 -1.3358540830568,40.7112709987909,953.0 -1.33589599305809,40.7113640380607,953.0 -1.33596304780246,40.7114560707911,953.0 -1.33604602877851,40.7116419818569,953.0 -1.33612498620042,40.7118300713564,953.0 -1.33621400205857,40.7120200056198,952.492400000003 -1.33629094815251,40.7122099393414,953.0 -1.33646596242776,40.7125859518615,952.943299999999 -1.33655397217276,40.7127730357095,953.0 -1.33664198191779,40.7129609579143,953.0 -1.33666293691841,40.7130870216819,953.0 -1.33668204767776,40.7132149297921,953.0 -1.33674105621217,40.7134650454116,953.0 -1.33679402986447,40.7137139882567,953.0 -1.33685102707091,40.7139639365425,953.0 -1.3369559682624,40.714465006887,952.0 -1.33700408023241,40.7147159607563,952.0 -1.33705303033055,40.714966076865,952.0 -1.33709091677767,40.7151050485393,952.0 -1.33717205351244,40.7152359738721,952.0 -1.33725000571953,40.715361032429,952.0 -1.33734103290558,40.7154849169045,952.0 -1.33740892667644,40.7155749380536,952.0 -1.33748000497498,40.715661942767,952.0 -1.33760305081271,40.7158470148181,952.0 -1.3376630654602,40.7160260523983,952.0 -1.3376999457942,40.7162069339955,952.0 -1.33773800022627,40.7165750666553,952.0 -1.33774403510834,40.7166290463376,952.0 -1.3377529194465,40.7166840316257,952.0 -1.33778896165235,40.7167879674974,952.0 -1.33787194262839,40.716875976953,952.0 -1.33797403436379,40.7169559404487,952.0 -1.3380449455757,40.7170139430813,952.0 -1.33811401164801,40.7170759695995,952.0 -1.33827695615909,40.7171810786757,952.0 -1.33861105847787,40.7173990078161,952.0 -1.33894097015586,40.7176090586518,952.0 -1.33909503032874,40.7177210408739,952.0 -1.3392489216184,40.7178340285399,952.0 -1.33951697530593,40.7181000704738,952.0 -1.33978402198201,40.7183659445348,952.0 -1.3400500643416,40.7186360095466,952.0 -1.34017998318955,40.7187729698136,951.456699999995 -1.34031007092079,40.7189099297989,951.0 -1.34084500329944,40.7194460366479,951.0 -1.34110802821801,40.7197159338756,951.0 -1.34137105223825,40.7199870044569,951.0 -1.34155997962061,40.7202270625052,951.0 -1.34175008199933,40.7204679577949,951.0 -1.34195191817232,40.7207039924346,951.0 -1.3420429453584,40.7208270390774,951.0 -1.34212207076524,40.7209509235939,950.940000000002 -1.34217906707337,40.7210560326792,950.976200000005 -1.34224997828529,40.7211680145495,951.0 -1.34237302502131,40.7213909735081,951.0 -1.3424249925605,40.7215059729065,951.0 -1.34247293654555,40.7216179553815,951.0 -1.34252691631097,40.7217309432413,950.715599999996 -1.34258206927613,40.7218429253377,951.0 -1.3427029366993,40.7220660515594,951.0 -1.34282397120912,40.7222900164788,951.0 -1.34306704634186,40.7227379454184,950.0 -1.34351698641652,40.7236349761264,950.124500000005 -1.34372804289758,40.7240859228398,950.0 -1.34389098740865,40.724551956267,950.0 -1.34391596506512,40.7246850612954,950.0 -1.34394295494784,40.7248169923757,950.0 -1.3439659212764,40.7249519411301,950.0 -1.343990061703,40.7250169843113,950.0 -1.34402107424156,40.7250830336325,950.0 -1.34403498824701,40.7251160586088,950.0 -1.34405594324763,40.7251509271386,950.0 -1.34409399678138,40.7252189887295,950.0 -1.34417194898847,40.7253569545858,950.0 -1.34425291773829,40.7254920710794,949.994699999996 -1.34435199203267,40.7256260136313,950.0 -1.34472096335752,40.7261790517499,949.792000000001 -1.34506596224069,40.7267389624139,949.0 -1.34540894979596,40.727293006304,949.0 -1.3456109539539,40.727567933177,948.0 -1.34581195199872,40.7278440325426,948.0 -1.34603407213083,40.7281129242784,948.0 -1.34627496795067,40.7283829892273,948.0 -1.34651301431445,40.7286530544417,948.0 -1.34661393195178,40.7287950438949,947.724400000006 -1.34669506958488,40.7289380391902,947.108999999997 -1.34673798480095,40.7290979656968,947.502500000002 -1.34675793368846,40.7292570538227,948.0 -1.34677100956575,40.7294199979762,947.810100000002 -1.34678492357115,40.7295839485467,947.663199999995 -1.34681107442739,40.7299029634864,947.0 -1.34681593610972,40.7299829269897,947.0 -1.34683202942802,40.7300660755616,947.0 -1.34687092198825,40.730230025221,947.0 -1.34689204407554,40.7303150175915,947.344500000007 -1.346908975522,40.7303979989689,947.070900000006 -1.34695407005096,40.7305750246537,947.0 -1.34699799138014,40.7307480267582,947.687300000005 -1.34704291792415,40.7309200236591,947.590400000001 -1.34712506077204,40.731265022918,947.058900000004 -1.34720703563497,40.7316110278542,946.529699999999 -1.34737802635605,40.7323000201724,945.353799999997 -1.34746301955832,40.7326450190831,945.774099999995 -1.34750593477439,40.7328170158455,945.977400000003 -1.34754901707712,40.7329900182471,945.822499999995 -1.34759293840631,40.7331610093977,946.0 -1.34763702772045,40.7333330061876,945.841199999995 -1.34772604357857,40.7336769991143,945.0 -1.34788395842236,40.7343629743128,944.0 -1.34792905295132,40.7345359767787,944.0 -1.34797096295258,40.7347089794755,944.061700000006 -1.34805092558927,40.7350549842001,944.959300000002 -1.34807892158512,40.7351419886363,945.0 -1.3480919974624,40.735228992278,945.0 -1.34811596900575,40.7354009891673,944.594899999996 -1.3481389362326,40.7355749977016,944.134300000005 -1.34816206964782,40.7357490057807,944.0 -1.34818704820262,40.7359349163892,944.171400000007 -1.34821202585908,40.7361189832125,944.0 -1.34826198207033,40.7364899659789,944.0 -1.34829098328096,40.7366750386559,944.0 -1.34831998538992,40.7368609487187,944.0 -1.34834395693326,40.7370460217249,944.0 -1.34836893548805,40.7372309260926,944.0 -1.34838100525222,40.737322959817,944.0 -1.3483940811295,40.7374139867163,944.0 -1.3484210710122,40.737601070893,944.0 -1.34842895013557,40.7376939426761,944.0 -1.34844303122764,40.7377849697485,944.0 -1.34847303855139,40.7379710482347,943.490900000004 -1.3485010336489,40.7381559527538,943.0 -1.34850807464411,40.7382479865597,943.0 -1.34853003575785,40.7383410255606,943.207200000004 -1.34855803085537,40.7384320531089,943.0 -1.34858401462498,40.7385200632128,943.387400000007 -1.34860295829767,40.7386139403923,943.028200000001 -1.34859792863042,40.7387130141849,944.0 -1.34859206173328,40.7387980066096,943.135399999999 -1.34858401462498,40.7388829996063,943.235799999995 -1.34858401462498,40.7389679918139,943.200299999997 -1.34859407306121,40.7390560018892,943.0 -1.34861100450767,40.7392249811254,943.637100000007 -1.34860094607144,40.7393119848725,943.0 -1.34859507917433,40.7393570800843,943.0 -1.34859105562016,40.7393969778932,943.0 -1.34849499876683,40.7397280624898,943.0 -1.34838402269327,40.7400549568172,943.123500000002 -1.34817900109428,40.7407169599072,943.180200000003 -1.34807808345696,40.7410399984049,942.878299999997 -1.34799007371193,40.7413640426522,942.385200000004 -1.34796693939841,40.7414440059936,942.5864 -1.34794799572572,40.7415259811483,942.477199999994 -1.34792301806922,40.7416879192503,942.226200000005 -1.34789703429965,40.7418540488693,942.595499999996 -1.34787004441692,40.7420190046951,942.982300000003 -1.34780500100048,40.7424969409327,942.880900000004 -1.34773995758401,40.7429750445678,942.0 -1.34771497902922,40.7432110790102,942.102599999998 -1.34767692549547,40.7434469458682,942.0 -1.34765094172586,40.7436870030051,942.0 -1.34765395916691,40.7438070322695,942.883900000001 -1.34765697660796,40.7439270613172,942.968399999998 -1.3476610001621,40.7440199324354,943.0 -1.34765496438173,40.7440970463456,943.0 -1.34765999404898,40.7442599902265,943.592600000004 -1.34767692549547,40.7445779996693,943.173800000004 -1.34773995758401,40.7448899742101,942.983399999997 -1.34776996490775,40.7450460449837,943.407099999997 -1.34780198355943,40.7452009427495,943.073499999999 -1.34782696121589,40.7453080634402,943.335099999997 -1.34785193977068,40.7453970791901,943.876099999994 -1.34787792354029,40.7454849215036,943.623900000006 -1.34791698318716,40.7455729318037,943.704299999998 -1.34793693207467,40.7456129967091,943.478900000002 -1.34796693939841,40.7456560799479,943.826000000001 -1.34802293049176,40.7457370494649,943.924299999999 -1.3480940087903,40.745816006423,943.866500000004 -1.34811898734509,40.7458579162197,944.0 -1.34814195367365,40.7459020051885,943.767999999996 -1.34818302464845,40.7459859913875,944.0 -1.34823499218764,40.7460649494112,943.128800000006 -1.34835703281054,40.7462220260336,943.001399999994 -1.34841101257596,40.7463029955422,943.0 -1.3484579513462,40.7463859760341,942.850900000005 -1.34854193753707,40.7465569667815,942.0 -1.34863497694935,40.7467980308181,942.068499999994 -1.34872902157644,40.7470379206911,942.0 -1.3487660698954,40.7471569434829,942.0 -1.34881703221977,40.74727697261,942.0 -1.34884100376312,40.7473359812253,942.0 -1.34887704596896,40.7473959956544,942.0 -1.34892599696543,40.7474499748385,942.0 -1.34897796450462,40.747502948795,942.0 -1.34905993936755,40.7475800620695,942.0 -1.34912598889714,40.7476429264482,942.0 -1.34918600354462,40.7477170226575,942.195699999997 -1.34924400596588,40.7477969858471,942.099799999996 -1.34932698694196,40.7479399811352,941.945900000006 -1.34937794836803,40.7480100535869,942.016199999998 -1.34944701533863,40.7480779468377,942.0 -1.34951407098134,40.7481550608064,942.089399999997 -1.34958900484909,40.7482320065898,942.820500000002 -1.34972797691849,40.748395956399,942.968200000003 -1.34984398265933,40.748552027792,942.987800000003 -1.34993702207161,40.7487290534896,943.0 -1.34995093607705,40.7487629160496,943.0 -1.35002201437559,40.7488980326509,943.0 -1.35010600056645,40.7490420334541,942.292700000005 -1.35028503839583,40.7492130241777,942.503200000006 -1.35047094923547,40.7493789859623,943.0 -1.35056700519047,40.7494150286357,943.0 -1.35061092651965,40.7494160344711,943.0 -1.35065903848963,40.7494130169648,943.0 -1.35075593347112,40.7493789859623,942.163 -1.35085098421134,40.7493550139872,942.0 -1.35102800981452,40.7493209836355,942.0 -1.35121794420828,40.7493070693305,941.336899999995 -1.35141693092517,40.7492980167962,941.0 -1.35178992490589,40.7492919817726,941.0 -1.35216794945216,40.7492569455509,940.0 -1.35226903507447,40.7492319676935,940.256200000003 -1.35236794138386,40.7492039723111,941.0 -1.35241303591282,40.7491810054313,940.998399999997 -1.35246701567824,40.7491659178448,941.0 -1.35251998933055,40.7491669236841,940.480500000005 -1.35257396819767,40.7491749703971,940.0 -1.35275904090911,40.749250072779,940.0 -1.35294394563563,40.7493260128196,940.0 -1.35312097123878,40.749391055993,940.896099999998 -1.35329799684193,40.7494569375254,941.0 -1.35335801148941,40.7494810775564,941.0 -1.35340394414653,40.7494919743222,941.241099999999 -1.35348407566652,40.7495090735029,941.944199999998 -1.35353604320571,40.7495390804241,941.900299999994 -1.35357895842178,40.7495580238472,942.0 -1.35362003029487,40.7496170324801,941.198799999998 -1.35367702660301,40.7497270029435,941.289300000004 -1.35373402380948,40.7498329499087,941.280899999998 -1.35380292279513,40.7499849980245,941.0 -1.35387802464783,40.7501370451122,941.0 -1.35395396462869,40.7502870815687,941.0 -1.35402504382556,40.7504409735568,941.0 -1.35411305357056,40.7506619201152,941.0 -1.35419100487936,40.7508840405223,941.0 -1.35423207675245,40.7509950167435,941.0 -1.35426694486019,40.7511110225091,941.0 -1.3542989644102,40.7512240106481,941.0 -1.35432193073876,40.7513369985952,941.0 -1.35433098306188,40.7514399283028,941.0 -1.35433701794394,40.7515420201353,941.0 -1.35432695950771,40.7516459553273,941.062300000005 -1.35432092462561,40.7516969177419,941.0 -1.3543150577285,40.7517460352432,941.0 -1.35431002806122,40.7517959917817,941.0 -1.3543009757381,40.7518479591995,941.0 -1.35428002073747,40.7519480394919,941.395600000003 -1.35426392741917,40.7520499631386,941.166299999997 -1.35424096109061,40.752153060509,941.0 -1.3542290593114,40.7522620257494,941.0 -1.35422201831622,40.7523760190842,941.594500000007 -1.35421698954727,40.7524239635696,941.529500000004 -1.3542129659931,40.7524799550141,941.484899999996 -1.35420592499788,40.7525850639733,941.409799999994 -1.35420005810077,40.7526869880045,940.706399999995 -1.35419502843349,40.7527899176638,940.449299999993 -1.35418798743831,40.7528940210307,940.2356 -1.35418396478247,40.7529969510501,940.0 -1.35417792990037,40.7531000483132,940.0 -1.35417407343287,40.7531969433443,940.873099999997 -1.35416502110975,40.7532960171905,941.0 -1.35415596878663,40.7533969350371,941.0 -1.35412495624807,40.753550994715,941.0 -1.35409394281121,40.7537060598064,941.013000000006 -1.3540739939237,40.7537840117408,941.771999999997 -1.35406292937435,40.7538659866564,942.0 -1.35406494160058,40.7539469557039,942.0 -1.35407801747787,40.7540250747566,942.0 -1.35411808233951,40.7541690760249,943.0 -1.35415898622768,40.75431207122,943.0 -1.35423995587579,40.7546000735626,944.0 -1.35428002073747,40.7549009840836,944.0 -1.35430298706603,40.7550629222811,944.0 -1.35431706905643,40.7552030677494,943.376600000003 -1.35435093194939,40.7554790000306,943.049899999998 -1.35437205403664,40.7556179721639,943.0 -1.35437993316001,40.7556880446901,943.0 -1.35438596804208,40.755723919269,943.0 -1.35438898548313,40.7557589554856,943.0 -1.35441999891999,40.7560360613126,943.0 -1.35443307479727,40.7561740272286,943.0 -1.35444296524855,40.756243932454,943.0 -1.35445101145855,40.7563129992699,943.0 -1.35445704723895,40.7564139173003,943.0 -1.35445905856685,40.7564630353996,943.0 -1.35446106989479,40.7565129917963,943.0 -1.35446894901813,40.7566130711908,943.0 -1.35447699612646,40.7567139894461,943.0 -1.35447096124439,40.7569149878492,943.0 -1.35446794290501,40.7570160737199,943.0 -1.35446693769023,40.7571159856445,943.0 -1.354464925464,40.757255963475,943.0 -1.35445905856685,40.7573959410106,943.0 -1.35448303100853,40.7576849493133,942.181100000002 -1.35451706098814,40.7579840154597,942.0 -1.35453499854772,40.7581340519009,942.0 -1.35454991866627,40.7582820759204,942.0 -1.35459098964107,40.7585829861065,942.0 -1.35460507163147,40.7587310104872,942.0 -1.35462300829275,40.758880040911,942.0 -1.35464999817544,40.759100988004,941.290200000003 -1.35467799417128,40.7593199229914,941.113500000007 -1.35472107647398,40.7597569559126,941.0 -1.3547400201467,40.7601960000268,941.0 -1.35474504891565,40.7604159411593,941.0 -1.35475007858294,40.7606350439628,941.0 -1.35475192192591,40.7611059394805,941.0 -1.35472996171047,40.7615709671761,941.0 -1.35471403637709,40.7619810097847,940.0 -1.35466592350882,40.7623650685795,940.0 -1.35462803796003,40.7627960660524,940.0 -1.35461194464169,40.7632270634521,940.0 -1.35464396329337,40.764234065564,939.0 -1.3546010480773,40.7648300188766,939.179799999998 -1.35452896366565,40.7651429992498,939.066900000005 -1.3544620760079,40.7652890121192,939.0 -1.35439803780625,40.7654330128012,939.0 -1.35432494817978,40.7654390477204,939.0 -1.35427096841436,40.765445082639,938.931100000002 -1.35421799476205,40.7654569851026,938.207399999999 -1.35414004345329,40.7655260518713,938.237399999998 -1.3540760052516,40.765593945606,938.0 -1.35398397195244,40.7657969548679,938.0 -1.35396000040909,40.7660960212569,937.0 -1.35393602796742,40.7663959258697,937.0 -1.35388003687406,40.7665749635138,937.0 -1.35382404578074,40.7667529951025,936.864400000006 -1.35371105748092,40.7671110700255,937.0 -1.35351793855947,40.7674200269292,936.0 -1.35333504516089,40.7677289837571,936.008499999996 -1.35317595711731,40.7680689541459,936.0 -1.35309297614127,40.7682020585087,936.011599999998 -1.3530440260431,40.7682659286692,936.0 -1.35299105239079,40.7683289605839,936.0 -1.35291695575291,40.7684030561909,936.0 -1.35287404053684,40.7684650824282,936.0 -1.35284101577204,40.7685639892871,936.0 -1.35282307821247,40.7687190540561,935.860700000005 -1.35282995212103,40.7687990178394,935.936600000001 -1.35283397477686,40.7688360657313,936.0 -1.35284503932621,40.7688719400178,936.0 -1.35287404053684,40.7689700080947,936.0 -1.35291494442501,40.7690660649505,936.0 -1.35297797651354,40.7691480400703,936.0 -1.35304603737103,40.7692040310356,936.0 -1.35310705723334,40.7692610281691,936.0 -1.35317997977315,40.7693669753001,936.0 -1.35320696965588,40.7694880100025,936.0 -1.35323898830755,40.769604015474,936.0 -1.35325793198025,40.7697190152148,936.0 -1.35330503783711,40.7698239567692,936.0 -1.35336505248463,40.769927053788,936.0 -1.35343596369651,40.7700309894903,936.0 -1.35351207076403,40.770132075144,936.0 -1.35371994271741,40.7703099393677,936.0 -1.35381499345762,40.7704070018454,936.0 -1.35385405310449,40.7704700337701,936.0 -1.35388707786928,40.7705280366945,936.0 -1.35396000040909,40.7706569501181,936.0 -1.35405605636409,40.7707799968969,936.0 -1.35416099845391,40.770898013855,936.0 -1.35420005810077,40.7709620515037,936.0 -1.35422604187039,40.7710259217327,936.0 -1.35418798743831,40.7711600318017,936.0 -1.35413803122702,40.7712830783292,936.0 -1.35406007991826,40.7714089744603,936.0 -1.35398397195244,40.7715370500717,936.0 -1.35390903808469,40.7716750164688,936.0 -1.35387500720678,40.7717469327147,935.805399999997 -1.35385606443239,40.7717819693297,935.665900000007 -1.35383393623202,40.7718180114226,936.0 -1.35377308345634,40.7719430697618,936.0 -1.35369295283468,40.7720830469811,936.0 -1.35365506638756,40.7721539579744,935.517600000006 -1.3536139954128,40.7722220190955,935.597699999998 -1.35352799699571,40.772379933962,935.212 -1.3534879312357,40.7725039864377,935.0 -1.3534959774457,40.7726270325172,935.0 -1.35358197586279,40.772913023462,935.0 -1.35375598402492,40.773387941636,935.0 -1.35391004419781,40.7736620303545,935.0 -1.35398397195244,40.7737969786607,935.0 -1.35405806859032,40.773928071505,935.0 -1.35417005077703,40.7740960451011,935.0 -1.35422302442934,40.7741870726858,935.0 -1.35427499196852,40.7742769266565,935.0 -1.35434707638018,40.7743709717277,935.0 -1.35440994048376,40.7744660221222,935.0 -1.3544459826896,40.774526036551,935.0 -1.35445604112583,40.7745759929773,935.0 -1.35445503501272,40.7746009708362,935.0 -1.35445101145855,40.7746289664082,935.0 -1.35442502768894,40.7746829459304,935.0 -1.35441597536582,40.7748869614475,935.0 -1.35440792915582,40.7750909770183,935.0 -1.35439803780625,40.7753819968149,935.0 -1.35439200292418,40.7755290150759,935.0 -1.3543869741552,40.7756750282538,935.0 -1.35437104882185,40.7760979789455,935.0 -1.35435495550352,40.7765229411964,935.0 -1.35429695218397,40.7766359296794,935.0 -1.35423794364956,40.7767329917592,935.0 -1.35420592499788,40.7768139608426,935.0 -1.35417507954598,40.7769339901657,935.0 -1.35419100487936,40.7771639892445,935.0 -1.35423107063934,40.7772820064273,935.0 -1.35425101952685,40.7773879536934,935.0 -1.35430399317915,40.7776070570042,935.0 -1.35431807516955,40.7777170274216,934.771200000003 -1.35437205403664,40.7778280037429,934.890199999994 -1.3545259462246,40.7780179373671,935.0 -1.35460004196419,40.7781210352765,934.747199999998 -1.35468201682712,40.7782199413669,935.0 -1.35479299379901,40.7784559758525,935.0 -1.35483993256924,40.7785840514842,935.0 -1.35489106198027,40.778723023605,935.0 -1.3549810830532,40.7790380153,935.0 -1.35497404295632,40.7792210757912,935.0 -1.35492308063192,40.7794039691214,935.0 -1.35481093046028,40.7797290195186,935.0 -1.35456198843044,40.7801410737467,935.0 -1.35443894169438,40.7803259786804,935.0 -1.35431304550227,40.7805090390233,935.0 -1.35414406700742,40.7807720632002,935.0 -1.35403795171786,40.7809060059895,935.0 -1.35392496341807,40.7810379371145,935.0 -1.35376302502011,40.7812359179971,935.227299999999 -1.35368306148508,40.781340021026,935.0 -1.35360393697654,40.7814429512092,935.0 -1.3535610217605,40.7815269374026,935.0 -1.35352799699571,40.7815710265234,935.033299999996 -1.35351793855947,40.7816149476036,935.0 -1.35345306222963,40.7817929790271,935.0 -1.35331895184255,40.7822429199637,935.0 -1.35327503051337,40.782448946742,935.0 -1.35326195463608,40.782570987434,935.0 -1.35324301186169,40.7826459214872,935.0 -1.35321501676418,40.7827119707192,935.0 -1.35315299078875,40.7827659504755,934.665200000003 -1.35306699237166,40.782821941528,933.850000000006 -1.35295299795875,40.7829049226895,933.044699999999 -1.35282207299765,40.7829689603284,932.962799999994 -1.35267605993307,40.7830070138087,933.0 -1.35260196419348,40.7830249512098,932.992700000003 -1.35254094343288,40.7830489232862,933.0 -1.35252904165366,40.7831020647705,933.914699999994 -1.35258805018803,40.7831310661664,933.6391 -1.35275099469911,40.783185045582,933.857399999994 -1.35305106613998,40.7832640029564,934.699800000002 -1.35323697697962,40.7833439662392,935.870699999999 -1.35351793855947,40.7837109261407,936.833299999998 -1.35368892928052,40.7839249997143,937.0 -1.35378599134867,40.7841560050637,938.0 -1.35398397195244,40.7848689699139,938.0 -1.35418496999726,40.7855819345922,937.877200000003 -1.35426107796308,40.786012931796,937.0 -1.35433701794394,40.7864439296033,938.0 -1.3544540297979,40.7867919463717,938.0 -1.35444296524855,40.7875059167495,938.0 -1.35443206868416,40.7882200549275,938.071100000001 -1.35438295060106,40.7893499354997,943.153900000005 -1.35416904466392,40.789629052506,942.625 -1.35408505757472,40.7898459764472,941.927500000005 -1.35405303892308,40.7898550289002,941.700500000006 -1.35389797353534,40.790202039577,941.2549 -1.35381499345762,40.7903730305162,940.0 -1.3536139954128,40.7903839266993,939.070000000007 -1.35341299736798,40.7903959967653,938.0 -1.35301804137519,40.7903666605228,936.023199999996</coordinates>
</LineString>
</Placemark>
</Folder>
</Document></kml>
