<?xml version="1.0" encoding="UTF-8"?>

<kml xmlns:xsd="http://www.w3.org/2001/XMLSchema" xmlns:gx="http://www.google.com/kml/ext/2.2" xmlns:atom="http://www.w3.org/2005/Atom" xmlns="http://www.opengis.net/kml/2.2">
<Document>
<name>ES25a_02a_torres_torres-segorbe</name>
<visibility>1</visibility>
<Schema name="ES25a_02a_torres_torres-segorbe" id="kml_schema_ft_ES25a_02a_torres_torres-segorbe">
<SimpleField type="xsd:string" name="id">
<displayName>id</displayName>
</SimpleField>
<SimpleField type="xsd:string" name="nombre">
<displayName>nombre</displayName>
</SimpleField>
<SimpleField type="xsd:double" name="longitud">
<displayName>longitud</displayName>
</SimpleField>
<SimpleField type="xsd:string" name="_formato">
<displayName>_formato</displayName>
</SimpleField>
</Schema>
<Folder id="kml_ft_ES25a_02a_torres_torres-segorbe">
<name>ES25a_02a_torres_torres-segorbe</name>
<Placemark id="kml_1">
<name>&lt;img height='20' src='https://nco.ign.es/iconos/icono_todos_caminos_azul.png' /&gt;&lt;img height='20' src='https://nco.ign.es/iconos/Camino Santiago_20.png' /&gt;&lt;img height='20' src='https://nco.ign.es/iconos/icono_todos_caminos_azul.png' /&gt;  Camino de Santiago </name>
<visibility>1</visibility>
<description><![CDATA[<!DOCTYPE html>
<html>
<head>
<style>
#nco {
  border-collapse: collapse;
  overflow:hidden;
}
#nco th, #nco td {
  padding: 4px;
  text-align: left;
}
#nco th {
  color: #364B5F;
  padding-right: 5px;
}
#nco td {
  color: rgb(51, 51, 51);
  font-size: 12px;
  padding-right: 5px;
}
</style>
</head>
<body>
<table id="nco">
<tr>
<td>Caminos del Este</td>
</tr>
<tr>
<th><b>Camino: </b></th>
<td>ES25a Camino de Sagunto</td>
</tr>
<tr>
<th><b>Etapa: </b></th>
<td>02a Torres Torres-Segorbe</td>
</tr>
<tr>
<th><b>Longitud: </b></th>
<td>21.79 km</td>
</tr>
</table>
</body>
</html>]]></description>
<Style>
<IconStyle>
<scale>0.8</scale>
</IconStyle>
<LabelStyle>
<color>ffffffff</color>
<scale>0.75</scale>
</LabelStyle>
<LineStyle>
<color>ffff0000</color>
<width>3.0</width>
<gx:labelVisibility>1</gx:labelVisibility>
</LineStyle>
<PolyStyle>
<color>66ff0000</color>
</PolyStyle>
</Style>
<ExtendedData>
<SchemaData schemaUrl="#kml_schema_ft_ES25a_02a_torres_torres-segorbe">
<SimpleData name="id">ES25a_02a</SimpleData>
<SimpleData name="_formato">kml</SimpleData>
</SchemaData>
</ExtendedData>
<LineString>
<extrude>0</extrude>
<tessellate>1</tessellate>
<coordinates>-0.360102988383615,39.7446459523426,171.0 -0.362008027640341,39.7455580713756,170.907900000006 -0.363626070435148,39.7462950081815,172.0 -0.363357011532838,39.7472629504408,172.0 -0.363389030184516,39.7477700557945,173.0 -0.364154968830025,39.749155919404,172.753599999996 -0.364059079063354,39.7494060357221,173.0 -0.363499001043256,39.7510099961563,173.490900000004 -0.36256408300457,39.7520419762022,173.361799999999 -0.362187065469718,39.752404074653,172.994500000001 -0.361954047874922,39.7523029886184,172.0 -0.361479968271921,39.7527130316792,172.0 -0.361463036825461,39.7529839348633,172.0 -0.361647941551949,39.7529909751701,173.0 -0.361738968738031,39.7528999476902,173.691300000006 -0.361960921783478,39.7530840143393,174.0 -0.362214055352445,39.7532179573442,175.281400000007 -0.362822078255862,39.7534779638946,178.919500000004 -0.363975931000647,39.754005018398,185.982300000003 -0.364172067363144,39.7538819715093,186.186499999996 -0.364436935624661,39.7538140783565,186.117299999998 -0.364758968179308,39.7537460173149,186.975699999995 -0.365089047842255,39.7537639542202,187.869200000001 -0.365746020843809,39.753756075574,191.0 -0.367106069285655,39.7539230428735,199.772299999997 -0.365800000609228,39.754802975258,200.686499999996 -0.364453028942996,39.7556569234182,203.806700000001 -0.363599918680614,39.7561869950562,205.0 -0.36315198993385,39.7567140488579,207.116699999999 -0.362966079094214,39.7572900538271,209.435899999997 -0.362946968334863,39.7576950673636,218.183199999999 -0.363274030556758,39.7581800443167,210.891300000003 -0.36454204480111,39.7594510761128,207.527199999997 -0.364967007219313,39.7600840771674,207.898799999995 -0.365352071862497,39.7617079874048,208.955799999996 -0.365786924731977,39.7632690329473,208.008000000002 -0.366043075741961,39.7637729524718,208.279999999999 -0.366532076361817,39.7644530602754,207.401800000007 -0.368869956261792,39.7660100828682,208.398100000006 -0.370922013797921,39.7677820168941,206.001999999993 -0.371217057368139,39.7689739236172,202.797699999996 -0.370729062861398,39.7711949604904,191.070800000001 -0.371239017583583,39.7742079195734,215.5435 -0.371691975997629,39.7751599360434,216.078399999999 -0.374042931774854,39.7780409638357,222.643299999996 -0.374586917374948,39.7783029816282,223.710200000001 -0.37528697357753,39.7783789218442,225.926200000002 -0.375897008707211,39.7791959901328,225.665999999997 -0.376488939190624,39.7796060325397,229.0 -0.377719066987857,39.7796350340963,234.2601 -0.378862023168251,39.7795530587064,238.226899999994 -0.380288958369513,39.7803000541293,243.0 -0.381615981148269,39.7807920715634,247.635200000004 -0.383513979409778,39.7816299271821,237.320099999997 -0.38462894049266,39.781474023597,242.513000000006 -0.385265964606738,39.7814289287536,243.308499999999 -0.391485002217001,39.7860850759271,251.939299999998 -0.393082928139342,39.7870489950751,254.419299999994 -0.39496198272816,39.7873770625842,248.001600000003 -0.397381000261204,39.7867190829163,248.487899999993 -0.399736985705745,39.7861509581716,248.906700000007 -0.401154030455731,39.7859759434794,252.805699999997 -0.401873029432706,39.7855090716242,236.782200000001 -0.405103918268412,39.7859999162676,245.456900000005 -0.406345948743186,39.7862379621228,244.723499999993 -0.408813078246209,39.7867329971731,244.221999999994 -0.409333929532786,39.7871090096205,239.826400000005 -0.409847069680945,39.7875299486702,248.0 -0.41280403703372,39.7923309353982,255.0 -0.413626972885697,39.7933749846106,258.684299999994 -0.419244021576314,39.7972340131998,265.061300000001 -0.420393012638775,39.7980970140771,267.0 -0.420360993987131,39.7982829248328,266.0 -0.420281030452101,39.7984520713941,265.0 -0.422069057854871,39.7993710633832,264.921600000001 -0.423877034145151,39.8002640710638,266.765599999999 -0.425739996313966,39.8014749208479,265.905199999994 -0.426973979680408,39.8029390714556,272.0 -0.427644029457576,39.804084039496,273.0 -0.428235959042692,39.8055899321335,275.0 -0.428274013474734,39.8056489408931,275.3367 -0.428217016268265,39.8057280661175,275.191800000001 -0.428244006150991,39.805812053023,276.0 -0.428421031754137,39.8058990569504,276.628100000002 -0.428723953549399,39.8060819502003,278.0 -0.430078972323997,39.8068069845389,291.0 -0.430715996438042,39.8073300153958,300.176200000002 -0.431350004009366,39.8081070182082,308.0 -0.431829951407807,39.8095770359863,305.532300000006 -0.432277042026379,39.8107759832867,304.0 -0.432715080321867,39.8113550054251,301.146399999998 -0.433252025825075,39.8118919501808,298.985400000005 -0.433778073865561,39.8123460815326,297.870699999999 -0.434038080444754,39.8125559642189,297.0 -0.434361957240675,39.8127249438741,297.0 -0.434429011985048,39.8128439668918,296.136799999993 -0.434275958823578,39.8128610658804,296.862299999993 -0.43395493148375,39.8128709561046,292.626399999994 -0.433721076659091,39.8128179830451,292.036500000002 -0.433669947248062,39.8130030549451,293.1152 -0.433642957365336,39.8130789954995,292.130799999999 -0.433571040938639,39.8130979381882,292.831399999995 -0.433189998951324,39.8130669255015,289.847599999994 -0.432814992744406,39.8130669255015,287.525999999998 -0.432728994327309,39.813151079399,286.903099999996 -0.43239908264932,39.8131430329723,286.0 -0.43207000909949,39.8131849425554,285.0 -0.43084692229744,39.8152589609461,271.980800000005 -0.428885053819201,39.8169630013896,259.0 -0.430370997554868,39.8179559216837,262.0 -0.431979988026557,39.8188050086252,256.247600000002 -0.432045031443029,39.8189240314637,255.0 -0.432114936541792,39.819043054786,253.328899999993 -0.432023070329254,39.8193359180014,251.167799999996 -0.432013012791351,39.8196369960571,248.695300000007 -0.432163048511771,39.819952993882,247.0 -0.432073026540541,39.8203439257929,246.154299999995 -0.432120971423859,39.8205880071719,246.0 -0.43257493505269,39.8207330139961,246.0 -0.433480012854293,39.8205469355681,247.0 -0.434251986381902,39.8204339478235,247.0 -0.435049943679088,39.8203999171294,247.0 -0.435823928534632,39.8202550779521,248.0 -0.436504035849737,39.8203189479789,248.203999999998 -0.436810981199165,39.8203809736934,247.0 -0.437153968754405,39.8200909603233,247.603799999997 -0.437215994729826,39.8200200490445,248.376900000003 -0.437494944981743,39.8200490508115,249.037299999996 -0.437769032653038,39.8200609533031,250.417400000006 -0.43880403020089,39.8204730075852,251.9516 -0.438964963384032,39.8206989834501,251.0 -0.439217928968041,39.8216429534831,251.298899999994 -0.439232010060144,39.8224950574912,250.0 -0.439261012169068,39.8227309244811,249.998900000006 -0.439420938340798,39.8235010533462,250.044200000004 -0.439775995660205,39.8242740325964,251.998699999996 -0.440097023000033,39.8243880268236,253.0 -0.441203936974616,39.8250059404211,253.7598 -0.441996026476362,39.8253189207416,253.058699999994 -0.442801024768765,39.8253309906576,255.013500000001 -0.443612057943268,39.8253090302389,255.796199999997 -0.443978011827068,39.8251879956494,256.743900000001 -0.444129053660636,39.8250369539297,257.191600000006 -0.444410015240454,39.8250880831033,257.492599999998 -0.444587040843634,39.8250590820833,258.353600000002 -0.444755014123662,39.8250659549591,258.522299999997 -0.444966070604717,39.8247549866506,261.089099999997 -0.445223059742859,39.824661947081,257.104099999997 -0.445460938121683,39.8245070496509,260.617400000003 -0.446003079480503,39.824378974435,261.908100000001 -0.447055008474815,39.8242019486343,269.468900000007 -0.447477958666787,39.8242059715453,270.073300000004 -0.447918009188506,39.8243370647786,271.0 -0.448259990630629,39.8245960651624,272.0 -0.448473058439619,39.8248260648312,269.997700000007 -0.448908917422215,39.8250369539297,269.352599999998 -0.449011009157613,39.8252500217982,274.607699999993 -0.449340082707443,39.82519503616,274.0 -0.449725985478786,39.8250669608467,276.0 -0.450057070356517,39.8248899347489,277.0 -0.450204927662375,39.8245620351498,278.537700000001 -0.450723934707678,39.8241320433595,284.0 -0.451314020949817,39.823819063152,289.558900000004 -0.451896060083656,39.8240359866182,292.949500000002 -0.452760066910463,39.8241360669646,299.0622 -0.453722980046661,39.8245789663336,306.929900000003 -0.454558990877626,39.8249930322075,307.739400000006 -0.455352924620645,39.825495946424,311.0 -0.45690106231669,39.8265140128943,313.937300000005 -0.457680075941185,39.8269270729742,315.047999999995 -0.458298996307325,39.8275290612119,314.630699999994 -0.458569061322784,39.8276899938233,312.0 -0.459176916241244,39.827995932732,311.165500000003 -0.459546055551051,39.8280299638033,308.313800000004 -0.459956936877152,39.8280819317121,305.601200000005 -0.46010797871072,39.8282710272635,304.9807 -0.460553057103094,39.8287209677216,306.5769 -0.461263004655282,39.8301539379996,302.0 -0.461702049063852,39.831328074749,299.0 -0.461852922912463,39.8316950347595,298.997799999997 -0.462078061383918,39.8318549614812,295.963600000003 -0.462181996462293,39.8319800191982,294.858399999997 -0.462376959625014,39.8319979564097,293.678899999999 -0.462885071004222,39.8323999523577,292.900399999999 -0.462891944014482,39.8324339833169,292.453599999993 -0.463336017192036,39.8330849218471,291.0 -0.463522933246458,39.8332359638088,290.575400000002 -0.463618990099789,39.8334909413892,290.001799999998 -0.464050993513176,39.8340109547268,290.0 -0.464465059366987,39.8342340805806,291.404500000004 -0.464980043756421,39.8343770760749,292.343299999993 -0.465517993576117,39.8350910467887,293.0 -0.46579208214571,39.8357210301631,294.0 -0.466269012103101,39.836698025252,297.0 -0.466511920149174,39.8370440297611,298.640700000004 -0.466475039815205,39.8374440144243,300.0 -0.466511082021015,39.8375539846729,300.909199999995 -0.466589033329814,39.8376659668415,300.989100000006 -0.466780979051518,39.8378319290405,301.604399999997 -0.466871001022747,39.8379479342418,301.0 -0.466752983954006,39.8386079255224,300.948900000003 -0.467249024670748,39.8404239488231,299.986799999999 -0.467095971509245,39.8412829256582,299.815600000002 -0.467136036370925,39.8417529834193,298.889200000005 -0.467271990999275,39.8422270632669,298.514299999995 -0.467825028922487,39.842545073294,300.0 -0.468763969617009,39.842444992867,299.0 -0.469474923282312,39.8425460789256,299.808099999995 -0.470196939700371,39.8427799341006,299.888600000006 -0.471574924803496,39.8431859535759,300.469200000007 -0.47292407578262,39.8433510768331,300.576499999996 -0.473197996367255,39.8436070604117,300.044500000004 -0.473848935385072,39.845201968369,301.940199999997 -0.473989918782374,39.8454289505576,301.4954 -0.474163926944503,39.8457940661453,299.0 -0.474683940102888,39.8461839923389,300.9133 -0.4752510600165,39.846997036957,306.261599999998 -0.476381946432725,39.8474820141596,309.0 -0.476886034257766,39.847803040651,310.0 -0.477424990190579,39.8480499714659,311.041200000007 -0.477767977745852,39.8482330325489,311.510399999999 -0.47814901883487,39.8483669751849,312.343999999997 -0.478333923561357,39.8481510575487,313.0 -0.480473991740815,39.8494780804878,319.0 -0.482443068300897,39.8458170324958,316.543399999995 -0.482637025350535,39.8458690007411,316.149900000004 -0.482829977185355,39.8460049550133,317.204100000003 -0.48308394888248,39.8463179355242,319.241800000003 -0.48678707307988,39.8500230715171,345.0 -0.487846043069408,39.8511950293001,354.339999999997 -0.488618016597017,39.8519150346755,360.953699999998 -0.488837957416233,39.8519380010472,361.0 -0.488910041827887,39.8518040584823,360.0 -0.489035938020037,39.8517380088075,360.0 -0.489262081706278,39.8516719597587,360.0 -0.489463079751099,39.8515899847272,360.0 -0.489600039594268,39.8513799343826,359.7405 -0.489585958502199,39.8512429742159,359.012600000002 -0.489407926785904,39.8511910059007,358.886700000003 -0.489155966416713,39.8507320133843,356.0 -0.489087067431067,39.8506139959948,355.857900000003 -0.4893529418057,39.8503839964672,356.0 -0.489893070938255,39.84989499629,356.0 -0.490057021562447,39.8497580359193,355.058699999994 -0.489845965081392,39.8493699534994,351.260599999994 -0.489529967408845,39.8489749984028,348.3505 -0.490736961790892,39.848460014372,349.0 -0.491760056661236,39.8480529894983,350.228000000003 -0.492111928554669,39.8477059783493,349.0</coordinates>
</LineString>
</Placemark>
</Folder>
</Document></kml>
