<?xml version="1.0" encoding="UTF-8"?>

<kml xmlns:xsd="http://www.w3.org/2001/XMLSchema" xmlns:gx="http://www.google.com/kml/ext/2.2" xmlns:atom="http://www.w3.org/2005/Atom" xmlns="http://www.opengis.net/kml/2.2">
<Document>
<name>ES25a_13a_daroca-calatayud</name>
<visibility>1</visibility>
<Schema name="ES25a_13a_daroca-calatayud" id="kml_schema_ft_ES25a_13a_daroca-calatayud">
<SimpleField type="xsd:string" name="id">
<displayName>id</displayName>
</SimpleField>
<SimpleField type="xsd:string" name="nombre">
<displayName>nombre</displayName>
</SimpleField>
<SimpleField type="xsd:double" name="longitud">
<displayName>longitud</displayName>
</SimpleField>
<SimpleField type="xsd:string" name="_formato">
<displayName>_formato</displayName>
</SimpleField>
</Schema>
<Folder id="kml_ft_ES25a_13a_daroca-calatayud">
<name>ES25a_13a_daroca-calatayud</name>
<Placemark id="kml_1">
<name>&lt;img height='20' src='https://nco.ign.es/iconos/icono_todos_caminos_azul.png' /&gt;&lt;img height='20' src='https://nco.ign.es/iconos/Camino Santiago_20.png' /&gt;&lt;img height='20' src='https://nco.ign.es/iconos/icono_todos_caminos_azul.png' /&gt;  Camino de Santiago </name>
<visibility>1</visibility>
<description><![CDATA[<!DOCTYPE html>
<html>
<head>
<style>
#nco {
  border-collapse: collapse;
  overflow:hidden;
}
#nco th, #nco td {
  padding: 4px;
  text-align: left;
}
#nco th {
  color: #364B5F;
  padding-right: 5px;
}
#nco td {
  color: rgb(51, 51, 51);
  font-size: 12px;
  padding-right: 5px;
}
</style>
</head>
<body>
<table id="nco">
<tr>
<td>Caminos del Este</td>
</tr>
<tr>
<th><b>Camino: </b></th>
<td>ES25a Camino de Sagunto</td>
</tr>
<tr>
<th><b>Etapa: </b></th>
<td>13a Daroca-Calatayud</td>
</tr>
<tr>
<th><b>Longitud: </b></th>
<td>41.51 km</td>
</tr>
</table>
</body>
</html>]]></description>
<Style>
<IconStyle>
<scale>0.8</scale>
</IconStyle>
<LabelStyle>
<color>ffffffff</color>
<scale>0.75</scale>
</LabelStyle>
<LineStyle>
<color>ffff0000</color>
<width>3.0</width>
<gx:labelVisibility>1</gx:labelVisibility>
</LineStyle>
<PolyStyle>
<color>66ff0000</color>
</PolyStyle>
</Style>
<ExtendedData>
<SchemaData schemaUrl="#kml_schema_ft_ES25a_13a_daroca-calatayud">
<SimpleData name="id">ES25a_13a</SimpleData>
<SimpleData name="_formato">kml</SimpleData>
</SchemaData>
</ExtendedData>
<LineString>
<extrude>0</extrude>
<tessellate>1</tessellate>
<coordinates>-1.41705259677249,41.112778409496,755.801999999996 -1.41806060443765,41.1120728214524,756.0 -1.41819907345048,41.1121782654595,758.321599999996 -1.41857642695524,41.1121556342166,761.840200000006 -1.41894388911044,41.1121599928871,762.088199999998 -1.41912527423766,41.112167871657,760.663799999995 -1.41922669493153,41.1121648544287,759.427299999996 -1.41932560124095,41.1121489290377,759.0 -1.41944814492044,41.1121237834261,758.536600000007 -1.41955057172745,41.1120542131513,756.031900000002 -1.4197571015978,41.1118282369979,752.697199999995 -1.4199599438839,41.1115548198512,752.0 -1.42007309927035,41.111537887883,751.820000000007 -1.42012892327704,41.1114664740083,750.882700000002 -1.42094967891783,41.1115487846612,749.0 -1.42114682139347,41.1115643751728,748.769199999995 -1.42157765070879,41.1116406505215,747.0 -1.42212113325231,41.1116634491157,746.498099999997 -1.42263343527231,41.1116968087545,745.0 -1.42312528534826,41.1116872534522,745.0 -1.42375795173488,41.1120989728273,744.0 -1.42425466349312,41.1123926744069,744.0 -1.42450176218002,41.1125445544044,744.0 -1.42472756989635,41.1127381767633,743.924299999999 -1.42492102478774,41.112896929589,745.0 -1.42493493879319,41.1130270167132,745.0 -1.42495203732627,41.1133674898167,749.0 -1.4252723936246,41.1134092321029,750.0 -1.42555603757389,41.1134905359512,750.0 -1.4259082454372,41.1136187796572,750.0 -1.42632566380365,41.1138011694622,750.0 -1.42670905219048,41.1140415626336,747.975999999995 -1.42689295080388,41.1141548860709,747.628700000001 -1.42725957572922,41.1142720649875,746.9571 -1.427471973395,41.1143590690422,746.0 -1.42774706717938,41.1145265397128,745.146299999993 -1.42810547701146,41.1148314731792,743.260800000004 -1.42841745202817,41.1150239213432,743.0 -1.42864141640155,41.1151417714293,743.753700000001 -1.42888315034955,41.1152547593146,743.215700000001 -1.42940953346162,41.1154988403393,743.545299999998 -1.42965361470747,41.1156223893846,744.954199999993 -1.42985327156759,41.1156555818783,744.590200000006 -1.43044838657868,41.115732360055,744.498300000007 -1.4307266657891,41.1157724258196,745.0 -1.43135849404756,41.1158627826545,746.940300000002 -1.43153803403519,41.1158634533375,747.8802 -1.43178412660894,41.1158242254752,747.084099999993 -1.43199887157257,41.1157548235782,746.009900000005 -1.43208520506126,41.1156991676001,745.919800000003 -1.43233850571688,41.1156860922927,743.001300000004 -1.43281325725968,41.1156295977304,740.2788 -1.43300369381173,41.115639823821,739.353400000007 -1.43328851096075,41.1156983297518,738.294399999999 -1.43353879417533,41.1157543207343,738.573199999999 -1.4339456519473,41.1157821483675,737.631699999998 -1.43409132994026,41.1157950564924,738.0 -1.43440011863267,41.1158676439219,737.870599999995 -1.43498517610586,41.1160451729925,738.0 -1.43561683637937,41.1162625992093,738.0 -1.43580844613116,41.1163361924775,738.0 -1.43593165995384,41.116406767953,738.0 -1.43614657200407,41.1165708854348,738.0 -1.43649274498535,41.1168541942502,738.0 -1.43685534635652,41.1171718684266,737.860700000005 -1.43755959319992,41.1177046216026,737.0 -1.43866399279,41.1184254652676,736.830300000001 -1.43989512670034,41.1192292902837,736.0 -1.44084429381609,41.1198016062012,735.798299999995 -1.44129741931676,41.1202282452854,735.477700000003 -1.44239125741403,41.1211581333487,735.0 -1.44286835535638,41.1216491455714,734.358300000007 -1.44319424437853,41.121906637577,733.952399999995 -1.44361585338577,41.1220952307604,734.025899999993 -1.44386161088794,41.1223086335348,734.0 -1.44461715602563,41.1233692794337,733.233800000002 -1.44514035461005,41.1240207211866,733.031900000002 -1.44561493726959,41.124571412483,732.616200000004 -1.44572842862596,41.124746594285,733.0 -1.44581593531442,41.1249430660173,732.248200000002 -1.44599027944643,41.1251903320014,732.522500000006 -1.44617920772708,41.1253881449299,732.0098 -1.44646972378829,41.1256275320835,732.307000000001 -1.4467220192291,41.1258734570337,732.295400000003 -1.44705293702021,41.1261074798202,732.0 -1.44727405193749,41.1262286818383,731.728600000002 -1.44749147837223,41.1263049577408,731.819900000002 -1.44769499080153,41.126386597482,731.565900000001 -1.44784636770668,41.1264990821954,731.843399999998 -1.44798584283266,41.126616596353,732.231599999999 -1.4480710031216,41.1266945485737,731.583400000003 -1.448147446159,41.1267607653604,731.135999999999 -1.44830133744863,41.126846931395,731.268899999995 -1.44836990136269,41.1268873320884,731.308600000004 -1.44854826815057,41.1269983083468,731.0 -1.44871020654853,41.1271144818276,731.265799999994 -1.44880978389946,41.12724104855,731.208799999993 -1.44899720301045,41.1274609893424,731.459400000007 -1.44915897432175,41.1276353331777,731.330000000002 -1.44928721691339,41.1278170527197,731.013099999996 -1.44964244221779,41.1284316138083,731.0 -1.44993413237704,41.1289430778389,730.890700000004 -1.45013697466314,41.1293219398439,730.0 -1.45039765138556,41.1297732214997,730.0 -1.4504774469356,41.1299225868488,730.0 -1.45084625117383,41.1306898661355,729.863599999997 -1.45090157122565,41.1308090568945,729.0 -1.45183967469034,41.1302462961982,729.365900000004 -1.45220344926128,41.1300119376795,730.0 -1.45235784360745,41.1299194019559,730.0 -1.45250637105654,41.1298419529192,730.4139 -1.45259169843211,41.1298196572853,731.0 -1.45265422746411,41.1298469823086,730.994999999995 -1.45270770417295,41.1299115226101,731.346799999999 -1.45275531308639,41.1300251813199,731.650399999999 -1.4527745918307,41.1300929070073,731.5334 -1.45275833052744,41.1301691824775,731.0 -1.45271960685049,41.1302856906867,731.0 -1.45271105668562,41.1303559311187,731.0 -1.45269982504961,41.1304776368166,730.897400000002 -1.45271273294194,41.1305584377672,730.2981 -1.45278330908223,41.1306692467807,729.738800000006 -1.45289428515579,41.1307101505564,730.082899999994 -1.45297894238815,41.1307708353033,729.378500000006 -1.45308103412358,41.130893043636,730.384699999995 -1.45309528320061,41.1309827301011,729.735499999995 -1.45313669014532,41.1311196903141,729.408500000005 -1.45320877455697,41.1311797048322,729.382100000003 -1.45337171816972,41.131254638664,729.956900000005 -1.45357070488664,41.1313250472123,729.412599999996 -1.45381277390626,41.1314256299483,729.2402 -1.45396918047869,41.1314697187468,729.319099999993 -1.45425064511509,41.1315773420854,728.387700000007 -1.45451635150476,41.1316034938088,728.511899999998 -1.45467292516382,41.1315914237319,728.826499999996 -1.45487492932176,41.1316081874639,729.514500000005 -1.4549755118875,41.1316462414443,729.0 -1.45507793869452,41.1317184933359,729.0 -1.45515337561881,41.1318039891059,729.292600000001 -1.45525546735424,41.1318980337153,729.0 -1.4553307371919,41.1319241853108,729.0 -1.45539410435202,41.1320569546846,729.0 -1.45547524108679,41.1322302923746,729.061499999996 -1.45551044516448,41.1323531712098,728.820500000002 -1.45553240537992,41.1324847671631,728.481899999999 -1.45549485490272,41.1326177038762,728.662899999996 -1.45548882002065,41.1327414209696,728.6103 -1.45550776279505,41.1328653056263,728.977100000004 -1.45553894331853,41.1329249843081,729.524099999995 -1.45556945369885,41.1329730965014,729.470799999996 -1.45564069998235,41.1330351228766,730.275699999998 -1.45567573607507,41.13307300891,730.107499999998 -1.45573994136335,41.1331425785578,729.691900000005 -1.45604604858462,41.1333083727385,731.0 -1.45608577837472,41.1333237956992,731.0 -1.45616155126892,41.1333615144473,731.0 -1.45620530461315,41.1333985619934,731.0 -1.45628308883529,41.1334346041016,731.0 -1.45632399272342,41.1334322576777,731.0 -1.45635819068799,41.1334227021566,731.0 -1.45639574116517,41.1334307488757,731.0 -1.45649950915691,41.1335269731618,731.955199999997 -1.45636824912423,41.1334931097313,731.0 -1.45632667509289,41.1335105441566,731.0 -1.45628577120472,41.1335375340831,731.0 -1.45623413873715,41.1336107920124,731.0 -1.45623045025457,41.1336842176542,730.923599999995 -1.45619960480267,41.1338034083859,730.967199999999 -1.45619926973108,41.1338862214733,730.987500000003 -1.45617060359204,41.1339697049541,730.251399999994 -1.45613942306852,41.1340364252215,730.0 -1.45610606323214,41.1340852077731,730.0 -1.45605158041015,41.1341440484089,730.0 -1.45595787085467,41.1342080865168,729.944900000002 -1.4559230018486,41.1343058191212,730.478799999997 -1.45585929961686,41.1343691865773,729.237099999998 -1.45581655238575,41.1344399300742,729.062300000005 -1.45576475193319,41.1344771454801,729.0 -1.45573306835313,41.134508829133,729.0 -1.45567590406003,41.134559120786,729.0 -1.45563868775611,41.1346104177993,729.0 -1.45562209227957,41.1346741198683,729.0 -1.45561438024285,41.1346836752071,729.0 -1.45560113727891,41.1347463724847,729.0 -1.45558420583245,41.1347948196019,729.0 -1.45557934415013,41.1348209713958,728.980100000001 -1.45556291576021,41.1348511461133,728.804300000003 -1.45552570035462,41.1349094840416,728.916700000002 -1.4554797667992,41.1349661453602,728.909400000004 -1.45542427876242,41.1350288423678,728.416299999997 -1.45538605724372,41.1351074645525,728.029500000004 -1.4553401245866,41.1351698258439,729.0 -1.45531782840124,41.1351901102329,729.0 -1.45528580974956,41.1352224640266,729.722800000003 -1.45525881986687,41.1352831493356,729.023799999995 -1.45525043858525,41.1353201971495,727.7114 -1.45516980400872,41.1354797884303,726.426000000007 -1.45516745760921,41.1354942054951,726.222899999993 -1.45516561336793,41.1355057728379,726.044299999994 -1.45511163360251,41.1356211078692,726.0 -1.45501943321669,41.1357247076063,727.0 -1.45495640112815,41.1359116244599,727.077600000004 -1.45494751589169,41.1360452321476,726.824900000007 -1.45494097885135,41.1361751516102,726.0 -1.45494349323582,41.1362534381986,726.0 -1.45498070864141,41.1363285401117,726.0 -1.45503049686774,41.1364368340709,726.0 -1.45507609445324,41.136516462644,726.0 -1.45515287256226,41.1366606315481,726.0 -1.45519729694799,41.1367094141779,726.0 -1.45526016105157,41.1368909658337,726.135299999994 -1.45526569377543,41.1369078973507,725.979600000006 -1.45533375463292,41.1370004333655,726.0 -1.45537583172083,41.1370569277985,726.0 -1.45544607189121,41.1371328677195,725.989300000001 -1.45553726706221,41.1372419999537,725.878200000006 -1.45554481111397,41.1372539025588,725.882400000002 -1.45562008005334,41.1373388945253,726.0 -1.45571663996321,41.1373794633086,725.837400000004 -1.45579358605719,41.1374386392652,725.423899999994 -1.45597044367538,41.1375251403767,725.804799999998 -1.4561486433766,41.1376188506875,725.0 -1.45628191563551,41.137684732382,724.871799999994 -1.45643027509965,41.1376952933104,725.0 -1.45654711896865,41.1377237915715,725.0 -1.45665256321671,41.1377385437112,725.0 -1.45673453807964,41.1377593313342,725.0 -1.45687283910751,41.1378049286368,725.0 -1.45693268666837,41.137829906774,724.982999999993 -1.45697224847348,41.1378436528639,724.689499999993 -1.45705757674737,41.137865278019,724.009000000005 -1.45718749649366,41.1379004821378,724.079400000002 -1.45732864697762,41.1379576469294,724.0 -1.4574431444471,41.1379935214555,724.0 -1.45752863980766,41.1380255403296,724.171000000002 -1.4576263729173,41.1380739877311,724.0 -1.45776115344758,41.1381175734483,724.713199999998 -1.45786089788516,41.1381351757807,724.286600000007 -1.45796868943104,41.1382099420034,724.0 -1.45803071540647,41.1382438050287,724.0 -1.45812978970085,41.1382989581598,724.0 -1.45822450536944,41.1383557870392,724.0 -1.45829323637013,41.1383919969123,724.0 -1.45830011027869,41.1384334039553,724.0 -1.45833732568431,41.1384878857987,724.0 -1.45839666929026,41.1385539357552,724.0 -1.45840018978789,41.1385616469576,724.0 -1.45844712855809,41.1386167998215,723.961500000005 -1.45850513097938,41.1386615589729,723.579700000002 -1.45853983200049,41.1387136943918,723.852400000003 -1.45858693875565,41.1387753851886,723.9954 -1.45866623124915,41.1388593718795,723.413100000005 -1.45874468651282,41.1389391679988,723.107799999998 -1.45882800256048,41.139005384605,723.482499999998 -1.45887510841735,41.1390439416958,723.435400000002 -1.45901642778456,41.1391490507862,723.6872 -1.45911214866798,41.1392067178304,723.940600000002 -1.45924877343956,41.1392831613088,723.0 -1.45928749801481,41.1393217175597,723.425199999998 -1.45939394837599,41.139350384247,723.271299999993 -1.45955270134794,41.1393879351328,722.557100000005 -1.45973777405942,41.1394095604552,722.0 -1.46022962413534,41.1395124898563,722.0 -1.46055802664367,41.1395775334583,722.0 -1.46069398127202,41.1396041880362,722.0 -1.46079121132509,41.1396310103824,721.861499999999 -1.46090721706597,41.1397030944956,721.297999999995 -1.46111693236229,41.1398618477209,721.0 -1.4613341917104,41.140050440714,721.393700000001 -1.46147182169674,41.1402080200078,721.0 -1.46154826473418,41.1403337489685,721.0 -1.4616067711103,41.1404660155805,721.0 -1.46176485304076,41.1408426982808,721.0 -1.46184196711969,41.1410319615853,721.318299999999 -1.46189996954095,41.1411248327447,721.333100000003 -1.46192930672149,41.1411923906988,720.9565 -1.46193500563364,41.1412034550644,720.856499999994 -1.46193718494654,41.1413496357584,720.762600000002 -1.46196568399892,41.1415251522846,720.215299999996 -1.46197121582444,41.1415999193786,720.793099999995 -1.46196903651155,41.141716595356,720.015199999994 -1.46198412371677,41.1417930379386,720.0 -1.46191472167455,41.1419112228559,720.0 -1.46187046527375,41.1419973892877,720.423999999999 -1.46181480925201,41.1421004864594,720.477899999998 -1.46179720766232,41.1421541304521,720.203500000003 -1.46179033465209,41.1423256243793,720.093999999997 -1.46185085145785,41.1427490781935,719.737200000003 -1.46191690098741,41.1429572846124,719.472399999999 -1.46195881098869,41.142998020397,719.2068 -1.46205151443106,41.1431348134609,720.0 -1.4622541887322,41.1432994337045,719.323000000004 -1.46249558760861,41.1435586023238,718.705600000001 -1.46256398443602,41.1436202932989,719.0 -1.46270530290494,41.1437014298347,719.636299999998 -1.46288635206225,41.1437917867745,719.0 -1.46301509771046,41.1438459340419,719.0 -1.46324057125353,41.1438927048734,718.026800000007 -1.46346537375504,41.1439476902216,718.828599999993 -1.46405931556638,41.1441677989207,718.0 -1.46410474516693,41.1442152405924,718.0 -1.46409837521328,41.1443429804882,718.0 -1.46410927177767,41.1444065154854,718.0 -1.46413978215799,41.1444811142336,718.0 -1.46419342595349,41.1444894964825,718.0 -1.46423499998483,41.1444799412192,717.967399999994 -1.46429048891994,41.144434846446,717.053700000004 -1.46435569942304,41.1443989720606,717.0 -1.46440397937797,41.1443681266084,717.0 -1.46446432909708,41.144320349513,717.750799999994 -1.46461402974591,41.1443126383111,717.322799999994 -1.46501719993363,41.1443704733175,717.0 -1.46517712610536,41.1443828786065,717.0 -1.46523579956815,41.1444155681351,716.8217 -1.46532280409836,41.1444940228018,716.850300000006 -1.46544517979288,41.1445914201065,716.852899999998 -1.46577609668566,41.1449592179807,716.0 -1.46585958071828,41.1450271115744,716.0 -1.46594909963297,41.1452101724143,716.0 -1.46600626392606,41.145273539483,716.0 -1.46608237189189,41.1453461267763,716.0 -1.46637070953854,41.1455528245441,716.0 -1.46653080369519,41.1456901203051,716.0 -1.46656265526024,41.1457385674566,716.0 -1.46658729784512,41.1458140048592,716.0 -1.46661831038365,41.1458857540914,716.0 -1.46668385685669,41.1463913504028,716.0 -1.46669441834947,41.1465450742114,715.880099999995 -1.46670699117018,41.146757304311,715.585999999996 -1.46672744311426,41.146845313802,716.0 -1.46677907558187,41.1470776606174,716.0 -1.46686088335814,41.1472950868339,715.185100000002 -1.46692022696413,41.1474256773722,715.0 -1.46694721684685,41.147732622592,715.0 -1.46698560545218,41.1480715864325,715.777300000002 -1.46703355033553,41.1481991591761,715.658800000005 -1.46712424245,41.1482849899491,715.854600000006 -1.46728651591954,41.1483969717258,716.0 -1.46749405190301,41.1485289034736,715.521500000003 -1.46773461265126,41.1486816211464,715.0 -1.46825529595285,41.1489976192682,715.623800000001 -1.46828731550286,41.1490842877709,715.070699999997 -1.46841170252528,41.149222421675,714.993400000007 -1.46853826975893,41.1493910655892,714.870800000004 -1.46862443526269,41.1495144473301,714.993400000007 -1.46868780242281,41.1496022894252,714.939799999993 -1.46876944221416,41.1497030402983,714.819900000002 -1.46880900491759,41.1497774713556,714.804199999999 -1.46888846539605,41.1498500590745,714.8505 -1.46900447113689,41.1499576826948,714.937099999996 -1.46928509674679,41.1501410781262,714.0 -1.46943697670852,41.150224059307,714.0 -1.46955063604984,41.150304357706,714.0 -1.46976387094546,41.1503922000957,714.0 -1.46992363003053,41.150473001543,713.906400000007 -1.47004801795132,41.1505085411611,713.659400000004 -1.47015966506637,41.1505539713184,713.677800000005 -1.47021733241605,41.1505660406116,713.869300000006 -1.47031590365385,41.1505767699226,714.078399999999 -1.47055176980644,41.1506793645582,712.573699999994 -1.47064363601898,41.1506845607773,713.375100000005 -1.47092627385512,41.1506141533933,712.800799999997 -1.47174132968546,41.1505227905532,713.0 -1.47226871891068,41.1504755164615,712.589200000002 -1.47251229709995,41.1505859901481,712.704599999997 -1.47328360048436,41.1510218487671,711.878100000002 -1.47396136050161,41.1512987872342,711.964000000007 -1.47465320340757,41.1516380863983,712.0 -1.47505251712778,41.1517891281416,711.0 -1.4753475597997,41.1518793176879,710.723899999997 -1.47567126861063,41.1518964164653,710.0 -1.4760886878754,41.1519622986979,711.0 -1.47661574202901,41.1519897910382,711.0 -1.47691061761427,41.151978223897,711.0 -1.47723566760993,41.1519592805936,710.0 -1.47747237278898,41.1518751266977,709.0 -1.4778446966265,41.1518861906137,709.083799999993 -1.47814342778097,41.1518846822362,709.119399999996 -1.47867299631904,41.1519373205321,708.956000000006 -1.4790022369555,41.1519554251037,708.315799999997 -1.47929979491023,41.1519420140849,709.25 -1.47948486762167,41.1520089020803,709.983999999997 -1.47972777476945,41.1520967442154,710.0 -1.48014502604927,41.1522727643024,710.0 -1.48037116973551,41.1523570861108,710.0 -1.4805874229705,41.1524761089831,710.458100000003 -1.48090409078625,41.1526454236283,710.0 -1.48204436549551,41.1532309832819,709.434299999994 -1.48239405807605,41.1534520977195,708.183900000004 -1.48257376604863,41.153592243459,707.724900000001 -1.48283829923856,41.1537469730765,707.9712 -1.48315949366502,41.1539268488415,707.367700000003 -1.48333735739632,41.1540584447992,707.402400000006 -1.48346358866006,41.1541593626538,707.508300000001 -1.48357590681668,41.1542948141737,707.596099999995 -1.48363625653575,41.1543912060286,707.069900000002 -1.48369325284392,41.1544574232657,706.838000000003 -1.48379383630796,41.1545506298319,706.209300000002 -1.48376265578444,41.1545940483559,705.472299999994 -1.48384932434474,41.1547623571757,705.960300000006 -1.48399231996831,41.1548347763697,705.256200000003 -1.48444862999666,41.1551631798735,707.0 -1.4849190229137,41.1555567934561,707.0 -1.48527089480714,41.1559287827784,707.277000000002 -1.48535370869656,41.1560245039872,707.359200000006 -1.48556476427928,41.156264728949,707.0 -1.48568227918981,41.1564974109976,706.018700000001 -1.48548966242658,41.1565904503092,705.780599999998 -1.48522077150922,41.1567069582559,705.998000000007 -1.48504206875143,41.1567919507127,705.982699999993 -1.48485766708148,41.1568801286722,704.261599999998 -1.48461006623637,41.156951877969,704.0 -1.48428099268654,41.1570697271497,704.0 -1.48400707210191,41.157174333228,703.362599999993 -1.48377422249203,41.1572480943355,703.0 -1.4834062572803,41.1574090268809,703.242100000003 -1.48325337120549,41.1575101127214,704.0 -1.48307651268897,41.1575967814687,704.0 -1.48290887448053,41.1577779980005,704.0 -1.48273721361628,41.1579214965789,704.0 -1.48226715666912,41.158342435157,703.057000000001 -1.48212164666107,41.158421057799,703.922500000001 -1.48206247014175,41.158493477009,704.0 -1.48225508600665,41.1586929669136,704.0 -1.48225709823288,41.1587239794442,703.983200000002 -1.48247184229819,41.1588741831201,703.0 -1.48262204600357,41.1589616907413,703.091 -1.48281147734079,41.1590456772791,703.496199999994 -1.48300727863171,41.1591308371379,703.438399999999 -1.48321598781491,41.1592178412293,704.0 -1.48334993021707,41.1593066895459,703.451799999995 -1.4835371822414,41.1594900858767,704.0 -1.48365670847983,41.1596052529318,704.0 -1.483856197355,41.1596979571107,703.907699999996 -1.48403858769701,41.1598127890218,705.0 -1.48431099911199,41.1599296327822,706.0 -1.48493628943178,41.1601651639946,708.0 -1.48535840239389,41.1603271024982,709.156000000003 -1.48587690638265,41.1606596966428,711.205000000002 -1.4860680139762,41.1607666492008,711.225399999996 -1.48615937713216,41.1608365546797,711.0 -1.48621989393789,41.160861700561,711.0 -1.48663479791986,41.1614519540859,709.0 -1.48692078916696,41.1618044967601,708.2408 -1.48707887199571,41.1619969451157,707.057100000005 -1.48742923471946,41.1623689337324,706.679499999998 -1.48776400807977,41.1625895459702,707.0 -1.48794757162156,41.1628198804822,707.0 -1.48811386864527,41.162946782729,706.054699999993 -1.48828133976705,41.1629447707712,705.0 -1.48856263641849,41.1629710898797,701.404899999994 -1.48883387463369,41.1630932984033,702.478400000007 -1.48915205161913,41.1633097186197,701.768700000001 -1.4893346090478,41.1634954619468,702.221099999995 -1.48946251746615,41.1635759280382,705.0 -1.48966133619811,41.1635648640664,703.373200000002 -1.48987205670925,41.1635479326692,702.9476 -1.49009870345207,41.1635482681052,704.072199999995 -1.49011027105796,41.1635413943733,703.951700000005 -1.4902182296905,41.1635554765959,704.214399999997 -1.49037111576534,41.1636656144454,704.740999999995 -1.49053690973248,41.1638285587185,706.0 -1.49074478078756,41.1640840389308,706.471099999995 -1.49075316296748,41.164100132283,706.324299999993 -1.49091141288285,41.1644283676358,707.325599999996 -1.49097729442748,41.1646496498878,708.173899999994 -1.4911394008104,41.1647842634727,709.688699999999 -1.49137996155866,41.1648856841877,711.547399999996 -1.49159369951082,41.1649379874351,711.3609 -1.49182336369468,41.1649673239249,711.0101 -1.49267697701364,41.1650620398508,709.418300000005 -1.49353159554738,41.1652643784758,711.356100000005 -1.49419141890336,41.1654048594081,710.699800000002 -1.4944678547708,41.1654606828632,709.934399999998 -1.4947411043139,41.1654742615343,708.755000000005 -1.49555917848359,41.1657188455211,705.861399999994 -1.4959202706851,41.1657877448543,703.640199999994 -1.49630147975907,41.1659190052447,701.863500000007 -1.49635428542642,41.1659426424743,701.551999999996 -1.49658881129257,41.1660925104134,700.798800000004 -1.49692710515048,41.1663930858456,700.138699999996 -1.49722248289398,41.1666594626209,701.988599999997 -1.4974471183089,41.1669275160827,699.177200000006 -1.49759145421883,41.1672175294838,699.387499999997 -1.49755675319772,41.1674181924873,699.892800000001 -1.49746522295513,41.1675878424972,699.672099999996 -1.49751065255568,41.1676344455902,699.0 -1.49752255523319,41.1676550648194,699.122099999993 -1.49756664454733,41.1677655386315,698.282900000006 -1.49751719049432,41.1678701445446,698.257599999997 -1.49724779652039,41.1682919219963,696.938200000004 -1.49698393437199,41.1686870451975,695.010399999999 -1.49678209819901,41.1689800762463,695.611300000004 -1.49663340276496,41.1692308629937,697.892600000006 -1.49661395693399,41.1693136759733,698.535199999998 -1.49657908792792,41.1694915398634,699.002299999993 -1.49660792205193,41.1697698190031,697.821299999996 -1.49660574273903,41.1699235434413,698.516399999993 -1.49657573541529,41.1700968811245,698.650399999999 -1.49666039264769,41.1702965378965,700.709600000002 -1.49681897853298,41.1705030684147,699.538100000005 -1.49688687140555,41.1706366759474,703.116999999998 -1.49784090020358,41.1711677534417,698.517699999997 -1.49813175223468,41.1712673304152,695.272400000002 -1.49827223257544,41.1712871113627,696.447100000005 -1.49845076734827,41.1713305296189,697.664600000004 -1.49930806825148,41.1714094869514,694.169599999994 -1.50120723971277,41.1714891149794,694.743199999997 -1.50190059089008,41.171504537751,702.845799999996 -1.50207091146796,41.1715233131178,708.581099999996 -1.504497975211,41.171227767826,695.163 -1.5046530405987,41.1712029572619,692.095400000006 -1.50479922074995,41.171240508163,693.6633 -1.50500776284653,41.1712871113627,693.690199999997 -1.5051675219316,41.171420718649,695.396099999998 -1.50517975878242,41.1714222279293,695.220199999996 -1.50521731015793,41.1714344651351,694.846399999995 -1.50554889809223,41.1716862574612,693.595400000006 -1.50596078463315,41.172448340498,688.0 -1.50598978584378,41.1726781717577,688.0 -1.50593010716617,41.1729069980756,688.0 -1.50585433427197,41.173039767647,687.522400000002 -1.50567010058698,41.1732097526873,687.0 -1.50550849726064,41.173348053482,687.0 -1.50540389114073,41.1734110856905,687.804699999993 -1.50539819133028,41.1735586071111,686.9859 -1.50539483881761,41.1735837528438,687.0 -1.50600638221865,41.1746366875902,689.629700000005 -1.50652823961835,41.1748713809149,687.904599999994 -1.50689620483008,41.1749370946788,686.099600000001 -1.50691682475909,41.1749464825471,686.0 -1.50730373364355,41.1750002943993,684.275200000004 -1.50785090377132,41.1751640766496,686.070099999997 -1.5079151090596,41.1751701120734,686.185599999997 -1.50792550256745,41.1751706144619,686.187900000004 -1.50823881876889,41.1751278667995,685.0 -1.50858214139575,41.1751446308969,684.428 -1.50894558089507,41.1752193975158,685.8076 -1.50920726373058,41.1755305339199,685.268899999995 -1.50926157856762,41.1757585213071,684.045299999998 -1.50915227875038,41.1759725953597,684.0 -1.5087806250561,41.1762941253544,687.196200000006 -1.50844769593706,41.1769821117104,685.039199999999 -1.50799121702542,41.1779757024139,687.232399999994 -1.50799825802064,41.178275104335,685.134099999996 -1.50817159603953,41.1789600733067,685.353099999993 -1.50829581507703,41.1796636499376,689.935100000002 -1.5085630306364,41.1800078109016,697.260200000004 -1.50873871505481,41.1800408355954,690.941600000006 -1.50903660808112,41.1800200485319,690.348400000003 -1.50949945694644,41.1799721040524,684.703099999999 -1.50982299777242,41.1801023590446,690.191200000001 -1.50999516259157,41.1799796481164,685.491699999999 -1.51038173550611,41.1798361498364,687.011700000003 -1.51041559839907,41.1797652389607,684.815600000002 -1.51054099243294,41.1795977685058,684.770900000003 -1.51075037175935,41.1793650866661,685.032000000007 -1.51101741933376,41.1792313116779,690.193899999998 -1.51126518816386,41.1792448901995,686.816600000006 -1.51139259352563,41.1793630752124,685.422900000005 -1.51144254973692,41.1794919886465,683.6057 -1.51124356302,41.1799938971864,682.295199999993 -1.51102513047214,41.1802498802706,687.954599999997 -1.51098657388185,41.1805088811724,685.266699999993 -1.51100903715384,41.1809834646934,689.433699999994 -1.51126602629201,41.1813296375524,685.740600000005 -1.511522177302,41.1815007957437,684.034700000004 -1.51167824880285,41.1815472314093,682.466499999995 -1.51196323303854,41.1815318089737,679.684200000003 -1.51218786845342,41.1815009634157,679.023700000005 -1.51254577522892,41.1814697824989,680.192299999995 -1.51272481305829,41.1816100954934,681.820900000006 -1.51290250970297,41.1818573621533,680.935400000002 -1.51290519207241,41.1820685854803,680.985400000005 -1.51288138671739,41.1822501379631,681.286699999997 -1.51278600090556,41.1824595176865,679.684800000003 -1.5126124958,41.1825259026282,683.682199999996 -1.51230286808114,41.1826321846513,681.779999999999 -1.51205761363555,41.1826499548708,681.850200000001 -1.51098523269712,41.1826727531278,685.222200000004 -1.51073193204153,41.1827621044241,682.165599999993 -1.51024930137536,41.1828584963253,682.551200000002 -1.50831542889293,41.1833268773827,680.338000000003 -1.50755921361203,41.1834891507687,682.890599999999 -1.50722494330829,41.1837593833158,677.706900000005 -1.506834011768,41.184031292079,679.808900000004 -1.50653226317248,41.1845459414404,679.594700000001 -1.50625683341819,41.1849802910529,679.964300000007 -1.50600587916208,41.1855415435919,673.0 -1.5055844372415,41.1859376721518,673.146800000002 -1.50546206154698,41.1859980218463,676.076499999996 -1.50535510812925,41.1861525843615,678.880499999999 -1.50551788465534,41.1865760383266,678.265199999994 -1.50550983844534,41.1870608475961,674.960699999996 -1.50582382478998,41.1873828802109,670.507400000002 -1.50628315315768,41.1879937530431,668.0 -1.50654835649081,41.1882829288794,669.482199999999 -1.50682931807063,41.1883679216181,669.227299999999 -1.50711882891703,41.1886785547946,668.356 -1.50730356565859,41.189214660925,670.053100000005 -1.50747556249278,41.1896107902482,670.949200000003 -1.50761989840275,41.1897221017936,670.209099999993 -1.5079204737985,41.1899266200999,669.0 -1.50818014530611,41.1901145424517,668.9375 -1.50834191571908,41.1902689370642,668.146699999998 -1.50863796450411,41.1906754589498,668.367800000007 -1.5088545528107,41.1909523974969,669.304900000003 -1.50936752587223,41.1911993280622,665.679399999994 -1.50971218968382,41.1915200201073,666.013099999996 -1.50990815806136,41.1917037514704,664.721799999999 -1.51013195534808,41.1920160608188,664.8701 -1.51031300450539,41.1923099305069,664.885399999999 -1.51065884151672,41.1930694982496,666.881399999998 -1.51073394336943,41.1931504674462,666.604399999997 -1.51092404484986,41.1933826460503,665.742899999997 -1.51100954021041,41.1935030105724,665.170299999998 -1.51108195969365,41.1935838122677,665.0 -1.51113811877196,41.1935812976516,665.0 -1.51154380334416,41.1934297526438,663.189400000003 -1.51195066021779,41.1933338636818,663.0 -1.51226699386029,41.1932733463473,662.971999999994 -1.51250906287987,41.1930974938469,661.513399999996 -1.5125655570298,41.1930285948455,662.498300000007 -1.51259891686618,41.192945446143,663.730500000005 -1.51257477733788,41.1927570208757,664.0 -1.51262322437944,41.192649900169,664.0 -1.51285842038883,41.1925208193056,664.0 -1.51314860227672,41.1923432903692,667.170599999998 -1.51324415607351,41.1922670148949,667.931899999996 -1.51338480439923,41.1922743912501,670.823999999993 -1.51351623241687,41.1924058196168,673.813999999998 -1.51357742026413,41.1925266861622,673.9568 -1.51370113714339,41.1926916420266,673.068599999999 -1.51392241914731,41.1929449432149,671.420899999997 -1.51407295882263,41.1930800597194,670.872000000003 -1.5141723681886,41.1931709197894,675.361900000004 -1.51426306030306,41.1933224640444,672.669999999998 -1.51429189352873,41.1934347818877,672.364000000001 -1.5144053848851,41.1935663775938,671.879300000001 -1.51449859138404,41.1936592493554,671.797300000006 -1.51475289815275,41.1939935196854,670.340500000006 -1.5149755213414,41.1943403625968,668.251000000004 -1.51517031741752,41.1946407698873,666.0 -1.51546385181805,41.1950233201983,666.785000000003 -1.51573743643281,41.1954305128488,666.3122 -1.51583969615316,41.1955315988382,665.515299999999 -1.5160041489356,41.1956546449611,665.945200000002 -1.51620699122169,41.1959153221205,667.923899999994 -1.51641603547652,41.1960569763328,669.372300000003 -1.51666497840469,41.1962383609257,671.781600000002 -1.5168111585559,41.1963719680106,672.987699999998 -1.51686228796693,41.1964589726679,672.736600000004 -1.51690486811142,41.1965568733853,671.297600000005 -1.51706144177048,41.1966479003184,671.042300000001 -1.51716722198846,41.1968995254191,668.594400000002 -1.51719940862509,41.1970255890552,668.068100000004 -1.51729110595434,41.1971278480331,667.868400000007 -1.51752630286203,41.1972840869517,669.491200000004 -1.51760978599632,41.1975204565401,675.155799999993 -1.51785168792931,41.1979885022259,672.416200000007 -1.51802888151742,41.198133676901,670.417600000001 -1.51821143894609,41.198186985739,670.623399999997 -1.51833532381027,41.1981640191711,669.302299999996 -1.51847932464862,41.1981113808323,667.404899999994 -1.51859466024629,41.1980411406634,667.480899999995 -1.51877017667975,41.1980307469479,667.0 -1.51871167120192,41.198217830872,665.748399999997 -1.51860706508205,41.198434084357,665.0 -1.51862299041539,41.198726947855,664.0 -1.51867060022712,41.1991968375939,667.138800000001 -1.51882231220389,41.199353579184,668.943599999999 -1.51934534280333,41.199676114366,673.689400000003 -1.51992319129638,41.1998581695684,673.850900000005 -1.52011362874672,41.1999895975788,675.078899999993 -1.52043616435791,41.2004083578073,674.476899999994 -1.5207446179787,41.2007174820238,674.226699999999 -1.52138667176002,41.2009323943825,677.098100000003 -1.52169998706314,41.2012063149314,677.547699999996 -1.52190836117476,41.2015231506646,674.321100000001 -1.52210315725085,41.2018180259737,674.814299999998 -1.52240138534878,41.2023678787208,672.489600000001 -1.52259333017216,41.2028570467015,673.0 -1.52268586652789,41.2033777302742,673.731599999999 -1.52218731142668,41.2039180280504,667.648799999995 -1.52213685215885,41.2039218838621,667.492899999997 -1.52205856488017,41.2039508852361,664.634900000005 -1.52192043183722,41.2040268253845,665.522700000001 -1.52178581839361,41.2043211973855,664.0 -1.52174541756201,41.2043232094241,664.0 -1.52167802684769,41.2043267299849,663.844100000002 -1.52157593511229,41.2045371157535,659.592699999994 -1.52140159187858,41.2047768377545,660.0 -1.52135197073891,41.2048031569522,659.325299999997 -1.52133034559509,41.2053659183682,655.749200000006 -1.52127368346023,41.2054743801013,655.0 -1.5212306011575,41.2055110928994,655.0 -1.52122640961841,41.2055585340953,654.962100000004 -1.52148557806945,41.2057697580081,653.930999999997 -1.5216657890986,41.205875202775,653.870899999994 -1.5216825525601,41.2058876079113,653.701300000001 -1.52199234826392,41.2060344587286,653.636799999993 -1.52271218626742,41.2063789548477,653.031799999997 -1.52312139043891,41.2066322557844,653.0 -1.52327360547222,41.2067542963454,653.042300000001 -1.52346219868129,41.2068927655447,652.422300000006 -1.52377953753853,41.207164171381,652.940600000002 -1.52404826136926,41.2074102642624,652.339999999997 -1.52422092834666,41.2076097532174,652.0 -1.52448428833681,41.2079985061259,652.0 -1.5247612263625,41.2085280749898,651.0 -1.52490304788796,41.208721193677,651.650200000004 -1.52505995661864,41.2088923525744,651.786800000002 -1.52581332244347,41.2094465636384,650.979600000006 -1.52640173242929,41.2099355638173,650.926200000002 -1.52717873472588,41.2105861671311,650.0 -1.52736682487838,41.210742573956,650.0 -1.52792254427269,41.2116466453959,649.782699999996 -1.52847759442214,41.2126288368621,649.027100000007 -1.52864003587664,41.2130271450887,648.959799999997 -1.52864623784537,41.2130970502094,648.896599999993 -1.52863182168168,41.2131553881024,648.895900000003 -1.5285689566798,41.2133198412398,648.794099999999 -1.52795791633534,41.2151990642176,647.854099999997 -1.52794685178599,41.2153591583785,647.0 -1.5279270708834,41.2154250403156,647.286300000007 -1.52795439583775,41.2155365194704,647.0 -1.52799630494067,41.2156107831651,647.055699999997 -1.52815908236512,41.2157479111913,646.274999999994 -1.52840098339978,41.2158925829103,646.085600000006 -1.52865378189713,41.2159569553805,646.0 -1.52879040666868,41.215998194489,646.0 -1.5289370898765,41.2160005413359,646.0 -1.52914244654707,41.2160168023543,646.0 -1.52930388188845,41.2160414452497,646.0 -1.52948090838993,41.2162513277674,645.937600000005 -1.52949599559511,41.2163022898768,646.0 -1.52951762073894,41.216518543065,646.0 -1.52952902035991,41.2165958241504,646.0 -1.52956321832448,41.2167155175499,645.538199999995 -1.5298031080312,41.2168239793891,645.197899999999 -1.53033636505183,41.217011566388,645.758300000001 -1.53131620963452,41.2174479284557,644.839900000006 -1.53228197222681,41.2179131240033,644.0 -1.53431676324486,41.2186978378984,642.060299999997 -1.53473954635017,41.2189212997536,642.026899999997 -1.53508538336151,41.2191065394078,641.118900000001 -1.535336002546,41.2192907737617,640.994900000005 -1.53543340058403,41.219344585658,641.0 -1.53555778760649,41.2194740021482,641.0 -1.5356602144135,41.2198520260547,641.0 -1.53579030214474,41.2202987816507,640.560800000007 -1.53610076799176,41.2207680002585,640.853600000002 -1.53628785203114,41.2209643045005,640.966499999995 -1.53669001520745,41.2213371318807,640.0 -1.53706200397335,41.2215773571979,639.758000000002 -1.53729854116744,41.2217004029976,639.783200000005 -1.53749752788432,41.2219097835701,639.327600000004 -1.5378277746339,41.22239308384,639.0 -1.53805928305904,41.2226219100689,639.222500000003 -1.5382844206322,41.2228046352079,639.097800000003 -1.53841618461975,41.2229420981485,639.0 -1.53855901225833,41.2233098960897,638.366200000004 -1.5386314317416,41.2234723379227,638.811600000001 -1.53875648980556,41.2236118122567,638.0 -1.53887970362824,41.2236495310718,638.0 -1.53907366067788,41.2237522930272,637.995299999995 -1.53937457114521,41.2239688817091,638.0 -1.53993314089395,41.2243469053095,638.0 -1.54026959051058,41.2245244339151,638.0 -1.54172116919501,41.2253711736872,636.390799999994 -1.54233237752444,41.2257171787096,636.678 -1.54316453278619,41.2262187517682,635.498600000006 -1.54355227979881,41.2263992980745,635.516000000003 -1.54393918778494,41.2266418701791,635.527000000002 -1.54415041225095,41.2269426129369,634.999599999996 -1.54434738674161,41.22723782365,634.968999999997 -1.54437705899377,41.2274145140668,635.0 -1.5443421899877,41.2278860800627,635.0 -1.54422752543159,41.2281447458851,636.0 -1.54433615510563,41.2281990605851,634.729099999997 -1.54497904701512,41.2283465821982,634.784799999994 -1.54552605005623,41.2286139649494,634.0 -1.54581991952841,41.2288642483313,633.812600000005 -1.54619291440742,41.2292494806978,634.0 -1.54664168128231,41.2296306896252,634.0 -1.54686849601008,41.2298139180921,634.367199999993 -1.54703328386414,41.2299208712205,634.2549 -1.54755027958151,41.2305377793197,634.0 -1.54864495580693,41.2316800649253,634.680699999997 -1.54991967597488,41.2329618254966,634.940700000006 -1.55012620584523,41.233134157247,634.6391 -1.55024003227321,41.2332064094004,633.679699999993 -1.55046064413392,41.2333100095708,634.967799999999 -1.55087001629037,41.233686524691,635.0 -1.55110118874559,41.2339109918975,634.8171 -1.55125658920491,41.2340088926495,634.491899999994 -1.55149228827084,41.2341374714816,633.910499999998 -1.55169311922901,41.2342345335342,634.779200000004 -1.55214976522727,41.2343885930186,634.0 -1.55269995369439,41.2345505317424,633.875499999995 -1.55296348077121,41.2345840592245,633.724000000002 -1.55314134450251,41.2345921056826,634.132800000007 -1.55332943465501,41.2345267267468,635.503100000002 -1.55376411953953,41.2346854799222,636.005799999999 -1.55397199059461,41.2348251228684,636.8649 -1.55479660270291,41.2351831977675,638.381899999993 -1.55518183443272,41.2353622351569,635.713300000003 -1.55549414452104,41.2354802519735,634.179900000003 -1.55607668671143,41.2354651644778,634.677200000006 -1.55709844039704,41.2354666736329,635.0 -1.55767109213617,41.2354787434944,635.0 -1.55842948672996,41.2355991075954,634.357799999998 -1.55922459457108,41.2357308711572,635.604800000001 -1.55954813629539,41.235765907182,635.349000000002 -1.55987687387527,41.2358896241103,635.283800000005 -1.56026529192942,41.236045863018,634.484800000006 -1.56143188458154,41.2364272397033,633.0 -1.56234702081938,41.2366683033051,632.426800000001 -1.56307456996123,41.2369060140652,632.5576 -1.56357446714547,41.2370729812242,632.366999999998 -1.56385291344252,41.2371765813464,633.0 -1.5642555805737,41.2372748176701,632.767399999997 -1.56480895356849,41.2373361731619,632.558300000004 -1.56553029984332,41.2375386795844,632.261499999993 -1.56600655965751,41.2376585413609,632.813399999999 -1.56651651527799,41.2376992770351,633.838799999998 -1.56679362039033,41.2379014486286,632.0 -1.56696997585028,41.2380493056948,633.191300000006 -1.56724037593732,41.2382363893496,633.047300000006 -1.56748998900866,41.2383612796904,633.228499999997 -1.56792417173494,41.2385468553948,633.413799999995 -1.56873168441185,41.2388008268352,633.469800000006 -1.56903695350493,41.2388859870133,633.315199999997 -1.56968839468099,41.2389895876393,633.0 -1.5699326430135,41.2390477578787,633.0 -1.57008603214489,41.239099558084,633.0 -1.57047009067492,41.2393364304889,632.920800000007 -1.57068768509462,41.2394435510982,632.0 -1.57085381413337,41.2395568746224,631.220400000006 -1.57092070179112,41.2397161309841,630.418699999995 -1.57093260446863,41.2398155402023,630.1299 -1.5709934572443,41.2398701903834,630.001199999999 -1.57111063618492,41.2399380835643,629.526599999997 -1.57130861678869,41.2400359840708,629.444300000003 -1.57169083107745,41.2401664066206,630.302500000005 -1.57182561250606,41.240218541658,630.381399999998 -1.57223531973409,41.240531019345,631.0 -1.57239122324998,41.2405987449943,631.0 -1.57303914392842,41.2407425788502,631.0 -1.57341716847472,41.2408679716903,631.844299999997 -1.57423255937664,41.2411439041257,632.0 -1.57498307484708,41.2414704631192,629.370599999995 -1.57549755617997,41.2416954331679,628.0 -1.57610574706835,41.2419552723603,628.126699999993 -1.57642878573608,41.2420697688757,628.859800000006 -1.57691644517123,41.2421649872743,629.0 -1.57714476817037,41.2422402568994,629.045100000003 -1.57745305470449,41.2423894550859,629.0 -1.57793920496996,41.2425465315704,629.526100000003 -1.57835561812162,41.2426777920902,629.686400000006 -1.57867396219369,41.2427423327275,629.340700000001 -1.57910965408962,41.2428407363062,628.055200000003 -1.57948650453785,41.2428152558031,626.944199999998 -1.57987324543731,41.2427510502681,626.475699999995 -1.58011799682636,41.2427077996106,626.503100000002 -1.5802355108386,41.2427123258985,626.785799999998 -1.58033693243079,41.2427302628564,627.0 -1.58041907438039,41.242773178469,626.133900000001 -1.58067405219063,41.2429450074764,626.0 -1.58084889848088,41.2431040961732,625.0 -1.58088661694304,41.2431436585566,625.0 -1.58091377481069,41.2431751748401,625.156000000003 -1.58092550950328,41.2432574849609,625.382500000007 -1.5809095832716,41.2434363543349,625.180399999997 -1.58090036386182,41.2436774184281,625.0 -1.58092115087749,41.2437810182134,625.053199999995 -1.58093925552373,41.2438909887013,625.914499999999 -1.58100111441252,41.2440237581799,625.9274 -1.58104084420259,41.2442914766748,625.873699999996 -1.58105609939276,41.2444104993199,625.989100000006 -1.58110203204985,41.2445162789578,626.0 -1.58115165318952,41.2446282610336,626.0 -1.58119406534901,41.244680229054,626.0 -1.58124502767341,41.2447335377889,626.0 -1.58138064633185,41.2448091428524,626.0 -1.58168558035338,41.2448745216348,625.822799999994 -1.58191775892168,41.2449033555793,626.0 -1.58217759841425,41.2449751043531,626.0 -1.58254338431313,41.2450805487341,626.0 -1.58294755971563,41.2452294114974,626.0 -1.58342298140166,41.2454237037961,626.0 -1.58355005079355,41.2454904240545,626.115300000005 -1.58366622362102,41.2455638492889,626.198699999994 -1.58375071376676,41.2456377776393,626.591499999995 -1.58382598270612,41.2457086887445,626.764800000004 -1.58395757870872,41.2459554518472,626.460399999996 -1.58406402906987,41.2460835269478,626.997799999997 -1.5841937808312,41.2461591318002,627.0 -1.58445328435385,41.246252506401,627.0 -1.5846194142909,41.2463202321998,627.0 -1.5847282110516,41.2463789058613,627.060500000007 -1.58490272227027,41.2465500641467,626.0 -1.58503230694497,41.2466933945467,625.0 -1.58527286679489,41.2468216377318,623.268700000001 -1.58552633633377,41.2469073007783,622.0 -1.5859568305775,41.2470821474956,620.0 -1.58601952759442,41.2471062869788,620.0 -1.58614441767342,41.2470588455238,619.421799999996 -1.58622337509534,41.2469842467378,620.112599999993 -1.58630266758884,41.2468828255372,620.8079 -1.5863442425185,41.246868241161,621.0 -1.58638849891927,41.246892883912,621.0 -1.58653970783947,41.2470806386087,620.876099999994 -1.58673869455639,41.2474209437188,621.0 -1.58689308890259,41.2476413875986,620.0 -1.58694203900073,41.2477198422412,620.0 -1.58728972115167,41.2480348344068,620.0 -1.58738410085035,41.2481119478907,621.0 -1.587643604373,41.2483345710017,623.647500000006 -1.58770529527684,41.2483908978456,623.753200000006 -1.58775860400073,41.2484368301533,624.437900000004 -1.5878538227259,41.248581501819,624.0821 -1.58793479237404,41.2486986809056,623.547000000006 -1.58800905609856,41.2487788119768,623.075400000002 -1.58815037456748,41.2489191252022,623.0 -1.58822413523548,41.2489841689264,623.0 -1.58833611742216,41.2490389863686,623.0 -1.58848766231227,41.2490984977846,622.0 -1.58878924292283,41.2491670615037,620.931200000006 -1.58904137127698,41.2492049479323,619.311499999996 -1.5891900658127,41.249203774767,618.744600000005 -1.58935250726723,41.2491908665702,618.018899999995 -1.58947723025957,41.2491774551996,618.0 -1.58967822830439,41.2491730968582,617.0 -1.58981837357357,41.2491739350268,617.0 -1.58999975780247,41.2492153416222,616.531600000002 -1.59011090186102,41.2492480308434,616.012499999997 -1.59036738794262,41.2493239710832,616.200200000007 -1.59051155676593,41.2493735917461,615.984100000001 -1.59059185537254,41.2494248893776,616.376199999999 -1.59064382291173,41.2494807127879,617.483900000007 -1.5906892534106,41.2496141523807,617.012199999997 -1.59080995284881,41.2501358422249,617.251199999999 -1.59079151223266,41.2502141290779,616.173200000005 -1.59076401929339,41.2503329842453,614.081399999995 -1.59077893941192,41.2503862937714,613.249899999995 -1.59078380109424,41.2504721243674,612.410399999993 -1.59081129313521,41.2505078312507,612.054099999994 -1.59083660676159,41.2505400173398,611.095700000005 -1.59096417921002,41.2505390116936,611.579800000007 -1.59109342881311,41.2505247624485,611.487200000003 -1.59122988559973,41.2505147039573,611.191699999996 -1.59137673679248,41.2505180572381,611.282000000007 -1.59147832547133,41.2505364972404,611.775299999994 -1.59154957175483,41.2505861183332,612.0 -1.59159852185297,41.2506536761976,611.931299999997 -1.59161109467367,41.2507539238105,613.320399999997 -1.59157304113993,41.2508441128292,614.135899999994 -1.59152140867236,41.2509073128763,614.553400000004 -1.5914823490255,41.250954418575,614.112699999998 -1.59145234170172,41.2509871082768,613.820900000006 -1.5913829396595,41.2511135073579,614.962 -1.59135192622264,41.2511837479495,614.612800000003 -1.59134086257162,41.2512288421777,615.312399999995 -1.59134237084298,41.2512712544566,615.291200000007 -1.59135745804817,41.2513126610736,615.167700000005 -1.59136081145913,41.2513468593846,614.929999999993 -1.59139048281296,41.2514008387304,614.389800000004 -1.59155845609299,41.2516397230558,612.718399999998 -1.59162299735122,41.2517433237244,612.715800000005 -1.59165903955703,41.2518050141239,612.341899999999 -1.59167798233142,41.2518435710161,612.673200000005 -1.59170983389647,41.2520068503212,612.316399999996 -1.59174453491758,41.2521052541309,612.998200000002 -1.59176632804637,41.2521555453469,613.170499999993 -1.59180186719564,41.2522143866622,612.882599999997 -1.59182902416499,41.2522546195709,613.073999999993 -1.59187311347913,41.2523067550948,613.063200000004 -1.5919208894792,41.252355873047,612.498600000006 -1.59199431507558,41.2524713758652,612.0 -1.59208215773396,41.2525323956171,612.0 -1.59217653833097,41.2526529275424,612.290900000007 -1.59224476627512,41.2527313822454,611.738899999997 -1.59233948194372,41.2528197275027,612.034100000004 -1.59242849780186,41.2528767244884,612.044399999999 -1.59256981716908,41.2529588670561,612.299400000004 -1.5926620175549,41.2530408420318,612.291200000007 -1.59273946670546,41.2531679118204,612.627099999998 -1.5933235171672,41.2541802781382,612.229300000006 -1.59353943533058,41.2545284626329,612.358900000007 -1.59378938347354,41.254937666829,612.165599999993 -1.59400261926748,41.2551519080491,613.0 -1.59426899669869,41.2555696620904,612.333599999998 -1.59426597835931,41.2556023515088,612.019899999999 -1.59449229003054,41.2559528832911,612.308199999999 -1.59463612378227,41.2561651127637,611.655799999993 -1.59489143666409,41.2562195952973,613.562699999995 -1.59512260911932,41.2564264604902,611.025099999999 -1.59529443796855,41.2566033185003,611.966400000005 -1.59539368024786,41.2568653370905,611.873699999996 -1.59577488932183,41.2570768963861,610.776199999993 -1.59588787672333,41.2571454598357,611.092900000003 -1.59639816741543,41.2570354893708,610.807499999995 -1.59669471925701,41.2570095058897,611.0 -1.59729721033493,41.2575115816846,610.584700000007 -1.59718053445089,41.2576185347364,610.926500000001 -1.59698439719006,41.257715765184,611.0 -1.59695237853838,41.2577300142112,611.0 -1.59691181062016,41.257744430712,610.895600000003 -1.59677250347914,41.2578770329267,610.205000000002 -1.59661274439407,41.2580356179553,609.784599999999 -1.596520375125,41.2582275639821,608.185299999997 -1.59660436221416,41.2583832997337,607.0 -1.59681709495153,41.258595864362,606.426999999996 -1.59727893770374,41.2590246827106,604.878299999997 -1.59754581729319,41.2591888003395,605.438500000004 -1.59799978092199,41.2594598709689,606.354200000002 -1.5983412602059,41.2597979972708,602.995999999999 -1.59855231668695,41.2599485363261,602.545199999993 -1.59887183485709,41.2600424132145,603.866899999994 -1.59924047111036,41.2602182660656,605.659 -1.59949628615046,41.2604209399528,605.587100000004 -1.59965017833839,41.2605573979848,605.556200000006 -1.59994203558433,41.2607322439601,605.244600000005 -1.60018024993304,41.2608755749841,604.294399999999 -1.60033799679188,41.2609728046347,603.975999999995 -1.60050161144615,41.2610945101442,602.757400000002 -1.60074334629248,41.2611800052404,601.958199999994 -1.60108415453486,41.2612133650985,600.950200000007 -1.60119663887978,41.2613499902928,601.574200000003 -1.60139746983798,41.2617938962888,597.504000000001 -1.60168262205862,41.2621638734948,596.0 -1.60249214606344,41.2623662124918,595.150500000003 -1.6027171165499,41.2624956288999,595.127600000007 -1.60279708008493,41.2626533761979,595.0 -1.60259239355756,41.2630510137074,594.011599999998 -1.6025452877007,41.2632399421473,593.5965 -1.60224588550469,41.2636444528124,592.652900000001 -1.60256640978795,41.2652742295691,591.891699999993 -1.60264318789697,41.2656540980449,590.044800000003 -1.60286748824027,41.2661327041813,589.155400000003 -1.6029112415845,41.2664319384262,591.0 -1.60303344929406,41.2667167554323,591.0 -1.60305976903359,41.2667829725158,590.175799999997 -1.6032508757288,41.2669843059869,590.994000000006 -1.60368975215245,41.2673722204402,589.373200000002 -1.60432158041088,41.268024332563,589.297200000001 -1.60485366333347,41.2684652202911,589.882599999997 -1.60523302816614,41.2688343595941,589.212299999999 -1.60605814333104,41.269446238195,588.986399999994 -1.60783024540043,41.2708803821105,586.566800000001 -1.608501635464,41.2716707952723,586.959600000002 -1.60823576108937,41.27229859994,587.305699999997 -1.60807030309211,41.2725906256471,585.466 -1.60802235820876,41.27262767345,585.104099999997 -1.60797726367983,41.2728256543168,585.439799999993 -1.607907526566,41.2731327672703,587.895900000003 -1.60805840041461,41.2732487727902,586.045100000003 -1.6090784778439,41.2730472716198,587.0 -1.61017030461326,41.2728816454207,588.320500000002 -1.61086415884715,41.2728179427168,589.7264 -1.61163831168765,41.2727725129888,591.0 -1.61178499489544,41.272931936843,592.0 -1.61275528409844,41.2739520141179,590.8802 -1.61358039836501,41.2746973330247,592.0 -1.6138249817691,41.2748907876073,592.0 -1.61413695678581,41.2750859179638,591.752500000002 -1.61474497968923,41.2754423166607,592.0 -1.61523247113939,41.275735850707,592.0 -1.61538535721424,41.2758639261546,591.915599999993 -1.61547420508743,41.2759754055385,591.384099999996 -1.61583412408916,41.276184953184,590.797699999996 -1.61608357007388,41.2763373360124,590.843500000003 -1.61634273852491,41.27650178887,590.0 -1.61651691377366,41.2765710239176,590.0 -1.61663610494051,41.2765966721851,590.0 -1.61675814556345,41.276587787682,590.0 -1.61686090744205,41.2766255063051,590.0 -1.61688337071404,41.2769835809957,587.953200000004 -1.61700826169137,41.2773388061228,587.0 -1.61716181790942,41.2777141473777,586.0 -1.61725619850643,41.277957054922,586.0 -1.61731738635369,41.2782028124994,585.0 -1.61750882901882,41.2784705306637,585.040200000003 -1.61978753239947,41.2810348899541,580.0 -1.62003446399971,41.2814031906337,579.0 -1.62162182842924,41.280078682505,581.043699999995 -1.62566123515664,41.2840919378963,580.0 -1.62700770466463,41.2854933920709,580.065100000007 -1.62744440177538,41.2858925381943,580.0 -1.62766953934854,41.2861369543347,580.0 -1.62799626560052,41.286296546026,577.147800000006 -1.62840614081351,41.2866267930095,580.0 -1.6284224021168,41.2866465741868,580.0 -1.62941649577648,41.287606302052,578.580499999996 -1.62944935255632,41.2877533209987,577.671199999997 -1.63135942058203,41.2896038774444,574.0 -1.632132902381,41.2905163314635,572.0 -1.63285022599999,41.2914631511625,570.0 -1.63326596811012,41.2920986671413,569.333299999998 -1.63523823009617,41.295107099756,565.410799999998 -1.63522951284467,41.295157558981,566.0 -1.6351577644029,41.2951815308619,566.0 -1.63543017581788,41.2956244306649,565.093800000002 -1.63557719409728,41.2958468864119,564.818899999998 -1.63580618813794,41.2961940651528,564.505300000004 -1.63586972238472,41.2962396621534,564.668900000004 -1.63596896466403,41.2962855952276,564.653200000001 -1.63602411762922,41.2963174462705,564.232099999994 -1.63672367077527,41.297402902671,563.0 -1.63727536841207,41.2982419316208,562.021500000003 -1.63731694244341,41.2983953204954,562.247900000002 -1.6373930495109,41.2985173604973,562.697799999994 -1.63799704975848,41.2994542898154,562.0 -1.63818463685444,41.2997639175704,561.409499999994 -1.6386996212439,41.3006014368419,560.0 -1.63955038420844,41.3018976144652,559.0 -1.6399196906049,41.3024432762514,559.0 -1.64167905186863,41.3050715058128,556.0 -1.64170486855158,41.3055806228007,555.0 -1.64193084425286,41.3058480059481,555.0 -1.64214391296018,41.3061531070991,555.107199999999 -1.64232294989123,41.3064746369778,555.0 -1.64236150648155,41.3066172966827,555.0 -1.64237307408747,41.306759118646,554.999200000006 -1.64238765823612,41.3068868585596,554.487800000003 -1.64241867167298,41.3072236433385,554.851599999995 -1.64239721361578,41.3074799618894,555.0 -1.64213687196497,41.3093943889498,554.077799999999 -1.64213033402632,41.309594716469,554.0242 -1.64213771009313,41.3096042719254,554.173800000004 -1.642191186802,41.3098859038814,554.0 -1.64220878839166,41.3099276457992,554.170499999993 -1.64234222863554,41.3101792701644,554.099700000006 -1.64301764225328,41.3114280064433,554.0 -1.64257289803422,41.3116095581428,553.350200000001 -1.64217090194458,41.3118427425377,553.0 -1.64205187966099,41.3119693092256,552.0 -1.64200276157789,41.3120836384572,552.0 -1.64201214897263,41.3122331716671,552.0 -1.64208456845586,41.3123263789128,551.306100000002 -1.64263492490794,41.312821748792,550.321800000005 -1.64294756916956,41.3131402614272,550.518700000001 -1.64313482119389,41.3133057199943,551.0 -1.64350245133401,41.3134990068084,551.302200000006 -1.64401341216931,41.3137571696896,551.0 -1.6441822235775,41.3138639550197,551.0 -1.6444990593782,41.3141070302573,550.0 -1.64465445983752,41.3143014900648,550.968599999993 -1.6448630019341,41.3143993911004,550.002399999998 -1.64502695166,41.3144560522916,550.0 -1.64512116427202,41.3145752432515,550.0 -1.64521437166929,41.3146474950574,550.0 -1.64532149217364,41.3147028160393,550.0 -1.64541855424179,41.3147489162594,549.388600000006 -1.64554193604943,41.3147521016096,550.0 -1.6457694209204,41.314822006548,550.0 -1.64592063073893,41.3148935880855,549.475999999995 -1.64600729929923,41.3149614815402,549.912100000001 -1.64608441337816,41.3150664229224,550.0 -1.64615029492276,41.3151846074412,550.0 -1.64620494483138,41.3153438635784,550.0 -1.64635715986473,41.3154890380938,549.9614 -1.64648439724154,41.3156083965172,549.6345 -1.64674172145133,41.3159202031152,549.0 -1.64695763961471,41.3160764421956,549.065199999997 -1.64726374683598,41.3164494366398,549.051800000001 -1.64739048115626,41.3165411346234,549.343699999998 -1.64758326500612,41.316614057601,549.0 -1.64782432881092,41.3166854711945,549.0 -1.64821123679705,41.3168366805927,548.8701 -1.64841508519626,41.316968108893,548.991099999999 -1.64861876561055,41.317141446949,548.554600000003 -1.64886083463013,41.3173907245537,548.0 -1.64900181802747,41.3175357312351,548.0 -1.64916643879486,41.3176775530616,548.0 -1.64936961615258,41.3177729391868,548.0 -1.64971495010733,41.3179311897894,548.0 -1.649915110024,41.3180084710307,547.9283 -1.65024753698479,41.3181031860351,548.0 -1.65066696667914,41.3182594246056,547.178799999994 -1.65079554524072,41.3183405619415,547.0 -1.65088305282748,41.3184024201526,547.085399999996 -1.65108254170264,41.3185915162618,547.475399999996 -1.65118698073589,41.3186609178202,547.0 -1.65171939873002,41.3189661870507,547.0 -1.65217671576982,41.3191852896585,545.0 -1.65245801242126,41.3193001223585,545.0 -1.652558594987,41.3193455520766,545.0 -1.65276931639647,41.3194183066221,544.131500000003 -1.65292471685575,41.3194997791758,544.0 -1.65310593309973,41.3196365717953,544.0 -1.65331950396526,41.3198821615767,544.0 -1.65344439404426,41.3200554993042,544.0 -1.65362359985859,41.3203429981677,544.0 -1.65374865792258,41.3206078663627,543.291800000006 -1.65380313984625,41.3208331723149,543.290900000007 -1.65382912361582,41.3210023192568,543.0 -1.65388595283734,41.3212512616353,543.027900000001 -1.65404906533337,41.3216602985476,543.0 -1.65418870754597,41.3219258367086,543.0 -1.65427085039386,41.3220934750105,543.0 -1.65439071170391,41.3221685769433,542.019899999999 -1.65447922450548,41.3222445166946,542.0 -1.65453035391651,41.3223943855039,542.0 -1.65461014946655,41.3225026793443,542.0 -1.65481349480922,41.3226406456023,542.0 -1.65503192735708,41.3228262213084,542.0 -1.65519973265215,41.322989333198,542.0 -1.65524231279663,41.3230731517096,542.0 -1.65525723291516,41.3232285526167,542.0 -1.65525874118652,41.3233707094899,542.0 -1.6552961245771,41.3235463944155,541.771800000002 -1.65537491401402,41.3236865395325,541.530700000003 -1.65565017578339,41.3238880408284,541.0 -1.65572879813368,41.3240095784213,541.0 -1.65574572958014,41.3241519029208,541.0 -1.6557083461896,41.3242566763668,541.0 -1.65567783670761,41.3243495479989,540.9712 -1.65574321519567,41.324512156858,540.817299999995 -1.65591571508644,41.3248372074035,540.0 -1.6560392639807,41.3249617621224,540.0 -1.65648031971721,41.3253047496603,540.0 -1.65677133973329,41.3254904925032,540.0 -1.6568772870379,41.3255914111154,540.0 -1.65697535521917,41.3257667601718,540.0 -1.65712857636559,41.3259831813053,540.0 -1.65726738045004,41.3261992664432,539.7258 -1.65745127906341,41.3264386535212,539.0 -1.65756795584578,41.3265652202006,539.0 -1.65777415064451,41.3267226325185,539.0 -1.65818234870288,41.3270738340624,539.0 -1.6582773994431,41.327165699912,539.0 -1.6583531723373,41.3273239499683,539.0 -1.65840145229227,41.3274329149267,539.0 -1.65843565025681,41.3275956914836,539.0 -1.6584009492357,41.3277743939029,539.0 -1.65835769804971,41.327855027621,539.0 -1.65834546119892,41.3279544369024,539.0 -1.65837915610691,41.3281869509795,539.0 -1.65859691761324,41.3285748652006,538.716700000004 -1.65868861584082,41.3287262426404,538.546199999997 -1.65873974525184,41.3288804697999,538.012400000007 -1.65873153105689,41.3289716646011,538.0 -1.65872097046241,41.3291778594016,538.0 -1.65872147262065,41.329345497935,538.0 -1.65873773392391,41.3295084417281,538.0 -1.65884854291084,41.3296839590028,538.0 -1.65926478807754,41.3300804231375,538.0 -1.65938515244414,41.3302192273432,538.0 -1.65951590942025,41.3303253421732,538.0 -1.65971841663476,41.3304376593822,537.939299999998 -1.65991757043831,41.3305394162251,538.0 -1.66032811669282,41.3307161064701,537.743499999997 -1.66046306520806,41.3307777971125,538.0 -1.66058309360477,41.3308482056167,537.050399999993 -1.66068803479626,41.3309514701159,537.502500000002 -1.66085248847699,41.3311514622381,537.0 -1.66096363253551,41.3312610980418,537.0 -1.66100101502775,41.3313134011599,537.0 -1.66112674413324,41.3313538018462,537.0 -1.66138507445612,41.3314035901788,537.0 -1.661472078088,41.3314657840563,537.717099999994 -1.66135121156317,41.3315968766107,537.0 -1.66103621910541,41.3318917519368,536.941099999996 -1.66075358126927,41.3321725462765,536.3367 -1.66035946430297,41.332553084335,536.0 -1.65999669584518,41.3329461954536,536.0 -1.65933167573526,41.333623118215,536.0 -1.6587640527651,41.3342215862187,536.0 -1.65795067319112,41.3350480420198,535.750700000004 -1.65755823248116,41.3354460147544,536.0 -1.6569934598654,41.3359338413459,536.0 -1.65649205440979,41.3362079292735,536.0 -1.6562809979287,41.3362493359717,536.821800000005 -1.65603171992895,41.3362345840502,537.0 -1.65560256686995,41.3361646791469,539.0 -1.65534440453203,41.3361735636299,540.353700000007 -1.65519068032903,41.3363681916449,542.081399999995 -1.65531339109517,41.3366300424453,544.446200000006 -1.65560357298307,41.3369257556371,538.509699999995 -1.65589476008578,41.3372238160493,543.577799999999 -1.65596818568217,41.3373259076287,544.988200000007 -1.65603892890912,41.3375180210978,543.393299999996 -1.6560620632226,41.337767298996,541.840800000005 -1.65601965016478,41.3379287344973,541.0 -1.6558620703926,41.3380930192668,539.965299999996 -1.65521029414496,41.3383169839308,538.0 -1.65497694147854,41.3384816042834,536.296600000001 -1.65469095112974,41.3387223329442,537.767800000001 -1.65451543379795,41.3390388331841,537.0 -1.65347708373747,41.3417088047569,533.179399999994 -1.65284793784843,41.3435818252654,532.702499999999 -1.6524389016619,41.3443432372654,532.969500000007 -1.6515876356408,41.3451068281323,532.0 -1.65090970674029,41.3457688309142,531.0 -1.65030218689341,41.3461937934781,531.0 -1.64833679791758,41.3475348981133,530.0 -1.64744513106488,41.3481347070739,530.0 -1.64726827254836,41.3481283369394,530.0 -1.64488010136555,41.3486734957309,529.013000000006 -1.64394065761445,41.3488619213354,529.0 -1.64358124166926,41.3490890704008,529.0 -1.64325049186312,41.349361650391,529.0 -1.64301563092537,41.3495138656327,529.0 -1.6428473216754,41.349588799736,529.0 -1.64282402027525,41.3496166278146,529.0 -1.64263810943562,41.3501356348786,529.0 -1.64244214105808,41.3504642058041,529.0 -1.64242889719584,41.3504851605401,529.0 -1.64240509273915,41.3506531340098,530.0 -1.64269544171371,41.3510343429619,530.0</coordinates>
</LineString>
</Placemark>
</Folder>
</Document></kml>
