<?xml version="1.0" encoding="UTF-8"?>

<kml xmlns:xsd="http://www.w3.org/2001/XMLSchema" xmlns:gx="http://www.google.com/kml/ext/2.2" xmlns:atom="http://www.w3.org/2005/Atom" xmlns="http://www.opengis.net/kml/2.2">
<Document>
<name>ES39a_02a_relleu-torremanzanas</name>
<visibility>1</visibility>
<Schema name="ES39a_02a_relleu-torremanzanas" id="kml_schema_ft_ES39a_02a_relleu-torremanzanas">
<SimpleField type="xsd:string" name="id">
<displayName>id</displayName>
</SimpleField>
<SimpleField type="xsd:string" name="nombre">
<displayName>nombre</displayName>
</SimpleField>
<SimpleField type="xsd:double" name="longitud">
<displayName>longitud</displayName>
</SimpleField>
<SimpleField type="xsd:string" name="_formato">
<displayName>_formato</displayName>
</SimpleField>
</Schema>
<Folder id="kml_ft_ES39a_02a_relleu-torremanzanas">
<name>ES39a_02a_relleu-torremanzanas</name>
<Placemark id="kml_1">
<name>&lt;img height='20' src='https://nco.ign.es/iconos/icono_todos_caminos_azul.png' /&gt;&lt;img height='20' src='https://nco.ign.es/iconos/Camino Santiago_20.png' /&gt;&lt;img height='20' src='https://nco.ign.es/iconos/icono_todos_caminos_azul.png' /&gt;  Camino de Santiago </name>
<visibility>1</visibility>
<description><![CDATA[<!DOCTYPE html>
<html>
<head>
<style>
#nco {
  border-collapse: collapse;
  overflow:hidden;
}
#nco th, #nco td {
  padding: 4px;
  text-align: left;
}
#nco th {
  color: #364B5F;
  padding-right: 5px;
}
#nco td {
  color: rgb(51, 51, 51);
  font-size: 12px;
  padding-right: 5px;
}
</style>
</head>
<body>
<table id="nco">
<tr>
<td>Caminos del Sureste</td>
</tr>
<tr>
<th><b>Camino: </b></th>
<td>ES39a Camino del Sureste desde Benidorm</td>
</tr>
<tr>
<th><b>Etapa: </b></th>
<td>02a Relleu-Torremanzanas</td>
</tr>
<tr>
<th><b>Longitud: </b></th>
<td>18.04 km</td>
</tr>
</table>
</body>
</html>]]></description>
<Style>
<IconStyle>
<scale>0.8</scale>
</IconStyle>
<LabelStyle>
<color>ffffffff</color>
<scale>0.75</scale>
</LabelStyle>
<LineStyle>
<color>ffff0000</color>
<width>3.0</width>
<gx:labelVisibility>1</gx:labelVisibility>
</LineStyle>
<PolyStyle>
<color>66ff0000</color>
</PolyStyle>
</Style>
<ExtendedData>
<SchemaData schemaUrl="#kml_schema_ft_ES39a_02a_relleu-torremanzanas">
<SimpleData name="id">ES39a_02a</SimpleData>
<SimpleData name="_formato">kml</SimpleData>
</SchemaData>
</ExtendedData>
<LineString>
<extrude>0</extrude>
<tessellate>1</tessellate>
<coordinates>-0.311255939576148,38.5877810415513,429.568299999999 -0.311845857833363,38.5888031309556,426.542400000006 -0.312478859291572,38.5886261053426,419.961599999995 -0.312878843154984,38.5880321635456,423.331300000005 -0.313662886446761,38.5875341106559,432.180500000002 -0.314239896811615,38.5869071447422,431.759099999996 -0.314984880456532,38.5866100897573,432.421000000002 -0.315184872388238,38.5867210661426,431.304399999994 -0.315077919868812,38.5873131643382,435.345199999996 -0.315273888246352,38.5880120471079,443.020300000004 -0.315724834434132,38.5884460620912,432.219100000002 -0.315752998414932,38.588754013352,427.001199999999 -0.316279884583576,38.5883050784984,410.631599999993 -0.316356997764216,38.587995115704,407.205199999997 -0.317068956644305,38.5878030026572,400.676800000001 -0.317450835861481,38.5880511066539,400.873099999997 -0.318775847312303,38.5884430448891,384.296000000002 -0.319476909628033,38.5888510759171,392.470100000006 -0.321321934237239,38.5886120234618,417.645000000004 -0.321804899975028,38.5884871331021,422.711200000005 -0.322405881883262,38.5879671202127,428.543099999995 -0.32307593166043,38.587663024717,434.193700000003 -0.323277935818368,38.5871621219378,439.224400000006 -0.325556975168896,38.5855730812446,461.210099999997 -0.326190981841923,38.5852651296834,463.906700000007 -0.326536986838213,38.5853221269013,462.287899999996 -0.327434856557938,38.5851030240679,467.808099999995 -0.32891895605233,38.5842871291628,473.8122 -0.329226907514875,38.5842450522974,473.945699999997 -0.331465881105426,38.5842820999671,487.926900000006 -0.331752877567344,38.5846460423268,489.871199999994 -0.332220923186575,38.5846341400028,497.421499999997 -0.332444887559957,38.5851201225744,502.411200000002 -0.333048887807538,38.5853610186816,509.819699999993 -0.333620868505111,38.5858401282114,513.618700000006 -0.334292929610214,38.5860850475464,516.360799999995 -0.335198845539942,38.5861940122759,519.259699999995 -0.336575992514908,38.5861551202446,524.0003 -0.337867979200935,38.5858210173985,525.633600000001 -0.338661912943989,38.5858490130243,521.162400000001 -0.340755879583072,38.5855950416213,524.458599999998 -0.34136591471272,38.585234116493,516.731700000004 -0.341733879924454,38.5848081482717,526.517500000002 -0.34230284407934,38.5845880397205,525.885599999994 -0.342557988976208,38.5849821568211,521.720199999996 -0.342733841379611,38.5850321126207,520.959000000003 -0.343977883182287,38.5847700946197,536.769199999995 -0.344771984910298,38.5848081482717,540.229600000006 -0.345462988789761,38.5850121638701,545.466799999995 -0.345958862419877,38.5849100725816,541.626300000004 -0.346226916107402,38.5844301247348,563.203899999993 -0.346868969888728,38.5841580482357,562.973100000003 -0.347500965233821,38.5835900899618,568.415900000007 -0.348563957879184,38.5831550695471,568.004199999996 -0.349167958126765,38.582516033516,574.627699999997 -0.349713955054794,38.5831391439768,584.849000000002 -0.35093486344225,38.5829770377755,594.439899999998 -0.351322945526484,38.5821430384951,594.132299999997 -0.350621883210754,38.5816000588238,599.426500000001 -0.350449886376559,38.5811821370347,609.864300000001 -0.349707920172694,38.5804840922821,619.904200000004 -0.349616892986645,38.5803320446515,620.506099999999 -0.349717978608927,38.5800480656945,623.106499999994 -0.350913908441624,38.5792350206956,626.199099999998 -0.351051874397909,38.5788930393248,627.017800000001 -0.350886918558931,38.5784100743742,637.661600000007 -0.351372901737737,38.5781830921065,639.087400000004 -0.351672973178609,38.5777621531499,648.0098 -0.35292187666361,38.5773430580032,655.121499999994 -0.353688988508928,38.5768530521247,670.462199999994 -0.353527888239125,38.577339034679,672.568299999999 -0.354207996452527,38.5779871233481,680.073699999994 -0.355017855528924,38.5783450307532,682.091199999995 -0.356375891744539,38.5784660650726,685.607799999998 -0.356951895996278,38.5787150075221,686.839500000002 -0.35703688830026,38.5790380463665,688.1538 -0.356475971253706,38.5791180094923,682.353199999998 -0.356175899812833,38.5794100350323,691.296900000001 -0.355855878586121,38.5801461337053,691.556299999997 -0.356084871728454,38.5802730357556,693.917700000005 -0.356618966877272,38.580298013893,694.755000000005 -0.356931947108768,38.5800720375907,696.480100000001 -0.35682683793232,38.5799830221524,701.387900000002 -0.357960909774553,38.5798621547154,696.012199999997 -0.358521993907767,38.5796271264313,700.987899999993 -0.358879901581565,38.5793030817992,699.8511 -0.358714945742587,38.5789300876486,702.348299999998 -0.359317939877052,38.5785440168556,705.867299999998 -0.360435918400951,38.5787901092672,709.902900000001 -0.360636916445773,38.5789220404756,710.159499999994 -0.360580924454122,38.5792980529568,710.096600000004 -0.361159947045208,38.5796670241096,713.330499999996 -0.362371970196239,38.5795111207896,719.576199999996 -0.362949985775913,38.5792040077102,728.380000000005 -0.363232958683666,38.5798110253724,728.810299999997 -0.362877901364258,38.5802390056714,729.526599999997 -0.362864993471932,38.5806611183044,733.171000000002 -0.364106855961749,38.5805181229524,738.578200000004 -0.365176889602296,38.5801441224729,748.934800000003 -0.365756917408201,38.5803211479286,753.474700000006 -0.366338957440371,38.580264150955,757.080700000006 -0.367492977271783,38.5797500048049,761.490600000005 -0.36816386517711,38.5801090860087,766.402000000002 -0.368310883456513,38.5805191285634,770.075200000007 -0.370295886248269,38.5803930647245,780.481299999999 -0.37109199930418,38.5806210526403,783.214999999997 -0.37217896439122,38.5805171166392,782.688399999999 -0.373926926034013,38.5814030839582,810.7595 -0.374079980093814,38.581714052712,812.270399999994 -0.374466888978239,38.5816731491716,819.470000000001 -0.374621953467643,38.5819531042554,820.825599999996 -0.375207849068989,38.5822910627562,830.6103 -0.374996960572891,38.5828930510174,840.657399999996 -0.374783891865604,38.583092037862,844.1685 -0.374532937609529,38.5829750259201,840.852400000003 -0.37453193239471,38.5837111252733,856.676900000006 -0.374348871011167,38.5837161538068,854.955300000001 -0.374311990677164,38.5838440621356,856.513500000001 -0.374411903099704,38.5846830904919,866.785900000003 -0.374295897358863,38.5847580244903,866.104600000006 -0.374524891399527,38.5852570832202,874.566000000006 -0.373088903875114,38.5859041658288,870.658899999995 -0.372737869211542,38.5863031446624,871.883600000001 -0.371539928050944,38.5864050689569,869.570099999997 -0.371113959519625,38.5866801626452,867.8171 -0.370734929758542,38.5865820944281,868.001999999993 -0.369018986767426,38.5867440330965,871.195900000006 -0.368696954212812,38.5870110799218,878.581900000005 -0.368995852453909,38.5871881060056,884.837100000004 -0.369728934319614,38.587126079868,891.698499999999 -0.370150879296767,38.5872700809208,898.524799999999 -0.369839910393206,38.5873490384942,902.125799999994 -0.369399860769784,38.5876831412525,905.567500000005 -0.369470939068323,38.5877530459765,908.522599999997 -0.368618834919057,38.5880170760423,915.909100000004 -0.367958843578122,38.588570114139,929.117899999997 -0.366573985464771,38.5886970160494,936.830600000001 -0.366245918028057,38.5890970010056,939.387199999997 -0.365808885845719,38.5892780495175,940.117499999993 -0.364214982579214,38.5892130059089,942.9764 -0.364309866232802,38.589332029194,946.084000000003 -0.365806873619487,38.5895320212351,951.827300000004 -0.366338957440371,38.5894200394948,951.501999999993 -0.36663483824045,38.5891890342551,951.338300000003 -0.368139892735434,38.5892720144808,965.464800000002 -0.367926992911435,38.5894691573451,968.045400000003 -0.366366952537882,38.589902166467,969.497799999997 -0.366231836037691,38.5900270564719,970.993100000007 -0.366413891308119,38.5906711218183,971.197799999994 -0.368006955548134,38.5911240798774,970.920100000003 -0.368905998467636,38.5915931315028,950.866500000004 -0.369650982112519,38.5917220452976,950.604999999996 -0.369789954181919,38.5920040121282,935.815799999997 -0.370935927803363,38.5923870651444,929.830300000001 -0.37144487731073,38.5924920069627,921.557000000001 -0.371685941115528,38.5923030788602,926.001699999993 -0.373763982421267,38.592614047456,898.895600000003 -0.374031868123802,38.5927880553444,897.075899999996 -0.374166983725696,38.5937171060169,884.670199999993 -0.373823997068754,38.5941700638156,878.854500000001 -0.374072939098597,38.5944200120095,873.740300000005 -0.374659839914762,38.5946330799112,867.567899999995 -0.374593958370131,38.5951921528398,856.014500000005 -0.374789926747671,38.5959560793219,840.107600000003 -0.375159904185637,38.5959780400335,839.191999999995 -0.3764699955179,38.5966090297228,819.622199999998 -0.376703851240888,38.5966050067759,829.593699999998 -0.377074833893639,38.5968940145665,827.392300000007 -0.377558972831205,38.5969920827406,825.9902 -0.377593841837273,38.5971370897444,827.740699999995 -0.377005934907992,38.5972301285955,833.381699999998 -0.376911889382596,38.5973930731953,834.807799999995 -0.377032924790719,38.5976770523639,839.267900000006 -0.378455836437815,38.5980901124989,850.101500000004 -0.381457898319517,38.5984820499895,868.792100000006 -0.379488989744392,38.5989050010636,881.758300000001 -0.37934498890604,38.5991241039032,884.505399999995 -0.37951799095502,38.5993571208663,886.0288 -0.379624944372742,38.5993100141582,886.536800000002 -0.379459988533765,38.5992300510508,885.151800000007 -0.379595943162115,38.5991110280279,885.164499999999 -0.379383880567944,38.5990940964333,884.527900000001 -0.377998855367933,38.5997041311859,887.549100000004 -0.377949904371499,38.5999081472837,889.363200000007 -0.37956392361214,38.6002700776973,902.306100000002 -0.380399935341402,38.6000870167456,907.445200000002 -0.382480994088158,38.6001500489569,919.015799999994 -0.383081975996392,38.6006521248038,929.348299999998 -0.383656975033345,38.6008700541101,934.4473 -0.385425891676764,38.6008211041261,943.398799999995 -0.387033876035338,38.6004650406919,941.148100000006 -0.387024990798847,38.6005651202639,940.603799999997 -0.387878939189421,38.6005230431091,928.456600000005 -0.388368945922393,38.6008811183112,909.4908 -0.388533901761371,38.6007711480793,915.437699999995 -0.391492880442046,38.6010871452195,899.259000000005 -0.392415895803224,38.6020770480076,891.206300000005 -0.393186863217717,38.6021920476903,893.432100000005 -0.392561908867807,38.6025930385797,897.998300000007 -0.392946973510991,38.6026331039184,906.336500000005 -0.393075887144125,38.6031611638483,917.940600000002 -0.393410995576056,38.6035160534717,919.342300000004 -0.393714923484434,38.6045470274032,923.838499999998 -0.394264943966596,38.6047300882109,925.698600000003 -0.394126978010311,38.6049330980907,926.590700000001 -0.394249856761411,38.6054601519809,920.669899999994 -0.39464699116873,38.6060851068214,914.191699999996 -0.393944922739884,38.6068490331957,892.767999999996 -0.393927991293424,38.6073760877553,886.683099999995 -0.394047852603474,38.6075360139803,886.437000000005 -0.395538993093015,38.6079071649691,890.551600000006 -0.397114958799945,38.6080411078839,900.983099999998 -0.397563893659791,38.6086320320422,907.123600000006 -0.398509875349529,38.6087971556301,914.191099999996 -0.399018991943522,38.6091470158996,915.775500000003 -0.399619973851755,38.6092690561542,910.779800000004 -0.400406867497923,38.6104611306482,875.379700000005 -0.400620941420028,38.6112071200356,865.2402 -0.40121085967721,38.6123760603888,865.485799999995 -0.402091965037136,38.6124840193569,862.697799999994 -0.402421876715125,38.6123750545221,861.028300000005 -0.403264928541273,38.6116071045095,848.946899999995 -0.404129940582865,38.6116240359597,846.651299999998 -0.405163932915932,38.6113070323057,829.925799999997 -0.406181998118994,38.6106651463495,821.920299999998 -0.407001916529955,38.6103481426703,821.430699999997 -0.407719910292145,38.6097220147858,818.321500000005 -0.40826288977909,38.6095411329569,818.6495 -0.410311929874202,38.6094571463872,821.339300000007 -0.411591846796062,38.6088851652312,823.703999999998 -0.412173885929901,38.6087860912455,820.329100000003 -0.412971843227087,38.6089641228979,807.285900000003 -0.413848925032848,38.6086380668551,793.051999999996 -0.414469856726888,38.6087321114564,789.098899999997 -0.415308884998903,38.6086340431786,787.454299999998 -0.417007897441857,38.6080060709928,799.981899999999 -0.417947843351163,38.6072900888813,808.368199999997 -0.418148841395985,38.6072780190281,806.346099999995 -0.41843684397102,38.6077660139169,801.515199999994 -0.41853290082435,38.6074340902027,798.9761 -0.418882928476509,38.6073080265861,792.755099999995 -0.419138912399866,38.6073730699448,789.030199999994 -0.419341921772622,38.6070411465189,783.997900000002 -0.419784988837061,38.6073261313576,780.496199999994</coordinates>
</LineString>
</Placemark>
</Folder>
</Document></kml>
