<?xml version="1.0" encoding="UTF-8"?>

<kml xmlns:xsd="http://www.w3.org/2001/XMLSchema" xmlns:gx="http://www.google.com/kml/ext/2.2" xmlns:atom="http://www.w3.org/2005/Atom" xmlns="http://www.opengis.net/kml/2.2">
<Document>
<name>PT03a_03a_esposende-viana_do_castelo</name>
<visibility>1</visibility>
<Schema name="PT03a_03a_esposende-viana_do_castelo" id="kml_schema_ft_PT03a_03a_esposende-viana_do_castelo">
<SimpleField type="xsd:string" name="id">
<displayName>id</displayName>
</SimpleField>
<SimpleField type="xsd:string" name="nombre">
<displayName>nombre</displayName>
</SimpleField>
<SimpleField type="xsd:double" name="longitud">
<displayName>longitud</displayName>
</SimpleField>
<SimpleField type="xsd:string" name="_formato">
<displayName>_formato</displayName>
</SimpleField>
</Schema>
<Folder id="kml_ft_PT03a_03a_esposende-viana_do_castelo">
<name>PT03a_03a_esposende-viana_do_castelo</name>
<Placemark id="kml_1">
<name>&lt;img height='20' src='https://nco.ign.es/iconos/icono_todos_caminos_azul.png' /&gt;&lt;img height='20' src='https://nco.ign.es/iconos/Camino Santiago_20.png' /&gt;&lt;img height='20' src='https://nco.ign.es/iconos/icono_todos_caminos_azul.png' /&gt;  Camino de Santiago </name>
<visibility>1</visibility>
<description><![CDATA[<!DOCTYPE html>
<html>
<head>
<style>
#nco {
  border-collapse: collapse;
  overflow:hidden;
}
#nco th, #nco td {
  padding: 4px;
  text-align: left;
}
#nco th {
  color: #364B5F;
  padding-right: 5px;
}
#nco td {
  color: rgb(51, 51, 51);
  font-size: 12px;
  padding-right: 5px;
}
</style>
</head>
<body>
<table id="nco">
<tr>
<td>Caminos Portugueses</td>
</tr>
<tr>
<th><b>Camino: </b></th>
<td>PT03a Caminho da Costa</td>
</tr>
<tr>
<th><b>Etapa: </b></th>
<td>03a Esposende-Viana do Castelo</td>
</tr>
<tr>
<th><b>Longitud: </b></th>
<td>25.12 km</td>
</tr>
</table>
</body>
</html>]]></description>
<Style>
<IconStyle>
<scale>0.8</scale>
</IconStyle>
<LabelStyle>
<color>ffffffff</color>
<scale>0.75</scale>
</LabelStyle>
<LineStyle>
<color>ffff0000</color>
<width>3.0</width>
<gx:labelVisibility>1</gx:labelVisibility>
</LineStyle>
<PolyStyle>
<color>66ff0000</color>
</PolyStyle>
</Style>
<ExtendedData>
<SchemaData schemaUrl="#kml_schema_ft_PT03a_03a_esposende-viana_do_castelo">
<SimpleData name="id">PT03a_03a</SimpleData>
<SimpleData name="_formato">kml</SimpleData>
</SchemaData>
</ExtendedData>
<LineString>
<extrude>0</extrude>
<tessellate>1</tessellate>
<coordinates>-8.78140278161484,41.5327866929807,5.21499999999651 -8.78147000434417,41.5329819911966,5.21850000000268 -8.78147235164202,41.5333804669913,5.67190000000119 -8.78151828429914,41.5333757732799,5.60570000000007 -8.78152297799647,41.533467638834,5.76119999999355 -8.78150772280633,41.5334805465212,5.82289999999921 -8.7815088969044,41.5335088775241,5.88899999999558 -8.78154661536657,41.5339413839007,6.69779999999446 -8.78154661536657,41.5339660263388,6.73649999999907 -8.78159606852128,41.5339638476158,6.69310000000405 -8.78160076221861,41.5340367702442,6.75789999999688 -8.78157964013136,41.5340414639076,6.77379999999539 -8.78156773745382,41.5340531987372,6.7841000000044 -8.78163261378366,41.535001862326,6.54859999999462 -8.78167033224579,41.5350042091227,6.51420000000508 -8.78167267864531,41.5351232319529,6.56339999999909 -8.78165373587092,41.5351220585567,6.58019999999669 -8.78164434847622,41.5351373140506,6.60080000000016 -8.78169145433308,41.5357605920756,6.9372000000003 -8.78171626490291,41.5360905039587,6.96140000000014 -8.78175398336507,41.5365818512087,7.08650000000489 -8.78176102436026,41.5366502475333,7.13740000000689 -8.78177745275018,41.5366762310843,7.13999999999942 -8.78181869170993,41.5366820985965,7.09590000000026 -8.78182824708959,41.5368410194867,7.2439000000013 -8.78186713875152,41.5368269377599,7.18030000000726 -8.78198498873364,41.5368210702608,7.03260000000591 -8.78269895894166,41.5367905600636,5.98960000000079 -8.78369690817059,41.5367421131437,5.38800000000629 -8.78446871371324,41.5367184763539,3.77730000000156 -8.78492821006589,41.536698694522,2.28040000000328 -8.78496944902564,41.5367020471929,2.16700000000128 -8.78501907016531,41.5367233372545,2.05830000000424 -8.78652244840398,41.5400390507111,3.7777999999962 -8.78653300899846,41.5400885037338,3.86520000000019 -8.78652127430591,41.5401262223208,3.9948000000004 -8.78650367271625,41.540147345177,4.0966000000044 -8.78655547316878,41.5402511129994,4.11410000000615 -8.78659436483068,41.5402558068843,3.982600000003 -8.78663325649262,41.5402663679559,3.86259999999311 -8.78666041436027,41.5402993925577,3.8292999999976 -8.78706928346017,41.5408849524704,3.19100000000617 -8.78757119197232,41.5414824147059,3.03280000000086 -8.78768669465662,41.5416213861407,2.96110000000044 -8.78787746628025,41.541861779325,2.96319999999832 -8.78971796517708,41.5440616937534,4.50789999999688 -8.78973456065362,41.5441200320328,4.56070000000182 -8.7897322142541,41.5441552357358,4.59209999999439 -8.78972148567467,41.5441870871368,4.6189000000013 -8.78977110591601,41.5443190180897,4.74270000000251 -8.78980865729151,41.5443190180897,4.75470000000496 -8.78986883902566,41.5443274001238,4.81089999999676 -8.78990186379045,41.5443344408434,4.86160000000382 -8.78992298587774,41.5443438286923,4.8981000000058 -8.7899431027502,41.5443590833557,4.93809999999939 -8.79006212593209,41.5444923559402,5.20590000000084 -8.79065003286137,41.5451779957906,5.80039999999281 -8.79072429568759,41.5453017122415,5.82480000000214 -8.79078431033508,41.5454207356183,5.84480000000622 -8.79081146820276,41.5454961726006,5.84290000000328 -8.79084214566971,41.5455952470831,5.82610000000568 -8.79086444185506,41.5456859388846,5.80839999999444 -8.7908986398196,41.5458743640023,5.83179999999993 -8.79087148195195,41.5462726722941,5.87069999999949 -8.79039203761008,41.5475358247303,6.34990000000107 -8.79035549234769,41.5475723698368,6.26219999999739 -8.79030000431092,41.5476042215714,6.13940000000002 -8.79024233696124,41.5476312111931,6.00990000000456 -8.79019875070365,41.5476536748594,5.91169999999693 -8.79011006991712,41.5476799935022,5.73609999999462 -8.78870107227546,41.547851655036,7.15230000000156 -8.78872236234767,41.5479411738703,6.99090000000433 -8.78748519355522,41.548080313617,9.12260000000242 -8.78617728153585,41.5482451018692,9.93039999999746 -8.78549616810766,41.5483207063195,9.6198000000004 -8.78499425959548,41.5483818939783,8.68709999999555 -8.7849541938355,41.5483842409618,8.60159999999451 -8.78492351636852,41.5484053638098,8.53729999999632 -8.78493541814774,41.5484548171573,8.58109999999579 -8.78501538168277,41.5486646998382,9.08449999999721 -8.78509551320272,41.5488484310816,9.46249999999418 -8.78513323166488,41.5489496846962,9.61040000000503 -8.78513792536225,41.5490063459104,9.63910000000033 -8.78508377851017,41.5491666079808,9.48619999999937 -8.78504136545234,41.5492537800594,9.36169999999402 -8.78502493706242,41.5493102736079,9.27999999999884 -8.78502560810396,41.5493981164331,9.19250000000466 -8.78520615420469,41.5504567508071,10.8467999999993 -8.78557965124195,41.5508279014158,10.5142999999953 -8.78566347034616,41.5508562322144,10.3482999999978 -8.78585206355523,41.5509504447028,9.46420000000217 -8.78596521894168,41.5510518657812,9.07120000000577 -8.78604769686119,41.5512474994282,8.32580000000598 -8.78625506575799,41.5516786643336,6.57739999999467 -8.78662034860029,41.5522536629248,6.69719999999506 -8.78702083641857,41.5529429904364,6.88379999999597 -8.78704095239275,41.5530313358719,7.00780000000668 -8.78727899875649,41.5534933461544,7.94199999999546 -8.78744747509309,41.5537712902023,8.54589999999735 -8.78752173881764,41.5538572883933,8.68309999999474 -8.7877207246362,41.5542415152807,8.91830000000482 -8.78795290410287,41.5547457705731,8.67440000000352 -8.78811903314162,41.555104012682,8.33070000000589 -8.78795055680502,41.5551274820897,8.56960000000254 -8.78712225711247,41.5553160753071,8.97509999999602 -8.78687012965662,41.555400899759,8.88180000000284 -8.7861655468433,41.5557179036519,9.50500000000466 -8.78606412525111,41.5557826121122,9.63589999999385 -8.7859816473316,41.5558308915013,9.74839999999676 -8.78585440995475,41.5558463141977,9.93159999999625 -8.7854302856647,41.5558498346026,10.5056000000041 -8.78543145976278,41.5558639162202,10.5040000000008 -8.78527237082091,41.5558875534064,10.7008999999962 -8.78512032287426,41.5559499149881,10.8871000000072 -8.78501538168277,41.5559946738554,10.9988000000012 -8.78502728436027,41.5560124438915,10.9854999999952 -8.78481639586418,41.5561113503377,11.1894000000029 -8.78474447853915,41.5561420282115,11.235400000005 -8.78472084206739,41.5561572827799,11.2483000000066 -8.78470676007699,41.5561738790849,11.2538000000059 -8.78455588622841,41.5562174647837,11.3349000000017 -8.78453828374042,41.5561985217902,11.3502000000008 -8.78451699366817,41.5562008691621,11.3583000000071 -8.78440517946646,41.5562256792384,11.3920000000071 -8.78395020972451,41.5562882085472,11.7511999999988 -8.78361677754893,41.5563493960591,12.3304999999964 -8.78334704760509,41.556397675697,12.8907000000036 -8.78332810483069,41.5564142719403,12.932799999995 -8.78332458433307,41.5564494763433,12.9456999999966 -8.78335174130242,41.5568053717426,13.1937999999936 -8.78323506541838,41.5568065454176,13.4308000000019 -8.78321746382872,41.5565415094395,13.2206000000006 -8.78321628973065,41.5565237395488,13.2075000000041 -8.78320673524929,41.5565108317554,13.2167999999947 -8.78313967960658,41.5565108317554,13.3637000000017 -8.78276014678892,41.5566380690645,14.2744999999995 -8.78255160559068,41.5566851754818,14.7320999999938 -8.78221934661484,41.5567688264779,15.4762999999948 -8.78207216035048,41.5567983310368,15.8116000000009 -8.78126850324281,41.5570963913952,17.7565000000031 -8.7812331320785,41.5571223754691,17.8641000000061 -8.78121670368858,41.5571483588604,17.9315000000061 -8.78120848949362,41.5571765221989,17.9841000000015 -8.78120731539554,41.557208373907,18.0265000000072 -8.78120245371322,41.5572320106014,18.0663000000059 -8.78119189311874,41.5572613475702,18.1248999999953 -8.78118485212353,41.5572767699253,18.1587 -8.78118485212352,41.5572967188904,18.1836999999941 -8.78123195798042,41.5573367841804,18.1388000000006 -8.78115300055851,41.5573850644251,18.4042999999947 -8.78144402057459,41.5576760834842,18.5397999999986 -8.78154074757113,41.5577716378227,18.6330000000016 -8.7815808133311,41.5578304786342,18.7097999999969 -8.78185641017205,41.5581568698979,18.7373999999982 -8.78198498873363,41.5583278603234,18.5353000000032 -8.78200845811874,41.5583312132173,18.4709000000003 -8.78202253921081,41.5583407684262,18.4419999999955 -8.78203561508809,41.5583561911959,18.4244000000035 -8.78217693445534,41.5585410960974,18.3022999999957 -8.78242202091598,41.5588698344083,18.0837000000029 -8.78257524206243,41.5591077126789,17.6465000000026 -8.78259049725258,41.5591454315979,17.5709000000061 -8.78258463035547,41.5591772823356,17.5718000000052 -8.78256468146792,41.5592032662451,17.6235000000015 -8.78253400310268,41.5592220423288,17.7149000000063 -8.78202857409291,41.5593811303151,18.4765000000043 -8.78204382928305,41.5594165024917,18.3987000000052 -8.7819932029286,41.5594352778413,18.394100000005 -8.78189647593207,41.5594823842364,18.3723000000027 -8.78180343651975,41.5595343517995,18.3515999999945 -8.78163998985046,41.5596500216905,18.3984000000055 -8.7813734453326,41.559879518417,18.7189000000071 -8.78127319694017,41.5599762458038,19.0478000000003 -8.78121318319099,41.5600339130083,19.2811999999976 -8.78110706790142,41.5601257790065,19.7795999999944 -8.78090439360025,41.5603120245323,21.0972000000038 -8.78079593191117,41.5604074109639,22.1569000000018 -8.78071345399169,41.5604746333492,23.0847000000067 -8.78059811929235,41.5605524174557,24.1172999999981 -8.7804884835052,41.5606229931373,24.9756000000052 -8.78034833823602,41.5607007770653,25.9747000000061 -8.77960000207847,41.5611108200463,30.4970999999932 -8.77921124895277,41.5613207026373,32.3331999999937 -8.77898611137961,41.5614243033905,33.3165000000008 -8.77881411454542,41.5614819706471,33.9409000000014 -8.77875292669816,41.5615044342054,34.178899999999 -8.77871755553385,41.5615290768947,34.3329999999987 -8.77870213235874,41.5615515404366,34.4257000000071 -8.77869978506089,41.561595293909,34.5231000000058 -8.77896733569188,41.562204323387,34.5022999999928 -8.77899449355953,41.5622230985988,34.4354000000021 -8.77903204403673,41.5623880544592,34.655700000003 -8.77920890255322,41.5628029584448,35.7045000000071 -8.77939011879719,41.5631709241296,37.3251000000018 -8.77946689690621,41.563265974976,37.3671000000031 -8.77972019846014,41.5635239702897,37.1802000000025 -8.78003368174821,41.5638763450751,36.7320000000036 -8.78009839009306,41.5640082761749,36.8594000000012 -8.78007374660985,41.5640377807893,37.0326000000059 -8.78007257341011,41.5641261258467,37.2491000000009 -8.78011029187227,41.5642793468347,37.4873999999982 -8.78013728175496,41.564358137244,37.5933999999979 -8.78015035763225,41.5644194925413,37.700800000006 -8.78019276979175,41.564534995066,37.8366999999998 -8.78020450448429,41.5645738870396,37.9076000000059 -8.78021741327495,41.5646374218381,38.0807999999961 -8.7802246213568,41.5646917370241,38.2407999999996 -8.78022344815702,41.5647812553896,38.5522999999957 -8.78019511708959,41.5650144399769,39.3316999999952 -8.78018455559679,41.5652100737069,39.854800000001 -8.78017500021713,41.5655057872189,40.5368000000017 -8.78017734751494,41.5656013407343,40.729600000006 -8.78017030651976,41.5656142487285,40.7857999999978 -8.78016678602217,41.5656343658374,40.8426999999938 -8.78015857182721,41.5659300794238,40.9536999999982 -8.78010325177539,41.5666983645184,41.1264999999985 -8.78009721599499,41.5667478173126,41.057799999995 -8.78007726710748,41.5667984442345,40.9943999999959 -8.78004424234268,41.566877401614,40.8686000000016 -8.7799746732138,41.5669682618279,40.7648999999947 -8.77991465856632,41.5670505721135,40.6640000000043 -8.77987576690441,41.5671023722863,40.6414999999979 -8.77986285811376,41.5673593609372,40.3748999999953 -8.77986285811376,41.5674819044703,40.4811999999947 -8.77987576690441,41.5677211241278,40.8509999999951 -8.77990996486895,41.567882392294,41.1922999999952 -8.77999830968557,41.5683350148801,43.1269999999931 -8.78008078760507,41.5686778346162,43.9560000000056 -8.78011381236986,41.5688015517938,44.1184999999969 -8.78014097023751,41.5689063254335,44.2023999999947 -8.78016091912502,41.5689452174642,44.1831999999995 -8.78020567858237,41.5690053996567,44.0807999999961 -8.78024222294646,41.5690431181751,43.9330000000045 -8.78026099863422,41.5690525057962,43.8448000000062 -8.7802586522347,41.5691173816944,43.9355000000069 -8.78023752924909,41.5691255958535,44.0574999999953 -8.78023166235198,41.5691385038158,44.1043000000063 -8.78023518284957,41.56915979395,44.1113000000041 -8.78026703351629,41.5693517395372,44.077099999995 -8.78032000716859,41.5697629554992,43.3013999999966 -8.78036242022642,41.5702083704176,42.5310999999929 -8.78039192449362,41.5704335082604,42.5390999999945 -8.78048965670494,41.5706467437398,42.7856999999931 -8.78050256549556,41.5706678660332,42.7966000000015 -8.78050977357741,41.5706938500266,42.8518999999942 -8.78051094677718,41.5707327423254,42.9799999999959 -8.78050373869534,41.570840030377,43.381899999993 -8.78048965670494,41.5709637474464,43.8965999999928 -8.78048496300757,41.5711050661824,44.6088000000018 -8.78049552450038,41.5712405175454,45.2676999999967 -8.7804978708999,41.5712829304233,45.5626999999949 -8.78051212087525,41.5713065673462,45.6763000000064 -8.78056157402997,41.57132416919,45.6095999999961 -8.78060750668706,41.5713831777723,45.8637000000017 -8.78059811929235,41.5713962532975,45.9953999999998 -8.78059091031221,41.5714232430656,46.2204999999958 -8.78093741836504,41.5718461939739,49.3497999999963 -8.781008161592,41.571933365707,50.2011000000057 -8.78102458998191,41.5719781249289,50.6576000000059 -8.78141585749213,41.5723199394403,52.2623000000021 -8.78150302910896,41.5723293272573,52.0256999999983 -8.78150772280633,41.5723905150379,52.1619999999966 -8.78147704533939,41.5724047637508,52.3046000000031 -8.78148173903672,41.5724448297546,52.3718999999983 -8.78164904217358,41.5728902436546,52.6153000000049 -8.78172682639572,41.5730481588839,52.284599999999 -8.78185875746991,41.5732131146616,51.6252999999997 -8.78203561508809,41.5733473929341,50.5679999999993 -8.78225002408178,41.5735889591178,48.968200000003 -8.78227835514924,41.5736466269421,48.7262000000046 -8.78237256776126,41.5739648040753,48.5967999999993 -8.78264363888984,41.574513818845,48.4621000000043 -8.78275897358918,41.5746953704921,48.8016000000061 -8.78289811274521,41.5749191674746,49.1374999999971 -8.78293113751,41.5750770824478,49.8843999999954 -8.78301009493188,41.5756420225127,53.171199999997 -8.78333631902565,41.576644163304,51.4904999999999 -8.78355324240382,41.5772922517571,49.8448999999964 -8.78361208385156,41.577422003738,49.4925999999978 -8.7836757860833,41.5774761509296,49.0820999999996 -8.78383135452758,41.5775326446727,48.0782000000036 -8.78395138292425,41.5775162164756,47.2571000000025 -8.78406688560855,41.5774925791369,46.5081000000064 -8.78411650674822,41.5774831913984,46.2060000000056 -8.78419898466769,41.5774878852678,45.719299999997 -8.78438003382501,41.5775178924247,44.7690000000002 -8.78462076165992,41.577777731886,43.790599999993 -8.78484690534616,41.5780628840481,42.5764000000054 -8.78495536703524,41.5781336274152,42.0237999999954 -8.78502141656483,41.5781383212374,41.7119999999995 -8.78506382962266,41.5781265863453,41.5222000000067 -8.78508025801258,41.5782632117256,41.4734000000026 -8.78528058501587,41.5791915908534,41.3190999999933 -8.78530656878548,41.5793047466426,41.343200000003 -8.78570940390158,41.5804193722794,39.0219999999972 -8.7857117503011,41.5804854214298,38.7796999999991 -8.78563882776128,41.5804854214298,39.1285999999964 -8.78561753768907,41.5805114055058,39.1668000000063 -8.78540782239272,41.5808790358196,39.1618000000017 -8.7854054759932,41.5809425707096,38.9336000000039 -8.78545258185006,41.5810227015075,38.3987000000052 -8.78585793045234,41.5816754839362,35.6800999999978 -8.78614073627346,41.5822387482445,37.4973999999929 -8.78618784213033,41.5823495569761,37.8873000000021 -8.7862515452604,41.5824226467705,38.0148000000045 -8.78650836641362,41.5825780478132,37.9734000000026 -8.7866967916377,41.5826734336255,37.5473000000056 -8.78699149923803,41.5827854161582,36.5924999999988 -8.78704564609008,41.5827949711104,36.4122000000061 -8.78704011426455,41.5828699055389,36.5247999999992 -8.78700675442817,41.5829269025476,36.6866000000009 -8.78690784811875,41.5830541395787,37.0913 -8.78686191546166,41.5831307501819,37.2832000000053 -8.78681581481958,41.5832120548195,37.4263000000064 -8.78670517381761,41.5834606622255,37.6294000000053 -8.78667449545237,41.5835914197861,37.5467000000062 -8.78667801594996,41.5836750708895,37.4271000000008 -8.78672042900779,41.5837104425325,37.2372999999934 -8.7866967916377,41.5838222573008,37.0348999999987 -8.78663677699021,41.5840225845826,36.7016000000003 -8.78652127430591,41.5842123513056,36.5482999999949 -8.78650836641362,41.5842406815791,36.5194999999949 -8.78647534164882,41.584265325003,36.6281000000017 -8.78637291484181,41.5842960022765,37.1189000000013 -8.78630099841511,41.5843184659655,37.472099999999 -8.78602406038942,41.5843667455348,38.9133000000002 -8.78597225993686,41.5843820008311,39.1775999999954 -8.78592750047952,41.5844068115093,39.3883999999962 -8.78588508832002,41.5844410095785,39.5627999999997 -8.78561988498689,41.5848627867396,40.1223999999929 -8.78552332507702,41.5850453447149,39.8277999999991 -8.78541251609008,41.5851985658088,39.6527999999962 -8.78534009660681,41.5852889225236,39.5641000000032 -8.78519693389662,41.585455555033,39.3701000000001 -8.78503432535546,41.5856104522364,39.1022999999986 -8.78497296952324,41.5856729813289,38.9035000000003 -8.78491530217357,41.5857412101469,38.6771000000008 -8.7848386911512,41.5858391109335,38.3972999999969 -8.78482108956154,41.5858731416115,38.2709000000032 -8.78466904161486,41.5862632353201,36.3559999999998 -8.78454884523319,41.5866449467673,34.7315999999992 -8.78432504794647,41.5874802872796,32.8736999999965 -8.78393730183219,41.5879847104995,33.2740000000049 -8.7839101439645,41.588064841293,33.2807999999932 -8.78390192976954,41.5881391051145,33.2578000000067 -8.78390427706739,41.588166094605,33.2406000000046 -8.78389606287243,41.5882214152985,33.206600000005 -8.78373110703346,41.5884760577135,33.296199999997 -8.78371585184328,41.5885608823055,33.2422999999981 -8.78370512236555,41.5887881995688,33.0506000000023 -8.78371702504305,41.5892701593457,32.7115000000049 -8.78346724398672,41.5911788859591,39.4149999999936 -8.78347998479239,41.5912699135442,39.6217000000033 -8.78355558970167,41.5918777690432,39.9042000000045 -8.78358023228655,41.5919743289335,39.5008999999991 -8.78361677754893,41.592206507702,38.290599999993 -8.78355005787614,41.5932808999039,38.8622999999934 -8.78354502820886,41.5933400758651,39.0841999999975 -8.78335643589812,41.5936362921136,41.4152000000031 -8.7832809980755,41.5937529684743,42.2333000000071 -8.78317387757112,41.5938701478189,43.131899999993 -8.78312895102715,41.5938973048844,43.5108999999939 -8.78289693954543,41.5943185795569,43.8099999999977 -8.78282736951825,41.5944327407473,43.3317999999999 -8.78275545309155,41.5945458967003,42.7969000000012 -8.78266593417687,41.5946909038229,42.5099999999948 -8.78259167045232,41.5948122735746,42.3653999999951 -8.78256702786748,41.5948806700924,42.3791999999958 -8.78255881367252,41.5952176224377,42.3830000000016 -8.78276014678892,41.5954367249313,41.8206999999966 -8.78306005114317,41.5955889405292,40.8776000000071 -8.78316666948927,41.5956464402395,40.5329999999958 -8.78344008701737,41.5960310024132,39.5380000000005 -8.78357084489181,41.5962497696059,38.7103000000061 -8.78364041491899,41.5962650247815,38.3031000000046 -8.7835073097467,41.5965702941414,38.5632000000041 -8.78348601967449,41.5966350019937,38.5357999999978 -8.78346020388983,41.5967033985953,38.5225000000064 -8.78342365862745,41.5967764889354,38.5779000000039 -8.78329759445038,41.5969744690954,38.9067000000068 -8.78320790844903,41.5970487327442,39.2232999999978 -8.78306072218467,41.5972653212413,39.4875000000029 -8.7830312179175,41.597329191351,39.4959999999992 -8.78302535012206,41.5975705899006,39.1258999999991 -8.78319617375648,41.5977885195376,37.9312999999966 -8.78324445371141,41.5978817264626,37.5414000000019 -8.78322333072583,41.5980490291495,37.6009000000049 -8.78321628973065,41.5981479357327,37.6186000000016 -8.78320204065359,41.5986381092577,37.835699999996 -8.78299115215749,41.5989774086294,38.9392999999982 -8.78289811274521,41.5991400175243,39.142399999997 -8.78288872535047,41.599432210829,38.8359000000055 -8.78290398054065,41.5997232305873,38.5071000000025 -8.78297003007024,41.6005399629267,38.954700000002 -8.7829016332428,41.6010064996289,42.6367999999929 -8.78286039428305,41.6011478184548,44.1521000000066 -8.78283206411395,41.6012033067075,44.8184999999939 -8.7826942652443,41.6014083286132,47.2347000000009 -8.78263408351015,41.6014767248582,48.1181999999972 -8.7826082668272,41.6015119288884,48.471000000005 -8.78259284455043,41.601555514228,48.6538 -8.78257289566288,41.6016663233929,49.0348999999987 -8.7825234425082,41.6019456085587,49.7792000000045 -8.78248689724582,41.6020327799662,50.0583999999944 -8.78246208667599,41.6020693251516,50.1782999999996 -8.78243023511093,41.6021199519276,50.2462999999989 -8.78209998836136,41.6025809562454,51.1337000000058 -8.78084907265013,41.6041502163455,50.2804000000033 -8.78081018098823,41.6042008435041,50.1052000000054 -8.7807523456536,41.6042514699513,49.9498000000021 -8.78061102718468,41.6043480294666,49.5583999999944 -8.78038588871323,41.6045155001105,48.4698000000062 -8.78030223759395,41.6045743406632,48.0246999999945 -8.78031531347123,41.6046239619386,47.6696999999986 -8.78032704816378,41.6046767677521,47.2969000000012 -8.78035068553387,41.6047475108428,46.8132000000041 -8.7803635934262,41.6047922701587,46.5124999999971 -8.78043668305264,41.6049972914086,45.4566999999952 -8.78049904499797,41.605181190262,44.7838000000047 -8.78054732495294,41.6052730565368,44.616200000004 -8.78059811929235,41.605362742334,44.4888000000064 -8.78065109294466,41.6054450527215,44.4327000000048 -8.78073122356632,41.6055476476969,44.4057999999932 -8.78083717087092,41.6056701906417,44.4253999999928 -8.78098687151975,41.6058162038263,44.5589000000036 -8.7811000269062,41.6059281858458,44.5491000000038 -8.78120128051344,41.6060071430777,44.6444999999949 -8.78127085054062,41.6060401683426,44.7103000000061 -8.78145709645188,41.6061320333943,44.8015000000014 -8.78151476380151,41.6061744461937,44.7854999999981 -8.78151828429914,41.6065184393443,44.1160999999993 -8.78135567575798,41.6071301504444,42.5688999999984 -8.78134980796254,41.6071983794206,42.3632999999973 -8.78134997594749,41.6072620818539,42.1769000000058 -8.78136506315268,41.6073162288728,42.034799999994 -8.78139222012203,41.6073551212808,41.943299999999 -8.78146179014921,41.6073856310799,41.9131999999954 -8.78151124330392,41.6073893192833,41.9489000000031 -8.78153605387376,41.6074458130487,41.7660999999935 -8.7813685836503,41.6075212501629,41.3733999999968 -8.78134863476276,41.6075306382357,41.3274999999994 -8.78137931222974,41.607575397636,41.2032000000036 -8.78139104692229,41.6076060752507,41.1094000000012 -8.78138635322492,41.6076484877528,40.976800000004 -8.78129448701239,41.6078747987914,40.2036999999982 -8.78125911584807,41.6079654911722,39.9070000000065 -8.78123078478065,41.6084461094953,38.5910000000003 -8.78120245371322,41.608691196232,37.9447999999975 -8.78120597421081,41.6087525517291,37.7862000000023 -8.78122609108328,41.6088268152572,37.6082000000024 -8.7812544221507,41.6088926969818,37.4894000000058 -8.78131007817247,41.6089780253586,37.4107999999978 -8.7817528101653,41.6097328991794,39.2274999999936 -8.78175515656481,41.6100227454464,38.7494000000006 -8.78174995981091,41.610087956983,38.5396999999939 -8.78173269329283,41.6101181316781,38.2364999999991 -8.78170453021036,41.6101652380524,37.5418999999965 -8.78150654960656,41.6103643921528,34.3269 -8.78147469804154,41.6104138450927,33.684699999998 -8.78146296334899,41.6104527369766,33.1855000000069 -8.78146179014921,41.6104835824787,32.853099999993 -8.78176001824714,41.6111978883169,25.0334000000003 -8.78203008326257,41.6116288855149,22.5861000000004 -8.78212999568511,41.6116490023949,23.0258999999933 -8.78252008909724,41.6115299794453,25.551999999996 -8.78286005921146,41.6113819548691,27.5181000000011 -8.78347009434111,41.6113090321907,28.5056000000041 -8.78458002575671,41.6113589888082,30.1941999999981 -8.78513004623887,41.6116220126491,28.5348999999987 -8.78547001635309,41.6118888926157,24.5341000000044 -8.78686996167166,41.6124109172178,31.0305999999982 -8.78729727138768,41.6125230671154,30.2437999999966 -8.78769071731245,41.6125959897646,23.4217999999964 -8.78784628575673,41.6125866017573,22.9054000000033 -8.78794284566663,41.6125582711633,21.8744000000006 -8.78805600105309,41.6124806544598,20.0847999999969 -8.78815742174695,41.6123792337719,18.8702000000048 -8.78818558572775,41.612301449617,18.9646000000066 -8.78818558572775,41.6122332206647,19.3117999999959 -8.78816446274217,41.6121435343437,19.679999999993 -8.78813378527522,41.6120799999371,20.1640999999945 -8.78811970328483,41.6120186442464,20.4967999999935 -8.78815742174695,41.6118961005987,20.8269 -8.78826102265204,41.6117217574515,21.6245999999956 -8.78841105837249,41.6117891480718,21.9425000000047 -8.7885988134534,41.6119318080428,22.8347999999969 -8.78879126133335,41.6120823466216,24.5255000000034 -8.78881959240078,41.6121034694657,24.9698999999964 -8.78881489870341,41.6121306262464,25.1692999999941 -8.78880299602591,41.6121554370054,25.2688000000053 -8.78878774083573,41.612182426528,25.3393999999971 -8.78875706336878,41.6122295327383,25.3781000000017 -8.78868766132656,41.6123462090654,25.3551000000007 -8.78862747959241,41.6124511504837,25.3359000000055 -8.78852857238469,41.6126219736772,24.9159999999974 -8.78845548275822,41.6127363026338,24.2249000000011 -8.78839781540858,41.6128258215677,23.8565999999992 -8.78835406116603,41.6128942177992,23.6122999999934 -8.78831164900653,41.6129577527472,23.525999999998 -8.78828348592406,41.6130191082162,23.6371999999974 -8.788269236847,41.6130650411626,23.8203999999969 -8.78826219585182,41.6131451723859,24.3809999999939 -8.78826454314967,41.6132819647708,26.0910000000003 -8.78828935282117,41.6134055138857,27.8840000000055 -8.78832003118644,41.6134786041135,28.8874999999971 -8.78837300483875,41.6135386185386,29.7498999999953 -8.78845900325585,41.6136046680568,30.8249000000069 -8.78856394444734,41.6136847992813,32.3433999999979 -8.78865463656177,41.6137412929067,33.3043999999936 -8.78869352822371,41.6137731442589,33.6609000000026 -8.78877835344102,41.6138898204805,34.4750000000058 -8.78882311289837,41.6140182309059,34.8816999999981 -8.78889268292555,41.6142173852,35.349000000002 -8.78894213608026,41.6143328879882,35.6092000000062 -8.78896560546536,41.614385861145,35.7635000000009 -8.78896929304961,41.6144624721738,35.959400000007 -8.78894330928,41.6145152779939,36.1241000000009 -8.78890559081788,41.6145613784483,36.3269 -8.7888325002931,41.6145967499569,36.6521999999968 -8.78866519805457,41.6146604524725,37.5136999999959 -8.78852153228781,41.6147040383327,38.5041999999958 -8.78847073794839,41.6147263342839,38.9435999999987 -8.78844257486593,41.6147663995477,39.4832000000024 -8.78842949898864,41.6148111593005,40.0157999999938 -8.78837887173586,41.6150669748692,42.8579000000027 -8.78838708593082,41.6151187748076,43.2700999999943 -8.78840602960354,41.6151637022161,43.5510000000068 -8.7884142437985,41.6152106403639,43.930600000007 -8.78842128479368,41.6152673025676,44.4070000000065 -8.78841893749583,41.6153308371928,45.031799999997 -8.78839295372626,41.6154428194871,46.2519999999931 -8.78837769853611,41.6154828849774,46.7070999999996 -8.78836596384353,41.6155100423501,47.0296999999991 -8.78835976097651,41.6155465872894,47.3678000000073 -8.78837300483875,41.6157066816163,48.4517000000051 -8.78840284417753,41.6158223516509,49.0252000000037 -8.78842497237794,41.6160831967839,51.1747999999934 -8.78857467302677,41.6164355722373,53.4738999999972 -8.78872672097342,41.6166110893355,54.2798999999941 -8.78882043052894,41.6167480496535,55.3271999999997 -8.78888245650436,41.6168633840438,56.536300000007 -8.78878002969734,41.6168841715455,57.2258000000002 -8.7886822965877,41.616901940949,57.9005999999936 -8.78857031440102,41.6169314455756,58.8058000000019 -8.78843955652658,41.6169773784223,59.8641000000061 -8.7883134932478,41.617032698598,60.8718999999983 -8.78823805632351,41.6170856722238,61.5353999999934 -8.78825917841077,41.6170928809692,61.5148999999947 -8.78827812118516,41.6171093091693,61.5715999999957 -8.78828633538012,41.6171269112872,61.6751999999979 -8.78828516218038,41.6171482010458,61.8337999999931 -8.78826035161054,41.6171741851393,62.0789999999979 -8.78817552729152,41.6172801327864,62.8977000000014 -8.7880731004845,41.6174216187849,63.7973000000056 -8.78795525050239,41.6176584916429,64.9336999999941 -8.78781359606355,41.6178273031165,65.2409999999945 -8.78761209586049,41.6180269600726,63.9168999999965 -8.78742970551844,41.6182780820567,61.476800000004 -8.78732141091602,41.6183300499945,59.9106999999931 -8.78725368513012,41.6183741383933,58.8494999999966 -8.7872129492269,41.6184172214266,58.0878999999986 -8.78723407131419,41.6184549399597,58.1687999999995 -8.78730280321321,41.6184874618934,59.027900000001 -8.7873284519112,41.6185561932765,59.3395000000019 -8.78731906451647,41.618647053306,59.1650999999983 -8.78730783198216,41.6188343053117,58.7639999999956 -8.78729593020298,41.6189528252151,58.370299999995 -8.78729542714641,41.6192537356094,58.1965999999957 -8.78730716183896,41.619373931619,58.2263999999996 -8.78733783930594,41.6195320145399,58.3910999999935 -8.78741914402567,41.6196788653407,59.417100000006 -8.78767261266622,41.6199346810775,62.3019000000058 -8.78788081969121,41.6201103659421,64.0337 -8.78811216013136,41.6202677781964,65.6533999999956 -8.78834517682786,41.6203509264602,66.9602000000014 -8.7883854096745,41.6204320633374,67.3065000000061 -8.7884559858148,41.6204013857783,67.5338000000047 -8.78855505921084,41.6206900586014,68.328800000003 -8.78876360130742,41.6212863471137,69.4443000000028 -8.78886368081659,41.6215124907737,69.5489999999991 -8.78889787967946,41.6215478624994,69.551999999996 -8.78893677134136,41.6215738461634,69.5274000000063 -8.78894733283417,41.6216823081881,69.6543999999994 -8.78886954861203,41.621688175369,69.8147999999928 -8.7887882438923,41.6217010835683,69.9976000000024 -8.78869989907568,41.6217176798206,70.0580999999947 -8.78863753713035,41.6217376283571,69.9005999999936 -8.78858322319164,41.6217636126161,69.7758000000031 -8.7885632734058,41.6217835611385,69.7547999999952 -8.78854315743163,41.6218177595502,69.8046999999933 -8.78858087589379,41.6218931966458,70.184699999998 -8.78860685966341,41.6219473441426,70.4591999999975 -8.7886197675557,41.6220014909225,70.6916000000056 -8.78862915584873,41.6222985452896,72.6223999999929 -8.78863519073083,41.6224539463585,73.7249000000011 -8.78863401753106,41.6225106075707,74.1122000000032 -8.78864105762794,41.6225483263957,74.3990000000049 -8.78865866011593,41.6225811833699,74.6904000000068 -8.78869989907568,41.6226613141863,75.3175000000047 -8.78873996393736,41.622726190615,75.7657000000036 -8.78878589749278,41.6227862044934,76.0467000000062 -8.78882713645253,41.6228416929386,76.3058000000019 -8.78894498553632,41.6229806646553,77.3206999999966 -8.78907809070861,41.6231856865232,79.6549999999988 -8.78903567765079,41.6232104963874,80.0405000000028 -8.78900164767121,41.6232446947139,80.5783999999985 -8.78896510240882,41.6232835869196,81.1229000000021 -8.78894146503873,41.6233094033482,81.4746000000014 -8.78893090444425,41.623336560783,81.8885000000009 -8.78892269024929,41.6233719321796,82.4434000000037 -8.78892269024929,41.6234166913322,83.1848000000027 -8.78892034295147,41.6234461956643,83.6652999999933 -8.78892620984859,41.6234743589695,84.264599999995 -8.78894498553632,41.6235155979767,85.1989000000031 -8.78906518191799,41.6236936294204,89.5721999999951 -8.78913592514491,41.6238126527554,92.9665999999997 -8.78914296614013,41.6238609323292,94.2633999999962 -8.78914413933987,41.623903344888,95.3720999999932 -8.78912301725262,41.6239387166453,96.1628999999957 -8.78909820668278,41.6239692266589,96.8053000000073 -8.78907104971343,41.623994036893,97.2856000000029 -8.78903802494863,41.6240188471177,97.735400000005 -8.78896862290641,41.6240659534129,98.4704000000056 -8.78893794454114,41.6240941171188,98.9746000000014 -8.78890609387442,41.6241177541817,99.3594000000012 -8.78887910399172,41.6241531258212,100.102199999994 -8.78886485491466,41.6241873236478,100.914999999994 -8.78886016121733,41.6242178335438,101.700500000006 -8.78885546662163,41.6242402974402,102.271500000003 -8.78886837541229,41.6242744952206,103.276199999993 -8.78891799565362,41.6243180812986,104.724199999997 -8.78894498553632,41.6243309896428,105.240399999995 -8.78898387809655,41.6243511059186,106.029899999994 -8.78903098395342,41.6243651873751,106.736099999995 -8.78914413933987,41.6243864774302,108.1057 -8.78927724451216,41.6244040795764,109.491200000004 -8.78936927781132,41.6244183288974,110.414600000004 -8.7894705314186,41.6244406248479,111.589500000002 -8.78950590258291,41.6244617470022,112.325899999996 -8.78951964860336,41.6245033211296,113.424599999998 -8.78953021009617,41.6247747274304,118.881999999998 -8.78927724451216,41.624930798731,119.683999999994 -8.78914296614013,41.6250109293135,119.943299999999 -8.78882596235446,41.6251735384026,119.888600000006 -8.78883300334964,41.6252276851594,120.406799999997 -8.78916056862811,41.6251946609882,122.218999999997 -8.78945175573083,41.6251487279508,123.550099999993 -8.7895925711432,41.6251205647055,124.118000000002 -8.78975568363921,41.6250992748927,124.897899999996 -8.78978049420904,41.6250957542332,125.007700000002 -8.78981569738839,41.6253183779876,127.809500000003 -8.78980983049128,41.6253762131407,128.424400000004 -8.789788708404,41.6254291866278,128.930500000002 -8.78976741833179,41.6254903744464,129.551800000001 -8.78977093882938,41.6256058771906,131.086599999995 -8.78976507103394,41.6256590183618,131.720799999996 -8.78962609896454,41.6257520574421,131.649699999994 -8.78953171926586,41.6258167655746,131.507299999997 -8.78950590258291,41.6258357089662,131.491200000004 -8.78947287781811,41.6258687334805,131.559399999998 -8.78945376705876,41.6259037697582,131.776199999993 -8.78946935732049,41.6259523848533,132.541200000007 -8.78946466362316,41.6259906066238,132.964000000007 -8.78943163885836,41.6260761017417,133.616500000004 -8.78940096139142,41.6262221143987,134.982000000004 -8.78934798773911,41.6263741620222,136.2739 -8.78931378977454,41.6264578134106,136.870500000005 -8.78925377512705,41.6265496789307,137.031000000003 -8.78920063348979,41.6266286371096,137.049599999998 -8.78917247040729,41.6266593143921,136.941399999996 -8.78902629025608,41.6267064207726,135.197199999995 -8.78893677134136,41.6267394455123,134.290699999998 -8.78885429342189,41.6267654297702,133.416700000002 -8.78880718756502,41.6267654297702,132.767399999997 -8.78874113803544,41.6267701234136,131.8992 -8.78870811327065,41.6268078417614,131.682100000005 -8.78861155336074,41.6268690296145,130.878500000006 -8.78850074527214,41.6269515079607,130.0092 -8.78844425112224,41.6269774914616,129.545499999993 -8.78838792405898,41.6269919087547,129.226299999995 -8.78821492201,41.6270437085157,128.241200000004 -8.78803135846821,41.6270735482694,127.104200000002 -8.78789339251193,41.6270884678053,126.189499999993 -8.78769993762053,41.6270884678053,124.800199999998 -8.78750648362746,41.6270735482694,123.285399999993 -8.78717623687789,41.6270142044867,120.624800000005 -8.78702905061353,41.6270215806631,119.386899999998 -8.78678899292185,41.6270512525579,117.332999999999 -8.78658581556414,41.627066172099,115.974000000002 -8.78642773273539,41.6270960118423,115.035799999998 -8.78619773347993,41.6270886356745,113.963900000002 -8.78593051792057,41.6270886356745,112.701199999996 -8.78577310613335,41.6270960118423,112.144499999995 -8.78557177301691,41.6270810916366,111.538400000005 -8.7854398410444,41.6271109313731,111.121400000004 -8.78529114650867,41.6271117693753,110.553899999999 -8.78529349380652,41.6272249250958,110.427800000005 -8.78530053390338,41.6273193055359,110.337199999994 -8.78529584020604,41.6274016161093,110.437600000005 -8.78525812174388,41.6274369872903,110.4087 -8.78497296952324,41.6275477963182,110.073699999994 -8.78469251099996,41.6276607840772,110.188399999999 -8.78450877947322,41.6276938089996,109.756399999998 -8.78443669506156,41.627707052403,109.426399999997 -8.78421658625739,41.6278235610652,108.756999999998 -8.78405632411575,41.6278941364208,107.845700000005 -8.78390545026717,41.627964879566,106.6967 -8.78380419665989,41.6280121535308,105.868300000002 -8.78367930658089,41.6280497046283,104.733600000007 -8.78354972190623,41.628089770344,103.585800000001 -8.78348132597712,41.6281157540576,103.012100000007 -8.78333983952325,41.6281462641091,101.690199999997 -8.7829789144084,41.628244667958,98.3004999999976 -8.78278613055853,41.628264281429,96.584400000007 -8.78261413462264,41.6283112201139,95.3239999999932 -8.78252444772299,41.6283444125689,94.7666999999929 -8.78240676572583,41.6283631880236,93.8794000000053 -8.78227701396451,41.6283962125862,93.0843000000023 -8.78222286711243,41.6284267225049,92.9015000000072 -8.78217056360332,41.6284448278163,92.6958000000013 -8.78207584883302,41.6284949511129,92.2897999999986 -8.78200963131851,41.6285539598165,92.0252999999939 -8.78192598019923,41.6286094479983,91.602899999998 -8.78186345116727,41.6286542075439,91.2440999999963 -8.78181165071471,41.6286858910523,90.9165999999968 -8.78176856751368,41.6287073488885,90.6518999999971 -8.78172917279524,41.6287271300836,90.4594999999972 -8.78170805070795,41.6287331651598,90.368100000007 -8.781637307481,41.6287331651598,90.0053000000044 -8.78159489442317,41.6287366856207,89.795100000003 -8.78156656425408,41.6287495937518,89.6742999999988 -8.78137445054741,41.6288391126173,88.6959999999963 -8.78124721317056,41.6289051619094,87.9516000000003 -8.7812094947084,41.6289346657444,87.7179000000033 -8.78111528209638,41.6290064149325,87.1027999999933 -8.78106465574189,41.6290488274638,86.7225000000035 -8.7810316309771,41.6290818523467,86.4603999999963 -8.78100799360704,41.6291207443887,86.2516999999934 -8.78096675464729,41.6292245123405,85.8274999999994 -8.78091964879043,41.629396509122,85.2654000000039 -8.78088075623019,41.6295120115831,84.821299999996 -8.78084454693772,41.6295919746524,84.5264000000025 -8.78075033432566,41.6296969162105,83.7804000000033 -8.78064321382131,41.629803031289,82.7713999999978 -8.78048378980783,41.6299466968569,81.6190000000061 -8.78039544409288,41.6300434240437,81.3123000000051 -8.78029285019924,41.6301823963527,81.5458000000071 -8.78020450448429,41.630310806567,82.0746999999974 -8.78016795922191,41.6303815504175,82.4853000000003 -8.78004893693835,41.6305087872281,82.2517999999982 -8.77997701961332,41.6305936123004,82.067200000005 -8.77990409707351,41.6306807839405,81.7571999999927 -8.77976143741989,41.6308787648082,80.5022000000026 -8.77972489215747,41.6308940198534,80.116399999999 -8.77968717369535,41.6309035750693,79.7075999999943 -8.77959648158088,41.6309235241211,78.723800000007 -8.77947628519924,41.6309436403544,77.354600000006 -8.77947595012763,41.6309647630639,77.3234999999986 -8.77950243695378,41.6312240993378,77.2114000000001 -8.77959648158088,41.6314443754226,77.6071999999986 -8.77964559966397,41.6316574436382,78.5485999999946 -8.77973344142405,41.6319068890323,81.0785000000033 -8.77983218064681,41.6322126605068,84.315300000002 -8.77992404596102,41.6325283232302,86.8969999999972 -8.780004177481,41.6327946997353,87.7078000000038 -8.78010844852929,41.6333247718544,86.7122999999992 -8.78013811988312,41.6336243408474,86.4673999999941 -8.78013560549865,41.6339138514687,86.4587000000029 -8.78011900912377,41.6342199585237,86.273000000001 -8.78021825140311,41.6345815538804,86.5264000000025 -8.78020919818166,41.6347812113294,85.5430000000051 -8.78016678602217,41.6348873260953,84.6149000000005 -8.78014080225256,41.6349485136653,84.0809000000008 -8.78015739862743,41.6350475879239,83.9226000000053 -8.78018086801257,41.6351065966719,83.9939000000013 -8.78027994140862,41.6352479153207,84.6858999999968 -8.78036476662594,41.635389234331,85.2140999999974 -8.7805414571575,41.6357097584507,85.8748999999953 -8.78056207708651,41.635872199564,84.9220999999961 -8.78067824991401,41.6362767103909,84.4248999999982 -8.78091378099498,41.6368927798049,86.1619999999966 -8.78098217782239,41.6371449078813,86.7402000000002 -8.78105996204452,41.6373098636862,86.9094000000041 -8.78128845213032,41.6377152127537,86.8751000000047 -8.78136388995294,41.6378494904564,86.7740000000049 -8.78132147689511,41.6378684336692,86.8025000000052 -8.78124838726864,41.6378919032118,86.8705999999947 -8.7811471336614,41.638028528301,87.1267999999982 -8.78106465574189,41.6381346430915,87.4467000000004 -8.78095082931394,41.6382695912803,88.133600000001 -8.78088846826691,41.6385026084813,89.0948999999964 -8.78077983859286,41.6386509682506,90.1049999999959 -8.78055302386509,41.6387894372842,91.9688000000024 -8.78034967942075,41.6388224618762,93.2805999999982 -8.78014348462199,41.6388078773763,94.2461000000039 -8.77998054011094,41.6387190289399,93.8895000000048 -8.77986285811376,41.6386461069618,92.8340999999928 -8.77970259597215,41.6385894451604,91.4370999999956 -8.77955876311872,41.6385493792569,90.1416000000027 -8.77931032324712,41.6385636288081,88.832699999999 -8.77911938363853,41.6385855895592,88.0849000000017 -8.77888904841316,41.6386435920621,88.1015000000043 -8.77876583459048,41.6386637085715,87.9423999999999 -8.77867028079373,41.6387072943203,88.3801999999996 -8.77860557244884,41.6387426660116,88.7690000000002 -8.77845939229763,41.6387803847392,88.6103000000003 -8.77836635378365,41.6387909458178,87.9956999999995 -8.77823090221183,41.638796813456,86.834400000007 -8.7781060112345,41.6387780376834,85.1572000000015 -8.77798229435528,41.638781558267,83.8387999999977 -8.77791859212354,41.6388098887539,83.6345000000001 -8.77784902209636,41.6388792913113,84.0614999999962 -8.77780258638267,41.6389324322827,84.4342000000033 -8.77775715678212,41.6389889266159,84.8475999999937 -8.77771189426823,41.6390251359999,84.849000000002 -8.77761248490227,41.6390826359363,84.395399999994 -8.77754861468554,41.6391079492386,83.7872000000061 -8.77738600614441,41.6391161638914,81.4321000000054 -8.77730470142465,41.6391245457096,80.3222999999998 -8.77727402395771,41.639230492872,81.1106 -8.77711862349839,41.6393649386115,79.8858999999939 -8.77697948344403,41.6394920079792,78.7143999999971 -8.77680514021032,41.639633494919,76.7581999999966 -8.77665393039183,41.6397835311166,75.0709000000061 -8.77657882853912,41.6398619856912,74.2243000000017 -8.77651764069186,41.6400458844992,74.486699999994 -8.77647757493188,41.6401731217019,74.5954999999958 -8.776532895882,41.6401742952044,75.4294999999984 -8.77656474744705,41.640181336219,75.9817000000039 -8.7765764821396,41.6401954175745,76.2203000000009 -8.77663783707349,41.640301532825,77.5176000000065 -8.77667203503806,41.6403699287829,78.2231000000029 -8.77672618278843,41.6403345573135,78.9743000000017 -8.7769747897467,41.6407528138955,79.7474999999977 -8.77714561338111,41.6410522154405,77.6379000000015 -8.77720462191549,41.6411134038712,77.3003000000026 -8.77723043770014,41.6411569893058,76.9305000000022 -8.77724116627957,41.6411828059618,76.6750999999931 -8.77727284985963,41.6412642777982,75.7084999999934 -8.77728475253714,41.6413326740769,74.6591000000044 -8.77728475253714,41.6413844743983,73.7912000000069 -8.77727402395771,41.641482207523,72.0662000000011 -8.77725642146971,41.6415539561712,71.0562000000064 -8.77718567824279,41.6417083508332,69.081600000005 -8.77706078816379,41.6420359158902,66.5374000000011 -8.77698183074188,41.642204392328,65.2976999999955 -8.77695953455652,41.6422598801718,64.8889000000054 -8.77693941858238,41.6423198946636,64.4542999999976 -8.77693472398668,41.6423882911645,63.8991999999998 -8.7769417649819,41.6424377443861,63.4909000000043 -8.77696774875148,41.6425131815217,62.8770999999979 -8.77709029243096,41.6427664825473,61.3757999999943 -8.77728709983499,41.6431776987697,58.8435999999929 -8.77740126133456,41.6434157451051,56.769100000005 -8.7775568288805,41.6437998036818,53.527700000006 -8.77763226670312,41.6439942635615,51.9342000000033 -8.77769948943249,41.6441887241969,50.5951000000059 -8.77777492635677,41.6444255967286,49.1043000000063 -8.77780660993683,41.6444561064446,48.8242000000027 -8.77783963470162,41.6444844377932,48.5446999999986 -8.77800928423797,41.6445905526938,47.4046999999991 -8.77814372969667,41.6447166162301,46.1493000000046 -8.77824381010416,41.6448239048375,45.0369999999966 -8.77838278217356,41.6449828255574,43.6215999999986 -8.77867028079373,41.6453645373757,41.1551999999938 -8.77880003345335,41.6455378752776,40.428899999999 -8.77884596611047,41.6455955425939,40.222299999994 -8.77901209514922,41.6458134717671,39.7746999999945 -8.77907797669382,41.645897123438,39.670299999998 -8.77913933252604,41.6459668607152,39.6070999999938 -8.77918627129628,41.646004579242,39.5757000000012 -8.77924527983068,41.6460645936025,39.551999999996 -8.77929020637465,41.6460997981347,39.5470000000059 -8.77935256831999,41.6461329901562,39.5237000000052 -8.77951635006092,41.6461646737996,39.4918999999936 -8.77967812137222,41.6461985363938,39.463499999998 -8.77987459280634,41.6462459782307,39.4078000000009 -8.78009252229762,41.6463108544198,39.1971000000049 -8.78023870244886,41.6463626540956,38.9870999999985 -8.78044690947383,41.6464256861748,38.6051000000007 -8.78070171929911,41.6465004527376,37.9869999999937 -8.78087254203523,41.6465016261249,37.3662999999942 -8.78103867197232,41.6464781570327,36.6707000000024 -8.78122944359595,41.6464553578642,35.8044999999984 -8.78155617074622,41.6463867945052,34.495299999995 -8.78179052862746,41.6463544403665,33.7364999999991 -8.78208037454543,41.64629777863,32.9392999999982 -8.78213804189511,41.6462743087924,32.752999999997 -8.78220409142469,41.6462696152266,32.6551999999938 -8.78220761192229,41.6463532663053,33.1006000000052 -8.78220560059435,41.6464434561634,33.5868000000046 -8.78221448493251,41.6466117646703,34.2712999999931 -8.78220208009676,41.6471420037407,35.3806999999942 -8.78224650358419,41.6474878411744,35.6680000000051 -8.78229126304154,41.6476457558141,35.7311999999947 -8.7823254619044,41.6477694726857,35.7724000000017 -8.78234189029432,41.647829655231,35.7949999999983 -8.78229478353913,41.6479109595748,35.931700000001 -8.78219570924478,41.6479744942547,36.1085000000021 -8.782132174998,41.6480004780076,36.2173000000039 -8.78208037454543,41.6480712212374,36.3071000000054 -8.78190737249646,41.6483982833985,36.3031999999948 -8.78177862594991,41.6486485668343,36.0886000000028 -8.78177745275018,41.6487226629227,35.9599000000017 -8.78183176758721,41.6487261836342,35.8531999999977 -8.78180695701738,41.6491633833662,34.2019 -8.78179756962264,41.6493353799695,33.4689999999973 -8.78180343651975,41.6493613638448,33.3537000000069 -8.78182221220752,41.649369578533,33.2948000000033 -8.78184584867928,41.64937796036,33.2287999999971 -8.78195783086595,41.6493720930141,33.1054000000004 -8.78211926710567,41.6493449358077,33.0338999999949 -8.78223460180501,41.6493306859555,32.9948000000004 -8.78239486394662,41.6492953147062,33.0313000000024 -8.78246678037332,41.6492941413698,33.0181000000011 -8.78248320876324,41.6493048698791,32.9719999999943 -8.78252210132347,41.6494002557326,32.5892000000022 -8.78270013214144,41.6493378944519,32.8129000000044 -8.78288973146362,41.6492540754096,33.1301999999996 -8.78291102153583,41.6492460291893,33.1437000000005 -8.78295226049559,41.6492388206825,33.1322999999975 -8.78298528526038,41.6492376473451,33.1083000000071 -8.78300406004982,41.6492423406947,33.0779000000039 -8.7830701095794,41.649279556555,32.9091999999946 -8.78316163982203,41.6494091409885,32.3417000000045 -8.78342047320144,41.6499241252932,29.8350999999966 -8.78347545818168,41.6500448246056,29.2253000000055 -8.78351435074192,41.6501284754813,28.7992999999988 -8.78361275399477,41.6503742334493,27.7216000000044 -8.78368634757611,41.6505479062423,27.1371000000072 -8.78373814713034,41.6506503328108,26.8086999999941 -8.78387477280019,41.6508459668021,26.516300000003 -8.78396797929913,41.6509886269524,26.3313000000053 -8.78399848967944,41.65103925359,26.281799999997 -8.78402397039248,41.6510674162508,26.2516999999934 -8.784055150916,41.6511016145661,26.2173000000039 -8.78409052297861,41.6511264250971,26.181700000001 -8.78414349663092,41.6511617966835,26.127800000002 -8.78419244672908,41.6511907983224,26.0779999999941 -8.78430493197233,41.6513042889996,25.9057999999932 -8.7843418123063,41.6513386549951,25.8448999999964 -8.78439562408676,41.6513609510315,25.7782000000007 -8.78448229264706,41.6513780497779,25.6855000000069 -8.78459544893184,41.6513941430274,25.5657999999967 -8.78464892474239,41.6513928019234,25.5155999999988 -8.78478219700131,41.6513656448976,25.4165000000066 -8.78483165015602,41.6513562571651,25.379700000005 -8.784934076963,41.6513267528539,25.3010000000068 -8.78503885106787,41.6512731086172,25.2440000000061 -8.78519224019925,41.6511770516264,25.1778999999951 -8.7852180559839,41.6511512356187,25.1782999999996 -8.7852215764815,41.6511111701423,25.2225999999937 -8.78533355866817,41.6511983422234,24.983699999997 -8.78540664919297,41.6512595297449,24.834600000002 -8.78549616810766,41.6513197117148,24.6999000000069 -8.78566816404353,41.6513943108332,24.5032999999967 -8.78583898767794,41.6514729331722,24.4539999999979 -8.78597108673712,41.6515342889096,24.4548000000068 -8.78603344778412,41.6515601047638,24.4743000000017 -8.78612413989859,41.6516142521772,24.4903000000049 -8.78639487505725,41.6518405633058,24.1635999999999 -8.78649294413681,41.6520078663258,23.7482000000018 -8.78658967113334,41.6521550525926,23.2860999999975 -8.7867698821625,41.6523377779383,22.6894000000029 -8.78691254181612,41.6525074275651,22.4434000000037 -8.78699585786378,41.6526122015971,22.3175999999949 -8.7870498376292,41.6526874710996,22.2817000000068 -8.78713751230261,41.6527855387931,22.2057000000059 -8.78705620758289,41.6528596348216,22.4949000000051 -8.78696786276627,41.6529468072214,22.7750999999989 -8.78686644117407,41.6530235852046,23.0387000000046 -8.78676870806439,41.6531082423761,23.2636999999959 -8.7867122139145,41.6531637308977,23.3462 -8.78667566955044,41.6532391675568,23.2627000000066 -8.78665672587772,41.6534052970387,22.9719000000041 -8.78664264478565,41.6535194583713,22.7088999999978 -8.78664499118517,41.6535466158315,22.6343999999954 -8.78664968578083,41.6535925487688,22.5084000000061 -8.78666024637531,41.6536173590116,22.436400000006 -8.78675814746991,41.6537021838738,22.1722000000009 -8.78684766548631,41.6537918701132,21.8806000000041 -8.78684783347127,41.6537945528924,21.8739999999962 -8.78691639738533,41.6538557406326,21.6705999999976 -8.78692260025235,41.6538641225471,21.6463999999978 -8.78703843800823,41.6539747633132,21.3196999999927 -8.78701144812554,41.6540508708891,21.1616999999969 -8.78700675442817,41.6541251346032,20.9857000000047 -8.78701731592098,41.6542029186439,20.7946999999986 -8.78703860599319,41.654301992833,20.5381999999954 -8.78710096704023,41.6544951121921,19.9677999999985 -8.78713047130743,41.6546235229626,19.6303000000044 -8.78716349607223,41.6547284640345,19.3938999999955 -8.78721177602716,41.6548121155399,19.2378000000026 -8.78730129494185,41.6548852058129,19.2307000000001 -8.78745099559069,41.6549958468386,19.2568000000028 -8.78752157083268,41.6550478147106,19.2756999999983 -8.7875829266649,41.6550937479197,19.3003999999928 -8.78771720413861,41.6552327192364,19.4256000000023 -8.78783974781809,41.6553941547026,19.6137000000017 -8.78802766998563,41.6556124198784,19.7526000000071 -8.78817217388055,41.6557834106183,19.7010000000009 -8.78832237758596,41.6559659686162,19.4550000000017 -8.78841474685504,41.6560576665696,19.2088999999978 -8.78853511032334,41.6561610991915,18.9137999999948 -8.78854097811877,41.6561659605012,18.8997999999992 -8.78865396641857,41.6562294957647,18.7189999999973 -8.78886720131421,41.6563659531075,18.2728999999963 -8.78888011010484,41.656373831988,18.2473999999929 -8.78901019693775,41.6564611714515,17.991200000004 -8.78925729562465,41.65660668103,17.4444999999978 -8.78931965667165,41.6566313236621,17.3249999999971 -8.78953658004985,41.6566666955814,16.9768999999942 -8.78962375256502,41.6566821183549,16.8147000000026 -8.78983112056353,41.6567020674812,16.4397000000026 -8.78988878791317,41.6567114551058,16.3040999999939 -8.78994427594998,41.6567268778687,16.1659999999974 -8.78998065322741,41.6567397857633,16.0760000000009 -8.79006195794714,41.6567833713658,15.8760000000038 -8.79011979328176,41.6568234373411,15.7382000000071 -8.79019992390342,41.6568847926802,15.5672999999952 -8.79023881646365,41.6569295520531,15.5109999999986 -8.79028122862315,41.6570190707055,15.4982000000018 -8.79026329106354,41.6570611480133,15.536300000007 -8.79022222008878,41.6570992016669,15.571299999996 -8.79009615591167,41.6572143692368,15.5766000000003 -8.78996908651981,41.657413858573,15.3959999999934 -8.78993002687292,41.6575104176867,15.271900000007 -8.78992885367318,41.6575917225643,15.1796999999933 -8.78994545004805,41.6577142659442,15.0718999999954 -8.79000194329962,41.6578379829429,15.0138000000006 -8.78999607640251,41.6579616997039,14.9187999999995 -8.7899855149097,41.6580748549554,14.8393999999971 -8.78995249014494,41.6581913637565,14.7333000000071 -8.78991594578085,41.6582621072043,14.6689999999944 -8.78984637575367,41.6583928648596,14.5234000000055 -8.78971796517708,41.658606268144,14.4508999999962 -8.78966733792429,41.6586733231816,14.409599999999 -8.78961184988751,41.6587251229842,14.3573000000033 -8.78954362104504,41.6587534540982,14.3251000000018 -8.78941168997085,41.6587946933535,14.3717000000033 -8.78928428550734,41.6588288915931,14.4150999999983 -8.7891689499097,41.6588830382652,14.5081000000064 -8.78904288663096,41.6589443936556,14.6036000000022 -8.78896744880834,41.6589738985043,14.6943000000028 -8.78889670558138,41.6589821126379,14.8114999999962 -8.78879779927199,41.6589797656468,14.9807000000001 -8.78870107227546,41.6589608226003,15.1952000000019 -8.7886398844282,41.6589397003418,15.3940000000002 -8.7885384637343,41.6589961939113,15.6340000000055 -8.78847610178896,41.6590198309269,15.8025000000052 -8.78843134233162,41.6590598968532,15.9159000000072 -8.78801425903676,41.6597956596881,16.7019 -8.78783958073146,41.6600251567995,17.2112999999954 -8.7877207246362,41.6601720073006,17.664300000004 -8.78757236517209,41.6603559065276,18.4337999999989 -8.78755694289529,41.6603994923673,18.6070999999938 -8.78758409986465,41.6604407312398,18.7575999999972 -8.7877502289034,41.6605716562803,19.0454000000027 -8.78802951422693,41.6607342655859,19.263300000006 -8.78814853740879,41.6607790249679,19.2899999999936 -8.78822984212855,41.6608108759005,19.2998999999982 -8.78850426487143,41.6609310722751,19.3604999999952 -8.78876427145063,41.6610333320012,19.3824000000022 -8.7889615819112,41.6611359264547,19.6524000000063 -8.78906635601606,41.6611818593485,19.7235999999975 -8.78918068460225,41.6612361738358,19.8135000000038 -8.78934446724149,41.6613127842244,20.014599999995 -8.78953423365033,41.6613280394477,19.8677000000025 -8.78959659469734,41.6613386008573,19.8638000000064 -8.78966147102715,41.661329213236,19.8032999999996 -8.78970153588883,41.661316304919,19.7430000000022 -8.7898276000659,41.6613587169921,19.8353000000061 -8.78994025329411,41.661397944578,19.9474999999948 -8.79032364078265,41.6614993653364,20.2063000000053 -8.79056923119819,41.6615501602165,20.4150999999983 -8.79057208065428,41.6615556922367,20.4382999999943 -8.79058448638833,41.6615556922367,20.4397000000026 -8.7905965561525,41.6615612242565,20.4640999999974 -8.79080224789469,41.6616197295474,20.8257000000012 -8.79081482071539,41.6616254293407,20.8588000000018 -8.79097273555919,41.6616953348193,21.2516999999934 -8.79098262601047,41.6617012017138,21.281799999997 -8.7912161457635,41.6618911359273,22.2746000000043 -8.79134757467948,41.6619803195089,22.8445999999967 -8.79159450538142,41.6621003479362,23.722099999999 -8.79176583117408,41.6621804792863,24.3080000000045 -8.79178024823607,41.6621855079193,24.3508000000002 -8.79179483238471,41.6621878554646,24.3709999999992 -8.79197420528571,41.6623028548815,25.0957999999955 -8.79212792948871,41.6623722569642,25.7304000000004 -8.79228768857378,41.6624128254782,26.4164000000019 -8.79239480907813,41.6624607701138,27.1723000000056 -8.79254451062529,41.6625509588958,28.5666999999958 -8.79286168149761,41.6627833057643,31.5613000000012 -8.79293946571975,41.6628669568744,32.4046999999991 -8.79298070467947,41.6629246241134,32.9150999999983 -8.79301121416149,41.6629623427777,33.2308000000048 -8.79307256999371,41.6630319125961,33.7820000000065 -8.79314331322063,41.6630743255526,34.1385000000009 -8.79317734409854,41.6630860597609,34.2458000000042 -8.7932635096023,41.6631050029362,34.3715999999986 -8.79336359000976,41.6631214314905,34.4844000000012 -8.79345428212423,41.6631413806355,34.6067999999941 -8.79352619855092,41.663226205034,34.8386000000028 -8.79355922331572,41.6632828673156,34.9355999999971 -8.79354028054133,41.6633205857701,35.0381999999954 -8.79351094336078,41.6633712121101,35.1916000000056 -8.7936663438201,41.6633958548382,35.0161999999982 -8.79400229038016,41.6634300533187,34.4168000000063 -8.79400111718038,41.663473639091,34.4593000000023 -8.79406230502765,41.6634768241188,34.2743999999948 -8.79412366085987,41.663484367923,34.0832999999984 -8.79416607301939,41.6634961027276,33.9505999999965 -8.79421317977456,41.6635078375302,33.8000000000029 -8.79424368925657,41.6635373416303,33.6992999999929 -8.79426145883119,41.6635656726405,33.6371000000072 -8.79432985565863,41.6636727929523,33.3255000000063 -8.79437461511597,41.6637646591147,33.1008000000002 -8.79439221670563,41.6638142798071,33.0258999999933 -8.79440277819844,41.6638437837668,32.9793999999965 -8.79441350677788,41.6639768883063,32.9532999999938 -8.79437813561356,41.664144191343,33.2020000000048 -8.79435919194084,41.6641830837003,33.3043999999936 -8.79426883489799,41.6643233963711,33.7290000000066 -8.79430856558638,41.664360947115,33.5709999999963 -8.79397161291321,41.6648157492766,34.972099999999 -8.79380431067469,41.6650844732984,35.9027999999962 -8.79362510486035,41.6653389478746,37.0427000000054 -8.79349082738661,41.6655674387493,38.1206999999995 -8.79345310892445,41.6656475698113,38.4955999999947 -8.79340130847192,41.6657960965815,39.319399999993 -8.79336124271195,41.6660411834241,40.4167000000016 -8.79334950801936,41.6662485519456,41.3181999999942 -8.79335654901458,41.666401773455,42.0994000000064 -8.79338001839968,41.6665503004986,42.9272000000055 -8.79345545532401,41.6667906937418,44.5385999999999 -8.79355218232054,41.6669861592598,46.3675999999978 -8.79363700753786,41.6671982214762,47.9183000000048 -8.7937052363803,41.6673584834674,48.9597000000067 -8.79380431067469,41.6675541170384,50.7994999999937 -8.79387740030116,41.6677167261584,52.2263999999996 -8.79391495167666,41.6677921632189,52.9098999999987 -8.7940249216371,41.6679489047419,54.3491999999969 -8.79434863134636,41.6681691814463,56.2811999999976 -8.79455834664272,41.6682776429043,57.424199999994 -8.79457242773478,41.6683435249472,58.3390999999974 -8.79459137140751,41.6683929783756,58.9893000000011 -8.79468139248044,41.6684674094178,59.730899999995 -8.79488591102286,41.6685745302982,60.5962 -8.79517273949982,41.668703611551,61.5467999999964 -8.79533601908248,41.6687228899369,61.5488999999943 -8.79544917536726,41.6687867597406,61.9128999999957 -8.79554104068147,41.6688903604804,62.656799999997 -8.79563055959616,41.6690623567468,64.0598000000027 -8.79567766545302,41.6692060226958,65.2197000000015 -8.79584144809225,41.6696407079589,69.695000000007 -8.79595108298111,41.6697763276195,71.1108999999997 -8.79610899872321,41.6700331490284,74.3948999999993 -8.79625031719213,41.6702240886905,77.0249999999942 -8.7963728608716,41.6704031258154,79.3681999999972 -8.796886671163,41.6711997424164,88.7912999999971 -8.7970586679972,41.6715202662078,92.7981 -8.79711046844972,41.6716074381767,94.1594000000041 -8.7971505333114,41.6716662785683,95.0657999999967 -8.79726838329352,41.6717630062068,96.3810999999987 -8.79758069248352,41.6719985373178,99.6742999999988 -8.79785645730942,41.6721718753454,101.922000000006 -8.79800247037404,41.6722437917855,102.437600000005 -8.79804840303113,41.6722154612389,101.933199999999 -8.79820983837255,41.6723380043007,102.753899999996 -8.79854444374787,41.6725395054218,103.625499999995 -8.79873655745453,41.6726442790722,104.016799999998 -8.79906881643037,41.6728045415971,104.650999999998 -8.79933049926588,41.6729022740236,104.606 -8.79949662830463,41.672965976628,104.550199999998 -8.79984531567039,41.6731886000846,104.230100000001 -8.80015879895846,41.6734397218818,101.4038 -8.8003024647252,41.6735657859927,97.8188999999984 -8.80044043068148,41.6736789413341,94.1662000000069 -8.8006783090603,41.6738744074094,88.4112000000023 -8.80091568438255,41.6740184088487,83.8833000000013 -8.80141591663839,41.6741008865678,80.2804000000033 -8.80158338686187,41.6741548660708,79.4529000000039 -8.80166100309905,41.6742197416599,78.7443999999959 -8.80168598165385,41.6742646688075,78.2308000000048 -8.80168933416648,41.6743327301186,77.8304000000062 -8.80164574790891,41.6744212429292,77.4174999999959 -8.80152203102965,41.6746180500546,76.7271999999939 -8.8014524619008,41.6747122624497,76.8540999999968 -8.80137953936096,41.6747841794064,77.0515000000014 -8.80132874502155,41.6748324590417,77.1919999999955 -8.80129823464123,41.6748795650995,77.1628000000055 -8.8012699035738,41.6749503083293,77.0760000000009 -8.80125230198414,41.6750537414703,76.8864000000031 -8.80125816888125,41.6754215389338,72.758799999996 -8.80132053082659,41.6756842282665,68.9372000000003 -8.80141960422264,41.6758999783214,66.3594000000012 -8.80151381683469,41.6760548757463,64.3383999999933 -8.80165396300217,41.6762563766382,61.7957000000024 -8.80203181866518,41.6766447938857,57.4746000000014 -8.8025592078904,41.6771477079958,49.1024000000034 -8.8030715099104,41.6775542308347,39.1472999999969 -8.80338851369606,41.6778110520754,35.5344999999943 -8.80349798149829,41.6778864893838,34.7612999999983 -8.80408957601179,41.6783837035331,31.992499999993 -8.80454437776878,41.6787501602193,31.069399999993 -8.8050120883164,41.6791261729475,28.3291000000027 -8.80516178896523,41.6792463693477,26.853099999993 -8.80679994863254,41.6804654334949,17.834600000002 -8.80682911692979,41.6804821971047,17.7611000000034 -8.80692685003944,41.6804798502264,17.7324999999983 -8.80700111376399,41.6804692886022,17.7448000000004 -8.80706582210884,41.6804552073285,17.7722000000067 -8.80711058156618,41.6804350904511,17.7915000000066 -8.80717076330033,41.6803727290303,17.9493999999977 -8.80729448017959,41.6802206813425,18.4159999999974 -8.80740528916652,41.6802677881531,17.9382000000041 -8.8073439333343,41.6803373580569,17.8405999999959 -8.80722373695263,41.6804692886022,17.5258999999933 -8.80718719258858,41.6805282973446,17.3617999999988 -8.80716137590563,41.680595353034,17.1469999999972 -8.80715064732619,41.6806719631979,16.8837000000058 -8.80717076330033,41.6807792516252,16.6388000000006 -8.80720730856271,41.6808204908625,16.5295999999944 -8.80726145541479,41.6808711175302,16.3934000000008 -8.80777291930664,41.6812905480006,15.3727000000072 -8.80816401883189,41.6816239801343,14.8076000000001 -8.8089809198018,41.6823624256746,14.2256999999954 -8.80935408176748,41.6826785907444,14.5748000000021 -8.80991030511666,41.6831793256086,14.784599999999 -8.81033912310404,41.6835504766964,14.0696999999927 -8.81081873543087,41.6839818092914,10.8059999999969 -8.8117271657451,41.684950254584,7.01570000000356 -8.81208188799292,41.6853180525136,6.57790000000386 -8.81258614380292,41.6859249021904,5.34170000000449 -8.81266275392699,41.6860554923024,5.11119999999937 -8.81276048703664,41.686199325606,4.84829999999783 -8.81277708341151,41.6863124815445,4.71719999999914 -8.81290549398811,41.6863265628782,4.50179999999818 -8.81294086605075,41.6863429915442,4.42059999999765 -8.81318947300901,41.6866246235369,3.49319999999716 -8.81349809461475,41.6869664371657,1.87799999999697 -8.81352759888192,41.6869545349011,1.85340000000724 -8.81356062364671,41.6870029825113,1.61849999999686 -8.81344864146004,41.6870489150626,1.73059999999532 -8.81338510631493,41.6870805987027,1.79439999999886 -8.81333783247311,41.687103062152,1.84590000000026 -8.81330380249353,41.6871243522754,1.86770000000251 -8.81324831355842,41.687161903136,1.89459999999963 -8.81315879554203,41.6872432074665,1.87639999999374 -8.81312811717679,41.6872963487897,1.79589999999735 -8.81309039871462,41.6873929087056,1.63899999999558 -8.8130479865551,41.6875355683923,1.38589999999385 -8.81298093091243,41.6877570184584,-0.153300000005402 -8.81293734555316,41.6878736942536,-1.33030000000144 -8.81290784128595,41.6879573456319,-1.5 -8.81289375929555,41.6880091460239,-1.48930000000109 -8.81288185751635,41.6880597730732,-1.44860000000335 -8.81287364332142,41.688128169303,-1.47000000000116 -8.81287012282379,41.6881918715953,-1.5 -8.81288420391589,41.6882532272298,-1.5 -8.81291370818306,41.6883202822482,-1.5 -8.81296433543585,41.6883896844573,-1.5 -8.81305636873502,41.6884711562871,-1.5 -8.81341444349547,41.6887514473587,-1.5 -8.81407661325097,41.6892629111512,-1.5 -8.81443016229905,41.6895349878682,-1.5 -8.81457868974811,41.6896493165784,-1.5 -8.81465161228792,41.689713019377,-1.5 -8.81483551090133,41.6898779754018,-1.5 -8.81506886356774,41.6900923845302,-1.5 -8.81525963519134,41.6902479521532,-0.683799999998882 -8.81550002885297,41.6904246427394,-0.0244999999995343 -8.81578987477095,41.6906486071338,0.0970999999990454 -8.81627770129273,41.6910303193006,-0.58289999999397 -8.81636956750527,41.6910938543709,-1.13139999999839 -8.81639672447462,41.6911151438444,-1.25290000000678 -8.81641315286454,41.6911692908654,-1.39500000000407 -8.81643796343437,41.6912259527001,-1.5 -8.81648154969194,41.6912611566941,-1.5 -8.816888071494,41.6915746397633,-1.5 -8.81718730570504,41.6918091659557,-1.5 -8.81775643694655,41.6922461979548,-1.5 -8.81823839657119,41.6926210370834,-1.5 -8.81927171696443,41.6934446427373,-1.5 -8.81987974076618,41.6939088322334,-0.431599999996251 -8.82020261144895,41.694159786647,0.40219999999681 -8.82066797469875,41.6945203761139,1.73780000000261 -8.82101682915113,41.6947914465735,3.41160000000673 -8.82115462802076,41.6948927000187,4.14329999999609 -8.82130432866959,41.694929245557,4.61190000000352 -8.82149761557603,41.6950717376083,5.48960000000079 -8.82181327817696,41.6953168243251,6.60360000000219 -8.82222566777445,41.6956314809149,7.70530000000144 -8.82231652697554,41.6957010509757,7.86729999999807 -8.82234469095634,41.6957204970144,7.89370000000054 -8.82237184792569,41.6957322319792,7.93850000000384 -8.822395987454,41.6957375960547,7.9826999999932 -8.82241426008519,41.6957364228938,8.02079999999842 -8.82243772947032,41.6957329020695,8.07150000000547 -8.82245315264542,41.6957258610909,8.10910000000149 -8.82249556480492,41.6957033979696,8.21600000000035 -8.82252154857453,41.695687472082,8.2838000000047 -8.82254082731884,41.6956621588808,8.33199999999488 -8.82254619115941,41.6956361749075,8.29790000000503 -8.82254267156011,41.6955939303027,8.21760000000359 -8.82252791852821,41.6955761604616,8.15780000000086 -8.82248315996917,41.6955407891262,8.01029999999446 -8.82259514215588,41.6954641785555,8.0908999999956 -8.8227483633023,41.6956056646199,8.76669999999285 -8.82277568825661,41.6955885655445,8.80689999999595 -8.82431896427033,41.6947359583756,8.14410000000498 -8.82427889851036,41.6946771176115,8.10839999999735 -8.82440144218984,41.6945993335013,8.0338999999949 -8.82490921759913,41.694334130177,8.56750000000466 -8.82521448669224,41.6941810764473,9.14549999999872 -8.82552729893878,41.6940991013869,9.7213999999949 -8.82569443409065,41.693959794725,10.0022999999928 -8.82635274917527,41.6934059183158,11.0746999999974 -8.82673580159219,41.6930228652515,11.732600000003</coordinates>
</LineString>
</Placemark>
</Folder>
</Document></kml>
