<?xml version="1.0" encoding="UTF-8"?>

<kml xmlns:xsd="http://www.w3.org/2001/XMLSchema" xmlns:gx="http://www.google.com/kml/ext/2.2" xmlns:atom="http://www.w3.org/2005/Atom" xmlns="http://www.opengis.net/kml/2.2">
<Document>
<name>PT03a_05a_caminha-valenca</name>
<visibility>1</visibility>
<Schema name="PT03a_05a_caminha-valenca" id="kml_schema_ft_PT03a_05a_caminha-valenca">
<SimpleField type="xsd:string" name="id">
<displayName>id</displayName>
</SimpleField>
<SimpleField type="xsd:string" name="nombre">
<displayName>nombre</displayName>
</SimpleField>
<SimpleField type="xsd:double" name="longitud">
<displayName>longitud</displayName>
</SimpleField>
<SimpleField type="xsd:string" name="_formato">
<displayName>_formato</displayName>
</SimpleField>
</Schema>
<Folder id="kml_ft_PT03a_05a_caminha-valenca">
<name>PT03a_05a_caminha-valenca</name>
<Placemark id="kml_1">
<name>&lt;img height='20' src='https://nco.ign.es/iconos/icono_todos_caminos_azul.png' /&gt;&lt;img height='20' src='https://nco.ign.es/iconos/Camino Santiago_20.png' /&gt;&lt;img height='20' src='https://nco.ign.es/iconos/icono_todos_caminos_azul.png' /&gt;  Camino de Santiago </name>
<visibility>1</visibility>
<description><![CDATA[<!DOCTYPE html>
<html>
<head>
<style>
#nco {
  border-collapse: collapse;
  overflow:hidden;
}
#nco th, #nco td {
  padding: 4px;
  text-align: left;
}
#nco th {
  color: #364B5F;
  padding-right: 5px;
}
#nco td {
  color: rgb(51, 51, 51);
  font-size: 12px;
  padding-right: 5px;
}
</style>
</head>
<body>
<table id="nco">
<tr>
<td>Caminos Portugueses</td>
</tr>
<tr>
<th><b>Camino: </b></th>
<td>PT03a Caminho da Costa</td>
</tr>
<tr>
<th><b>Etapa: </b></th>
<td>05a Caminha-Valença</td>
</tr>
<tr>
<th><b>Longitud: </b></th>
<td>29.55 km</td>
</tr>
</table>
</body>
</html>]]></description>
<Style>
<IconStyle>
<scale>0.8</scale>
</IconStyle>
<LabelStyle>
<color>ffffffff</color>
<scale>0.75</scale>
</LabelStyle>
<LineStyle>
<color>ffff0000</color>
<width>3.0</width>
<gx:labelVisibility>1</gx:labelVisibility>
</LineStyle>
<PolyStyle>
<color>66ff0000</color>
</PolyStyle>
</Style>
<ExtendedData>
<SchemaData schemaUrl="#kml_schema_ft_PT03a_05a_caminha-valenca">
<SimpleData name="id">PT03a_05a</SimpleData>
<SimpleData name="_formato">kml</SimpleData>
</SchemaData>
</ExtendedData>
<LineString>
<extrude>0</extrude>
<tessellate>1</tessellate>
<coordinates>-8.83819704877278,41.8782148131721,4.31909999999334 -8.83812529943274,41.8783138871673,4.05819999999949 -8.83810484748866,41.8784003885887,3.75699999999779 -8.83805019758003,41.8784917511068,3.33299999999872 -8.83801952011309,41.8786010513969,2.70230000000447 -8.83804650999579,41.878749243069,1.90469999999914 -8.83786059915618,41.8787732159469,1.67570000000705 -8.83773285872275,41.8788246804855,1.21400000000722 -8.8375519775504,41.8788779896643,0.663899999999558 -8.83744284481982,41.8788119402654,0.787500000005821 -8.83725861113483,41.8787153805779,0.99539999999979 -8.83709633766525,41.8788287036068,0.360100000005332 -8.83707286828015,41.8788151253207,0.396099999998114 -8.83699625725779,41.8787520930341,0.604000000006636 -8.83695267100019,41.8787266125624,0.676800000001094 -8.83691059391228,41.878721918579,0.670700000002398 -8.83680213222319,41.8787284565795,0.573399999993853 -8.83675385226826,41.8787393527996,0.516900000002352 -8.83670171764241,41.8787500818055,0.46929999999702 -8.83663415894317,41.8787524287962,0.448999999993248 -8.83660096709175,41.8787517579408,0.445300000006682 -8.83655369324989,41.878744381875,0.461200000005192 -8.8365267033672,41.8787282886983,0.508700000005774 -8.83647037630393,41.8786972754948,0.670299999997951 -8.8363238610811,41.8785941782893,1.24869999999646 -8.83625546425367,41.8785242733385,1.61220000000321 -8.83621808176145,41.8784758257482,1.86250000000291 -8.83616108455498,41.8783951916042,2.24460000000545 -8.83609017334307,41.8783222692383,2.58280000000377 -8.83598221471056,41.8782513580335,2.95739999999932 -8.83592337326282,41.8782356004975,3.05869999999413 -8.83581105600453,41.8782238654481,3.13920000000508 -8.83567074275039,41.8782133042363,3.21379999999772 -8.83554954115394,41.8782045870548,2.87919999999576 -8.83550729608107,41.8781990549582,2.81320000000414 -8.83545365228557,41.8781784355034,2.94479999999749 -8.83542079460743,41.8781393763733,3.0963999999949 -8.83539665507913,41.8781035016412,3.13180000000284 -8.83542079460743,41.8781393763733,3.0963999999949 -8.83541693903823,41.8781348495606,3.09970000000612 -8.83543554674104,41.8781610011299,3.07580000000598 -8.83542079460743,41.8781393763733,3.0963999999949 -8.83539665507913,41.8781035016412,3.13180000000284 -8.83530395073844,41.8781289823613,1.77210000000196 -8.83518945416725,41.8781620070878,-0.266600000002654 -8.83480154006801,41.8782424736437,-1.5 -8.83437540355173,41.87833266255,-1.5 -8.83377760617118,41.8784583914558,-1.4149000000034 -8.83339975050816,41.8785417076129,0.470100000005914 -8.83269768207935,41.8786917434408,0.704700000002049 -8.83183903999144,41.8788741337581,-1.01949999999488 -8.83120184789241,41.8790095852851,-1.67359999999462 -8.83103135932957,41.8790457952692,-1.6591999999946 -8.83098173908824,41.8790538414836,-1.65959999999905 -8.83093832081562,41.8790550153078,-1.6649999999936 -8.83075643353016,41.8790885425275,-1.66190000000643 -8.83054655024884,41.8791307874547,-1.65489999999409 -8.83003257197252,41.8792377410167,-1.58440000000701 -8.82955564201513,41.8793435205809,-1.30419999999867 -8.82891576754666,41.8794789717818,-0.77390000000014 -8.8283994419725,41.8795907865599,-0.209400000007008 -8.82833708092549,41.8796025213583,-0.151700000002165 -8.82830254699101,41.8795941394552,-0.114300000001094 -8.8281320593265,41.8796295110519,0.021999999997206 -8.82799845199597,41.8796559977669,0.0829999999987194 -8.82749235284299,41.8797704942766,0.119099999996251 -8.82724542214108,41.8798216242621,0.0736000000033528 -8.8269999997105,41.8798764415058,0.0212999999930616 -8.8267839144605,41.8799302534412,0.00939999999536667 -8.82666824379124,41.8799642838353,0.0212999999930616 -8.82659314193853,41.8799875860837,0.0356000000028871 -8.82646875491611,41.8800301655032,0.0749999999970896 -8.82636716623725,41.880065202441,0.122499999997672 -8.82606089103102,41.880190260442,0.316099999996368 -8.82596852266024,41.8802276435597,0.391600000002654 -8.8258833623713,41.8802586566894,0.466899999999441 -8.82581228407277,41.8802762583677,0.52730000000156 -8.82566325356713,41.8803062655496,0.657200000001467 -8.82491826992225,41.880565769398,1.58980000000156 -8.82432650742376,41.880783531344,2.1018999999942 -8.82293511137177,41.8813432747317,4.04949999999371 -8.82244208809607,41.8815032011821,4.66169999999693 -8.82233764996113,41.8815531573406,4.68760000000475 -8.82215341537784,41.8816624577451,4.67509999999311 -8.82205249774051,41.8817586819149,4.63619999999355 -8.82193716214288,41.8818929602437,4.38969999999972 -8.82187899173663,41.8819985722218,4.16229999999632 -8.82178042049882,41.8823563116114,3.53260000000591 -8.82169475805164,41.8827008079478,3.48549999999523 -8.82167464117917,41.8828196629631,3.47539999999572 -8.82166508579948,41.8829182342343,3.45639999999548 -8.82165435722005,41.8830774906145,3.44560000000638 -8.82165318312197,41.8832033867487,3.43570000000182 -8.82167933487654,41.8833435321066,3.40670000000682 -8.82174001966723,41.8835420158286,3.35610000000452 -8.82188485953207,41.8838533194805,3.28630000000703 -8.82202869238547,41.8841193610861,3.11010000000533 -8.82211770824361,41.8842881728332,3.0515000000014 -8.82233161507906,41.8847265463927,3.63159999999334 -8.82257519326837,41.8851721284178,5.34320000000298 -8.82286990086867,41.8857529940932,5.86939999999595 -8.82305514066677,41.8861415789507,5.7847000000038 -8.82318237804362,41.8864087940801,5.55310000000463 -8.82328094928143,41.8866677949769,6.34579999999551 -8.82335688926229,41.8869625027616,7.68649999999616 -8.82338907589893,41.8871418754284,8.20709999999963 -8.82340567227381,41.8872987846355,8.60009999999602 -8.82343064993027,41.8876551829197,7.27449999999953 -8.82343064993027,41.8878714360719,6.74719999999797 -8.8234259562329,41.8879855975282,6.92080000000715 -8.82341640085324,41.888108979519,7.267399999997 -8.82338790180086,41.8882871786559,8.13330000000133 -8.82335688926229,41.8884357056444,9.09320000000298 -8.82334984826707,41.8884667188026,9.351800000004 -8.82318707174099,41.8884321853574,12.1610999999975 -8.82315387988954,41.8885022580244,12.9864999999991 -8.82315622628906,41.8885973089446,13.2312999999995 -8.82317282266393,41.8886092112815,13.0271999999968 -8.8231775163613,41.8886449182791,13.0702000000019 -8.82317282266393,41.8887376223631,13.3454999999958 -8.82317164946419,41.8888016599524,13.0733999999939 -8.82315019140699,41.8888469218461,13.0769 -8.823090847801,41.8889716450072,12.8861000000034 -8.82309386524205,41.8889828765264,12.7970000000059 -8.82309319420052,41.8889917614291,12.7480000000069 -8.82308967370293,41.8890006463305,12.7170999999944 -8.82307659872397,41.8890185833151,12.5893999999971 -8.8227175178504,41.8896547698989,7.42419999999402 -8.82189759943944,41.8910044241973,5.72030000000086 -8.82130717902402,41.8920179639005,4.85550000000512 -8.82128940855103,41.8920369071148,4.80220000000554 -8.82069898813561,41.8921679995141,4.98179999999411 -8.82066680149897,41.8921913013241,4.95600000000559 -8.82032230477404,41.8926737637708,4.62270000000717 -8.82028659763982,41.8926927067907,4.71760000000359 -8.82024619770655,41.8927010889815,4.84369999999763 -8.82018685320224,41.892683319538,5.07219999999506 -8.82015835504818,41.892760432989,5.05860000000393 -8.81975032407644,41.8938219167481,5.34900000000198 -8.81948713207123,41.8943895393724,5.95359999999346 -8.81914732994197,41.8949206169647,6.69950000000244 -8.81906015832513,41.8950885904017,6.75380000000587 -8.81869219221507,41.8957350026998,8.69809999999416 -8.81855523237193,41.8959442148315,9.62769999999728 -8.81854785630513,41.8960436244227,9.45859999999811 -8.81854349767935,41.8961007888126,9.35869999999704 -8.81843386189219,41.8963151979482,9.61930000000575 -8.81809338961972,41.896277311377,13.1708000000071 -8.81806606466541,41.8963842649893,13.3454999999958 -8.81800420577665,41.8964352265497,14.0001999999949 -8.81785333192804,41.896590962162,15.4579999999987 -8.81763691070812,41.8970197804341,16.8494999999966 -8.81759399549205,41.8972003271035,16.6195000000007 -8.81756499428139,41.8976346770475,14.0635000000038 -8.81751755245461,41.8978039913436,12.3944000000047 -8.81747061368438,41.8978943485519,11.4818999999989 -8.81744982666871,41.8979243554829,11.0430999999953 -8.81740674346768,41.8979682769603,10.4438999999984 -8.81735879948266,41.8980006308089,10.0580000000045 -8.81685202928819,41.8981984438098,8.63569999999891 -8.81672093634213,41.8982675108202,8.68790000000445 -8.81654810137977,41.8983900538631,8.81410000000324 -8.81644316018828,41.8984673356084,8.87050000000454 -8.81639488023335,41.8985162855687,8.78130000000237 -8.81637928997159,41.8985357316803,8.72509999999602 -8.81650250379427,41.8987677425979,5.41210000000137 -8.81650468310716,41.8987977497871,5.1877999999997 -8.81650133059452,41.8988455267022,4.89410000000498 -8.81647937037908,41.8988902860181,4.78250000000116 -8.81646528838868,41.8989038647184,4.81059999999707 -8.81641902065998,41.8989281723765,5.03459999999905 -8.81604267326833,41.898914928669,8.61049999999523 -8.81605222864799,41.8989957308214,7.82200000000012 -8.81601417421594,41.8990062919412,8.12039999999979 -8.81596539210273,41.8990515539589,8.30520000000251 -8.81579557458143,41.8993154160468,7.89860000000044 -8.81578601920177,41.8993341919443,7.8527000000031 -8.81576221474505,41.8993502852798,7.92630000000645 -8.81574092467281,41.8993460942865,8.11000000000058 -8.81571007922091,41.8993341919443,8.41710000000603 -8.81569465604577,41.8993080403491,8.70940000000701 -8.81569700334363,41.8992890972854,8.82009999999718 -8.81571376680512,41.8991682302301,9.70119999999588 -8.81570722886652,41.8991502927525,9.91099999999278 -8.81566984547594,41.8991031867071,10.6548999999941 -8.81565509334237,41.8990946368602,10.8666999999987 -8.81564268850659,41.8990916193062,11.0084000000061 -8.81561804592174,41.8990929605899,11.2241999999969 -8.81554059677119,41.8991179388177,11.7014000000054 -8.81544437283123,41.8991526396625,12.2271999999939 -8.81540380401468,41.8991474430286,12.6425000000017 -8.8153791614298,41.8991596803919,12.7017000000051 -8.81534999223422,41.8991878439705,12.6005000000005 -8.81530640687495,41.8992196950566,12.5391999999993 -8.81526282061734,41.8992383024864,12.607600000003 -8.81522962786759,41.8992470201413,12.7149000000063 -8.81516341125138,41.8992580840325,12.992499999993 -8.81510037916284,41.8992614365643,13.3334000000032 -8.81505008787997,41.8992582518597,13.6699999999983 -8.81500935197679,41.8992440025946,14.0880000000034 -8.81496174216503,41.8992170124945,14.7051999999967 -8.8147064301815,41.8990009274676,18.889599999995 -8.81465764717002,41.8989851690312,19.3649000000005 -8.81460668484562,41.898987348788,19.6334999999963 -8.81452772742374,41.8990086388564,19.8271999999997 -8.8144962118286,41.8990279169903,19.7684000000008 -8.81448481220767,41.8990396515618,19.6879999999946 -8.81440551971417,41.8991865026888,18.3214000000007 -8.81415775088407,41.8996076096015,14.5767999999953 -8.81406337028706,41.8996843877324,14.2896999999939 -8.81402615488147,41.8997090307454,14.2148000000016 -8.81397636575684,41.8997432284599,14.0878999999986 -8.81393596492525,41.8997692127197,13.9784999999974 -8.81388064487343,41.8997990522812,13.8558000000048 -8.81374921685578,41.8998490081746,13.7529000000068 -8.81370797789603,41.8998602397871,13.8696000000054 -8.81363052874551,41.8998773392748,14.241200000004 -8.81357939933448,41.8998843799242,14.5215000000026 -8.81339918830533,41.8998887387077,15.8589999999967 -8.81335778136062,41.8998892415157,16.2580000000016 -8.81332844507841,41.8998977905876,16.4395999999979 -8.81328955251817,41.8999152250475,16.5923000000039 -8.81325619268176,41.8999393651639,16.5878999999986 -8.8132312150253,41.8999616611984,16.5139000000054 -8.81321763609147,41.8999821131529,16.3533000000025 -8.81318058777252,41.900212280099,13.735400000005 -8.81318997606555,41.900367848037,11.9927000000025 -8.8132090868249,41.9004642399395,11.0492999999988 -8.81324630223049,41.900659537986,9.21400000000722 -8.81328754119024,41.900853830503,7.60400000000664 -8.8133480588943,41.9011116582503,5.68309999999474 -8.81317706817322,41.9011829044663,6.17230000000563 -8.81299400678968,41.9012506303535,6.51200000000244 -8.81288588017221,41.9012900250395,7.01669999999285 -8.81267683591739,41.9013326049712,7.48619999999937 -8.81254842534076,41.9013552361626,7.69620000000577 -8.81232865160821,41.9013755205177,7.9948000000004 -8.8117405775923,41.9014360379016,8.28079999999318 -8.81157193327074,41.9014526341716,8.25909999999567 -8.81141267724221,41.9014598424689,8.43660000000091 -8.81129616844483,41.9014526341716,8.73720000000321 -8.81118452132974,41.9014313435808,9.08169999999518 -8.81101705110625,41.9013932902173,9.51549999999406 -8.81084119870288,41.9013314315563,9.94229999999516 -8.81028598146678,41.9010767893104,11.8613999999943 -8.81001994000552,41.9009681599811,12.5913 -8.80966924131186,41.9008704269244,13.4567999999999 -8.80958877472029,41.9008628829147,13.3883999999962 -8.80933346183843,41.9008799821339,12.3684999999969 -8.80920991294413,41.9009014400628,11.7437999999966 -8.80815010482645,41.9011901127939,7.23029999999562 -8.80757745398567,41.9013575829915,7.02650000000722 -8.8072923008667,41.9014276561885,6.63730000000214 -8.80708677710946,41.9014704038498,6.52569999999832 -8.80696440141494,41.9014823057938,6.5625 -8.80690254252618,41.9014823057938,6.63809999999648 -8.80685040700203,41.9014823057938,6.70179999999527 -8.80681235346829,41.9014692304374,6.89930000000459 -8.80668964270214,41.9013869196833,8.38569999999891 -8.80663834530616,41.901339813282,9.21439999999711 -8.80614817148656,41.9015180129499,9.65630000000237 -8.80569437494436,41.9016593316551,10.1875 -8.80540318784164,41.9017496887572,10.0610000000015 -8.8049636412748,41.9018755848672,9.44150000000081 -8.8042035695264,41.9020992140604,6.92770000000019 -8.80396083036358,41.902167945893,5.37069999999949 -8.80392529031601,41.902179847707,5.12080000000424 -8.80383962786883,41.9020906646146,5.67080000000715 -8.80355548086297,41.9020588129546,5.1478000000061 -8.80313336879919,41.9020395350672,5.55019999999786 -8.80256406957272,41.9018663647788,8.6137000000017 -8.80243532392451,41.9018589887071,9.20669999999518 -8.80223684026416,41.9018589887071,10.2051000000065 -8.80189050019626,41.901886313331,12.5151000000042 -8.80141004884298,41.902111954317,14.1456999999937 -8.80102917573892,41.9023318953423,14.148199999996 -8.80057152362754,41.9027558524706,13.5464000000065 -8.80022702780091,41.9030881111744,12.9459999999963 -8.79968388032897,41.9034228840556,12.5100999999995 -8.79906395474804,41.9037150775357,11.8956999999937 -8.79874493963445,41.9038292387556,11.946299999996 -8.79816692315648,41.9039620078306,13.8022999999957 -8.79784857818608,41.9041329988716,9.83100000000559 -8.79764975945412,41.904307678018,7.52129999999306 -8.79739260322931,41.9046805046235,6.73219999999856 -8.79714332522956,41.9053706706977,7.67429999999877 -8.79700217384727,41.9055332794663,8.25419999999576 -8.79673998795518,41.9056635345282,9.21739999999409 -8.79631301420908,41.9060584900095,9.30109999999695 -8.79608251189705,41.9062454059103,8.85330000000249 -8.79574153566971,41.9066108570432,8.49319999999716 -8.79557188613337,41.9066866292672,8.96400000000722 -8.79548806702917,41.9070198937444,6.7560999999987 -8.79462892188468,41.9070881228773,8.39410000000498 -8.7943095716995,41.9071228240706,8.34829999999783 -8.7939424437176,41.907364055174,7.63779999999679 -8.79318539030855,41.9074852570349,8.50310000000172 -8.79298305107899,41.9073840040143,9.95909999999276 -8.79261374468256,41.9075705851034,10.4106000000029 -8.79231853402568,41.9077254826134,10.1487000000052 -8.79219029143404,41.9077640396288,10.4002000000037 -8.79187781336076,41.9080243812712,10.4391000000032 -8.79149056940472,41.9083056778934,12.1034999999974 -8.79138713738292,41.9081641913869,13.8077000000048 -8.7910853887874,41.9079740901485,18.0179000000062 -8.79081448564378,41.9078470200659,20.554999999993 -8.79064450013752,41.9078007521059,21.6849999999977 -8.79048306479613,41.9077543163076,22.6463999999978 -8.79031190609009,41.9077211243649,23.4134000000049 -8.79016337953933,41.9076689884846,24.0331000000006 -8.78964772410837,41.9074228961788,27.6269000000029 -8.78944454675069,41.9073254979171,29.6974999999948 -8.78932703273845,41.9071711035243,32.4986000000063 -8.78925930695255,41.9071080718037,33.8371999999945 -8.78913559007332,41.9072011107759,33.7929000000004 -8.78892604276193,41.9073729395254,33.3044999999984 -8.78856897321629,41.907527501904,34.4100000000035 -8.78835858777673,41.907598748315,35.2314000000042 -8.78815792480353,41.9076522246881,36.1083999999973 -8.78807477674082,41.9077318531836,35.6864999999962 -8.7880583483509,41.9077628656635,35.3617999999988 -8.78796866145126,41.9079258099649,33.775999999998 -8.78784779492642,41.9080173401821,33.7810999999929 -8.78763807963006,41.9081749201311,33.6992999999929 -8.78754822564379,41.9083883233571,31.8078999999998 -8.78746993836508,41.9085522735472,30.4961999999941 -8.78739617769711,41.9086176524096,30.4271000000008 -8.78710767296383,41.9086493363378,33.6331999999966 -8.78695596008876,41.90866894984,35.5895000000019 -8.78681045008072,41.9086837017462,37.6469999999972 -8.7866704727965,41.908836755413,38.036500000002 -8.78662789265205,41.9089772362932,36.741200000004 -8.78634793718531,41.9090986062354,40.4582999999984 -8.78630753635375,41.9092043858278,39.5532999999996 -8.78633838180565,41.9093929785458,36.6967000000004 -8.78633653756438,41.9097884364149,33.618100000007 -8.78629496353301,41.9098573357917,33.909799999994 -8.78628457002519,41.9099775321416,33.7700999999943 -8.78629496353301,41.9100712421381,33.3837000000058 -8.7862890957376,41.9101875827318,33.1784000000043 -8.78614358572956,41.9101552290415,35.3289999999979 -8.78606680762054,41.9104288142877,34.9553000000014 -8.78600260233222,41.9105500163465,34.6481000000058 -8.78579707857499,41.9109206639174,33.1373000000021 -8.7857223117939,41.9110822671489,31.9573999999993 -8.78575315724581,41.9112497374718,29.7911000000022 -8.78575550364533,41.9112913120102,29.2572999999975 -8.78575315724581,41.9113069022879,29.0864000000001 -8.78574594826567,41.9113293654909,28.875 -8.7857296878607,41.9113508232507,28.7580000000016 -8.78552885690254,41.9116168653131,27.8237999999983 -8.7854988504771,41.9118295978894,26.5216999999975 -8.78543950597278,41.9118485405751,27.0746999999974 -8.78535870430962,41.9118485405751,28.0580000000045 -8.78526952136485,41.9118639635912,29.1497999999992 -8.78515083325454,41.9118996702893,30.5176000000065 -8.78498034559004,41.9119741019077,32.3727000000072 -8.78493089243533,41.9119994153634,32.8910000000033 -8.78465814505047,41.9119935479317,36.8718999999983 -8.78413813189205,41.9118810625382,47.713699999993 -8.78408817568079,41.9118249036642,49.3138999999937 -8.78407375861878,41.9117055457542,50.2140000000072 -8.78402849700319,41.9116148531137,51.4165000000066 -8.78398206128953,41.9115674119838,52.493100000007 -8.78395490342184,41.9115380752902,53.120299999995 -8.78393780399043,41.9114857720581,53.5874999999942 -8.78392942270884,41.9114086584888,53.8981000000058 -8.78391886121604,41.9113402621672,54.2399000000005 -8.7839020977545,41.9111516691855,55.0166999999929 -8.78389002799036,41.9108311454076,56.4869999999937 -8.78389304543138,41.9104566419799,59.0353999999934 -8.78387879545606,41.9103428155047,60.2933000000048 -8.78388801576413,41.9101558995671,61.9753000000055 -8.78391064702107,41.9100414026973,63.1732000000047 -8.78394333671425,41.9099589244987,63.971000000005 -8.78403905759767,41.909818108843,64.9017000000022 -8.78423351770385,41.9095834151702,67.1499999999942 -8.78451246795577,41.909208743975,72.7620000000024 -8.78456845904912,41.9090134460051,76.6557999999932 -8.78458321118272,41.9088979429492,78.5337 -8.78458823995167,41.908768024074,80.7356 -8.78457315274649,41.9086942632693,82.0736999999936 -8.78452453771993,41.9086183229514,83.5964999999997 -8.78451297101234,41.9086062531979,83.8813999999984 -8.78448380181675,41.9086012237989,84.2890000000043 -8.78444675349779,41.9086070915424,84.656799999997 -8.78438858309158,41.9086436364008,84.9005000000034 -8.78412790636915,41.9088538545024,84.5078000000067 -8.78397351112466,41.9089805889833,84.1392000000051 -8.78391148514923,41.9090246773426,83.8640000000014 -8.78384929118885,41.9090565288702,83.7614000000031 -8.78379849684944,41.9090796627336,83.7805999999982 -8.7837119962741,41.9091039705292,84.2255000000005 -8.78364711994426,41.9091158730559,84.795299999998 -8.78355911019926,41.9091200634079,85.8277999999991 -8.78345701846383,41.9091197284739,87.1291000000056 -8.78335241234396,41.9091155374533,88.9459999999963 -8.78322986866447,41.9091095026238,91.1119000000035 -8.78320321475166,41.9091145313142,91.4833000000071 -8.78318544517704,41.9091271043754,91.5908000000054 -8.78316683657594,41.9091453773268,91.6584000000003 -8.78316298100673,41.9091552675688,91.5905999999959 -8.78312123899043,41.9092218197522,91.4749000000011 -8.78308586782612,41.9093192177947,90.7078000000038 -8.78306809825147,41.9094907112594,88.3087999999989 -8.78304244955348,41.9095840857019,87.4483000000037 -8.78298830270143,41.9097041147665,87.0409000000072 -8.78292124705873,41.9097862570268,87.5587999999989 -8.78278395124564,41.9099339465007,89.4075000000012 -8.7826666052184,41.910054813233,91.1854000000021 -8.78258328917074,41.9101466793374,92.3708999999944 -8.78256769890898,41.910164951997,92.577099999995 -8.7825423852826,41.9102179254993,92.6407999999938 -8.78249846395341,41.9105221886951,90.8032999999996 -8.78247264816876,41.9105930995116,90.8907999999938 -8.78232998761681,41.9107927560361,92.3818000000028 -8.78212027232049,41.9110323113537,93.2635000000009 -8.7819952142565,41.9111657506714,92.8334999999934 -8.78198565887684,41.911186873563,92.5807999999961 -8.78198683297491,41.9112272742408,91.8408000000054 -8.78199437612834,41.911289300469,90.6092999999964 -8.78203528001651,41.9114589502482,87.1034999999974 -8.7820535526477,41.9117357206743,82.3813999999984 -8.782103340874,41.9118155158814,80.4899000000005 -8.78213049874168,41.9118596049567,79.3466000000044 -8.78215195590055,41.9119050350162,78.2301000000007 -8.78215413521341,41.9119427532119,77.4513000000006 -8.7821469271316,41.9119871777869,76.6267999999982 -8.78209445653584,41.9121229642158,74.1604999999981 -8.78208171573017,41.9121501220017,73.6300999999949 -8.78202505449361,41.9122176798269,72.4801000000007 -8.78192061546037,41.9122968052653,71.415599999993 -8.78181399801256,41.912351622719,70.946100000001 -8.78174358985722,41.912382132919,70.6823000000004 -8.78169011314834,41.9123952087146,70.6879000000044 -8.78162708105981,41.9123985612251,70.9854999999952 -8.78155617074622,41.9123960470094,71.4671999999991 -8.78142591592836,41.9123881674391,72.5436999999947 -8.78124989553999,41.9123878325223,73.8646000000008 -8.78115048617403,41.9123955436314,74.5767999999953 -8.78100715547888,41.9124176722031,75.4290999999939 -8.78089668246187,41.9124597493582,75.5274999999965 -8.78083566170123,41.9124843921201,75.5105999999942 -8.78071580039121,41.9125494353817,75.0742999999929 -8.78067037079067,41.9125968771188,74.3846999999951 -8.78061203329779,41.9126957834811,72.1720000000059 -8.78053877478807,41.9128292233323,69.193299999999 -8.78049854194143,41.9128974522726,67.7274000000034 -8.78045009489983,41.9129576345174,66.3828999999969 -8.78035169074865,41.9130531878446,64.2691999999952 -8.78028715038876,41.9131106879642,62.8846000000049 -8.7801444907351,41.9131929983108,60.9443000000028 -8.78000719492205,41.9132466424674,59.6291999999958 -8.77994248657717,41.9132659203133,59.1916000000056 -8.77950008965596,41.9134836824246,54.2559999999939 -8.77905702259153,41.913734133938,49.2608000000037 -8.77861613394164,41.9141036078885,41.5690999999933 -8.77845218421578,41.9141606050347,41.165399999998 -8.77833467020355,41.9141760274921,41.8463000000047 -8.77812495490723,41.914184409537,43.7137999999977 -8.7777952103159,41.9142045260393,46.3512999999948 -8.77771440865271,41.914218775308,46.7014000000054 -8.7775958885274,41.9143116468248,44.4303000000073 -8.77628294773904,41.9148125497243,35.3665999999939 -8.77586150581843,41.9148236135921,38.1601999999984 -8.77563821158828,41.9148224397567,40.0004000000044 -8.77547426186239,41.914867534809,41.4872000000032 -8.77539346019923,41.9149257051065,42.0696999999927 -8.77544693690808,41.915070712157,40.3859999999986 -8.77549102532392,41.9154130286689,38.4717999999993 -8.77547191456457,41.9156933201195,37.1986000000034 -8.77546839406694,41.9157860237123,36.4333999999944 -8.77539698069682,41.9159161107934,36.4671999999991 -8.77527309583261,41.9160460304948,37.3126000000047 -8.77518206864656,41.9161449368599,37.8745999999956 -8.77506405157778,41.9162409934423,38.821299999996 -8.77490311839464,41.9163509637767,39.8986000000004 -8.77478007255691,41.9164429972915,40.5277999999962 -8.77463808304646,41.9165340246514,41.4379000000044 -8.77452509474667,41.916610970263,42.0038000000059 -8.77442635552391,41.9166783609329,42.3708000000042 -8.77425771210068,41.9167898405437,42.7160000000003 -8.77422401719268,41.9168672891896,41.6913999999961 -8.77413533640616,41.9169848032242,40.3896999999997 -8.77410314976952,41.9170121287273,40.1631999999954 -8.7739557955202,41.9170548759806,40.4135999999999 -8.77379788067641,41.9170572229009,41.1589999999997 -8.7737147326137,41.9170500143593,41.6907999999967 -8.77361599339094,41.9170072671029,42.8448000000062 -8.77357928104189,41.9169967056183,43.167300000001 -8.77344617586963,41.9170121287273,43.2694000000047 -8.77322154135305,41.9170263773693,42.9808000000048 -8.77314677457196,41.9170929300359,41.5981000000029 -8.77309212466331,41.9171380248208,40.4869000000035 -8.77306312345268,41.917155961924,40.0035999999964 -8.77300109747726,41.917209941652,38.6928000000044 -8.77294946500969,41.9171630026735,39.2321999999986 -8.77281652782236,41.9170738191209,39.8016999999963 -8.77270957440463,41.9170335859135,39.5933999999979 -8.77265509248097,41.9170298980856,39.1769000000058 -8.7724921479699,41.9169967056183,38.2685000000056 -8.77230556698706,41.9169633460216,37.0800000000017 -8.772120159204,41.9169170779849,36.0093999999954 -8.77200499159131,41.9168755031002,35.571299999996 -8.77191798795943,41.9168129742782,35.838499999998 -8.77179712053627,41.9167398845363,35.9470000000001 -8.77177566247907,41.9167258029432,35.979800000001 -8.77166166896446,41.9166889224701,35.3613000000041 -8.77141691757541,41.9165653730976,34.6861000000063 -8.77122195441265,41.9164275747134,34.4704000000056 -8.77115070812915,41.9163799653677,34.2379999999976 -8.77102699124993,41.9162979900166,33.806700000001 -8.77097250932627,41.9162872613007,33.2038999999932 -8.77085600052885,41.9162830707507,31.8340000000026 -8.77075407677841,41.9163209568154,30.0240999999951 -8.77057403283588,41.916427909609,26.6475999999966 -8.77037001735005,41.9165340246514,23.5717000000004 -8.77021210250625,41.9166258901207,21.5010000000038 -8.77007547773467,41.9167019980518,19.829899999997 -8.77007547773466,41.9167970491146,18.5258999999933 -8.77007665093444,41.9168801976223,17.4336000000039 -8.77016097309522,41.9171784250739,14.1193000000058 -8.77017404897251,41.9172116174466,13.8209999999963 -8.76987699407435,41.9172060853857,12.8364000000001 -8.76962503460346,41.9171909985521,12.5338000000047 -8.76945303776927,41.9171789284142,12.4323000000004 -8.76931104825882,41.9171749050344,12.3098999999929 -8.76913100521462,41.9171680320663,12.3288999999932 -8.76883897908545,41.9171640086858,12.6103000000003 -8.76860311293286,41.9171370188081,13.2188000000024 -8.76837998668764,41.9171138845226,13.7415000000037 -8.76817110951947,41.9170909180091,14.1805000000022 -8.76808661937373,41.9170583966952,14.4980999999971 -8.76781454303037,41.9169016548528,16.7737999999954 -8.76757934702102,41.9167566479516,18.9697000000015 -8.7674474159468,41.9166783609329,17.9737000000023 -8.7672869858202,41.9166996511184,16.6502000000037 -8.76726200816374,41.9167179239075,16.3806999999942 -8.76723585640917,41.9167888345255,15.6469999999972 -8.76718120650055,41.9167982222453,15.1931999999942 -8.76702563805627,41.9168066039458,14.2011999999959 -8.76683788387369,41.9168694683359,12.8586000000068 -8.76677501977011,41.916905175576,12.3196000000025 -8.76651719250378,41.916895620091,12.4486999999936 -8.76624628936019,41.9168967932199,12.8653999999951 -8.76605970747906,41.9168920993674,13.2764000000025 -8.76596231033933,41.9168874055146,13.5065000000031 -8.7658991102658,41.9168820412065,13.6723000000056 -8.76558998560351,41.9168510284777,14.483699999997 -8.76522453477625,41.9168267209585,15.4127000000008 -8.76492982717591,41.9167947021848,16.1119000000035 -8.76486444868786,41.9167755911804,16.3466999999946 -8.76479420851748,41.9167459193128,16.8862999999983 -8.76461131511889,41.9166848990594,17.9921999999933 -8.76438684768897,41.9166104675868,18.8579999999929 -8.76419439891069,41.916549950549,19.3788999999961 -8.76394495382431,41.9164833979847,20.2453999999998 -8.7637571987434,41.9164631137503,21.0920999999944 -8.7636859524599,41.9164642875556,21.399900000004 -8.76360012202776,41.9164699867943,21.7785000000003 -8.76353491062633,41.9164798779067,22.0510999999969 -8.76339292111591,41.9165232959752,22.6337000000058 -8.76324590283651,41.9165583322821,23.3059000000067 -8.76317851212219,41.9165973919863,23.579700000002 -8.76305965692526,41.9167055181174,24.1592999999993 -8.76295639199012,41.9168421434401,24.7593999999954 -8.76290056888172,41.9168920993674,25.1450000000041 -8.7627746726896,41.9169764215471,26.2252000000008 -8.76264039431757,41.9170702990756,27.398000000001 -8.76246806241176,41.9171557941439,28.5944000000018 -8.76235993579426,41.9171926743472,29.4054000000033 -8.76223169230433,41.917217652847,30.5385999999999 -8.76216027893417,41.9172699560613,31.0715000000055 -8.76206774257843,41.9171915012238,32.2237000000023 -8.76197503913606,41.9171296424953,33.1429000000062 -8.76187512671353,41.9170917562422,34.0455999999976 -8.76177538227598,41.9170607436154,34.9088000000047 -8.76167681103814,41.9170441473919,35.5241999999998 -8.76157823980033,41.9170394535503,36.1478999999963 -8.76153297728645,41.9170406266765,36.4385000000038 -8.76146893908476,41.9170464943127,36.6814000000013 -8.76142367746917,41.9170607436154,36.7436000000016 -8.76138562303713,41.9170761660405,36.728099999993 -8.76127045632274,41.9170833745791,36.8813999999984 -8.76124899826555,41.9169133894817,37.4064999999973 -8.76123005549115,41.9168444903683,37.6535000000003 -8.76116350290502,41.9167673765885,37.9557999999961 -8.76110767979662,41.9167162474315,38.0800000000017 -8.76078397008737,41.9165529679463,40.0745000000024 -8.76046210551771,41.9163890175833,42.3619999999937 -8.76030804624312,41.9163633689672,43.0302999999985 -8.76022908792291,41.9163860001782,43.1628000000055 -8.76017494107083,41.9164287478509,43.1184000000067 -8.76013940192156,41.9165154169145,42.7844999999943 -8.76003244850384,41.9167304968079,41.7988000000041 -8.75990420591217,41.9169799422661,39.9726999999984 -8.75987436657338,41.9170169896831,39.6833000000042 -8.75983396574179,41.9170513559342,39.4348000000027 -8.75975685166289,41.9171060055348,39.0304000000033 -8.75968677947746,41.9171380248208,38.8445000000065 -8.75956792428053,41.917179598866,38.6652999999933 -8.75947639313957,41.9172022297876,38.4435999999987 -8.7593065765166,41.9172116174466,38.3589000000065 -8.75908311430147,41.9171980392977,38.9609000000055 -8.75892804891376,41.9171749050344,39.5132000000012 -8.75880986475833,41.9171547881315,39.9465000000055 -8.75871833451574,41.9171237755353,40.422900000005 -8.75865999612454,41.9170719755423,41.0059999999939 -8.75851800661412,41.9169428941591,42.5200999999943 -8.75842396198702,41.9168739944091,43.5276000000013 -8.75825498259388,41.9167940310604,45.2115999999951 -8.75807812407736,41.9166979746419,47.8858000000037 -8.75799715532754,41.9166450011698,49.5044999999955 -8.75794133132085,41.9165761017667,51.1815000000061 -8.75789858408974,41.9164869180623,53.096000000005 -8.75786304494047,41.9164418234858,54.204700000002 -8.75782616460646,41.9164109783253,55.1116000000038 -8.75774301564546,41.9163953879573,56.3003000000026 -8.75768719253706,41.9164049435171,56.7676999999967 -8.75758962741237,41.9164299216568,57.4238000000041 -8.75740790721356,41.9165558175618,57.0488999999943 -8.75719400127642,41.9166936163375,56.6474000000017 -8.75703122475029,41.9167589948829,56.9689000000071 -8.75694338209193,41.9167792790232,57.4900999999954 -8.75686140722899,41.9167839728839,58.2795000000042 -8.75680323682278,41.9167685503882,59.2972000000009 -8.75676048959167,41.9167554748202,60.1597000000038 -8.75670449849832,41.9167472602257,61.1468000000023 -8.75664984769136,41.9167447455127,61.9774000000034 -8.7565690469265,41.9167589948829,62.7566999999981 -8.75638732672769,41.9168171654618,64.226800000004 -8.75606177367546,41.9169859770199,65.0809000000008 -8.75588592127209,41.9171321571931,63.8625000000029 -8.75571962424838,41.9172531921124,63.4128999999957 -8.75556640310192,41.9173435492034,63.6659000000072 -8.75536439984231,41.9174137893453,65.4287999999942 -8.75510305207838,41.9174909030124,67.4948000000004 -8.75495804512691,41.9175205745336,68.6174000000028 -8.75486399960149,41.9175380088604,69.3972000000067 -8.75455303159622,41.9176141170406,70.8806000000041 -8.75429805378598,41.9177168785481,70.7462999999989 -8.7540740894126,41.9178793201748,68.9565000000002 -8.75393277004535,41.9180042105638,68.2957000000024 -8.75390896558863,41.9180159449899,68.3479999999981 -8.75383704916193,41.9180449464927,68.6298999999999 -8.75369807709253,41.9180719359864,69.6607999999978 -8.75360403246547,41.9180759593096,70.5265000000072 -8.75353898815067,41.9181140134246,70.6641999999993 -8.7534080631896,41.9182010177597,71.1670000000013 -8.7532199730371,41.9183240639767,72.516300000003 -8.75309407684495,41.9184678975587,73.2228999999934 -8.75302702210058,41.9186519636974,73.5458000000071 -8.75311302051767,41.9187619345564,72.4888999999966 -8.75321745865259,41.9189367808869,71.0666999999958 -8.75323656941194,41.9190306582054,70.6049999999959 -8.753250818489,41.9191329174491,69.9434999999939 -8.75326020678203,41.9191899147828,69.5788999999932 -8.75325316578682,41.9192266273727,69.4293999999936 -8.75323891670979,41.9192576402839,69.3464999999997 -8.75319734178013,41.9192980412005,69.2541000000056 -8.75300355271548,41.9194393599858,68.3742000000057 -8.75291453685733,41.9195023915616,67.8013999999966 -8.75294772870875,41.9195355840624,67.2783999999956 -8.75285033156901,41.9196105181182,66.1953000000067 -8.75271605319698,41.9196686887717,65.3215999999957 -8.75257942842543,41.9197233388046,64.5308999999979 -8.75243576265866,41.9197530106247,64.2443999999959 -8.75236921007253,41.9197637394263,64.1664000000019 -8.75226343075289,41.9197625663502,64.3190999999933 -8.75220291304882,41.9197483169823,64.6380999999965 -8.752089924749,41.919726859372,65.141300000003 -8.75200811787103,41.9197270271454,65.303899999999 -8.75182304515958,41.9197429522462,65.5053999999946 -8.7517239708652,41.9197494900587,65.5981999999931 -8.7516373023049,41.9196175592653,67.5194999999949 -8.75159807467308,41.9195677705716,68.1184999999969 -8.75149715703573,41.9194346663203,69.7765000000072 -8.75140914729073,41.9193312331392,70.8102999999974 -8.7512512315486,41.9191637632994,71.8190999999933 -8.75113824414711,41.9190496014277,73.6389000000054 -8.75103380511386,41.9189676261636,75.2440999999963 -8.75098267570286,41.9189356077956,75.9035000000003 -8.75088410446503,41.9188856514626,76.7832999999955 -8.75079844111955,41.9188512855308,77.3714999999938 -8.75073909751356,41.9188418981131,77.6478999999963 -8.75062108044478,41.9188769344839,77.6877999999997 -8.75055620411497,41.9189379546467,77.3989000000001 -8.75060481914153,41.9192445645574,75.3632000000071 -8.75062627719872,41.9193788429569,74.9000999999989 -8.75062024231663,41.9195094327206,74.7618999999977 -8.75058587636713,41.9196023038912,75.1919999999955 -8.75043734891804,41.9197803356109,77.6157999999996 -8.75038974000463,41.9198468880792,78.4630000000034 -8.75038269900942,41.9198742130253,78.5641999999934 -8.75038269900942,41.9199573615342,78.7258000000002 -8.75039812218455,41.9200227407464,78.7106000000058 -8.75041941225676,41.9200951603177,78.5470999999961 -8.75041706495895,41.9201369022141,78.6251000000047 -8.75039091320438,41.9202282645281,79.0167999999976 -8.75035420085536,41.9203067189744,79.4619999999995 -8.75029116876679,41.9204171929701,80.2936999999947 -8.75023065106277,41.9205288398366,81.0935000000027 -8.75018069485148,41.9205015145025,81.6826000000001 -8.75014381451751,41.9205479503854,82.1812000000064 -8.74993409922116,41.9206770318292,84.9502000000066 -8.74951601071151,41.9208029280451,89.5832999999984 -8.74909808839019,41.920978947853,93.1074999999983 -8.74892106278705,41.9211160760251,92.9168999999965 -8.74880304571827,41.9213179120472,91.7556999999942 -8.74873800230183,41.9215549521052,90.0792999999976 -8.74857204034971,41.9218060744315,88.5917999999947 -8.74817004426006,41.922069936722,88.8358000000007 -8.74789109490647,41.922283004747,86.575800000006 -8.74774005307291,41.9224358901212,82.1208000000042 -8.74765505987063,41.9226340384746,76.7106000000058 -8.74761700633685,41.9229770262484,70.9162000000069 -8.74756302657143,41.9232060194912,67.1255999999994 -8.74748809270372,41.9232829657471,65.5558000000019 -8.74738600096828,41.9233089491152,64.5500000000029 -8.7472150102472,41.9233019083754,63.7210999999952 -8.74704301341305,41.9233210194305,62.7445000000007 -8.74691996757532,41.9234309895952,61.5915999999997 -8.74694075459099,41.9235513542137,61.244200000001 -8.74693354561082,41.9236940137036,60.832899999994 -8.74690856795435,41.9237510109735,60.7387000000017 -8.74682189939405,41.9238365064487,60.7752000000037 -8.74694611843156,41.9240069944374,59.9165000000066 -8.74714007637949,41.9242059807302,59.1362999999983 -8.74725205856616,41.924385018203,58.1491999999998 -8.74733805698326,41.9246410011284,56.7675000000017 -8.74741902573308,41.9248430051226,55.2277000000031 -8.74751508258641,41.9251330192744,52.4134000000049 -8.74761700633685,41.9253429016877,49.9922999999981 -8.74776201328835,41.9255519466252,46.9504000000015 -8.74785203525958,41.9256448183583,45.5323000000062 -8.74795412609668,41.925781443256,43.0573000000004 -8.74800173590845,41.9258396136307,41.9125000000058 -8.74808957766849,41.925878840758,40.8175999999949 -8.74821312746109,41.9258872226025,40.0397999999986 -8.74845083785496,41.9259058309485,38.8371000000043 -8.74853516001574,41.9259192414925,38.4446999999927 -8.74853868051333,41.9259430462873,38.2142000000022 -8.74852677783582,41.9259656774428,38.0298999999941 -8.74850196726599,41.925991828812,37.8300000000017 -8.74844128247526,41.9260250212789,37.6070000000036 -8.74845787885014,41.9260654219208,37.1609999999928 -8.74815898060904,41.9261889716143,35.954899999997 -8.74772395975461,41.9263839343179,33.5108999999939 -8.74709699317846,41.9266280153112,32.4502000000066 -8.74675903439214,41.9267649756182,33.9342999999935 -8.74656004857358,41.9268948952878,34.4866000000038 -8.74641504162209,41.9270320234444,34.6128000000026 -8.7463300493181,41.9272920298534,32.9340999999986 -8.74627606955268,41.927596963532,30.6015999999945 -8.74626500500334,41.9279899072875,28.3263000000006 -8.74625997623438,41.9283600519107,28.7690000000002 -8.74628109832167,41.9287529956442,31.3727000000072 -8.7462992038662,41.9290094816673,32.4744999999966 -8.7462992038662,41.9291236430957,32.7168999999994 -8.7462931680858,41.9292413250307,32.9710999999952 -8.74627305211167,41.9294800418674,33.4274000000005 -8.74627539851119,41.9295276507958,33.5139000000054 -8.74630389756357,41.9295918566629,33.7209000000003 -8.74642627325809,41.9297651943372,34.368100000007 -8.74642861965761,41.9298139766124,34.5342999999993 -8.74641554467866,41.9298661124483,34.8059000000067 -8.74641437058059,41.9299102010832,35.0773999999947 -8.74625997623438,41.9299159004577,35.1947999999975 -8.74600684266542,41.9299090275253,37.0283999999956 -8.74588211967304,41.929926797302,38.7869999999966 -8.74581674118499,41.9299552954983,40.107600000003 -8.74565631195672,41.9301608200337,44.5883000000031 -8.74553393536386,41.9303224233329,48.3984000000055 -8.74544005872172,41.9304898932909,51.5666999999958 -8.74540334547438,41.9305695213632,52.7920000000013 -8.74539379009472,41.9305933264277,53.1171999999933 -8.74529521885691,41.9305933264277,54.8482999999978 -8.74517099892111,41.9305758916581,56.9489000000031 -8.7449636309226,41.9305078306508,60.0240999999951 -8.74489238463911,41.930495928772,61.1232000000018 -8.74484494371063,41.9305006222921,61.880799999999 -8.74480102238145,41.930518391904,62.4814999999944 -8.74466791720915,41.9306419409934,63.9040999999997 -8.74451218167825,41.9307621376294,64.7982000000047 -8.74438393818829,41.9308427718268,65.1502000000037 -8.74430196332535,41.9308177933141,65.8522999999986 -8.74424982780121,41.9308187991111,66.0832999999984 -8.74414907725051,41.9308355628377,66.2964000000065 -8.74403994541823,41.9308524943039,66.510500000004 -8.74390985858528,41.9308535001004,66.9352000000072 -8.7436758357757,41.9308273487192,68.104600000006 -8.74355815377851,41.9308119262761,68.8598000000056 -8.74349763607445,41.9308095791934,69.1815000000061 -8.74347148431991,41.9308285222602,69.0700999999972 -8.74345958254071,41.9308677496614,68.633600000001 -8.74345488884334,41.9308952423099,68.309500000003 -8.74346427623807,41.9310471226391,66.3804999999993 -8.74345488884334,41.9310947317346,65.8383000000031 -8.74339755656528,41.9311750300249,65.2033999999985 -8.74319823477678,41.9313595994922,63.8726000000024 -8.74310435723634,41.931465379614,63.2762999999977 -8.74309128135906,41.9314903572048,63.0592999999935 -8.74308776086146,41.9315104742662,62.8390999999974 -8.74309396372849,41.9315386369387,62.4625999999989 -8.74314123757031,41.9316316763865,60.9707000000053 -8.74319823477678,41.931729074313,59.4184999999998 -8.74324802300311,41.9318336802996,57.8286999999982 -8.74327786234189,41.9319156550731,56.6281000000017 -8.74331574878898,41.9320809462312,54.4487999999983 -8.7433395532457,41.9321687889374,53.3288999999932 -8.74337291308211,41.9322294736052,52.4425999999949 -8.74343460398591,41.9322507639485,51.7988000000041 -8.74343929768328,41.9323255300335,50.9492999999929 -8.74340962632945,41.9323552020076,50.7819000000018 -8.74335179099482,41.9324244365604,50.2361999999994 -8.74327819831181,41.932470369234,50.0418999999965 -8.74316319778575,41.9325241816327,49.9205999999976 -8.74311022503178,41.9325501652468,49.9064999999973 -8.74311022503178,41.9326819289596,47.9823000000033 -8.74311625991385,41.9327699385772,46.6554999999935 -8.74313872318583,41.932835317358,45.5442999999941 -8.74322187124854,41.9329161193465,43.851800000004 -8.74322438653135,41.9329682546517,42.9946000000054 -8.74323863560837,41.9329766362331,42.7885999999999 -8.74333603274811,41.9330158636498,41.6635999999999 -8.74347031112014,41.9331382397496,38.9471000000049 -8.74352261462924,41.9331917161088,37.8165000000008 -8.74355697968044,41.9331845073851,37.7704999999987 -8.74367818217522,41.9331714318395,37.4122000000061 -8.74380173196782,41.9331548357967,36.9159999999974 -8.74392528086209,41.9331667378477,35.8359000000055 -8.7440572119363,41.9331952366013,34.3913999999932 -8.74419149030834,41.9332024446555,33.2482000000018 -8.74425804199617,41.9332368108771,32.2823000000062 -8.74429844282776,41.9333045368387,31.1350999999995 -8.74429710254136,41.9333533190803,30.5154000000039 -8.74426273659183,41.9334103164082,29.9584000000032 -8.74422116166217,41.9334483700654,29.647100000002 -8.74418076083057,41.9334686542466,29.5632999999943 -8.7439526058164,41.9335635373228,29.4472999999998 -8.74389326221041,41.9335908624089,29.3769000000029 -8.7436235322666,41.9337323486831,28.3175999999949 -8.74349528967493,41.9337750967639,28.2884999999951 -8.74339889775002,41.9338416486683,27.8969999999972 -8.74330988189187,41.9339271446547,27.2752000000037 -8.7432595897107,41.9339953730908,26.7063000000053 -8.74317727977615,41.9341289802453,26.4725999999937 -8.74318599702765,41.9342236959404,26.0899999999965 -8.74324869404461,41.9345127038096,26.6552999999985 -8.74335162300987,41.934652681773,26.8747000000003 -8.74352479394213,41.9348055675769,27.1414999999979 -8.74363074034841,41.9349203995898,27.2305000000051 -8.74364851082136,41.9350154509126,27.3650000000052 -8.7435712296558,41.9353956534504,27.6349000000046 -8.74297125296238,41.9354182845938,30.7311999999947 -8.74294744760733,41.9357069576014,31.3301999999967 -8.74290704767407,41.9357032695162,31.6935999999987 -8.74289765938103,41.936263013373,28.7994999999937 -8.74276807560467,41.9362511105634,29.6690999999992 -8.74269330882358,41.9362915114114,29.7385999999969 -8.74265525528983,41.9363520291049,29.3847999999998 -8.74266346948479,41.9365350893986,27.7228999999934 -8.74266715706901,41.9366692004335,26.8809000000037 -8.74268727394148,41.9366859639589,26.6736999999994 -8.74272532747525,41.9367013863182,26.3798999999999 -8.74275030603005,41.9367929166976,25.7421999999933 -8.74261954815561,41.9368450521751,26.3497999999963 -8.74232132005768,41.9369365830165,27.7884000000049 -8.74217765429091,41.9369816771418,28.6043999999965 -8.74210506682272,41.9370162110597,28.920299999998 -8.74199694020522,41.9370685140825,29.5163999999932 -8.74180683872478,41.9372353141296,30.5524000000005 -8.7416165692594,41.9374346353771,30.6445999999996 -8.74136377166035,41.9376673174877,30.642200000002 -8.7412734146175,41.9377635414711,30.6370000000024 -8.74124977724744,41.9377990806525,30.5813999999955 -8.74116411390193,41.9377539857688,31.4094999999943 -8.74113561574788,41.9378039420294,31.3502000000008 -8.74112740155292,41.9378585918977,31.1223000000027 -8.7411498648249,41.93812949506,30.3175999999949 -8.74118557195913,41.9383350193178,29.6006999999954 -8.74119261295431,41.9384324170313,29.3007000000071 -8.74109722714251,41.9387049969955,28.8588000000018 -8.74106872809013,41.9389658418825,27.5151000000042 -8.74102229237647,41.9393032972379,25.3937000000005 -8.74105246768517,41.9393436974889,24.9020000000019 -8.74109404171651,41.9393686760038,24.4345999999932 -8.74150156963167,41.9394672468571,21.2311999999947 -8.74216088993108,41.9395872758464,18.4771999999939 -8.74217044531077,41.9394861900255,18.7394000000058 -8.74222509521939,41.9394980922314,18.5130000000063 -8.74228209242586,41.9395053009097,18.2954000000027 -8.74231662636031,41.9394992656129,18.1946000000025 -8.74234629771414,41.9394861900255,18.1306999999942 -8.74242005838215,41.9394328813198,18.0280999999959 -8.74258987590345,41.9392818395223,17.7719999999972 -8.74278467108121,41.9391096750382,17.6892999999982 -8.74284887726785,41.9390526781261,17.6399999999994 -8.74292615843342,41.9391012929263,17.1659000000072 -8.74301282699372,41.9390265267655,17.0899000000063 -8.74319588747896,41.9391227507027,16.0948999999964 -8.74340962632945,41.9392236687094,15.1110000000044 -8.74339101862664,41.9392940772102,14.9863000000041 -8.74381480694677,41.9394649000929,13.6324000000022 -8.7437933497879,41.9395017807654,13.7464000000036 -8.74385755507618,41.9395896226061,13.6986000000034 -8.74390147640537,41.9395669916065,13.565300000002 -8.74395495311425,41.9395480484621,13.3987000000052 -8.74400256202768,41.9395421815589,13.2632000000012 -8.74405603873653,41.9395527426525,13.1291000000056 -8.74410582696286,41.9395718535168,13.0289000000048 -8.7441284582198,41.9395931434137,13.0212000000029 -8.74414036089731,41.9396087334592,13.0323999999964 -8.74405955923412,41.9399151758758,13.6140000000014 -8.74398713975088,41.9401718295044,13.1732999999949 -8.74396685489346,41.9402383820841,12.9703000000009 -8.74383375061949,41.9402180980514,13.2443999999959 -8.74377675341303,41.9403523757422,12.9483000000037 -8.74328842383467,41.94050928516,13.5632000000041 -8.74291425575591,41.9404926890219,14.8013000000064 -8.74290604156095,41.9405459981781,14.7756999999983 -8.74263362924768,41.9407077689429,15.8319000000047 -8.74238653145911,41.940888147282,17.2456999999995 -8.74216239910077,41.9411513392959,19.2424000000028 -8.74208142945262,41.9412696912889,20.1564000000071 -8.74202074466193,41.9413813384143,20.9401999999973 -8.74190440384948,41.9416510679699,22.661300000007 -8.74185444763822,41.9417662351152,23.4660000000003 -8.74172486386185,41.9419052075724,24.4008999999933 -8.74180683872479,41.942007466903,24.5675000000047 -8.74159779357167,41.9420859212942,25.5482999999949 -8.74144490839512,41.9421496234039,26.1796000000031 -8.74138304950636,41.9423576624403,26.9616999999998 -8.74123418698568,41.9423377138414,27.2578999999969 -8.74103939180788,41.9431492496133,29.078800000003 -8.74091584201529,41.9431324857823,29.3665999999939 -8.74078625823892,41.9431313124677,29.7341000000015 -8.74070797096024,41.943597178158,28.7838000000047 -8.74075189228942,41.9436030460245,28.6931000000041 -8.74034117894825,41.9456111823737,25.2005000000063 -8.74027714164493,41.945838667206,25.6361000000034 -8.74006155855313,41.9465531400642,23.8579000000027 -8.7400318871993,41.9466327681256,23.6398000000045 -8.73995343193566,41.9467574913175,23.5831000000035 -8.73925371080463,41.9475618185217,25.0255999999936 -8.73860059337229,41.9480903812387,29.3234999999986 -8.7384755353083,41.9482995934861,29.1738000000041 -8.73834243013604,41.948470752359,29.482600000003 -8.73822005444152,41.9487084631966,29.8567000000039 -8.73810840732642,41.9489079523563,30.4477999999945 -8.73808929656707,41.948930583381,30.5611999999965 -8.73806549211035,41.9489317565889,30.729600000006 -8.73788025231225,41.9489364507567,32.0607000000018 -8.7378421987785,41.9489721574205,32.2832999999955 -8.73756056615715,41.9492727329238,33.9667999999947 -8.73731464156833,41.9495174839627,34.8580999999976 -8.73728848981379,41.94954832982,34.8790000000008 -8.73729100419827,41.9495709606175,34.809699999998 -8.73731229427048,41.9495934243801,34.6803000000073 -8.73725647116212,41.9496457271083,34.7121000000043 -8.73706989017928,41.9498953405107,34.1787999999942 -8.73695589576637,41.950036658995,33.6677000000054 -8.73683352007184,41.9501732844259,33.0356999999931 -8.73667543724306,41.9503276790014,32.3359999999957 -8.73634401729375,41.9506200398843,30.8690999999963 -8.73608501592934,41.9509075390489,30.2179999999935 -8.73597688931184,41.9510369559076,30.5255000000034 -8.73572576796911,41.9512493532891,33.4149999999936 -8.73559299876676,41.9513544623962,34.670299999998 -8.7354089321684,41.9516464878674,34.3086000000039 -8.73533885908468,41.951694096951,34.5121999999974 -8.73511556575279,41.9519185643954,33.648000000001 -8.73496334982119,41.9520836874627,33.5730999999942 -8.73475665196588,41.9523785629532,32.4268000000011 -8.73466528970822,41.952496077048,32.1008000000002 -8.73458800854265,41.9525470392383,32.5313000000024 -8.73442875251413,41.9526541597831,33.4069000000018 -8.7343372222715,41.9526813176873,34.397100000002 -8.73426832238752,41.9527039487087,35.0947000000015 -8.7341365592983,41.9527230589715,36.5601000000024 -8.73405341033726,41.9527265797219,37.5718999999954 -8.7338525802774,41.9527074687921,40.1119999999937 -8.73330255979527,41.9525363106057,47.7736000000004 -8.73305344978043,41.9526462811761,48.1293000000005 -8.73294180266534,41.9527168565711,48.222099999999 -8.73265145369079,41.9529106465567,48.5261000000028 -8.73255640295057,41.9529557407425,49.226999999999 -8.73241843699429,41.9530021763832,50.1993999999977 -8.73207276706962,41.9531030944684,52.3105000000069 -8.7318695897119,41.9531518775985,53.9098999999987 -8.7316474686815,41.9532408931361,55.5847999999969 -8.73153816886426,41.9532824677048,56.373900000006 -8.73128503529529,41.9533812061109,57.5051999999996 -8.73112879670781,41.953431329838,58.0362000000023 -8.73024919961925,41.953661664786,58.8990000000049 -8.7294799093594,41.9539592225905,58.4085999999952 -8.72929500373458,41.9540559497554,58.6287000000011 -8.72914295668623,41.9541843601377,58.7029000000039 -8.72910842275175,41.9541843601378,58.8573000000033 -8.72895335736405,41.9543801618568,58.5601000000024 -8.72870072685162,41.9548666469359,57.6863000000012 -8.72857533371608,41.9550713329539,57.1965999999957 -8.72832069187572,41.9553486062944,56.5240000000049 -8.72783722397972,41.9556577314114,56.7312999999995 -8.72754737716341,41.9558818635695,56.9789000000019 -8.72726323105588,41.9561323143207,57.8062000000064 -8.7269371749471,41.9564853602675,59.0957000000053 -8.72687363980199,41.956656686214,59.4334999999992 -8.72680474081634,41.9568456143166,59.9088000000047 -8.7267298069486,41.9569847543123,60.5020999999979 -8.72667750343949,41.9570083911936,60.835500000001 -8.7266181598335,41.9570454394138,61.2284000000072 -8.72666576874694,41.9570987480901,60.9407999999967 -8.72670130789621,41.9571748558346,60.6931999999942 -8.72670130789621,41.9572341993572,60.6638999999996 -8.72668705881918,41.9573446728616,60.6907000000065 -8.7266739829419,41.9574635285455,60.6619999999966 -8.72665973386484,41.9575193519818,60.6842999999935 -8.72658010540143,41.9575775221349,61.008799999996 -8.72646845918467,41.9576868219974,61.1597000000038 -8.7263556379715,41.9577498545256,61.395399999994 -8.72637458164423,41.9577795260262,61.1866000000009 -8.72622370689729,41.957849766403,61.5497000000032 -8.72608004113055,41.9579196713565,61.6442999999999 -8.72568307470819,41.9581027325236,61.0956000000006 -8.72570687916488,41.9581526882053,60.6674999999959 -8.72538853419451,41.9582262816134,60.3402999999962 -8.72540982426672,41.958278584606,59.8524999999936 -8.72507119533723,41.9583640798927,59.3027000000002 -8.72508678559899,41.9583960991787,59.0139000000054 -8.72510807567124,41.9584519224661,58.517200000002 -8.72497614459702,41.9584686862768,58.4541999999929 -8.72491445369321,41.9584757271427,58.4312999999966 -8.7248502484049,41.9584852824116,58.3904999999941 -8.72466014692447,41.9585007048423,58.3430999999982 -8.72454967390745,41.9585102607754,58.3029999999999 -8.72449384990076,41.9585280299306,58.1573000000062 -8.72441539553542,41.9585660839628,57.8429999999935 -8.72428832614353,41.9586302893189,57.2964999999967 -8.7241351049971,41.9587074025954,56.6725000000006 -8.72344594446059,41.9591270012077,53.0540999999939 -8.72308719865863,41.9593395660196,51.4712 -8.72286859902411,41.9594808849409,50.6340000000055 -8.72284948826476,41.9595023425384,50.5368000000017 -8.7228447945674,41.9595248061411,50.4290000000037 -8.72284948826476,41.9595640332582,50.2381000000023 -8.72286139094227,41.9595818027877,50.1530000000057 -8.72245855672447,41.9597006583072,49.5941000000021 -8.72199637800238,41.9598480124708,49.7005000000063 -8.7220724859682,41.9599680411666,48.8110000000015 -8.72196318615093,41.9600072686789,48.9621999999945 -8.72193116660095,41.9600785146078,48.6992000000027 -8.7218443300557,41.9602947675847,47.3978999999963 -8.72160192596449,41.9607545988104,44.5834000000032 -8.72153671456307,41.9608970909213,43.8003000000026 -8.72149631373147,41.9610586944849,43.0050999999949 -8.72147720297212,41.9611490509824,42.5544999999984 -8.72148089145467,41.9612072218301,42.3126999999949 -8.72150938960875,41.9612534898066,42.2641000000003 -8.72160075276472,41.9613141748511,42.239499999996 -8.72171122578174,41.9613557488291,42.2997999999934 -8.72185505953346,41.9614045316543,42.2691999999952 -8.7219643593507,41.961490026755,42.0317000000068 -8.7221437322517,41.9616254787081,41.5926000000036 -8.72233500693187,41.9617929492885,40.8641000000061 -8.72241815589287,41.9618429054172,40.3797999999952 -8.72243609255415,41.9618963817505,39.9707999999955 -8.72234690960938,41.961930747871,40.027900000001 -8.7222625874486,41.9619664546032,40.0366000000067 -8.72222939469884,41.961988918005,40.0102000000043 -8.72211473104104,41.9620340124472,40.1459000000032 -8.72149748693125,41.9622728970987,39.3286999999982 -8.72139757540701,41.9622801052058,38.829700000002 -8.72121049046933,41.9623032391428,37.867499999993 -8.72114343572492,41.9623312345818,37.4296999999933 -8.72109347951367,41.9623620802497,37.0911000000051 -8.72102692692754,41.9624417086017,36.6349999999948 -8.72093791106939,41.9625367589761,36.222299999994 -8.72085107452414,41.9626126992451,35.8914999999979 -8.72078938451863,41.962662655399,35.596000000005 -8.72059324725781,41.9627731288443,34.7859999999928 -8.72042577703435,41.9628455486403,34.0157999999938 -8.72020835059961,41.9629286972429,33.2486999999965 -8.72010257127996,41.962975132965,32.902900000001 -8.72000869373949,41.9630225739423,32.7158000000054 -8.71990660200409,41.9631045493669,32.4499000000069 -8.71959647122865,41.9633410867913,31.9965999999986 -8.71941240463032,41.9634954815314,31.3945999999996 -8.71936010201952,41.9636225510014,30.5807000000059 -8.71935641353697,41.9636974853659,30.1085000000021 -8.71938256529154,41.9637283303723,29.944399999993 -8.71925549589965,41.9637605172924,29.5672999999952 -8.71908685157809,41.9637984032142,28.9464000000007 -8.7188005261577,41.9638044382145,28.2330999999976 -8.7185990250563,41.9638072877231,27.8579000000027 -8.71843708665837,41.9638155022691,27.588699999993 -8.71827984195778,41.9638706555235,27.1600000000035 -8.71822418683434,41.9639077030939,26.9164000000019 -8.7180102799989,41.9640850640981,26.2350000000006 -8.717854376483,41.9642959531759,25.9149000000034 -8.71777039029214,41.9644282197155,26.0406999999977 -8.71764918779739,41.9646003839588,26.2388000000064 -8.71756000485261,41.9647346617264,26.5962 -8.71749227906671,41.9649116877913,26.5908000000054 -8.71745187823512,41.9650364106177,26.2078000000038 -8.7173937078289,41.9655472035041,23.3954999999987 -8.7173434156477,41.9657495428176,23.1970000000001 -8.71730133855983,41.9658414082113,23.5231000000058 -8.71721064644536,41.9658958904401,24.1560000000027 -8.71710067648492,41.9659250598675,24.8908999999985 -8.71701015145708,41.9659922822185,25.5344000000041 -8.71696405081504,41.9660787837515,25.9731000000029 -8.71680680701274,41.9664073543853,27.122000000003 -8.71654897884811,41.9669278706229,24.107799999998 -8.71641235407656,41.9670170539375,23.3503999999957 -8.7163033893309,41.9670881323947,22.8497000000061 -8.71622711427845,41.9671590437919,22.4002000000037 -8.71610742095336,41.9673201438911,21.3839000000007 -8.71605478237264,41.9674234084155,20.8439999999973 -8.71596794582739,41.9675600339785,20.2182999999932 -8.71594430845733,41.9675850114566,20.1199999999953 -8.71580399610152,41.9676775481322,19.8695000000007 -8.71569268405805,41.9677482912263,19.7434999999969 -8.71552068722386,41.9678339541446,20.0077000000019 -8.71533628555391,41.9679437573879,20.4968999999983 -8.71466372139226,41.9684900897798,22.300900000002 -8.71408905832523,41.9687239449353,23.8062000000064 -8.71377440183738,41.9688079314347,24.5994999999966 -8.71359268163857,41.9688630843747,25.1429999999964 -8.7135013193809,41.9688889008981,25.4366000000009 -8.71342370314372,41.9689110285751,25.7122999999992 -8.71333334610087,41.9689945125644,25.5396000000037 -8.71326075863264,41.9690748112164,25.4251999999979 -8.7131241338611,41.9693938267925,24.2691999999952 -8.71296806236028,41.9695966688377,24.5378999999957 -8.71288843479516,41.9697175354118,24.4992000000057 -8.71269179537609,41.9698943940152,25.6392000000051 -8.71221318826408,41.9703540571138,27.5356000000029 -8.71192250421791,41.9706217752944,28.2918999999965 -8.71174782501429,41.9707952806101,28.1928999999946 -8.7115495093389,41.9709793473515,28.4263999999966 -8.71144255592117,41.9710603167264,28.7660000000033 -8.71137600423338,41.9711112787647,28.9763999999996 -8.71114902241894,41.9712158849261,30.0815000000002 -8.71086504339808,41.9713263582337,31.3546999999962 -8.71060855641815,41.9714085006297,32.0721999999951 -8.71008250837766,41.971611845849,32.0988999999972 -8.70984446291221,41.9717266776895,31.9358000000066 -8.70944296898081,41.971948798465,30.8882000000012 -8.70927063707503,41.9720368079787,30.1181999999972 -8.70902353928643,41.9721699126533,28.7703000000038 -8.70886310915986,41.9722696576601,27.9912999999942 -8.70878348159474,41.9723373835678,27.559699999998 -8.70867535497728,41.9724502038197,26.9330000000045 -8.70856974274426,41.9726153271177,26.1269000000029 -8.70854828468706,41.972676012026,25.561400000006 -8.70847351880427,41.9727271417414,24.8606 -8.70827067651817,41.9730268785784,21.7516000000032 -8.70815500584895,41.973175070808,20.2133000000031 -8.70799574982042,41.9733413676568,19.2010000000009 -8.70779827227319,41.9735598002454,18.2125999999989 -8.70768763127125,41.9736007037206,18.0286999999953 -8.70725998648361,41.9738013665218,17.1500999999989 -8.70672538917655,41.9741292662065,15.9070000000065 -8.70655339234236,41.9742739383149,15.372199999998 -8.70652137369068,41.9743192003735,15.2131999999983 -8.70629590014764,41.9745062842765,14.3093999999983 -8.70620923158734,41.9745979827703,13.8325000000041 -8.70612524449818,41.9747765167978,13.0233000000007 -8.70609959580018,41.9748192647403,12.8190999999933 -8.70609842260041,41.97484541611,12.7228999999934 -8.7059783933054,41.9749238708227,12.2027999999991 -8.70538311120765,41.9751163197067,10.5485000000044 -8.70471222330232,41.9753902401041,9.37760000000708 -8.70388727612241,41.9757473092275,8.78660000000673 -8.70270643349493,41.9762378177902,9.08779999999388 -8.70250124480929,41.9762592757548,9.47969999999623 -8.70198642840481,41.9763484593617,10.1701999999932 -8.70180822870359,41.9763769575124,10.2808999999979 -8.70165601367024,41.9764138381996,10.3481000000029 -8.70121294660584,41.9766252294054,10.4014000000025 -8.70045002540131,41.9769521241746,10.7167999999947 -8.70000779646507,41.9773122104169,10.4575999999943 -8.69976153590633,41.977596692188,10.6687999999995 -8.69964469203733,41.9778501609035,10.9492999999929 -8.69954595371286,41.9779832654499,11.0748000000021 -8.69944386197746,41.9781257577608,11.1113000000041 -8.69941301652556,41.9781840960869,11.096000000005 -8.69928812644653,41.9782375727276,11.0212999999931 -8.69926214177862,41.9782291904184,11.008600000001 -8.69921688016303,41.9782328787147,10.9642000000022 -8.69907623183731,41.9783353054831,10.6659999999974 -8.69874162556366,41.9785832425181,9.60050000000047 -8.69827123354491,41.9787864192508,8.67570000000705 -8.69786253243,41.9789480228473,8.52770000000601 -8.69751669452033,41.9791012438393,8.74619999999413 -8.69726724943392,41.9792055150004,8.82159999999567 -8.69677875187064,41.9794289760009,8.63569999999891 -8.69703205342456,41.9796787572246,8.33950000000186 -8.69709257023029,41.9797381011567,8.25789999999688 -8.69709491752814,41.9797593909942,8.23170000000391 -8.69709139703055,41.9797785018244,8.20940000000701 -8.69666123785844,41.9799935814083,8.26080000000366 -8.69648538545503,41.9801028815484,8.39359999999579 -8.69650566941416,41.9801348999263,8.41060000000289 -8.69620861451601,41.9803452857848,8.76499999999942 -8.69601968713365,41.9805008540106,8.86479999999574 -8.69550637900054,41.9809083819014,8.99439999999595 -8.69522256796459,41.9811269821925,8.81519999999728 -8.69469853125204,41.9815487596688,7.75999999999476 -8.69437649869739,41.9817993786412,7.23279999999795 -8.69422445075074,41.9819170601777,7.1024999999936 -8.69411632413324,41.9819824393086,7.03280000000086 -8.69404273145023,41.9820132848103,7.02969999999914 -8.69398808064327,41.9820216666214,7.06320000000414 -8.69388699502099,41.9820240131544,7.10700000000361 -8.69322298102423,41.9820323956318,7.13610000000335 -8.69315156675577,41.9820370893646,7.10309999999299 -8.69308752945241,41.9820407774404,7.08629999999539 -8.69304712862082,41.9820501649044,7.05009999999311 -8.69300069290716,41.9820632404415,7.011599999998 -8.69293782880358,41.9820989479094,6.9426999999996 -8.69271671388629,41.982301957168,6.55379999999423 -8.69255997224227,41.9824565196376,6.2725000000064 -8.69249459375418,41.9825111699545,6.18339999999444 -8.69234371900727,41.9826144345587,6.05969999999797 -8.69203845081249,41.9827653089039,5.976800000004 -8.69172546968267,41.9829022694938,5.91449999999895 -8.69071126004878,41.9833439956884,6.35090000000491 -8.68994012464933,41.9836683752783,6.80860000000393 -8.68969302596243,41.9837324131065,7.14519999999902 -8.68904795474009,41.9838928422705,8.33999999999651 -8.68809744733794,41.9841672657907,11.5975999999937 -8.68772445245892,41.9842814279504,12.3606 -8.68732044504138,41.9843989419704,12.4668999999994 -8.68666816483883,41.9845581982385,11.4395999999979 -8.68571095151311,41.9847731101012,11.1159000000043 -8.6849485333652,41.9848842543394,12.1931000000041 -8.68447009513645,41.9849764547176,12.2498999999953 -8.68440119525247,41.9850108210741,12.2155000000057 -8.68436196851895,41.985059603814,12.2583000000013 -8.68418494201747,41.9851072126391,12.0019999999931 -8.68410665563709,41.9851450992197,11.9021999999968 -8.68401981909183,41.985190360897,11.7767000000022 -8.68394270501289,41.9852295882366,11.6837999999989 -8.68384044619087,41.9852543991977,11.5285000000003 -8.68370147412147,41.985297146784,11.340400000001 -8.68344599415298,41.9853543113447,11.1092999999964 -8.68325471857448,41.98537928919,10.8868999999977 -8.68298498952894,41.9853947117876,10.5161999999982 -8.68272012126742,41.9854029262207,10.1055000000051 -8.68241267286142,41.9854154989353,9.6024000000034 -8.68204168931033,41.9855016649323,9.01270000000659 -8.68184588891775,41.9855967156211,8.46189999999478 -8.68171496305835,41.9856786907083,7.97590000000491 -8.68154816297807,41.9857643542179,7.5963000000047 -8.68122428618218,41.9858461614898,7.2664999999979 -8.68108380584142,41.985865439428,7.4600000000064 -8.68103804027096,41.9858666132914,7.53220000000147 -8.68102714460486,41.9858667808908,7.54970000000321 -8.68073595660386,41.9858721454061,8.43829999999434 -8.67968201628157,41.9859185810967,10.9833999999973 -8.67922235284226,41.9859234421422,12.8414000000048 -8.67905119413626,41.9859175748335,13.5953000000009 -8.67890149348742,41.9859127137874,14.1812000000064 -8.67869948932949,41.9859175748335,14.9109999999928 -8.67862237614885,41.9859209281537,15.2010000000009 -8.67840008803178,41.9857866496412,16.3748000000051 -8.67833873219957,41.9857623423543,16.6491999999998 -8.6781459483497,41.9857403814542,17.2991000000038 -8.67782156939557,41.9857938584263,17.2854999999981 -8.67742594325961,41.9858342592581,17.0734999999986 -8.67701238046237,41.9858580637193,17.2017999999953 -8.67647023910355,41.9858719778067,17.5975999999937 -8.6758327110346,41.9859708840577,17.6226000000024 -8.67512444063706,41.9861532743562,17.1938999999984 -8.67492729816145,41.9862156357037,17.1282999999967 -8.67460442747864,41.9863574572288,16.9952000000048 -8.67401836479067,41.9865970118678,16.8717000000033 -8.67370907214339,41.9867671651244,16.4088999999949 -8.67333557420784,41.9869683306271,15.6183000000019 -8.67283618097846,41.9872469448068,14.7194000000018 -8.67257835371213,41.9873658001259,14.2706000000035 -8.67231331746565,41.9874586719651,13.835699999996 -8.67188282322192,41.9875445026776,13.4287999999942 -8.67172289615189,41.9875545610454,13.4097000000038 -8.6711467248135,41.9875166745632,13.9544000000024 -8.6711333129663,41.9875042691908,14.0160999999935 -8.67067633189642,41.9874870028903,14.4615999999951 -8.67030316993077,41.9874536427738,14.5865999999951 -8.66999069185752,41.9874155886363,14.5627999999997 -8.66972213601175,41.9874608513702,13.9470000000001 -8.66908829642539,41.9875597578236,11.8990000000049 -8.66890121238597,41.9876294953008,11.3427999999985 -8.66853525850217,41.9876771042073,10.6689000000042 -8.66833576962704,41.9876995678907,10.5525999999954 -8.6682762580361,41.9877625994365,10.5237999999954 -8.66822998940906,41.9879039187397,10.4570999999996 -8.66821339393252,41.9880239473237,10.4441999999981 -8.66818120729588,41.9881391148053,10.4477999999945 -8.66803385304657,41.9884088441201,10.8650000000052 -8.66789722827498,41.9886262708878,11.3708999999944 -8.66779295722672,41.9887402648048,11.7657000000036 -8.66743622365097,41.9889628884396,12.8706999999995 -8.66721175622104,41.9891050450357,13.4618000000046 -8.66719365157481,41.9891310289572,13.5424000000057 -8.66697370985726,41.9894455179633,14.6952000000019 -8.66682685956282,41.989659927252,15.6741000000038 -8.66679349882811,41.9897977256445,16.2277999999933 -8.66678997833052,41.9900116316492,16.8640000000014 -8.66679953371021,41.9900828780735,17.0409000000072 -8.66664027768168,41.9903715505659,18.0225999999966 -8.6664679457759,41.9906354128952,18.6956000000064 -8.66640625487207,41.9905985331004,18.6747999999934 -8.66625655422323,41.9908077453312,18.9569999999949 -8.66619938993013,41.9908610537989,19.0276000000013 -8.6661187562519,41.9909383350402,19.1316999999981 -8.66600459475234,41.9909193918074,19.2007000000012 -8.66590484941646,41.9910809953231,19.3715999999986 -8.66579554959922,41.9911938157529,19.5614999999962 -8.66568624978194,41.9913007685024,19.7281999999977 -8.66547653448562,41.9915078018293,19.8867000000027 -8.66521501873674,41.9918829757436,19.498900000006 -8.66514125806876,41.9920839735211,19.2164000000048 -8.66500060974305,41.9924271285207,18.9293999999936 -8.66498753386576,41.9924365164562,18.9324999999953 -8.66496624469185,41.9924376901985,18.9459000000061 -8.66490807428561,41.9923925952471,19.0056999999942 -8.66484621539684,41.992443725156,19.0227000000014 -8.66497328478874,41.9925481634139,18.8803000000044 -8.66474697401584,41.9930046418825,18.8237999999983 -8.66429418358675,41.9939238014086,17.3515999999945 -8.66412436606545,41.9943665333724,17.0298999999941 -8.66402780615557,41.9945252866784,17.0179999999964 -8.66386922116858,41.9946833692838,16.8803999999946 -8.66373276348365,41.9948018895869,16.752999999997 -8.66359630579873,41.9948401108905,16.5777999999991 -8.66360938167601,41.9948805119899,16.5583999999944 -8.66336228298911,41.9949433761937,16.2381000000023 -8.66312943427757,41.995032559669,15.9790999999968 -8.66296196315579,41.9951240897372,15.8377000000037 -8.66290479886269,41.9951716990471,15.7626000000018 -8.66283824627656,41.9952345636309,15.6849999999977 -8.66283589987701,41.9952607146279,15.6539000000048 -8.66286439803109,41.9953022891496,15.6045000000013 -8.6628085749227,41.9953485570633,15.5494999999937 -8.66274923041841,41.9953319611854,15.5693000000028 -8.66271352418248,41.9953307874965,15.5706999999966 -8.6626850251301,41.9953354815842,15.5651000000071 -8.66244865592097,41.9955482139878,15.4149999999936 -8.66225503394294,41.9957205464751,15.3864999999932 -8.66189846745385,41.9959510483254,15.5265000000072 -8.66170367227608,41.996097061507,15.3787000000011 -8.66155397162725,41.996244247358,15.0714000000007 -8.66114778399848,41.9966630072143,14.7859999999928 -8.66088023426583,41.9970581302858,15.1800999999978 -8.66064771972757,41.9974644846936,14.2449999999953 -8.66008428829655,41.9979600232234,12.770199999999 -8.65954969098948,41.9984756778561,12.3245000000024 -8.65922061743968,41.9988547074231,11.0817999999999 -8.65868585214766,41.9994749679539,7.60830000000715 -8.65842567758351,41.9998479626547,6.06200000000536 -8.65814287176239,42.0002685666742,5.56930000000284 -8.65802167016594,42.0004491128898,5.50629999999364 -8.65798009523627,42.0005441639569,5.49709999999322 -8.65791119625062,42.000685482921,5.51309999999648 -8.65783877676735,42.0008827926185,5.57150000000547 -8.6577888205561,42.0010894903661,5.62679999999818 -8.65770332519554,42.001544627857,5.5905999999959 -8.6576094476551,42.0017726152768,5.3975999999966 -8.65752680264897,42.0019362299578,5.10830000000715 -8.65746930238593,42.0019925564777,4.98089999999502 -8.65740744439546,42.0020316165873,4.87239999999292 -8.65735514088636,42.0020376513027,4.83030000000144 -8.65730049097774,42.0020696699975,4.71959999999672 -8.65728272140312,42.0020934750629,4.66359999999986 -8.65726964552584,42.0021469516479,4.56489999999758 -8.65726009014614,42.0022027746446,4.4661999999953 -8.65724835545359,42.0022847497084,4.32390000000305 -8.65646028860768,42.0043592706461,5.46390000000247 -8.65629550075363,42.0048462591949,4.89680000000226 -8.65627689305085,42.0051064335178,4.74199999999837 -8.65625392672229,42.0053773365254,4.61149999999907 -8.65624085084501,42.0054700405697,4.59209999999439 -8.65620162321319,42.0056328173515,4.59440000000177 -8.6561612223816,42.0057753098578,4.66800000000512 -8.65585729447322,42.0066312694697,5.44310000000405 -8.65601152173276,42.0067472750476,5.17160000000149 -8.65601504223035,42.0067781205647,5.15380000000005 -8.65600783414851,42.0068701537265,5.10300000000279 -8.65590490428495,42.0073832937687,5.14509999999427 -8.65587087340704,42.0078909021413,5.93640000000596 -8.65582175532395,42.0082278543453,6.29300000000512 -8.65573693100493,42.0090170946952,6.19700000000012 -8.65562478083326,42.009446415456,5.67089999999735 -8.65537583790512,42.0098970264275,5.1472999999969 -8.65529034254456,42.0100205758403,5.06440000000293 -8.6547646295757,42.0106594446235,5.32159999999567 -8.65464275693771,42.0108284235594,5.6247000000003 -8.65453697761806,42.0110815570567,6.03170000000682 -8.65440756092835,42.0114557251896,6.7103000000061 -8.65419667243226,42.0120853740678,8.34570000000531 -8.65389425279521,42.0125678362554,9.82129999999597 -8.65369459593512,42.0130370554141,10.9051000000036 -8.65358529611787,42.0132913621562,11.3978999999963 -8.6535437220865,42.0133721635927,11.5620999999956 -8.65346543480782,42.0134256400416,11.6947999999975 -8.65343810985351,42.0135040946002,11.861699999994 -8.65349510705998,42.0136108803723,12.043399999995 -8.65352125881452,42.0136501075495,12.1010999999999 -8.65353316059373,42.0137012370647,12.1895999999979 -8.65353181940899,42.0137746628371,12.3303000000014 -8.65355797116356,42.0144913152025,13.6490999999951 -8.65357104704081,42.0150592730969,14.9517999999953 -8.65355864130677,42.0151383983993,15.1805000000022 -8.65352595251189,42.0155630252951,16.331600000005 -8.65349628025973,42.0157720700266,16.7752000000037 -8.65348789807981,42.0158589063877,16.9425000000047 -8.65349393296188,42.0162438036989,17.6647999999986 -8.65346292042335,42.0164826878977,18.0002999999997 -8.6533928473396,42.0166323887566,18.1241000000009 -8.6533041674514,42.0168985982372,18.3589000000065 -8.65325974306564,42.0172340417928,18.5571000000054 -8.65322068341877,42.01738893923,18.6459000000032 -8.65303343139444,42.0176276556159,18.9231 -8.6529219522643,42.0177647841209,19.1251000000047 -8.6526218799251,42.0182707152628,20.2185999999929 -8.65244954801932,42.0185546943191,20.8473999999987 -8.65241384178339,42.0186520922163,20.9627999999939 -8.65230336786808,42.018825597451,21.2470999999932 -8.65197077382066,42.0192817405945,22.2915000000066 -8.65187086139812,42.0194113248667,22.7177999999985 -8.65160951363419,42.0198354493999,24.0157999999938 -8.65133274359346,42.0204508485242,25.7204000000056 -8.65118890984177,42.0207324807472,26.9633000000031 -8.65108447170682,42.0209225821931,28.1114999999991 -8.65095840752975,42.0211886235594,30.0409000000072 -8.65077434093139,42.0215415017573,32.1147999999957 -8.65072790521773,42.0216330323983,32.4952000000048 -8.65058189215314,42.0216223033897,32.2099000000017 -8.65056160819401,42.0216104011752,32.1183000000019 -8.65053663053755,42.0216068808954,32.0593999999983 -8.65001041451211,42.0216223033897,31.3193000000028 -8.64982617992879,42.0216414143308,31.3105000000069 -8.64937003698707,42.0217161809861,32.3981000000058 -8.64889109480348,42.0218410708348,33.8962000000029 -8.64812834158391,42.0221094594195,36.0838999999978 -8.64812716838417,42.0221701445313,36.6411999999982 -8.64812130148706,42.0222009899102,36.9109000000026 -8.64809867023008,42.0222318352742,37.1399999999994 -8.64807738015787,42.0222638544826,37.3885000000009 -8.64804871401883,42.0222829652309,37.5022000000026 -8.64797042674012,42.0223198453485,37.6830000000045 -8.64794544908366,42.0223304067361,37.7330999999976 -8.647927679509,42.0223555522544,37.9529000000039 -8.64793740197536,42.0231830137742,46.2734000000055 -8.6479311991083,42.0232250905722,46.6463999999978 -8.64790504825206,42.0232881229676,47.248900000006 -8.64782424658891,42.023437823822,48.7198999999964 -8.64720767352058,42.0243715678302,56.5476000000053 -8.6470353416148,42.0246496792593,57.6971999999951 -8.64703064791744,42.0246882356448,57.8785000000062 -8.64703299521528,42.0247202549508,58.0424000000057 -8.64704959069183,42.0247762456556,58.3583000000071 -8.64709233882127,42.0248178202435,58.6356999999989 -8.64714816192964,42.0248510126286,58.8991999999998 -8.64710189420093,42.0249189061502,59.2559000000037 -8.64705545848727,42.0249056625783,59.0997999999963 -8.64699611398299,42.0248890664022,58.8521999999939 -8.64695336675187,42.0248806842306,58.6971000000049 -8.64688564096597,42.0248771641318,58.5108999999939 -8.6468286437595,42.0248818580416,58.3993999999948 -8.64679411072335,42.0248937603111,58.3837000000058 -8.64651616658454,42.0250198237327,58.4100000000035 -8.64632254460652,42.0251076664558,58.4618999999948 -8.64604795387869,42.025238424004,58.7700999999943 -8.64590780771121,42.0253073234197,58.9882999999973 -8.64584729090545,42.0253535915352,59.1972999999998 -8.64580689007389,42.025403547182,59.4854999999952 -8.64578308561717,42.02548183415,60.0666999999958 -8.64578425881691,42.0255341372942,60.4851999999955 -8.64566909120423,42.0255438606734,60.380799999999 -8.6456583626248,42.0256020307536,60.8329999999987 -8.64564528674751,42.0256588601567,61.270399999994 -8.64562148229083,42.0257171982935,61.7820999999967 -8.64556683238217,42.0258003468787,62.5035999999964 -8.64552291105299,42.0258538235539,62.959600000002 -8.64545032358479,42.0258907036022,63.2093000000023 -8.64540757635368,42.025906126392,63.2961000000068 -8.6454468030872,42.0259844134084,64.1848000000027 -8.64548720391876,42.0260937133143,65.442200000005</coordinates>
</LineString>
</Placemark>
</Folder>
</Document></kml>
