<?xml version="1.0" encoding="UTF-8"?>

<kml xmlns:xsd="http://www.w3.org/2001/XMLSchema" xmlns:gx="http://www.google.com/kml/ext/2.2" xmlns:atom="http://www.w3.org/2005/Atom" xmlns="http://www.opengis.net/kml/2.2">
<Document>
<name>ES07a_03d_lires-fisterra</name>
<visibility>1</visibility>
<Schema name="ES07a_03d_lires-fisterra" id="kml_schema_ft_ES07a_03d_lires-fisterra">
<SimpleField type="xsd:string" name="id">
<displayName>id</displayName>
</SimpleField>
<SimpleField type="xsd:string" name="nombre">
<displayName>nombre</displayName>
</SimpleField>
<SimpleField type="xsd:double" name="longitud">
<displayName>longitud</displayName>
</SimpleField>
<SimpleField type="xsd:string" name="_formato">
<displayName>_formato</displayName>
</SimpleField>
</Schema>
<Folder id="kml_ft_ES07a_03d_lires-fisterra">
<name>ES07a_03d_lires-fisterra</name>
<Placemark id="kml_1">
<name>&lt;img height='20' src='https://nco.ign.es/iconos/icono_todos_caminos_azul.png' /&gt;&lt;img height='20' src='https://nco.ign.es/iconos/Camino Santiago_20.png' /&gt;&lt;img height='20' src='https://nco.ign.es/iconos/icono_todos_caminos_azul.png' /&gt;  Camino de Santiago </name>
<visibility>1</visibility>
<description><![CDATA[<!DOCTYPE html>
<html>
<head>
<style>
#nco {
  border-collapse: collapse;
  overflow:hidden;
}
#nco th, #nco td {
  padding: 4px;
  text-align: left;
}
#nco th {
  color: #364B5F;
  padding-right: 5px;
}
#nco td {
  color: rgb(51, 51, 51);
  font-size: 12px;
  padding-right: 5px;
}
</style>
</head>
<body>
<table id="nco">
<tr>
<td>Caminos de Galicia</td>
</tr>
<tr>
<th><b>Camino: </b></th>
<td>ES07a Camino de Fisterra y Muxía</td>
</tr>
<tr>
<th><b>Etapa: </b></th>
<td>03d Lires-Fisterra</td>
</tr>
<tr>
<th><b>Longitud: </b></th>
<td>12.44 km</td>
</tr>
</table>
</body>
</html>]]></description>
<Style>
<IconStyle>
<scale>0.8</scale>
</IconStyle>
<LabelStyle>
<color>ffffffff</color>
<scale>0.75</scale>
</LabelStyle>
<LineStyle>
<color>ffff0000</color>
<width>3.0</width>
<gx:labelVisibility>1</gx:labelVisibility>
</LineStyle>
<PolyStyle>
<color>66ff0000</color>
</PolyStyle>
</Style>
<ExtendedData>
<SchemaData schemaUrl="#kml_schema_ft_ES07a_03d_lires-fisterra">
<SimpleData name="id">ES07a_03d</SimpleData>
<SimpleData name="_formato">kml</SimpleData>
</SchemaData>
</ExtendedData>
<LineString>
<extrude>0</extrude>
<tessellate>1</tessellate>
<coordinates>-9.2448484336957,42.9975596442964,16.800900000002 -9.2454212534198,42.997617479091,11.2945999999938 -9.24598384672267,42.9975760728867,8.58130000000529 -9.24659924569289,42.9973224361171,6.48600000000442 -9.24689847990393,42.9972248713072,5.79300000000512 -9.24688791841112,42.9970240409346,5.07369999999355 -9.2461907116646,42.9965590129837,5.46020000000135 -9.24541002178379,42.9958887959343,6.81440000000293 -9.24578268069289,42.995593920088,4.66400000000431 -9.24607923253447,42.9954616538822,5.00800000000163 -9.24622876609667,42.9953034035777,6.80959999999322 -9.24588359922855,42.9949919320426,8.08580000000075 -9.245359394531,42.9945775310722,7.99469999999565 -9.24516962812219,42.9943703298675,8.74580000000424 -9.24498925000641,42.9942501336236,8.57240000000456 -9.24491481829691,42.9939042962575,9.17440000000352 -9.24489403128124,42.9935111850992,11.0956000000006 -9.24491062765611,42.9932297208957,10.7958999999973 -9.24491465121025,42.9930454866455,10.5280000000057 -9.24448130661213,42.9929060115838,8.50419999999576 -9.24447242137567,42.9925122297459,8.96289999999863 -9.24506368081758,42.9923528062077,11.898000000001 -9.24547942382601,42.9918098264916,15.8929999999964 -9.24563650054164,42.9910901563101,19.1405999999988 -9.24583598941678,42.9903238828343,22.6199999999953 -9.24606732985696,42.9896258374081,26.7752999999939 -9.24584604785304,42.9889383542378,26.9193999999989 -9.24577044294376,42.9884785226338,31.0056000000041 -9.24564588793638,42.9882146604485,31.9805999999953 -9.2457496559281,42.988068144621,34.2942000000039 -9.24574663848705,42.987823057778,36.6597000000038 -9.24593741100901,42.9875045454062,37.5351999999984 -9.24621233680843,42.987294662954,39.188599999994 -9.24662120680663,42.9873131031101,41.1156000000046 -9.24695882962303,42.9873360695145,41.4179000000004 -9.24724783741285,42.9872480591836,42.3963999999978 -9.24737473971812,42.9871000349237,43.4410000000062 -9.24754975399333,42.986948992786,47.3536000000022 -9.24766777106211,42.9868277904232,49.1803999999975 -9.24802299546817,42.9868935050633,53.5724000000046 -9.24794353588801,42.9873369073445,56.5556999999972 -9.24801846975576,42.987625077488,57.7024999999994 -9.2482063919233,42.9878986629159,61.0063999999984 -9.24830932178686,42.9880067892198,62.1535000000003 -9.24838190925509,42.9880000840237,63.222299999994 -9.24846187189178,42.9878840782336,66.0222000000067 -9.24851970722641,42.9877873507197,66.8013999999966 -9.24862800182887,42.9877516442977,67.7039999999979 -9.24886872966375,42.98759423168,69.5832999999984 -9.24911448716592,42.9873367397785,71.4501000000018 -9.24928698705665,42.9872497355032,72.0083000000013 -9.24948647593182,42.9869836942724,71.4456999999966 -9.25110820720918,42.9867394455436,85.0651999999973 -9.25214806554106,42.9863418082298,100.3465 -9.25243824742895,42.9860932008035,104.197899999999 -9.25270563007498,42.9853653164323,104.133499999996 -9.25331180873712,42.9850882105716,106.749299999996 -9.25332505259933,42.9846666009157,108.410999999993 -9.25365513226227,42.9843041670872,108.775399999999 -9.2538512686248,42.9840049332496,108.684599999993 -9.25398655221162,42.9835539870297,105.949399999998 -9.25392016761045,42.9830364881502,105.072700000004 -9.25382427874208,42.9824298064605,104.355899999995 -9.25357114517311,42.9815362949559,102.252099999998 -9.25344374070963,42.9808778131761,99.0405000000028 -9.25277771448663,42.9802711305578,99.1540999999997 -9.25270177450577,42.9798206873126,100.432100000005 -9.25279900455884,42.979012336757,100.012900000002 -9.25309471827229,42.9784794148752,96.9106999999931 -9.25316043183197,42.9777295699083,95.022100000002 -9.25119755813891,42.973390091445,85.381899999993 -9.25099169841176,42.9726045395271,86.9502000000066 -9.25146896433907,42.9721882938025,82.6037999999971 -9.25366686695486,42.9723576084882,52.0908999999956 -9.25400566297097,42.9706808922101,48.2045999999973 -9.25432953976689,42.9691087829728,51.5429000000004 -9.25521081311174,42.9667933659508,42.8539000000019 -9.2562142941662,42.9667310046199,41.945000000007 -9.25662014672334,42.9662671496054,38.4300999999978 -9.25696715693445,42.9648958707887,29.7611999999936 -9.25715424097383,42.9633323101493,41.9076999999961 -9.25753142649364,42.9618244062106,61.2949999999983 -9.25682248505457,42.9608562961338,79.4579999999987 -9.25715256471752,42.9605322520025,80.9216000000015 -9.25830658544726,42.9597855916533,87.5056999999942 -9.25995228826799,42.9597166924405,85.670100000003 -9.26188046093991,42.9595277643721,80.156799999997 -9.26307873807042,42.9590950905541,85.7909000000072 -9.26380511401256,42.9582141526341,91.5843000000023 -9.26391810141402,42.9568123629694,88.4590000000026 -9.26325961924277,42.9568038135174,88.6860000000015 -9.26243668428909,42.9562586546401,85.3390000000072 -9.2614885232865,42.9563146460043,89.9609000000055 -9.26097454501018,42.9558407328944,94.7837 -9.2606000418598,42.9553850929531,97.5671000000002 -9.2607820962319,42.9543531125217,98.5954000000056 -9.26074957452368,42.9537227934855,100.165599999993 -9.26095476410759,42.9530307837947,101.892699999997 -9.26131786763704,42.9526120235218,105.294599999994 -9.26141107413598,42.9522080159491,108.530899999998 -9.26134971920205,42.9516432431533,110.649099999995 -9.26088569713699,42.9512642138382,115.801999999996 -9.26033768798276,42.9510669035342,117.335500000001 -9.25969161064727,42.9509307818844,122.966 -9.25952229618251,42.9507649877201,124.1633 -9.25946949051516,42.9504375903733,125.155400000003 -9.25992412518553,42.9498248732225,122.708899999998 -9.26043123045162,42.9494074548471,118.9859 -9.26061429093683,42.9490433449475,118.549899999998 -9.26110764928414,42.9486376609057,114.398799999995 -9.26160871966813,42.948297858296,112.981700000004 -9.26201675063987,42.9480629974893,113.231 -9.26286315587699,42.9478557966753,117.252699999997 -9.26344871550842,42.9475988077547,122.493100000007 -9.26384417365942,42.9472544787545,127.270799999998 -9.26418330564548,42.9466821623934,128.358300000007 -9.26429176733457,42.9463225787964,129.015199999994 -9.26436452188942,42.9460424556778,130.075899999996 -9.2650766487545,42.945711538246,124.657900000006 -9.26550244930086,42.945355977912,120.683399999994 -9.26562130449777,42.9443216507455,105.331399999995 -9.26555559003979,42.9437523524043,98.2102000000014 -9.2657689938187,42.943132761952,90.4070999999967 -9.26605280485461,42.9428615235772,85.8813999999984 -9.26614819066644,42.9421279390146,77.3796000000002 -9.26629638304392,42.941721920049,71.3231999999989 -9.26664791986573,42.9412590713789,65.0875999999989 -9.26699845147273,42.9407851587359,60.849000000002 -9.26699291874891,42.9402123389907,55.2440000000061 -9.26703080519603,42.9398794100999,51.4642000000022 -9.26717648318899,42.9397050665658,49.8956000000035 -9.26762156158137,42.9396554456893,46.4529999999941 -9.26800394475342,42.9395766555152,45.2844999999943 -9.26821868881872,42.9392215983524,43.8588000000018 -9.26842203326306,42.9387679694215,42.2002999999968 -9.2686468366629,42.9385004189535,40.8064000000013 -9.26856234651716,42.9381530730743,39.3601999999955 -9.26839956999104,42.9377775639622,38.2832999999955 -9.2685594970611,42.937337681897,37.0506000000023 -9.26895143471448,42.9368282293177,34.5390000000043 -9.26923591679192,42.9365569914479,34.1662000000069 -9.26929492532633,42.9362887704176,33.3744000000006 -9.26900692275129,42.9357444492201,30.8286999999982 -9.26900574955152,42.9352153839853,29.1413999999932 -9.26895445215553,42.9341321069158,25.938599999994 -9.26904799372605,42.9336442798069,26.1512999999977 -9.26920540641164,42.9333730417246,28.2409999999945 -9.26857894289204,42.9319940508811,34.7112000000052 -9.26709635166904,42.930833660072,24.6870999999956 -9.26569975886311,42.9295990058706,19.0197999999946 -9.26410216801238,42.928583286802,12.9777000000031 -9.26318569148818,42.9277164302177,12.043399999995 -9.26219813486877,42.9270220733092,8.66180000000168 -9.2613688299614,42.9263302311348,6.41929999999411 -9.26087982934155,42.9259889201244,5.43420000000333 -9.26055964102821,42.9256509619042,5.20570000000589 -9.26081344474038,42.9254147596553,5.29610000000685 -9.26199110194188,42.9242536982667,5.50599999999395 -9.26389161458787,42.9225379231654,5.43709999999555 -9.2651264369808,42.9213869196623,7.46670000000449 -9.26560420506635,42.9208201353345,9.4658999999956 -9.26643686338468,42.9200798459641,12.453800000003 -9.26730020006825,42.9192823918613,15.520399999994 -9.26751025043619,42.9188287627611,16.9244999999937 -9.26756523541643,42.9176824542291,17.4640999999974 -9.26741586983918,42.9151858203086,17.3500000000058 -9.26739474775189,42.9139758088074,17.6347999999998 -9.26679175361743,42.9137280398565,18.8003999999928 -9.2651874568431,42.9134101977862,25.1588999999949 -9.26442101603932,42.9131659490327,22.0866999999998 -9.26413049907981,42.9128859935114,21.2421000000031</coordinates>
</LineString>
</Placemark>
</Folder>
</Document></kml>
