<?xml version="1.0" encoding="UTF-8"?>

<kml xmlns:xsd="http://www.w3.org/2001/XMLSchema" xmlns:gx="http://www.google.com/kml/ext/2.2" xmlns:atom="http://www.w3.org/2005/Atom" xmlns="http://www.opengis.net/kml/2.2">
<Document>
<name>ES07a_03c_muxia-lires</name>
<visibility>1</visibility>
<Schema name="ES07a_03c_muxia-lires" id="kml_schema_ft_ES07a_03c_muxia-lires">
<SimpleField type="xsd:string" name="id">
<displayName>id</displayName>
</SimpleField>
<SimpleField type="xsd:string" name="nombre">
<displayName>nombre</displayName>
</SimpleField>
<SimpleField type="xsd:double" name="longitud">
<displayName>longitud</displayName>
</SimpleField>
<SimpleField type="xsd:string" name="_formato">
<displayName>_formato</displayName>
</SimpleField>
</Schema>
<Folder id="kml_ft_ES07a_03c_muxia-lires">
<name>ES07a_03c_muxia-lires</name>
<Placemark id="kml_1">
<name>&lt;img height='20' src='https://nco.ign.es/iconos/icono_todos_caminos_azul.png' /&gt;&lt;img height='20' src='https://nco.ign.es/iconos/Camino Santiago_20.png' /&gt;&lt;img height='20' src='https://nco.ign.es/iconos/icono_todos_caminos_azul.png' /&gt;  Camino de Santiago </name>
<visibility>1</visibility>
<description><![CDATA[<!DOCTYPE html>
<html>
<head>
<style>
#nco {
  border-collapse: collapse;
  overflow:hidden;
}
#nco th, #nco td {
  padding: 4px;
  text-align: left;
}
#nco th {
  color: #364B5F;
  padding-right: 5px;
}
#nco td {
  color: rgb(51, 51, 51);
  font-size: 12px;
  padding-right: 5px;
}
</style>
</head>
<body>
<table id="nco">
<tr>
<td>Caminos de Galicia</td>
</tr>
<tr>
<th><b>Camino: </b></th>
<td>ES07a Camino de Fisterra y Muxía</td>
</tr>
<tr>
<th><b>Etapa: </b></th>
<td>03c Muxía-Lires</td>
</tr>
<tr>
<th><b>Longitud: </b></th>
<td>14.9 km</td>
</tr>
</table>
</body>
</html>]]></description>
<Style>
<IconStyle>
<scale>0.8</scale>
</IconStyle>
<LabelStyle>
<color>ffffffff</color>
<scale>0.75</scale>
</LabelStyle>
<LineStyle>
<color>ffff0000</color>
<width>3.0</width>
<gx:labelVisibility>1</gx:labelVisibility>
</LineStyle>
<PolyStyle>
<color>66ff0000</color>
</PolyStyle>
</Style>
<ExtendedData>
<SchemaData schemaUrl="#kml_schema_ft_ES07a_03c_muxia-lires">
<SimpleData name="id">ES07a_03c</SimpleData>
<SimpleData name="_formato">kml</SimpleData>
</SchemaData>
</ExtendedData>
<LineString>
<extrude>0</extrude>
<tessellate>1</tessellate>
<coordinates>-9.21949535599218,43.111437521807,25.8619000000035 -9.21939762288253,43.109532650412,34.944399999993 -9.21951563995131,43.1086470186173,32.2125999999989 -9.21936979487165,43.1079989299532,31.1009000000049 -9.21879932244544,43.1077370793339,25.1138000000064 -9.21866336871538,43.1070296465073,17.9961000000039 -9.21868197641816,43.1065830587332,18.5005999999994 -9.21879513180461,43.1053348259456,10.2381000000023 -9.21853663439511,43.1046810375005,7.67260000000533 -9.21831233405181,43.1037322061702,5.6076999999932 -9.21822801189103,43.1025884114496,6.31419999999343 -9.21897299553595,43.1018613648976,11.2698999999993 -9.21951530487969,43.1014048864769,14.5144 -9.21985007824001,43.1009638308988,16.0565999999963 -9.22004017972043,43.100053891535,18.6434000000008 -9.22027671691453,43.0987937562875,15.7825000000012 -9.22057360382772,43.0979460102567,20.1410000000033 -9.22093838451178,43.0968665892744,20.210500000001 -9.22075666521127,43.0963531137892,20.5117000000027 -9.22037763545015,43.0955157618282,20.0843000000023 -9.22035751857768,43.0944304729431,15.7651999999944 -9.22038249713247,43.0932489596307,18.7774000000063 -9.22027420253005,43.0921953547187,18.9801000000007 -9.2198240944704,43.0912004223169,24.4517000000051 -9.21967607007788,43.0902966855115,29.7397999999957 -9.21986047174782,43.0896026643797,21.6777000000002 -9.21992216265166,43.0890430882441,19.9024000000063 -9.21946786305291,43.0882491542236,22.1444999999949 -9.21902546703001,43.0877200883388,23.9499999999971 -9.21823790324064,43.0867761186352,25.4951000000001 -9.21773146811775,43.0862297862176,21.7884000000049 -9.21665590265164,43.0854534542238,33.0722999999998 -9.21600630481856,43.0848975667044,38.6572000000015 -9.2152769114354,43.0842590331319,37.7697000000044 -9.21479780216515,43.0837458928325,37.9688000000024 -9.21443402759421,43.083435259658,39.7387000000017 -9.21400655079153,43.0831975486996,42.3561999999947 -9.21397319095515,43.0828689782697,43.7431999999972 -9.21425180523712,43.082575443933,53.1897000000026 -9.21471331291771,43.0824458596022,56.9783000000025 -9.21377453930985,43.0815608988837,69.3793000000005 -9.21350078671014,43.0804390645541,87.6444000000047 -9.2139487154569,43.0799690072641,99.7019 -9.21404460432528,43.0794954301374,101.428400000004 -9.21370731658049,43.079009782267,99.4100999999937 -9.2132605610335,43.0788584051594,95.8559999999998 -9.21401510005807,43.0777860248952,97.6508000000031 -9.21604100583967,43.0768435635227,117.404699999999 -9.21797823173303,43.0758457820007,130.653000000006 -9.21887090469885,43.0761835725527,140.329100000003 -9.21948848298196,43.0752384290002,147.275599999994 -9.22055918766404,43.0745343491582,159.630999999994 -9.22085993014644,43.0741895177582,162.668799999999 -9.22138279276092,43.073977958349,169.233500000002 -9.22203959867584,43.0730869622689,179.697400000005 -9.22309068954203,43.0721349456718,197.326300000001 -9.22386182494148,43.0711665001391,207.160900000003 -9.22489263095021,43.0708610641682,216.096699999995 -9.22576133147435,43.0706994605901,221.815799999997 -9.22713194051068,43.0704411306164,234.697899999999 -9.22753360152874,43.0695479549237,238.224300000002 -9.2281915806434,43.0691018701314,244.645499999999 -9.22824388325421,43.0683404582857,249.241099999999 -9.22788631155033,43.0675124938312,254.400200000004 -9.22684779350485,43.0665735528756,255.906199999998 -9.22612208860428,43.0660389550672,260.2307 -9.22577725680773,43.0654485335326,261.982699999993 -9.22551356264428,43.0649685857973,262.618100000007 -9.22550585150587,43.0641362632511,263.940499999997 -9.22593651373455,43.0623361653944,263.357399999994 -9.22637622828636,43.0610069633464,252.611399999994 -9.22666808553227,43.0595748315101,244.343299999993 -9.22586157896851,43.0587233974199,243.015899999999 -9.22478266098977,43.0579232610113,230.251300000004 -9.22470102119842,43.0574215205809,224.311799999996 -9.22482490516431,43.0565261656896,215.691999999995 -9.22588387515383,43.0562326311944,212.116699999999 -9.22844605539711,43.0550355275744,197.135899999994 -9.2277424786969,43.0546016801624,195.228600000002 -9.22785664019646,43.0537069963049,194.561000000002 -9.22821152953095,43.0532518584743,194.203200000004 -9.22927938385864,43.0523695797562,193.7261 -9.22989528588539,43.0519424379587,194.450700000001 -9.22995580358946,43.0510281396026,191.004400000005 -9.23040976721829,43.0492899010561,178.3459 -9.2310850137494,43.0478646419397,174.275299999994 -9.23214884452292,43.0463535523858,159.896699999998 -9.2322479188173,43.0458196251506,157.088300000003 -9.23272015507732,43.0451864563796,156.214900000006 -9.23344552490632,43.0446295628473,155.020799999998 -9.23429025298878,43.0434358120977,151.782900000006 -9.23484161465564,43.0419215375667,147.919699999999 -9.23477489498289,43.0411151981767,144.224199999997 -9.23414541402227,43.0395980740072,140.262799999997 -9.23357158908339,43.0386284552972,139.683699999994 -9.23384400049833,43.0373877659716,143.329899999997 -9.23384198917043,43.0366119367366,142.327999999994 -9.23322306970259,43.0350487121798,128.639800000004 -9.23340294476183,43.0345553534638,118.585800000001 -9.23380946746218,43.0343307179486,114.070699999997 -9.23455327790732,43.033112659886,115.063699999999 -9.23486424591262,43.0319692007175,114.0622 -9.23493700136577,43.0315475909679,114.448699999994 -9.23461999758011,43.0312949605902,116.281199999998 -9.23459652819501,43.0309134160011,120.490300000005 -9.2347249387716,43.0303667484669,125.151899999997 -9.23526339254617,43.0299327337954,127.997700000007 -9.2357555776937,43.0296470781433,125.882800000007 -9.23624072184605,43.0292945357817,124.777000000002 -9.23657583117628,43.0286689104873,127.910900000003 -9.23654163231341,43.0270062757542,128.242700000003 -9.23641372479336,43.024358768195,114.252299999993 -9.23611113806968,43.0228909293342,111.974400000006 -9.23559263318263,43.0223124103432,107.285600000003 -9.23567075247638,43.0217233298966,104.211299999995 -9.23624474540022,43.0207359417566,101.823399999994 -9.23651447534406,43.0196191371628,98.993100000007 -9.23663517478227,43.0192047354783,96.5565999999963 -9.23678504341606,43.0189633371838,94.7820000000065 -9.23657650131948,43.018569890483,94.1720000000059 -9.23585062843392,43.0181256495584,93.9599000000017 -9.23633342618675,43.0178490467432,92.6938999999984 -9.23664908878768,43.0176029542384,92.0286999999953 -9.23662042264867,43.0170420370292,91.593200000003 -9.236167297148,43.0162128991983,91.3074999999953 -9.23593260329685,43.0155800653226,92.8877000000066 -9.23570947705166,43.0147800965445,90.9063000000024 -9.23530127809496,43.0141150767776,87.2295000000013 -9.23478964711645,43.0137895234004,83.5608999999968 -9.23438346038602,43.0134366449686,81.1350999999995 -9.23428153663558,43.0130046420678,78.8895000000048 -9.2337090519831,43.0124110352759,70.3070000000007 -9.23336287990015,43.0120757592639,67.0007999999943 -9.23475746047985,43.0112244935321,62.3221000000049 -9.23677096142566,43.0102258734447,74.6434000000008 -9.23810183977359,43.0100518652055,78.1805000000022 -9.23840090599968,43.0090933107438,77.4315000000061 -9.23858815802402,43.0082033202492,77.3429999999935 -9.23964444564411,43.0070881921032,70.1891999999934 -9.24082210284562,43.0056069417748,52.8350000000064 -9.24137396756905,43.0045533366804,40.3147999999928 -9.24125142388957,43.0036492644401,36.1049999999959 -9.24228642143742,43.0028278378078,28.8255999999965 -9.24195416246158,43.0015189198998,19.8864000000031 -9.2428977977518,43.0007025228632,34.9179000000004 -9.24345083567501,42.9999637419357,37.5381000000052 -9.24399264196222,42.9998308044961,36.5426000000007 -9.24421207972486,42.9994229410392,32.1040000000066 -9.244293049373,42.9989393053653,28.129700000005 -9.24423420792526,42.9985946415129,29.0313000000024 -9.24436228343027,42.9982223177849,25.9587000000029 -9.24447024206278,42.9978858677776,23.0822999999946 -9.24479898054102,42.9975507595183,17.5473999999958</coordinates>
</LineString>
</Placemark>
</Folder>
</Document></kml>
