<?xml version="1.0" encoding="UTF-8"?>

<kml xmlns="http://www.opengis.net/kml/2.2" xmlns:atom="http://www.w3.org/2005/Atom" xmlns:gx="http://www.google.com/kml/ext/2.2" xmlns:xsd="http://www.w3.org/2001/XMLSchema">
<Document>
<name>ES10e_09a_encinas_reales-lucena</name>
<visibility>1</visibility>
<Schema name="ES10e_09a_encinas_reales-lucena" id="kml_schema_ft_ES10e_09a_encinas_reales-lucena">
<SimpleField type="xsd:string" name="id">
<displayName>id</displayName>
</SimpleField>
<SimpleField type="xsd:string" name="nombre">
<displayName>nombre</displayName>
</SimpleField>
<SimpleField type="xsd:double" name="longitud">
<displayName>longitud</displayName>
</SimpleField>
<SimpleField type="xsd:string" name="_formato">
<displayName>_formato</displayName>
</SimpleField>
</Schema>
<Folder id="kml_ft_ES10e_09a_encinas_reales-lucena">
<name>ES10e_09a_encinas_reales-lucena</name>
<Placemark id="kml_1">
<name>&lt;img height='20' src='https://nco.ign.es/iconos/icono_todos_caminos_azul.png' /&gt;&lt;img height='20' src='https://nco.ign.es/iconos/Camino Santiago_20.png' /&gt;&lt;img height='20' src='https://nco.ign.es/iconos/icono_todos_caminos_azul.png' /&gt;  Camino de Santiago </name>
<visibility>1</visibility>
<description><![CDATA[<!DOCTYPE html>
<html>
<head>
<style>
#nco {
  border-collapse: collapse;
  overflow:hidden;
}
#nco th, #nco td {
  padding: 4px;
  text-align: left;
}
#nco th {
  color: #364B5F;
  padding-right: 5px;
}
#nco td {
  color: rgb(51, 51, 51);
  font-size: 12px;
  padding-right: 5px;
}
</style>
</head>
<body>
<table id="nco">
<tr>
<td>Caminos Andaluces</td>
</tr>
<tr>
<th><b>Camino: </b></th>
<td>ES10e Camino Mozárabe de Málaga</td>
</tr>
<tr>
<th><b>Etapa: </b></th>
<td>09a Encinas Reales-Lucena</td>
</tr>
<tr>
<th><b>Longitud: </b></th>
<td>20.29 km</td>
</tr>
</table>
</body>
</html>]]></description>
<Style>
<IconStyle>
<scale>0.8</scale>
</IconStyle>
<LabelStyle>
<color>ffffffff</color>
<scale>0.75</scale>
</LabelStyle>
<LineStyle>
<color>ffff0000</color>
<width>3.0</width>
<gx:labelVisibility>1</gx:labelVisibility>
</LineStyle>
<PolyStyle>
<color>66ff0000</color>
</PolyStyle>
</Style>
<ExtendedData>
<SchemaData schemaUrl="#kml_schema_ft_ES10e_09a_encinas_reales-lucena">
<SimpleData name="id">ES10e_09a</SimpleData>
<SimpleData name="_formato">kml</SimpleData>
</SchemaData>
</ExtendedData>
<LineString>
<extrude>0</extrude>
<tessellate>1</tessellate>
<coordinates>-4.48837185239972,37.2748043581402,439.0 -4.48847964394561,37.2750078707729,439.709099999993 -4.48863638558966,37.2752739125493,441.0 -4.48881324410614,37.275534254139,443.0 -4.48904793705896,37.2758913236534,446.853000000003 -4.48923988278066,37.2761972631283,450.373300000007 -4.48943585115824,37.2764441938397,453.9467 -4.48975386105701,37.276931182126,460.968800000002 -4.48979392681699,37.2770131573606,462.331300000005 -4.48989199499826,37.2772292431132,465.083499999993 -4.48992451670648,37.2772946217601,465.733999999997 -4.48999123637926,37.2774401316479,468.147800000006 -4.49012350252507,37.2777098610474,472.0 -4.49024286077854,37.2779272879011,475.050799999997 -4.4903578613046,37.2782811716718,480.935500000007 -4.49044888849064,37.2785923079593,484.943100000004 -4.49058299887772,37.2791592602813,481.392000000007 -4.49061384432965,37.2793621021113,477.007400000002 -4.49068777298258,37.2795703085338,472.366699999999 -4.49076086260902,37.2797312410886,469.775200000004 -4.49087787446301,37.2799932591372,465.928400000004 -4.49095884321283,37.2802043157622,463.222500000003 -4.49107987772262,37.2805541761046,459.425399999993 -4.49109597104095,37.2805992709746,458.623200000002 -4.49114391592427,37.2807281846861,457.616599999994 -4.49125388678305,37.2810532345006,454.993900000001 -4.49139587539517,37.281412315623,451.295100000003 -4.49143594115518,37.2814993200441,450.353300000002 -4.49142588271891,37.2815611783574,449.983500000002 -4.49140794605763,37.2815662074165,449.876900000003 -4.49135279309247,37.2815762655339,449.376099999994 -4.49088089190403,37.2817071910502,447.0 -4.49021687700896,37.2819782617677,447.0 -4.49000548545629,37.2820718034107,448.0 -4.48982091580139,37.2821906587103,449.0 -4.48981689314555,37.2824060741707,450.651800000007 -4.48985897023346,37.2825043097744,457.0 -4.49004286884683,37.2828301981809,453.297399999996 -4.49014697191017,37.2829514009445,443.147299999997 -4.49025359025631,37.2830928873092,442.458299999998 -4.49043598059832,37.2831151831111,441.180500000002 -4.49092498031988,37.2830092354661,437.987500000003 -4.49183994947105,37.2827212331745,437.0 -4.4921559471436,37.2827923121813,434.796799999996 -4.49217388380488,37.2828172898113,434.282900000006 -4.49233297274674,37.2829991775403,431.456999999995 -4.49240589528656,37.2830622096646,430.1149 -4.49257671802268,37.2832412471126,426.579100000003 -4.49282767227875,37.2834402333374,423.060100000002 -4.49305985084709,37.283741311199,426.0 -4.49319295601938,37.2838512817961,426.0 -4.49332186965252,37.2841520242313,422.962799999994 -4.49353694878944,37.2844792542046,419.174400000004 -4.4934921902304,37.2846220813932,417.428199999995 -4.49334584209419,37.2848210682552,413.763699999996 -4.49322983635335,37.2848985163772,411.679699999993 -4.49317786881417,37.2850542521875,409.703800000003 -4.49314199369498,37.2852161907865,408.021900000007 -4.49317283914688,37.2852871016204,407.968699999998 -4.49316881559275,37.2853784642429,406.859299999996 -4.49310394016124,37.2856282451655,404.791299999997 -4.49295088610144,37.2860262180452,401.338799999998 -4.49285147673547,37.2863668586534,399.456900000005 -4.49284544185341,37.2865194088033,398.296499999997 -4.49275877329311,37.287097089937,394.455799999996 -4.49277637488277,37.2872556757373,394.427599999995 -4.49262583610577,37.287644093003,391.017999999996 -4.49259834406484,37.2878839828045,389.791700000002 -4.4926380738549,37.2880487712531,389.142000000007 -4.49275894127806,37.2882846381629,389.0 -4.49273664509271,37.2883568897349,389.129000000001 -4.49263706774178,37.2884209279518,388.936000000002 -4.49257504176636,37.2884749074907,388.569199999998 -4.4924682563336,37.2886690321096,386.856199999995 -4.49243053787144,37.2887860430887,386.2929 -4.49238276097304,37.2889680986373,384.471300000005 -4.49229642748436,37.2892985130418,381.148799999995 -4.49220489724174,37.2895323677679,378.984599999996 -4.49216416133856,37.2897377244837,378.181100000002 -4.49214588870737,37.2898170171443,378.477599999998 -4.49201982453026,37.2901413973542,377.355899999995 -4.49195578722693,37.2903081969657,376.392999999996 -4.49190901554336,37.290537022953,374.574299999993 -4.49191605653854,37.290839106552,373.277799999996 -4.49196584566317,37.2909742232255,372.100999999995 -4.4921081702452,37.291114536025,371.496299999999 -4.49221914631876,37.2912132748225,371.320399999997 -4.49230145625331,37.2913016200653,370.600699999995 -4.49231470011555,37.2914053884482,370.051600000006 -4.4923197288845,37.2914603735266,369.300199999998 -4.49241427746647,37.291521393924,368.969299999997 -4.49251502711884,37.2916169476376,368.543900000004 -4.49259784100826,37.2917963199198,366.509000000005 -4.49261359835665,37.2919351246774,365.0 -4.4926461200649,37.2920093880905,364.0 -4.49274485928766,37.2920816403737,364.0 -4.49283622244363,37.2921639507191,363.0 -4.49286069704355,37.2922631919742,362.047699999996 -4.49294669546064,37.2926873161712,358.046600000001 -4.49291870036313,37.2927578919379,358.0 -4.49284443663859,37.2928797647787,357.4084 -4.4928159375862,37.2929642546567,357.0 -4.49283521633051,37.2930333215328,356.025200000004 -4.49288986623913,37.2931032266318,356.0 -4.49293596688121,37.2931783286066,355.3364 -4.49303789063165,37.2937122551836,352.0 -4.49316060139779,37.2938713437287,351.0 -4.4933518769763,37.2939749441993,348.323600000003 -4.49355220397959,37.2941720868507,345.0 -4.49393793966427,37.2944532155142,344.0 -4.49406567919936,37.2944123117288,344.0 -4.49416089792453,37.2942622759647,344.0 -4.49421521276157,37.2939638800921,344.0 -4.49424471702874,37.293835637237,344.0 -4.49431680144039,37.2937045441558,343.097599999994 -4.49452232609596,37.2935835095027,343.0 -4.4949249923288,37.2934022926854,343.062699999995 -4.49504284231092,37.2933841877739,343.0 -4.49527267358141,37.2934054778745,343.0 -4.49530519528963,37.2934442025301,343.0 -4.49531139815669,37.2935001930571,342.551699999996 -4.49518499890799,37.29368325414,342.054900000003 -4.4950438475257,37.2939843317521,343.104900000006 -4.4948418442661,37.2943533032429,343.055900000007 -4.49464989854439,37.2946862323861,343.424400000004 -4.49462391477478,37.2949368514052,344.0 -4.49460564214359,37.2950488337688,345.194399999993 -4.49481099881419,37.2950650945269,346.0 -4.49508558954203,37.2951403639109,346.004000000001 -4.49542924724047,37.2951931702062,346.0 -4.49576033301653,37.2951829445412,344.064199999993 -4.49655644607248,37.2953339860978,342.069000000003 -4.49675677307577,37.2953894742628,342.0 -4.49701963000938,37.2954692697826,341.840299999996 -4.49726790189603,37.2955882932974,341.0 -4.49760871013841,37.295783256399,341.333599999998 -4.49796477357096,37.2959334599249,342.766600000003 -4.49804305995134,37.2959862656634,343.839300000007 -4.49809586651699,37.2960442688223,343.252600000007 -4.49821958339625,37.2961403248878,343.0 -4.49838370110706,37.2961958131726,344.0861 -4.4984569587185,37.2962771178321,345.0 -4.49847891893391,37.296392285407,345.732199999999 -4.4984172280301,37.2966422334329,347.0 -4.4983877237629,37.2968618394767,348.0 -4.49841270231769,37.2970752427466,348.161999999997 -4.4984569587185,37.2972868017129,347.998999999996 -4.49858888979268,37.2976302926503,345.781000000003 -4.49874697262143,37.2980252478706,343.0 -4.49880363385799,37.2982874337518,342.205400000006 -4.49880061641694,37.2986025934102,340.369699999996 -4.49877932634473,37.298756149916,340.505099999995 -4.49871730036931,37.2991568045433,341.041700000002 -4.49878636733991,37.2995036476611,342.205900000001 -4.49879156409382,37.2996561983294,343.0 -4.49874194295418,37.2997971816547,343.830100000006 -4.49876608338078,37.2999458772481,345.026500000007 -4.49883682660774,37.300078310733,348.228499999997 -4.49886498969021,37.3001602857635,349.630699999994 -4.49888812400372,37.3003735217525,350.441600000006 -4.49890689969146,37.3004700810716,350.142699999997 -4.49907319581687,37.3007024276084,349.276599999997 -4.49928827585209,37.3008987315788,348.168999999994 -4.49966294698743,37.3011808662338,346.997099999993 -4.49977375597436,37.3012576451096,347.417700000005 -4.50039200440064,37.3015790069463,347.149900000004 -4.50072711373086,37.3017218345443,347.313200000004 -4.50091017421611,37.3018103475172,348.001799999998 -4.50109926958339,37.3019364109222,348.678700000004 -4.50124394146328,37.302123327994,348.309800000003 -4.50129389767456,37.3022663231955,348.357099999994 -4.50130965592124,37.3024041218221,347.231700000004 -4.50137888997851,37.3024631304233,346.628599999996 -4.50149271640649,37.3024673213328,347.997700000007 -4.50168499719978,37.3024113296202,348.0 -4.50185162929511,37.3024478752252,348.4136 -4.50222495924571,37.3025506371355,347.058600000004 -4.50252989326723,37.3024601128255,344.467499999999 -4.5031268525196,37.3023278464552,340.109500000006 -4.50393218588362,37.3021967531682,338.0 -4.50405322039341,37.3022160314179,337.051699999996 -4.50417190760539,37.3022653170887,337.007400000002 -4.50452294226896,37.3025202946937,338.530899999998 -4.50533548371482,37.3031078660453,342.004799999995 -4.50595675048048,37.303548083697,344.988800000006 -4.50632387756406,37.3037423759257,344.893299999996 -4.50673358479208,37.3038847006599,343.872799999997 -4.50763195756838,37.304049321154,342.432000000001 -4.50777897584779,37.3040657500285,341.998099999997 -4.50796086313326,37.3041175504067,342.1875 -4.50828943362651,37.3042618865909,342.079800000007 -4.50849495828207,37.3044192986543,342.019899999999 -4.50919685872593,37.3051602585495,342.269 -4.50947899350552,37.3055372765981,340.531300000002 -4.50968954693004,37.3056671965163,340.0 -4.51067090068238,37.3060343236618,336.297500000001 -4.51103584845307,37.3061146223486,336.052299999996 -4.51120264853336,37.3061461380235,335.194799999997 -4.51157882794005,37.3062794108765,334.105299999996 -4.51182089785796,37.3063861960448,334.0 -4.5120934772579,37.3064757145799,333.357399999994 -4.51295999846918,37.3067571788121,333.0 -4.51377522228444,37.3070114859727,333.0 -4.51420688972792,37.3071112306662,334.275899999993 -4.51438995111146,37.3071321853449,334.903900000005 -4.51462497913589,37.3070862525273,334.957899999994 -4.51462497913589,37.3070772002899,334.784499999994 -4.51466487691091,37.3070802177025,334.972999999998 -4.51494298903467,37.3070812237448,335.0 -4.51515102717638,37.3070775353992,335.907500000001 -4.51543584432541,37.3071630310901,336.0 -4.51595485226901,37.3073931976822,333.404599999994 -4.51685691262956,37.3078042467444,334.0 -4.51743995787651,37.3080682762652,336.542799999996 -4.51808385589911,37.3082282032876,341.0 -4.51831385515456,37.3082841942417,342.0 -4.51885448734369,37.308369019068,341.619000000006 -4.51925916580277,37.3083487349412,341.410499999998 -4.52004589146398,37.3085421895132,339.861000000004 -4.52044688144051,37.308660206325,338.534299999999 -4.52057193950447,37.308829185545,340.399000000005 -4.52082708440137,37.3090035288545,344.718699999998 -4.52080680044224,37.3092556570581,346.068899999998 -4.5209048686235,37.3094021725976,348.690499999997 -4.521038643939,37.3094427409917,349.070999999996 -4.5211459324283,37.3095962975132,351.684999999998 -4.52120125337846,37.3097071062868,352.984800000006 -4.52105591045707,37.3098051740623,354.849799999996 -4.52085792985327,37.3098692118827,357.381699999998 -4.52072130508172,37.3099146421415,358.819499999998 -4.52067486936806,37.3100522731374,360.338300000003 -4.52067688069596,37.3101022288653,360.869000000006 -4.52068090425012,37.310202308841,361.934899999993 -4.52064000036199,37.310341616213,363.413100000005 -4.52050790220114,37.3103692761709,365.887900000002 -4.52042089767093,37.3103302165606,367.121599999999 -4.52032383560278,37.310272213702,368.0 -4.52039994267031,37.3103173086224,367.466899999999 -4.52029299015088,37.3102571265638,368.5334 -4.52000096402168,37.3101572145661,370.421499999997 -4.51957784584478,37.3100613250165,374.0524 -4.51922697916617,37.3100681984137,376.0 -4.51915891830865,37.3100842915919,376.0 -4.51914399819009,37.3101193280379,376.540699999998 -4.51907090856365,37.3101463178864,377.2549 -4.51891684928903,37.3102893128358,380.0 -4.5188348744261,37.3104701945984,381.0 -4.51882984475882,37.3105622275476,381.585099999997 -4.5188509668461,37.3107032111473,383.0 -4.51898088659238,37.3111132539875,386.497199999998 -4.51904995356299,37.3117112188204,384.929600000003 -4.51904157138307,37.3121435576513,382.736999999994 -4.5187812297323,37.3125787461461,385.0 -4.51834889124729,37.3128233297652,384.3799 -4.51777691054968,37.3130142700623,386.458100000003 -4.51737390834693,37.3130982564899,388.383700000006 -4.51731791725357,37.3131113325635,389.0 -4.51711893053669,37.3132332052897,389.060700000002 -4.51649297007366,37.3137832254905,391.870599999995 -4.51642189177512,37.3138752586708,392.613200000007 -4.51630219845003,37.3141141431761,394.135200000004 -4.51618284019655,37.3144681946798,397.023400000005 -4.51608795654297,37.3149102562464,400.994699999996 -4.51611896997986,37.3149702709725,401.0 -4.51619591607384,37.3150322968081,401.041700000002 -4.51658081273203,37.3151900442588,401.670299999998 -4.51702203645349,37.3152998474286,402.803100000005 -4.5171420648502,37.3153954009399,402.741899999994 -4.51718196262522,37.31562724412,403.083400000003 -4.51708707986997,37.3157880095286,403.500199999995 -4.51710032283388,37.315949612625,403.950400000002 -4.51722336956993,37.3161489338486,403.960600000006 -4.51743191076818,37.3165546182628,405.076000000001 -4.51775830194858,37.3170122698738,405.133400000006 -4.51795561240915,37.3172553452115,406.2448 -4.51815895775182,37.31746623372,406.051500000001 -4.51858693761104,37.3179052778233,407.500599999999 -4.51866120133559,37.3179783682428,408.0 -4.51867930598182,37.31800519024,408.0 -4.51866421877664,37.3180231277667,407.864499999996 -4.5184769667523,37.3185702981465,409.915699999998 -4.51840069169982,37.31886282684,411.141600000003 -4.5183681699916,37.3189878843486,411.762499999997 -4.51842499921311,37.3192329714864,412.409599999999 -4.51846573511629,37.3193538384112,413.424400000004 -4.51847193798331,37.3194433572229,414.085900000005 -4.51844092454646,37.319556177521,413.759000000005 -4.51833598335497,37.3198062935948,414.901100000003 -4.51823690906059,37.3199152584634,416.145499999999 -4.51814336659176,37.3199590116783,416.4954 -4.51783524804256,37.320023049422,418.109200000006 -4.51723326002121,37.3201450902552,419.839399999997 -4.51682254668003,37.3203484352428,418.864100000006 -4.51640361914393,37.3206615828758,418.482499999998 -4.51613724261105,37.3209524353363,418.0 -4.51604487334194,37.3211182293436,418.1924 -4.51590741044223,37.3214506556597,418.483900000007 -4.51569987445877,37.3221161782515,421.2022 -4.51553190117874,37.3226071899992,419.577699999994 -4.51551094617811,37.3226722341776,419.0 -4.51537046583735,37.3230410377694,417.265400000004 -4.51518941668004,37.3236205622038,414.0 -4.51520785729619,37.3238042936153,412.956900000005 -4.51521590350619,37.3242852476425,410.0 -4.51521590350619,37.3244383009429,409.0 -4.51512873188935,37.3246808729338,407.801500000001 -4.51491683728011,37.3248372793014,406.0 -4.51461190325861,37.3248362734967,405.0 -4.51357489438282,37.3245682203438,403.8704 -4.51330449429578,37.3245447510032,403.979000000007 -4.51295999846918,37.3245752610017,404.227199999994 -4.51275128838765,37.3246138181642,404.551500000001 -4.51239136938588,37.3247683802182,405.682199999996 -4.51217981074658,37.3249289774898,406.084700000007 -4.51193489137257,37.3252102740534,405.005600000004 -4.5117818382111,37.3253371761544,405.130799999999 -4.51131295446371,37.3255943328382,409.0 -4.51070191322095,37.3260932238672,410.601299999995 -4.51064189857343,37.3261403301574,411.0 -4.51045297119111,37.3263133325126,411.0 -4.51033730052185,37.3265071223079,410.167199999996 -4.51029052973657,37.3266841483673,410.0 -4.51026605423835,37.3268692202301,409.0 -4.51024577027922,37.3269993075815,408.681200000006 -4.51020302214982,37.3277883802506,406.0 -4.51032925431185,37.3282785534716,405.0 -4.51042061656951,37.3286812201547,404.950100000002 -4.51043386043172,37.3289972181644,406.0 -4.51051633835123,37.3292994694268,406.869900000005 -4.51047157889388,37.3295536088971,408.0 -4.51028198047003,37.3298811735021,410.932199999996 -4.510085173066,37.3301928128124,414.0 -4.50992960462172,37.3303401668422,415.622000000003 -4.50969893522307,37.3304482928528,417.020499999999 -4.50945887753139,37.3305311062115,419.205199999997 -4.50926525555337,37.3306214631482,420.744099999996 -4.50877223137934,37.3308199468806,420.0 -4.50787788215721,37.3307998302424,419.383600000001 -4.50774528093979,37.3308160911266,419.0 -4.50770873567741,37.3308628623098,418.480800000005 -4.50769851015451,37.3309320965219,417.989600000001 -4.50786983594721,37.3311232036736,416.585500000001 -4.50812296951618,37.3313602440667,414.467900000003 -4.50824366895438,37.3315401201223,413.082599999994 -4.50816890217326,37.3317421235635,412.0 -4.50796505467238,37.3321359053197,411.931800000006 -4.50782675274618,37.3324187105997,412.0 -4.50734261380865,37.3328336148919,413.219299999997 -4.50703198087497,37.333228235194,415.0 -4.50690826399571,37.3333789417618,415.0 -4.50674883998226,37.3335303187241,415.0 -4.5062055254237,37.3342102588234,416.8652 -4.50560471060209,37.3350694039734,419.646999999997 -4.50523355996435,37.3356083606669,421.114199999996 -4.50477993140713,37.3360272878179,423.7448 -4.50459787613671,37.3362281185505,424.767800000001 -4.50440173977421,37.3364809168107,426.0 -4.5042999831104,37.3367878619233,428.0 -4.50424717744305,37.3372027656532,431.296199999997 -4.50423091613979,37.337394041124,433.0 -4.50416184916915,37.3375931947644,434.9424 -4.50401298664848,37.3380072612596,438.0818 -4.5039318499137,37.3383314728727,440.0 -4.50387703291842,37.3386325509723,441.0 -4.50377946689544,37.3392120758493,443.0 -4.50374677810056,37.339797803434,445.0 -4.50374191641823,37.3407422757482,449.0 -4.50376287141886,37.3412363053699,452.0 -4.50377393506991,37.341688257409,455.400599999994 -4.50378583774742,37.3421392040118,459.0 -4.50378198217821,37.342504319711,462.0 -4.50375499229552,37.3427527596342,464.0 -4.50369799508905,37.3429532545743,465.744399999996 -4.50356069927596,37.343377211391,468.821500000005 -4.50338685909882,37.343889680659,472.0 -4.50321201191024,37.344339118582,476.0 -4.50303398109228,37.3447733007791,479.0 -4.50286835421177,37.3452928113765,482.741099999999 -4.50276056266588,37.3456731817381,485.964600000007 -4.50276056266589,37.3458927880997,487.6109 -4.5027910730462,37.3461938658801,490.0 -4.50280733434946,37.3463646889016,491.838000000003 -4.50282560698065,37.346547581989,493.256399999998 -4.502878412648,37.3469767353011,497.0 -4.50281487750292,37.3472513264045,499.869500000001 -4.50268898131077,37.3476011876384,503.158899999995 -4.50262427296592,37.3478187816518,504.450400000002 -4.50250390949762,37.348093205426,507.0 -4.50233995887343,37.3483522059265,509.1342 -4.502149857393,37.3486172420222,511.0 -4.50153009979703,37.3494680050385,512.0 -4.50139800073786,37.3500761956552,509.0 -4.5013165289315,37.3504198538492,508.0 -4.50125969970999,37.3508022362876,506.0 -4.50130328506926,37.3513004564645,506.0 -4.5015649688031,37.3525423195374,509.0 -4.50163286167563,37.3528846361054,510.539399999994 -4.50166739561012,37.3533117780519,513.0 -4.50160637484948,37.3538832562847,517.691399999996 -4.50152909368392,37.3543427520368,521.2935 -4.50145784740042,37.3547901779909,525.081000000006 -4.50142398450747,37.3552193313152,529.0 -4.50146891194977,37.3556712834484,531.460500000001 -4.50151987337584,37.3561502254648,534.462299999999 -4.50157871482359,37.3565750203181,537.569900000002 -4.50161458904444,37.3568341893471,539.025899999993 -4.5016429201119,37.3569795310566,540.234800000006 -4.5016958937642,37.3571158212764,541.306400000001 -4.50197651937411,37.35754279491,545.000799999994 -4.50225312232817,37.3579434503556,548.969400000002 -4.50235990776097,37.3580482242226,549.324399999998 -4.50270960123981,37.3582953224571,552.0 -4.50321503024959,37.3586074643581,555.992400000003 -4.50343061244305,37.3587407369977,557.0 -4.50376622393149,37.3589460931716,559.765599999999 -4.50392883247265,37.3590558959419,561.158500000005 -4.50418414535451,37.3592674553953,563.027400000006 -4.50441800017917,37.359490078713,564.969200000007 -4.50464364170717,37.3597229282533,566.523400000005 -4.50476769365801,37.3598674318252,567.091799999995 -4.50487246776287,37.3599924903345,567.0 -4.50495176025637,37.3601083278526,566.071800000005 -4.50502904142193,37.3602731165066,565.892999999996 -4.505071956638,37.3604503100313,565.088799999998 -4.50516130756774,37.36076111063,563.591100000005 -4.50524562972852,37.3609188577441,563.128500000006 -4.50539113973656,37.3610549801593,562.962299999999 -4.50576631392843,37.3612757596158,564.904899999994 -4.50595239185473,37.3613703071717,565.055500000002 -4.50617920568417,37.3615329160659,566.955100000006 -4.50640803173988,37.3617444756766,569.0 -4.50653811947112,37.3618898178732,570.0 -4.50665898599595,37.3620852837306,572.0 -4.50671095443344,37.3622773968777,573.0 -4.50675169033665,37.3625427679362,575.015700000004 -4.50678287086017,37.362680231135,575.0 -4.50696995489955,37.3632143259079,570.849300000002 -4.50711093829685,37.3635661982859,567.0 -4.50716391194915,37.3637162342298,566.0 -4.5072529278073,37.3640131215927,563.932700000005 -4.50727589413586,37.3641101838947,563.0 -4.50737195098919,37.3645520775973,560.207999999999 -4.50752584227882,37.3656071918936,554.0 -4.50762206711711,37.365896367439,552.206900000005 -4.50806295486865,37.3667702643998,549.0 -4.50833989289434,37.3672902781736,546.962499999994 -4.50841113917784,37.3674845705179,545.573300000004 -4.50845790996311,37.36808823514,543.0 -4.5084629396304,37.3681732273373,542.0 -4.50851490716959,37.3689691730528,538.101699999999 -4.5085474288778,37.3693515552302,536.408800000005 -4.50852094205165,37.3696841493138,535.0 -4.50849294695414,37.3701173260756,533.0 -4.50844299074289,37.3708381697496,530.0 -4.50836487144913,37.3721081956027,525.126199999999 -4.50834894521746,37.3726852061715,522.0 -4.50833989289434,37.3733431851562,517.146099999998 -4.50832497367411,37.3737761944435,514.0 -4.50830183936059,37.3741882488407,511.0 -4.50826596424141,37.3744573077855,510.0 -4.50813788963473,37.3747801791014,510.0 -4.50803194233013,37.374970280888,509.0 -4.50788894670656,37.3752862782828,509.427599999995 -4.50767906342525,37.376020030331,510.404500000004 -4.50758552185472,37.376569212475,513.0 -4.50753690682817,37.3768701229483,514.0 -4.50763095145527,37.3771343202178,513.218099999998 -4.50784888094658,37.3774592030595,511.0 -4.50810084131577,37.3777953168646,507.941099999996 -4.50820796182016,37.3779562497467,506.263200000001 -4.50824433909758,37.3781289171498,505.0 -4.50815700039408,37.3782856583526,504.991800000003 -4.50760496768569,37.3786492655012,505.242800000007 -4.50743498307773,37.3787553803098,505.0 -4.50710138291719,37.3788571369989,506.0 -4.50686786316412,37.3789153067652,507.0 -4.50662344684668,37.3790299715068,508.0 -4.50649134778751,37.3792618152949,509.0 -4.50634701187757,37.3796542556738,510.0 -4.50612187430442,37.3802481971794,510.0 -4.50564393733561,37.3817421878151,511.0 -4.5052298714818,37.3830593201909,514.0 -4.50503893187321,37.3837050616058,515.0 -4.50491722632189,37.3838049742861,515.618300000002 -4.50444297873396,37.3840202213294,516.0 -4.50436485944021,37.3841942295352,516.012799999997 -4.5044677893038,37.3843521450837,516.0 -4.50426444396113,37.3846429971343,517.307100000005 -4.50408959767084,37.3850414721766,517.0 -4.50395934285297,37.3855946781721,514.337 -4.5039533079709,37.385863234388,513.270300000004 -4.5040265655823,37.3865688228071,509.365300000005 -4.5041118938562,37.3870122258606,507.0 -4.50421147030882,37.3873781796348,505.0 -4.50443124404141,37.3879761447502,500.839999999997 -4.50461832808079,37.3885130892736,496.0 -4.50479518659728,37.3889705736224,494.0 -4.50489291880863,37.3892594135761,493.0 -4.50511654811039,37.3901582893584,491.0 -4.50535241516128,37.3906179526597,489.798999999999 -4.50557202090891,37.3909535642646,488.0 -4.50567578890063,37.3912097147015,487.259300000005 -4.5057327861071,37.3914537960374,487.0 -4.50567595688559,37.3917262081581,485.115300000005 -4.50566086878207,37.3917312369838,485.508300000001 -4.50552893770789,37.3918822785985,487.0 -4.50544394540391,37.3919337436461,487.0 -4.50549691905621,37.3926862709582,487.050799999997 -4.50545014827093,37.3932109782003,488.0 -4.50531989345306,37.3936522015974,488.0 -4.50512476230535,37.3940243577701,488.0 -4.50482368475136,37.3946446189475,487.0 -4.50421314656514,37.3956814602021,489.0 -4.50406713439885,37.3961049143298,490.0 -4.50401013719238,37.3964893084406,491.0 -4.50395129664297,37.3974186935396,495.0046 -4.50404282688559,37.3975995752859,496.0 -4.5041831392414,37.3977398880995,496.0 -4.5041179287383,37.39787014311,496.0 -4.50394107022178,37.3980490126915,497.0 -4.50373688675095,37.3992715972832,501.579800000007 -4.50363898655468,37.3998558156689,502.119999999995 -4.50330052561011,37.3999057716113,505.389500000005 -4.50303599242021,37.400261667309,507.0 -4.50245780885558,37.4010658274057,510.0 -4.50208028736586,37.4013741140458,511.681100000002 -4.5021330939315,37.4016344556386,510.0 -4.5018134077764,37.4017152572733,511.094200000007 -4.50079567764493,37.4019615173226,509.0 -4.50018011068975,37.4022317504133,508.0 -4.49953000980009,37.4027896492632,507.0 -4.49922490869194,37.4031435331711,505.0 -4.49960729096569,37.4034729424405,502.471900000004 -4.49931845026246,37.4036031967633,502.0 -4.49919641053789,37.4034566815963,503.0 -4.49884671705901,37.4035664841503,503.0 -4.49848461874439,37.4037577596138,501.9954 -4.49836676966061,37.4036397423758,502.113800000006 -4.49793828674481,37.4037606090146,500.0 -4.49705701339993,37.404119689735,498.0 -4.49628420174416,37.4046708839059,497.872900000002 -4.49572697318015,37.4049372609877,497.0 -4.49483413222938,37.4052140312043,495.0 -4.49369737891601,37.4056408373921,491.0 -4.49244864251767,37.4060922866675,486.358600000007 -4.49203776208987,37.40627534743,485.0 -4.49190767525696,37.4065276428752,483.0 -4.49174908937163,37.4066049241782,483.0 -4.49191890689293,37.4076511531293,476.0 -4.49196148703742,37.4081280835604,474.320399999997 -4.49072498838817,37.408339643037,477.0 -4.48945194447654,37.4085389644751,479.0 -4.48874836777633,37.4086670400784,480.0 -4.48810765517974,37.408772819844,481.0 -4.48779249563535,37.4088338398675,482.0 -4.48757959491299,37.4088110412067,482.888600000006 -4.48694441504022,37.4087503558203,484.0 -4.48637696005502,37.4086792774986,485.671100000007 -4.48596423448761,37.4086100429299,485.0 -4.48562040880421,37.4086325062821,485.0 -4.48508966706636,37.4086853127223,485.0 -4.48471952254174,37.4087463328171,485.0 -4.4845894348105,37.4087850572469,485.0 -4.4845771979597,37.4089131324295,485.0</coordinates>
</LineString>
</Placemark>
</Folder>
</Document></kml>
