<?xml version="1.0" encoding="UTF-8"?>

<kml xmlns="http://www.opengis.net/kml/2.2" xmlns:atom="http://www.w3.org/2005/Atom" xmlns:gx="http://www.google.com/kml/ext/2.2" xmlns:xsd="http://www.w3.org/2001/XMLSchema">
<Document>
<name>ES10e_16a_santa_cruz-cordoba</name>
<visibility>1</visibility>
<Schema name="ES10e_16a_santa_cruz-cordoba" id="kml_schema_ft_ES10e_16a_santa_cruz-cordoba">
<SimpleField type="xsd:string" name="id">
<displayName>id</displayName>
</SimpleField>
<SimpleField type="xsd:string" name="nombre">
<displayName>nombre</displayName>
</SimpleField>
<SimpleField type="xsd:double" name="longitud">
<displayName>longitud</displayName>
</SimpleField>
<SimpleField type="xsd:string" name="_formato">
<displayName>_formato</displayName>
</SimpleField>
</Schema>
<Folder id="kml_ft_ES10e_16a_santa_cruz-cordoba">
<name>ES10e_16a_santa_cruz-cordoba</name>
<Placemark id="kml_1">
<name>&lt;img height='20' src='https://nco.ign.es/iconos/icono_todos_caminos_azul.png' /&gt;&lt;img height='20' src='https://nco.ign.es/iconos/Camino Santiago_20.png' /&gt;&lt;img height='20' src='https://nco.ign.es/iconos/icono_todos_caminos_azul.png' /&gt;  Camino de Santiago </name>
<visibility>1</visibility>
<description><![CDATA[<!DOCTYPE html>
<html>
<head>
<style>
#nco {
  border-collapse: collapse;
  overflow:hidden;
}
#nco th, #nco td {
  padding: 4px;
  text-align: left;
}
#nco th {
  color: #364B5F;
  padding-right: 5px;
}
#nco td {
  color: rgb(51, 51, 51);
  font-size: 12px;
  padding-right: 5px;
}
</style>
</head>
<body>
<table id="nco">
<tr>
<td>Caminos Andaluces</td>
</tr>
<tr>
<th><b>Camino: </b></th>
<td>ES10e Camino Mozárabe de Málaga</td>
</tr>
<tr>
<th><b>Etapa: </b></th>
<td>16a Santa Cruz-Córdoba</td>
</tr>
<tr>
<th><b>Longitud: </b></th>
<td>25.82 km</td>
</tr>
</table>
</body>
</html>]]></description>
<Style>
<IconStyle>
<scale>0.8</scale>
</IconStyle>
<LabelStyle>
<color>ffffffff</color>
<scale>0.75</scale>
</LabelStyle>
<LineStyle>
<color>ffff0000</color>
<width>3.0</width>
<gx:labelVisibility>1</gx:labelVisibility>
</LineStyle>
<PolyStyle>
<color>66ff0000</color>
</PolyStyle>
</Style>
<ExtendedData>
<SchemaData schemaUrl="#kml_schema_ft_ES10e_16a_santa_cruz-cordoba">
<SimpleData name="id">ES10e_16a</SimpleData>
<SimpleData name="_formato">kml</SimpleData>
</SchemaData>
</ExtendedData>
<LineString>
<extrude>0</extrude>
<tessellate>1</tessellate>
<coordinates>-4.63420690953403,37.733666282812,191.481 -4.6342359107447,37.7345772286209,199.705400000006 -4.63195888362037,37.7377931970111,219.0 -4.63141791546132,37.7410093332956,230.736099999995 -4.6310759340192,37.7415213000779,236.801900000006 -4.62928287694915,37.7430582056418,259.0 -4.62928287694915,37.7440543107947,267.0 -4.62888490441367,37.7446522758813,265.721399999995 -4.6274049955601,37.7458471999428,262.905700000003 -4.62663587148855,37.7473272765171,256.0 -4.62398886692629,37.7494903107029,243.9611 -4.62176883611014,37.7524502956315,240.0 -4.62082989541561,37.7541861878093,233.0 -4.61977696030815,37.7563492217869,235.0 -4.61960596958708,37.7569191914293,235.0 -4.61886584762448,37.75831326901,232.0 -4.61949197607247,37.7606471264981,239.0 -4.61969096189106,37.7644042306032,248.0 -4.61710095363693,37.7690142772048,258.0 -4.61707195242631,37.7697542316258,260.421000000002 -4.61618984095326,37.771462295797,263.787700000001 -4.61493792002721,37.7729132037226,266.0 -4.61382798861161,37.7752762300227,270.862599999993 -4.61362799667994,37.7766133109359,276.125799999994 -4.61203392632678,37.7785771906849,278.0 -4.61357099947347,37.7796302931923,304.218399999998 -4.61459593858509,37.7798292793618,287.899099999995 -4.61519390305227,37.7800292717759,276.785099999994 -4.61573487121132,37.7807692260102,275.356700000004 -4.61664497868017,37.781395186631,263.566800000001 -4.62003193811839,37.7829032583315,239.0 -4.62062990258558,37.7828462617105,238.754100000006 -4.62145484976549,37.7825902783247,233.503500000006 -4.62282193830422,37.7831022449196,234.025800000003 -4.62381787620521,37.7832452399745,231.538199999995 -4.62857192418214,37.7845253248341,219.0 -4.63042197756033,37.78512328938,209.351999999999 -4.63161790739303,37.7857782513011,216.065100000007 -4.63417891443652,37.7868311858982,232.251000000004 -4.63494786962478,37.7874293184986,234.910399999993 -4.63537484426922,37.7879122838205,237.859599999996 -4.63668392948837,37.7899903256193,246.0 -4.63696790850924,37.7909292663238,250.387100000007 -4.63719589643678,37.7914132374026,253.956099999996 -4.63730988995139,37.7920681989474,261.480800000005 -4.63748088067247,37.7923810117466,265.920899999997 -4.63799284762085,37.7930923003902,272.528099999996 -4.63861897606884,37.7943452271283,278.808499999999 -4.63933093494896,37.7952843353861,267.588600000003 -4.63981490590153,37.7960812866054,260.0 -4.63987089699489,37.7964222624645,259.103499999997 -4.64015588123057,37.7967352428068,258.930200000003 -4.64112399112068,37.7971342213274,262.0 -4.64203493671769,37.7974182005559,268.334700000007 -4.64322986043727,37.7981583221107,289.924599999998 -4.64379899167878,37.7986712952695,285.000799999994 -4.64488092799687,37.7991832618958,290.852499999994 -4.64593386310433,37.7996382313669,297.0 -4.64644599713938,37.7998662190165,296.360199999996 -4.64678797858153,37.8002931931061,300.019100000005 -4.64698696529842,37.8006631704922,300.397899999996 -4.6475849297656,37.8013741231603,287.251300000004 -4.64812489270986,37.8018012652715,277.176200000002 -4.64892184389393,37.8025412194077,266.0 -4.64954897755673,37.8029401985092,263.248699999996 -4.6501459368091,37.8037371494673,258.0 -4.65040191983416,37.8039363035297,256.087899999999 -4.65097188920383,37.8041922867842,253.024399999995 -4.6529069357843,37.8047042534704,252.249400000001 -4.65373288817903,37.805131227983,249.0 -4.65438684463787,37.8057291925624,241.729500000001 -4.65464299564788,37.8060141771122,238.685899999997 -4.65467199685851,37.8065263114439,238.0 -4.65464299564788,37.807095275397,238.336599999995 -4.65481398636896,37.8072662657929,238.0 -4.65541195083614,37.8075792463203,236.0 -4.6584289337347,37.8088601686537,229.0 -4.66278299694992,37.8111931877537,222.0 -4.66352395704067,37.8118483174162,221.942500000005 -4.66412192240618,37.8125032794569,218.800199999998 -4.66491887359025,37.8131292395003,223.4565 -4.66719590161288,37.8140961757944,239.0 -4.66881796706356,37.8147803071833,242.276199999993 -4.67112399629678,37.8163452083326,252.775899999993 -4.6717499567598,37.8166011918599,260.037400000001 -4.67340085633445,37.8170001702202,271.001600000003 -4.67877985866128,37.8187362301302,275.013399999996 -4.67960597904097,37.8191062073693,271.656900000002 -4.68031693270627,37.8196181735471,264.345300000001 -4.68171184925589,37.821240240057,244.671499999997 -4.68282194775812,37.8220661926889,237.566399999996 -4.68381788565911,37.8228633111768,240.988299999997 -4.68432985260752,37.8236312615325,251.249200000006 -4.68595292417128,37.8250541730833,258.775099999999 -4.68654988342368,37.8254813151612,259.606899999999 -4.68802995936391,37.8261642724419,259.784899999999 -4.68825794729142,37.8262211022452,260.0 -4.68925388519241,37.8267902330128,263.072 -4.69047797810758,37.8287542804032,275.0 -4.6918728946572,37.8310313084571,268.0 -4.69218587488869,37.831344288984,267.0 -4.6942639161944,37.8324252192607,263.0 -4.69617096677906,37.8335353184113,261.0 -4.69827683609565,37.8354991983227,259.505699999994 -4.69890296454363,37.8360403338234,259.0 -4.70294589176863,37.8378902196435,253.0 -4.70556389512026,37.8387443356896,251.0 -4.70974797372752,37.8399682612875,250.164199999999 -4.71094289834543,37.8402242444612,251.0 -4.71210999405412,37.8403382384947,251.0 -4.71706286076301,37.8402812414999,247.0 -4.71757499479806,37.8403952354454,247.0 -4.72144592518886,37.8420452966237,247.0 -4.72264084980673,37.8429562424769,237.964699999997 -4.72488988183355,37.843924184071,226.978900000002 -4.72597198523827,37.8445223167895,226.460900000005 -4.72887497372392,37.8462292078487,223.527700000006 -4.72901696323434,37.8463722026944,222.308099999995 -4.7304968720879,37.8478512738896,214.572 -4.73368484570754,37.8490472033513,204.0 -4.73507892323067,37.8494451763676,205.053499999995 -4.73567688859618,37.8497581567942,205.0 -4.73610386234229,37.8503852904302,202.0 -4.73598986882768,37.8513812283295,194.952099999995 -4.73561989138971,37.8522913353674,188.792199999996 -4.73561989138971,37.853259277847,182.0 -4.73579088211079,37.8534302683985,181.0 -4.73681598920736,37.8535722576875,172.712799999994 -4.73949098976547,37.8539990644213,152.838099999994 -4.74022993852828,37.8541702227766,147.0 -4.7428779492037,37.8551943239068,127.988100000002 -4.74324792664166,37.8552233248438,126.0 -4.74609391792084,37.8543412133431,128.684800000003 -4.74663488607989,37.8543412133431,130.0 -4.74689187521803,37.854455207543,132.186100000006 -4.74797397862278,37.8552513207238,145.911399999997 -4.74862793418331,37.8555363055666,146.493700000006 -4.74953887978032,37.8557072958016,151.256500000003 -4.75076297269549,37.8558782870586,158.787299999996 -4.75255586178055,37.8559352840561,168.088199999998 -4.75414993213372,37.8559352840561,176.0 -4.75525986444761,37.8563332567738,179.416200000007 -4.75548785147683,37.8565612445108,179.786399999997 -4.75636996294987,37.8590652544586,180.0 -4.75628497064589,37.8593502387413,178.438500000004 -4.75520286724114,37.8604883336304,164.923899999994 -4.75517487124533,37.8606593244352,162.777000000002 -4.75525986444761,37.8608013139845,161.0 -4.75537385796222,37.8608303155525,161.0 -4.75591499320793,37.8607733180846,163.0 -4.75605698271834,37.8608303155525,163.0 -4.75722391134041,37.8616842637769,162.987500000003 -4.75878898048292,37.8621672292066,155.0 -4.76049687726403,37.8625940351114,146.0 -4.76211894271468,37.8626511999622,141.0 -4.76618986593548,37.8624242182792,130.0 -4.76655984337348,37.8625662072653,128.0 -4.76818190882412,37.8639892869232,113.744600000005 -4.76869387577254,37.8647862382218,112.720300000001 -4.77037293842965,37.8671482590486,98.0 -4.77068994221531,37.8681302824018,97.0 -4.77103762346792,37.8691812057989,97.0 -4.77140324228013,37.8703893727683,96.0 -4.77174136815308,37.8710884240774,96.0 -4.77214252611457,37.8718588882402,96.0 -4.7724016945656,37.8724496450609,96.0 -4.77287309269747,37.8733116395667,96.0 -4.77328246485391,37.8740748959203,96.0 -4.77387120991135,37.8743696033905,96.0 -4.77417010815248,37.8747050476136,96.1328999999969 -4.77465055860746,37.8749526486071,96.0 -4.77582804872231,37.8755418965114,95.2280000000028 -4.77636013164486,37.8758327485231,96.0966000000044 -4.77678442391986,37.8758431422022,89.0 -4.77745430571207,37.8763308010844,97.7361999999994 -4.77809418018054,37.8768432706212,96.9995999999956 -4.7784851117208,37.8771896111421,97.0004000000044 -4.77885978285614,37.8774871686393,94.8840000000055 -4.77895734798082,37.8776797846593,96.0004999999946 -4.77911476066638,37.877908275734,97.0 -4.7792116556479,37.8780940184707,98.0 -4.77924300325804,37.8782048270136,98.0 -4.77888995816487,37.8783848703322,100.0 -4.77855250243512,37.8785494913132,100.0 -4.77819291850497,37.878716793558,100.0 -4.77783635291421,37.8788842641766,100.354099999997</coordinates>
</LineString>
</Placemark>
</Folder>
</Document></kml>
