<?xml version="1.0" encoding="UTF-8"?>

<kml xmlns="http://www.opengis.net/kml/2.2" xmlns:atom="http://www.w3.org/2005/Atom" xmlns:gx="http://www.google.com/kml/ext/2.2" xmlns:xsd="http://www.w3.org/2001/XMLSchema">
<Document>
<name>ES10e_05a_antequera-cartaojal</name>
<visibility>1</visibility>
<Schema name="ES10e_05a_antequera-cartaojal" id="kml_schema_ft_ES10e_05a_antequera-cartaojal">
<SimpleField type="xsd:string" name="id">
<displayName>id</displayName>
</SimpleField>
<SimpleField type="xsd:string" name="nombre">
<displayName>nombre</displayName>
</SimpleField>
<SimpleField type="xsd:double" name="longitud">
<displayName>longitud</displayName>
</SimpleField>
<SimpleField type="xsd:string" name="_formato">
<displayName>_formato</displayName>
</SimpleField>
</Schema>
<Folder id="kml_ft_ES10e_05a_antequera-cartaojal">
<name>ES10e_05a_antequera-cartaojal</name>
<Placemark id="kml_1">
<name>&lt;img height='20' src='https://nco.ign.es/iconos/icono_todos_caminos_azul.png' /&gt;&lt;img height='20' src='https://nco.ign.es/iconos/Camino Santiago_20.png' /&gt;&lt;img height='20' src='https://nco.ign.es/iconos/icono_todos_caminos_azul.png' /&gt;  Camino de Santiago </name>
<visibility>1</visibility>
<description><![CDATA[<!DOCTYPE html>
<html>
<head>
<style>
#nco {
  border-collapse: collapse;
  overflow:hidden;
}
#nco th, #nco td {
  padding: 4px;
  text-align: left;
}
#nco th {
  color: #364B5F;
  padding-right: 5px;
}
#nco td {
  color: rgb(51, 51, 51);
  font-size: 12px;
  padding-right: 5px;
}
</style>
</head>
<body>
<table id="nco">
<tr>
<td>Caminos Andaluces</td>
</tr>
<tr>
<th><b>Camino: </b></th>
<td>ES10e Camino Mozárabe de Málaga</td>
</tr>
<tr>
<th><b>Etapa: </b></th>
<td>05a Antequera-Cartaojal</td>
</tr>
<tr>
<th><b>Longitud: </b></th>
<td>11.41 km</td>
</tr>
</table>
</body>
</html>]]></description>
<Style>
<IconStyle>
<scale>0.8</scale>
</IconStyle>
<LabelStyle>
<color>ffffffff</color>
<scale>0.75</scale>
</LabelStyle>
<LineStyle>
<color>ffff0000</color>
<width>3.0</width>
<gx:labelVisibility>1</gx:labelVisibility>
</LineStyle>
<PolyStyle>
<color>66ff0000</color>
</PolyStyle>
</Style>
<ExtendedData>
<SchemaData schemaUrl="#kml_schema_ft_ES10e_05a_antequera-cartaojal">
<SimpleData name="id">ES10e_05a</SimpleData>
<SimpleData name="_formato">kml</SimpleData>
</SchemaData>
</ExtendedData>
<LineString>
<extrude>0</extrude>
<tessellate>1</tessellate>
<coordinates>-4.55380685617214,37.0196771629644,499.582200000004 -4.55385798558317,37.0195740659878,499.005000000005 -4.55304795852181,37.0191930246146,498.637100000007 -4.55213097894103,37.0190170045128,497.4568 -4.5516979694145,37.0191340160997,498.153399999996 -4.55159990123326,37.0191801163489,498.912400000001 -4.55157995234575,37.0192101237417,499.208400000003 -4.55151993769823,37.0192300724795,498.988599999997 -4.55146998148698,37.019250021212,498.859599999996 -4.55133989465404,37.0193301524771,498.4329 -4.55121986535903,37.0195301442421,498.452000000005 -4.55114996026027,37.0196300567272,499.041800000006 -4.5511298442861,37.0198501655463,498.880999999994 -4.55110989539859,37.0201301213994,499.354200000002 -4.55110989539859,37.0201901354227,499.131299999994 -4.55103999029983,37.0202400916063,497.030199999994 -4.55097997565231,37.0204900398645,495.687000000005 -4.55088995368108,37.0207300974051,495.811400000006 -4.5508498888194,37.0209401482067,496.352700000003 -4.55080999104438,37.0211401407545,496.936199999996 -4.55075986684813,37.021350023309,497.587899999999 -4.55075986684813,37.02167004412,498.337400000004 -4.55069985220065,37.0218700368982,497.858699999997 -4.55058988224017,37.0221701089927,496.3125 -4.55052986759268,37.0224700135082,494.844100000002 -4.55005997773218,37.0233501129737,487.130499999999 -4.54985998580047,37.0236000617584,486.012300000002 -4.54966988432004,37.0238401187958,485.313399999999 -4.54964993543253,37.0238600677522,485.327699999994 -4.54949989881378,37.0241200750078,484.670800000007 -4.54923989223459,37.024510168493,482.857999999993 -4.5492598411221,37.0248501383156,479.698499999999 -4.5492598411221,37.0251101450513,477.812300000005 -4.54921893813226,37.0251300936742,477.678700000004 -4.54936997996583,37.0255401369429,475.184200000003 -4.54938992885334,37.0257900849765,473.962799999994 -4.54932991420582,37.0260100260583,473.209400000007 -4.54921893813226,37.0262611480017,472.661600000007 -4.54919999445954,37.0263510018235,472.326100000006 -4.54915992959789,37.0263910676663,471.135599999994 -4.54887997323286,37.0266110084423,471.569099999993 -4.54872993751241,37.0266710230835,470.727700000003 -4.54857990179195,37.0267211471274,469.467699999994 -4.54837990896195,37.0267410960445,468.056400000001 -4.54818997546648,37.0267211471274,467.372000000003 -4.54788990312727,37.0267201409319,465.6351 -4.54758999877306,37.0266700176045,464.864000000001 -4.54754993301305,37.0266700176045,464.629700000005 -4.54739989729263,37.0266700176045,463.743100000007 -4.54728992643386,37.0266901336366,462.876999999993 -4.54719990536093,37.0268200532847,461.346000000005 -4.54698985409466,37.0270200454144,460.055099999998 -4.54676991327544,37.0272300960372,458.926800000001 -4.54657997977997,37.0274901025155,457.683799999999 -4.54638987740124,37.0277201019327,456.700200000007 -4.54616993658203,37.0279200945613,456.059500000003 -4.54614998769452,37.0279601595765,455.767300000007 -4.54601990086157,37.0282600641832,454.780799999993 -4.5458299664678,37.0284101003086,454.284700000004 -4.54556995988861,37.0285800852889,454.748500000002 -4.54539997528065,37.0287301214994,455.9378 -4.54526988754941,37.0288801574134,455.588099999994 -4.5452499386619,37.0288801574134,455.540999999997 -4.54505983718147,37.0290300259346,453.3361 -4.54483989636225,37.0292700837412,453.805699999997 -4.54464996196848,37.0295500393046,453.909499999994 -4.54455994089552,37.0298301623651,454.009099999996 -4.54447997736052,37.0302301467411,453.679699999993 -4.54438995538926,37.030490153707,453.647700000001 -4.54438995538926,37.0307701090761,453.331399999995 -4.54425986855635,37.0310700133447,452.6639 -4.54406993506088,37.0313700856719,452.753299999997 -4.54387899455396,37.0315201213909,453.757400000002 -4.5435799283279,37.0316901065822,459.288799999995 -4.54348990725497,37.0317801282435,456.408500000005 -4.5433799363962,37.0318701497981,453.328999999998 -4.54307986405699,37.0320600838774,452.416200000007 -4.54279990859029,37.0322701341874,452.770900000003 -4.5425499604473,37.0324701263092,452.5821 -4.54232985164313,37.0327001257056,452.332299999995 -4.54204989617642,37.0329800815337,452.195200000002 -4.54181989692098,37.0332600370469,452.025699999998 -4.54168997717469,37.0335000951087,451.703299999994 -4.54155989034175,37.0338201156487,451.722500000003 -4.54138990483549,37.0341800345088,451.318599999999 -4.54125998508921,37.0344400415771,450.869300000006 -4.5411298982563,37.0346500917583,450.663700000005 -4.54106988360878,37.0348500840665,450.486000000004 -4.54099997851001,37.0350200689753,450.441399999996 -4.54088984056458,37.0352800760358,450.110700000005 -4.54078992814208,37.0354700094748,449.960200000001 -4.54063989242162,37.0357501329298,449.761100000003 -4.54048985580287,37.0360101396418,449.497300000003 -4.54030998074363,37.036290095458,449.244999999995 -4.54009993037569,37.0365901672376,448.918799999999 -4.53985987268401,37.0369100205837,448.728300000002 -4.53966993829024,37.037190143746,448.318700000003 -4.53942988059853,37.037510165228,448.211599999995 -4.5392598959906,37.037890032665,447.871499999994 -4.5390899104843,37.0382801264194,447.540299999993 -4.53897994052386,37.038620096275,447.410399999993 -4.53878983814513,37.0389000525073,447.4329 -4.53867986818469,37.0392500806001,446.837799999994 -4.53859990464966,37.039650064839,446.626699999993 -4.5385098826784,37.0400000930594,446.438899999994 -4.5384299200417,37.0403600120263,446.155299999999 -4.53831994918293,37.0407501059972,445.861600000004 -4.5382299272117,37.0411100249938,445.693499999994 -4.53814996367667,37.0414401043006,445.387600000002 -4.53792884965771,37.0417400087357,445.247900000002 -4.5377389152639,37.0420400804881,445.075200000007 -4.53747890868471,37.0422900294315,445.254100000006 -4.53717883634551,37.0425701521047,445.2592 -4.53689888087881,37.0428100423482,445.057400000005 -4.53687893199126,37.0428700570948,444.707200000004 -4.53687893199126,37.0429200127028,444.224700000006 -4.53679896935456,37.04294012945,444.743499999997 -4.53681891824211,37.0429200127028,444.722999999998 -4.53672889627085,37.0429800273626,444.914499999999 -4.5365599168777,37.043020093037,444.7546 -4.53646989580477,37.0430700492633,444.451799999995 -4.53646989580477,37.0430901652537,444.431200000006 -4.53631985918598,37.0432200848102,443.695000000007 -4.53629991029848,37.0432400336956,443.665800000002 -4.53631985918598,37.0432200848102,443.695000000007 -4.53646888969165,37.0431900775811,444.260200000004 -4.53631985918598,37.0433201647488,443.899399999995 -4.53612891957743,37.0435201571656,443.225300000006 -4.53565986784508,37.043880075936,442.166400000002 -4.53539986126586,37.0440500614225,442.273499999996 -4.53505989204996,37.0442901190715,442.486099999995 -4.53473987082325,37.0445501252195,442.194499999998 -4.5343898422728,37.0448000737857,441.945600000006 -4.53404987215858,37.045060080338,441.570099999997 -4.53372985093186,37.0452300653332,441.364000000001 -4.53340999769011,37.0454000506647,441.243499999997 -4.53299995539049,37.0456201593749,440.720100000006 -4.53269988305129,37.0458100934769,440.622799999997 -4.53245999334457,37.0460501505789,440.501999999993 -4.53230995672582,37.0463901207734,440.327999999994 -4.53226989096581,37.0465401569283,440.403099999996 -4.53215992100536,37.0468900178715,440.186000000002 -4.5319899354991,37.0471401336765,440.110400000005 -4.53172992891988,37.0474601548029,440.208299999998 -4.53151987855194,37.0477401099841,440.400200000004 -4.53123992308524,37.0480901381867,440.747399999993 -4.53114990111397,37.0481900503861,440.870599999995 -4.53108988736478,37.0483000215505,440.901599999997 -4.53106993847727,37.0483201375889,440.924700000003 -4.53091990185852,37.0484700064599,441.006500000003 -4.53073985881433,37.0486901148716,441.158800000005 -4.53058999018054,37.0488800491784,441.172500000001 -4.53041983758762,37.0491001578349,441.198900000003 -4.53020995520463,37.0493501064748,441.322 -4.53000996237463,37.0495901638525,441.579100000003 -4.52981885478108,37.0498701190638,441.816999999995 -4.52962892128561,37.0501001188077,441.967699999994 -4.52934896581891,37.0504501468809,441.966499999995 -4.52913891545097,37.0507000953767,441.830400000006 -4.52889885775926,37.0509800507955,441.843599999993 -4.52870892336549,37.0512600066155,441.926999999996 -4.52855888764503,37.0515000644047,442.057700000005 -4.5284688656738,37.0517600709485,442.153099999996 -4.52837884460087,37.0519701212469,442.335900000005 -4.52822897596708,37.0522700256623,442.160900000003 -4.52814884444709,37.0524601273753,442.184800000003 -4.52799897671159,37.0528101560348,441.991899999994 -4.52784894009284,37.053040155472,442.007700000002 -4.5277389701324,37.0532800456054,441.978400000007 -4.52764894816114,37.0534500301149,441.896900000007 -4.52754886865197,37.0536900881457,442.2736 -4.5274388977932,37.0539901599749,441.704599999997 -4.52732892693446,37.0542701154445,441.811900000001 -4.52724896339943,37.0545700200904,441.752500000002 -4.52713899343899,37.0548900414326,441.636400000003 -4.52704897146772,37.0551500478324,441.679199999999 -4.52698895682024,37.0553600980674,441.691399999996 -4.52692793695793,37.0556001557911,441.805500000002 -4.52685886998729,37.0558100391764,441.880900000004 -4.52676884801606,37.0560901621378,441.921900000001 -4.52670983948166,37.0563701177457,441.886499999993 -4.52661998549539,37.0566301240922,441.854999999996 -4.52655997084787,37.0568800730235,441.920199999993 -4.52646894366182,37.057190035309,442.112399999998 -4.52636986936744,37.0575300057857,441.684099999999 -4.52629996426867,37.0577001578447,441.770399999994 -4.52619988475947,37.05802001114,441.775500000003 -4.52610986278824,37.0582800182847,441.773499999996 -4.52601984171531,37.0586000390346,441.829100000003 -4.52591992929277,37.0589200605852,441.932199999996 -4.52582990732151,37.059250139865,441.958799999993 -4.52576989267402,37.0595500441833,441.993199999997 -4.52569998757523,37.059780043264,441.984500000006 -4.52561985695357,37.0600801153833,441.966499999995 -4.52546998831978,37.0604500926826,442.023300000001 -4.52533990148687,37.0607701135983,442.081900000005 -4.52522993062809,37.0611100838041,442.220199999996 -4.52518986576641,37.0614301048032,442.431299999997 -4.52518986576641,37.0617801329455,442.668900000004 -4.52535985037438,37.0620600890641,442.685200000007 -4.52556990074232,37.0623100373115,442.621599999999 -4.52558984962983,37.0623801096399,442.693599999999 -4.52556990074232,37.062420008086,442.717399999994 -4.52552983498234,37.0624900803128,442.733200000002 -4.52584985620902,37.0627901524658,443.215700000001 -4.52597994394026,37.0629800866071,443.541800000006 -4.52604984903906,37.0632400932406,444.345199999996 -4.52610986278825,37.0634100783758,444.245200000005 -4.52619988475947,37.0635401652941,443.993300000002 -4.52631991315618,37.0637300989913,438.039499999999 -4.52646994977493,37.0639000844621,443.738299999997 -4.52644983290247,37.0639901059214,445.034700000004 -4.52642988401496,37.0640300035207,444.855200000005 -4.52646994977493,37.064070069552,444.410999999993 -4.52642988401496,37.064070069552,444.260500000004 -4.52640993512741,37.064070069552,444.190900000001 -4.52634992047993,37.0640501204072,444.301800000001 -4.52612997966071,37.064070069552,442.850900000005 -4.52593987818028,37.0640900179749,441.274900000004 -4.52569998757523,37.0641200255426,446.740999999995 -4.52539991613435,37.0642001560554,443.726299999995 -4.52539991613435,37.0642201051609,443.066800000001 -4.52539991613435,37.0642400542611,442.824500000002 -4.52546998831978,37.0643900902505,444.391900000002 -4.52569998757523,37.0646700460561,445.339000000007 -4.52586997308152,37.0650001254072,444.191500000001 -4.52604984903905,37.0651900590329,444.691900000005 -4.52621899551886,37.0653801606331,444.927200000006 -4.52642988401496,37.0656601163686,445.017500000002 -4.52646894366182,37.0657501378897,444.624299999996 -4.5263899862399,37.0657700865875,444.130000000005 -4.52612997966071,37.0658101524166,444.017999999996 -4.52601984171531,37.0658301010986,444.053400000004 -4.52595999505275,37.0658301010986,444.069900000002 -4.52589998040526,37.0658500504922,444.084600000002 -4.52567987160109,37.0658800573637,444.202600000004 -4.52537996724684,37.0659400717878,444.339099999997 -4.52528893916246,37.0659400717878,444.396200000003 -4.5249699240489,37.0659801375271,444.464500000002 -4.5245199839742,37.0660500423175,444.6103 -4.52417984587502,37.0661100566071,444.810599999997 -4.52389989040832,37.0661501222567,444.9323 -4.52374985468787,37.0661801297262,445.035699999993 -4.52352991297036,37.0662000783109,445.095600000001 -4.5232598479549,37.0662401439129,445.251300000004 -4.5229998413757,37.0663001580521,445.395199999999 -4.52282985676774,37.0663700632644,445.800499999998 -4.52275995166898,37.0666500189305,445.983399999997 -4.52275995166898,37.0669301420099,446.273700000005 -4.52275995166898,37.0670800106833,446.349600000001 -4.52275995166898,37.0673800825994,446.495800000004 -4.52275995166898,37.0676400892039,446.968800000002 -4.52273983479651,37.067830023387,447.161800000002 -4.52271988590897,37.0679800594435,447.535499999998 -4.52269993702146,37.0682400661416,447.709700000007 -4.52267998813395,37.0684700653967,447.798899999994 -4.52267998813395,37.0686900068451,447.961500000005 -4.52258996706102,37.0689701295582,448.329400000002 -4.52256985018855,37.0691600639945,449.164799999999 -4.52254990130104,37.0693501649629,449.426800000001 -4.52249893897664,37.0696100042575,450.460999999996 -4.52245987932977,37.0698500620491,452.120500000005 -4.52247999620224,37.0701000104317,454.835699999996 -4.52247999620224,37.0703201191763,457.075700000001 -4.52249893897664,37.0705700674433,458.140100000004 -4.52249893897664,37.0708300738636,455.071200000006 -4.52252995241353,37.0710701320938,458.318299999999 -4.52254990130104,37.0713301382331,456.706399999995 -4.52254990130104,37.0715200724931,454.781700000007 -4.52256985018855,37.0716701084172,453.3842 -4.52262986483604,37.0718400932962,451.554699999993 -4.52262986483604,37.0718600425425,451.546300000002 -4.52277990055649,37.0719101661386,451.191999999995 -4.52282985676774,37.0720801511963,451.190400000007 -4.52277990055649,37.0722501358728,451.477400000003 -4.52275995166898,37.0723800556808,451.561300000001 -4.52271988590897,37.0726100552822,451.544099999999 -4.52267998813395,37.0728501128952,451.506699999998 -4.52262986483604,37.0730601635791,451.532200000001 -4.52258996706102,37.0733401189198,451.562399999995 -4.52252995241353,37.0735800086566,451.548599999995 -4.52249994508975,37.0737300448057,451.615699999995 -4.52245987932977,37.0739701024568,451.6777 -4.52239986468229,37.0743501378917,451.903200000001 -4.52234990936933,37.074590028017,452.093999999997 -4.52232995958349,37.0747201151124,452.194000000003 -4.52228989472181,37.0749501147836,452.477299999999 -4.5222699458343,37.075190005161,452.823199999999 -4.52224999694679,37.0752300703141,452.932000000001 -4.52224999694679,37.0752500193854,452.959600000002 -4.52222988007433,37.0752500193854,452.954299999998 -4.52219987275058,37.075300142891,452.993799999997 -4.52219987275058,37.0754000550971,453.165999999997 -4.52217992386304,37.0754500115091,453.256500000003 -4.52232995958349,37.075360157745,452.930300000007 -4.52224999694679,37.0755100262445,453.291800000006 -4.52222988007433,37.075640113195,453.213499999998 -4.52219987275058,37.0757500839943,453.293900000004 -4.52213985810306,37.0759601338123,453.599100000007 -4.52209996032804,37.0761800750398,453.807400000005 -4.52204983703013,37.0764501405248,453.975399999996 -4.5219899903676,37.0767500449273,454.286399999997 -4.5219899903676,37.0768801319005,454.322700000004 -4.5219899903676,37.0769300880541,454.330300000001 -4.52194992460759,37.0771401381868,454.422300000006 -4.52187985152387,37.0774001450148,454.6446 -4.52185990263636,37.0775101154115,454.784499999994 -4.52183995374885,37.0777600643478,454.881699999998 -4.52179988888717,37.0780001214242,455.217499999999 -4.52174993267589,37.0782601281698,455.546000000002 -4.5216899180284,37.078580149196,455.900399999999 -4.52164985226842,37.0788800537736,456.232900000003 -4.52159989605713,37.0791600098443,456.579800000007 -4.52155999828211,37.0793301621195,456.866200000004 -4.52153988140965,37.0795900009022,457.119600000005 -4.52151993252214,37.0797611598548,457.366500000004 -4.52146997631085,37.0798910789772,457.650500000003 -4.52140996256166,37.080171034898,458.171100000007 -4.52136989680169,37.0804211506454,458.597500000003 -4.52129999170292,37.0807510625447,459.246700000003 -4.5212399770554,37.0810900265828,459.915500000003 -4.52114995598247,37.0813900989631,460.665099999998 -4.52110989022249,37.0816700543649,461.284799999994 -4.52108893522187,37.0817300684769,461.463399999993 -4.52101986825123,37.0819900753306,462.099000000002 -4.52097997047621,37.0822500820092,462.816600000006 -4.52091995582869,37.0825701026762,463.720700000005 -4.52084988364327,37.0828700072365,464.248900000006 -4.52080998586825,37.0830200436355,464.452600000004 -4.52076992010827,37.0832601012564,464.832800000004 -4.52071996389698,37.0834300859522,465.151599999997 -4.52069984792285,37.0835600059534,465.346000000005 -4.52063983327533,37.0837301583861,465.722999999998 -4.52061988438782,37.0837900053244,465.854900000006 -4.52059993550031,37.0839001434612,466.039000000004 -4.52054997928906,37.0840300626568,466.330400000006 -4.52050991352904,37.0841601500381,466.5913 -4.52048996464154,37.0842401131844,466.786399999997 -4.52043984044532,37.084440105243,467.189499999993 -4.5203999426703,37.0845700249464,467.478199999998 -4.52037999378276,37.0847400102879,467.928899999999 -4.52033992892112,37.0849101629385,468.301000000007 -4.52031998003361,37.0851000968633,468.675399999993 -4.52028997270983,37.0852700817327,468.967399999994 -4.52024990694985,37.085420117681,469.232000000004 -4.52020984118988,37.0856801240607,469.802200000006 -4.52016994341482,37.0859600801013,470.253899999996 -4.52011998720357,37.0862200867786,470.682000000001 -4.52007992234189,37.0864500859609,471.091199999995 -4.52003985658191,37.0866301289835,471.413100000005 -4.51994983461065,37.0868601283549,471.798299999995 -4.51988998794812,37.087100019028,472.289600000004 -4.51986987107565,37.0872000984177,472.4954 -4.51979996597686,37.0874000905492,473.017800000001 -4.51975990111521,37.0876101410537,473.435700000002 -4.51973995222767,37.0879100457382,474.129700000005 -4.5197198353552,37.0881700521756,474.817500000005 -4.51968999601641,37.0883400373262,475.291599999997 -4.51964993025644,37.0886000444383,476.019499999995 -4.51958991560892,37.0888100944837,476.384300000005 -4.51953995939766,37.0890501523987,476.728499999997 -4.51953995939766,37.0893101592244,477.238100000002 -4.5195198434235,37.0895401583453,477.766699999993 -4.51951984342349,37.0896300125014,477.866500000004 -4.51947994564847,37.0896300125014,477.728000000003 -4.51947994564847,37.0896100636311,477.710999999996 -4.51949989453598,37.0896100636311,477.794599999994 -4.51949989453598,37.0896300125014,477.808399999994 -4.51945999676096,37.0898201137434,478.115699999995 -4.51940987256472,37.089990098776,478.395900000003 -4.51934985791724,37.0901401346966,478.469599999997 -4.51928984416805,37.0903200105909,478.822899999999 -4.51928984416805,37.0903600763472,478.918399999995 -4.51921993906928,37.0905101122518,479.263000000006 -4.51919999018177,37.0905900758647,479.454100000003 -4.51917987330927,37.090660148576,479.628599999996 -4.51913997553425,37.090740111314,479.806800000006 -4.51902983669052,37.0909600526565,480.296499999997 -4.51893998270425,37.091150154145,480.793600000005 -4.51887996895506,37.0913201390606,481.237699999998 -4.5187899469838,37.0915201317853,481.809899999993 -4.51870998344877,37.0917100656269,482.376000000004 -4.51859984550337,37.0919001673837,482.950500000006 -4.51848987464459,37.0920800426833,483.512600000002 -4.51837990468415,37.0922500276628,484.239400000006 -4.51829994114915,37.0923801145507,484.857300000003 -4.51816985341791,37.0926101143865,486.254400000005 -4.51805988345744,37.0928500040568,487.561400000006 -4.51795997103493,37.0930600545042,489.175099999993 -4.51788989795118,37.0932600469363,490.463900000002 -4.51780993531448,37.0934501483875,491.8367 -4.51771991334322,37.0936600316502,493.196200000006 -4.51762989137199,37.0938801400704,494.694699999993 -4.51758999359693,37.0940700744458,495.558999999994 -4.51750986297528,37.0943101321793,496.959300000002 -4.51743995787651,37.0944400514444,497.957299999995 -4.5173998921165,37.0946301528014,499.042100000006 -4.51730987014527,37.0948400356618,500.516300000003 -4.51728992125776,37.0950400276953,501.366299999994 -4.51719990018483,37.0952500785207,502.852400000003 -4.5171199366498,37.0954901360986,504.617800000007 -4.51704986356605,37.0956601213102,505.594700000001 -4.51696990092935,37.0958700041837,506.971300000005 -4.51689999583059,37.0960701640302,508.136199999994 -4.51687987895812,37.0961300105394,508.496899999998 -4.5168198643106,37.0963700681955,509.534400000004 -4.51677996653558,37.0965400535826,510.366500000004 -4.51670989435016,37.0966900894322,511.191200000001 -4.51666999567681,37.0968200089156,511.772800000006 -4.51662993081513,37.0970101107503,512.512600000002 -4.5165399088439,37.0972510060817,513.379400000005 -4.51644988687263,37.0975001168158,514.028399999996 -4.51640998909761,37.0977400067683,514.193400000004 -4.51631996802468,37.0979800643389,514.231299999999 -4.51623983650469,37.0981901148953,514.613100000002 -4.51612986654425,37.0983600997815,514.662299999996 -4.51610991765674,37.0984100561093,514.793900000004 -4.51601989568548,37.0985101356095,514.685200000007 -4.51586985996503,37.0987701422196,515.193799999994 -4.51578989643003,37.098860163838,515.196500000005 -4.51574999865501,37.0989200110094,515.338799999998 -4.51563985981128,37.0990100324498,515.246799999994 -4.51552988985084,37.0991300611093,515.280299999999 -4.51539997010455,37.0992200830165,515.298800000004 -4.51516997084907,37.0993900677414,515.3658 -4.51503988311783,37.0995000384777,515.631699999998 -4.51479999341111,37.0996700232908,515.570000000007 -4.51458994304316,37.0998901321644,515.778399999996 -4.51436983423899,37.1001201321317,515.294399999999 -4.51419984963103,37.1004200360284,515.774900000004 -4.51402986412477,37.1007001597259,515.508600000001 -4.51393984215354,37.1009201008177,515.763999999996 -4.51389994437849,37.1011700492221,516.391799999998 -4.5138399306293,37.1014300560175,517.243499999997 -4.51376985754558,37.1017301281132,518.374899999995 -4.51368989401055,37.1020300320845,519.089399999997 -4.51359987293761,37.1023101555603,519.677299999996 -4.51350985096635,37.1026300091313,520.3367 -4.51340993854385,37.1029300807725,520.487200000003 -4.51338998965634,37.1029800369526,520.470100000006 -4.51333986635842,37.1031000657702,520.338699999993 -4.51329996768507,37.1031701390924,520.347500000003 -4.5132798517109,37.1032801093566,520.553 -4.51318999772463,37.1034500942853,520.627299999993 -4.5130798588809,37.1037501662601,521.006899999993 -4.51297994735669,37.1039801659711,521.347999999998 -4.51288992538543,37.1042001068536,521.698699999994 -4.51282991073794,37.1044301066313,522.293300000005 -4.51282991073794,37.1044800625385,522.556400000001 -4.51271994077747,37.1047400694359,523.364799999996 -4.51265992612998,37.1049100539541,523.926500000001 -4.51265992612998,37.104930003095,524.051800000001 -4.51258985304622,37.1051400537253,524.785099999994 -4.51247988308578,37.1054600744545,525.739400000006 -4.51239991955075,37.1057001326372,526.443100000004 -4.51230989757952,37.1059400224154,527.048800000004 -4.51222993404449,37.106190138377,527.704800000007 -4.51213991297156,37.1064300287525,528.247099999993 -4.51211996408405,37.1065200498655,528.482900000003 -4.51211996408405,37.1065601156527,528.513999999996 -4.51202994211279,37.1065401669411,528.197799999994 -4.51207989832407,37.1065601156527,528.3848</coordinates>
</LineString>
</Placemark>
</Folder>
</Document></kml>
