<?xml version="1.0" encoding="UTF-8"?>

<kml xmlns:xsd="http://www.w3.org/2001/XMLSchema" xmlns:gx="http://www.google.com/kml/ext/2.2" xmlns:atom="http://www.w3.org/2005/Atom" xmlns="http://www.opengis.net/kml/2.2">
<Document>
<name>ES06a_02c_sergude-hospital_de_bruma</name>
<visibility>1</visibility>
<Schema name="ES06a_02c_sergude-hospital_de_bruma" id="kml_schema_ft_ES06a_02c_sergude-hospital_de_bruma">
<SimpleField type="xsd:string" name="id">
<displayName>id</displayName>
</SimpleField>
<SimpleField type="xsd:string" name="nombre">
<displayName>nombre</displayName>
</SimpleField>
<SimpleField type="xsd:double" name="longitud">
<displayName>longitud</displayName>
</SimpleField>
<SimpleField type="xsd:string" name="_formato">
<displayName>_formato</displayName>
</SimpleField>
</Schema>
<Folder id="kml_ft_ES06a_02c_sergude-hospital_de_bruma">
<name>ES06a_02c_sergude-hospital_de_bruma</name>
<Placemark id="kml_1">
<name>&lt;img height='20' src='https://nco.ign.es/iconos/icono_todos_caminos_azul.png' /&gt;&lt;img height='20' src='https://nco.ign.es/iconos/Camino Santiago_20.png' /&gt;&lt;img height='20' src='https://nco.ign.es/iconos/icono_todos_caminos_azul.png' /&gt;  Camino de Santiago </name>
<visibility>1</visibility>
<description><![CDATA[<!DOCTYPE html>
<html>
<head>
<style>
#nco {
  border-collapse: collapse;
  overflow:hidden;
}
#nco th, #nco td {
  padding: 4px;
  text-align: left;
}
#nco th {
  color: #364B5F;
  padding-right: 5px;
}
#nco td {
  color: rgb(51, 51, 51);
  font-size: 12px;
  padding-right: 5px;
}
</style>
</head>
<body>
<table id="nco">
<tr>
<td>Caminos de Galicia</td>
</tr>
<tr>
<th><b>Camino: </b></th>
<td>ES06a Camino Inglés</td>
</tr>
<tr>
<th><b>Etapa: </b></th>
<td>02c Sergude-Hospital de Bruma</td>
</tr>
<tr>
<th><b>Longitud: </b></th>
<td>12.6 km</td>
</tr>
</table>
</body>
</html>]]></description>
<Style>
<IconStyle>
<scale>0.8</scale>
</IconStyle>
<LabelStyle>
<color>ffffffff</color>
<scale>0.75</scale>
</LabelStyle>
<LineStyle>
<color>ffff0000</color>
<width>3.0</width>
<gx:labelVisibility>1</gx:labelVisibility>
</LineStyle>
<PolyStyle>
<color>66ff0000</color>
</PolyStyle>
</Style>
<ExtendedData>
<SchemaData schemaUrl="#kml_schema_ft_ES06a_02c_sergude-hospital_de_bruma">
<SimpleData name="id">ES06a_02c</SimpleData>
<SimpleData name="_formato">kml</SimpleData>
</SchemaData>
</ExtendedData>
<LineString>
<extrude>0</extrude>
<tessellate>1</tessellate>
<coordinates>-8.34533980150164,43.2464500332651,135.0 -8.34533477183436,43.2464471829386,135.0 -8.34508800911738,43.2463070377954,134.372900000002 -8.34499178427909,43.2462324389832,133.615399999995 -8.34481358547617,43.2461179418487,132.0 -8.34470478781717,43.2460616155057,130.959900000002 -8.34459783529778,43.2460136713296,130.0 -8.34450010218813,43.2459886928373,129.114600000001 -8.34439298168375,43.2459583506265,127.902799999996 -8.34431184494897,43.2459380664216,127.367700000003 -8.34413900998662,43.2459187879467,125.983399999997 -8.34398595592682,43.2458874399637,124.442599999995 -8.34370583337346,43.2458423453511,122.6103 -8.34354892374448,43.2457972507051,121.0 -8.34333283849444,43.2457182926249,119.057499999995 -8.34318330493227,43.2456564346631,117.732999999993 -8.3430691434327,43.2456016168339,116.004100000006 -8.34297912235977,43.2455394230696,116.045499999993 -8.34290586385,43.2454727030657,115.260899999994 -8.34287485131148,43.2454373312194,114.769 -8.34286613405994,43.2453778201489,114.011799999993 -8.34289614138369,43.2453017125597,113.848100000003 -8.34296202292832,43.245181683692,113.0 -8.34299990937544,43.2450629960255,112.364400000006 -8.34295783228752,43.2449979519714,112.0 -8.3428575847934,43.2449134628471,112.0 -8.34274476358024,43.2448274639918,111.212199999994 -8.34263110513721,43.2447345928917,110.984899999996 -8.34252163733501,43.2446355189301,110.288799999995 -8.34243195133366,43.244543653297,110.0 -8.34234394158867,43.2443860734011,110.0 -8.34231745476252,43.2442243025198,110.0 -8.34230018824444,43.2440838218057,109.079199999993 -8.34230555208497,43.2439673130207,109.034400000004 -8.34230588715659,43.2438399087042,108.960500000001 -8.34225727213004,43.2436162789567,108.228400000007 -8.34223967054038,43.2435063084626,107.185899999997 -8.3421841825036,43.2433314620746,107.0 -8.34212718529713,43.2432030513011,106.0 -8.34205677714179,43.2430624033279,105.844700000001 -8.3420048096026,43.2429400273584,105.0 -8.34196776128364,43.2427965289349,104.0 -8.3419416104274,43.2426210117274,103.013099999996 -8.34191847611389,43.2424439863044,102.390700000004 -8.34188695962049,43.2422662896175,102.0 -8.34184873810175,43.2420327701522,100.0 -8.3418135349224,43.2418282519109,99.476999999999 -8.34180850525515,43.2418052852753,99.0639999999985 -8.34191780507239,43.2417288420986,99.0 -8.34202911711586,43.2416487113019,99.0779999999941 -8.34216808918526,43.2415268383422,98.023199999996 -8.34230488194177,43.241423908681,96.9946999999956 -8.34243195133366,43.2413422690918,96.2225000000035 -8.34251677655102,43.2412978444925,95.4098999999987 -8.34252884631515,43.2410584578661,95.0 -8.34253085764309,43.2409593838158,94.1156000000046 -8.34251828482238,43.2408678529298,93.8871000000072 -8.34248106941679,43.2407510094826,93.1432999999961 -8.3424487147952,43.2406531089388,92.0258999999933 -8.342419210528,43.2405798512833,91.7580000000016 -8.3423774685117,43.2404926794994,91.3600000000006 -8.34232499791594,43.2404199242376,91.0 -8.34228795049531,43.2403701360744,90.8684000000067 -8.342265486325,43.2403288970918,91.0 -8.34224771675038,43.24024256325,89.777700000006 -8.34225107016131,43.2401168349487,89.0 -8.34227688594596,43.2399423237098,87.0454000000027 -8.34230286971554,43.2397572509936,85.0 -8.34233773872161,43.2395341245598,83.2357999999949 -8.34236774604538,43.2393612895875,82.6138000000064 -8.34237696635346,43.2392757946525,82.0 -8.34236238130649,43.2391782294205,80.7231999999931 -8.34232013713195,43.2390362397473,77.9677999999985 -8.34228392694115,43.2389078290826,75.2884000000049 -8.34226598938157,43.2388246802859,73.8123999999953 -8.34227453954644,43.238708842703,71.6392999999953 -8.3422700129357,43.2386523485201,70.3794999999955 -8.34224034068358,43.238591160718,70.0 -8.34219323482672,43.2385101913962,70.0 -8.34211109197879,43.2384052501522,70.0 -8.34202408834691,43.2383360152058,70.9042000000045 -8.34192266675472,43.2382768394665,72.0 -8.34183868056385,43.2382275534656,72.9891999999963 -8.34177313409084,43.2382149804931,73.8543000000063 -8.34171479569963,43.2382039166417,74.3215999999957 -8.34162427157016,43.2381958703815,75.2664999999979 -8.34152838180346,43.2381883260708,76.4021999999968 -8.34147306175163,43.2381873202063,76.6416999999929 -8.34143785767395,43.2381734062906,77.1266999999934 -8.34142126129907,43.2381527870411,77.4459000000061 -8.34141958504276,43.2381184213915,77.9149000000034 -8.34144121018662,43.2380468399692,78.3185999999987 -8.34148278421795,43.2379616795699,80.7838000000047 -8.34150457734674,43.2378703169519,81.1252999999997 -8.34153609384017,43.2376562430129,83.415599999993 -8.34157448244553,43.2374818994623,85.2872999999963 -8.34155218715847,43.2374269145937,85.5956000000006 -8.34147339682322,43.2373845021674,85.616399999999 -8.34131766129232,43.2373271697242,86.0522000000055 -8.34127541621945,43.2372705080317,87.0 -8.34123350711649,43.2371902090693,88.0 -8.34113694720662,43.2369701007057,90.081600000005 -8.34108062104165,43.2368629801157,91.0893000000069 -8.34103468838456,43.2367706112713,91.5314000000071 -8.34093108747947,43.2366220839178,91.0 -8.3408432457194,43.2365437971931,90.7069000000047 -8.34073025741961,43.2364859619943,91.002999999997 -8.34064794748506,43.2364681923128,91.5657000000065 -8.34046874167073,43.2364670188802,92.0448000000033 -8.34010077645899,43.2364648395545,89.8934000000008 -8.33997622145158,43.2364344971814,89.2283000000025 -8.33983691431059,43.236384037565,89.1370000000024 -8.33971571181581,43.23633039399,88.6328999999969 -8.33963021645529,43.2362824493545,88.4198000000033 -8.33952711860677,43.2362004743397,86.8623999999982 -8.33936266582434,43.2360707226078,85.735400000005 -8.33925956887412,43.2359656135481,84.8426000000036 -8.33922302361173,43.2358670423487,84.3892000000051 -8.33918396396484,43.2358435728051,83.9508999999962 -8.33902286369507,43.2358279822847,83.8065000000061 -8.33889914681581,43.2358420642774,84.0 -8.3387826380184,43.2358911820487,85.7985000000044 -8.33870116621204,43.2359718158418,87.4731999999931 -8.33859521890743,43.2360442354429,90.5069999999978 -8.33853554022983,43.2361347598234,91.2280000000028 -8.33835667038541,43.236279766747,94.1085000000021 -8.33813052580084,43.2363845408393,96.4014000000025 -8.3379573557669,43.2364504226261,98.0243000000046 -8.33782123405189,43.2364671864199,99.7942000000039 -8.33771981335799,43.2364472374067,100.342799999999 -8.33760313657562,43.2363905755504,101.0 -8.33746500353271,43.2362936810951,103.019199999995 -8.33733776615586,43.2362014802371,105.199900000007 -8.33723316003598,43.2360430620021,107.366800000003 -8.33712888898769,43.2358400524709,109.772299999997 -8.3369716442871,43.2356298340289,112.0 -8.33686033224359,43.2355205343412,112.585000000006 -8.33679076311475,43.2354400681481,113.161699999997 -8.33676528150338,43.2353309356629,112.770999999993 -8.33674617074403,43.2351751997844,113.860000000001 -8.33675857647811,43.2349953241171,114.402799999996 -8.33677735216588,43.2347958347624,115.006899999993 -8.33678523039092,43.2347016224119,115.104600000006 -8.3368018267658,43.2346114329556,114.308999999994 -8.33681842314067,43.2345245962312,114.518500000006 -8.33685027470569,43.23446759946,113.516399999993 -8.3371905798915,43.2341036573791,113.040800000002 -8.33727942776469,43.2339794374194,111.809800000003 -8.33733843629906,43.2338791901566,111.711200000005 -8.33737883713065,43.2337628490387,111.575100000002 -8.33739710976185,43.2336565664385,112.0 -8.33741605253624,43.2334931197314,112.706300000005 -8.33740666514154,43.2333534768856,113.0 -8.33737665781776,43.2332378069221,114.0 -8.33732200790914,43.2330797239346,115.300799999997 -8.33725445010823,43.2329615389019,116.6014 -8.33719627970198,43.2328490542568,117.241500000004 -8.33714095875186,43.2327618825391,118.013300000006 -8.33707004753995,43.2326607961769,118.024399999995 -8.33698807267702,43.2325791566271,119.0 -8.33688899838264,43.2324847765714,120.0 -8.33682714039217,43.2324239242228,120.0 -8.33675740327837,43.2323639095685,119.9807 -8.33671867870309,43.2323248498771,120.008000000002 -8.33667861294311,43.2322675179096,119.590100000001 -8.33663268028599,43.2321803460146,119.0 -8.33657719224921,43.232099879338,119.0 -8.33648633214979,43.2319770009467,119.033100000001 -8.3364108952255,43.2318690416716,118.8367 -8.33635373003408,43.2317956163747,118.894499999995 -8.33627628178185,43.2317253758012,118.0 -8.33618475153923,43.2316573152991,117.992599999998 -8.33606656648553,43.231604005942,118.0 -8.33594217856474,43.2315243782346,117.0 -8.33589591083604,43.2314685548044,117.0 -8.33584645768132,43.2314083723103,117.0 -8.33583019637807,43.2313327676036,116.067500000005 -8.33582667677877,43.2312184388199,116.0 -8.33585852744549,43.2310288398471,116.0 -8.33585333069158,43.2309223895054,116.318400000004 -8.33583841057303,43.2308593580341,116.704700000002 -8.33578459879256,43.2307686654615,117.1109 -8.33572039350425,43.2306357284223,118.0 -8.33566708478036,43.2305073177269,117.891600000003 -8.33562517567741,43.2303354886713,116.698399999994 -8.33546072289497,43.2297844625422,112.0 -8.33534454916918,43.2295345144051,110.388800000001 -8.33526324444945,43.229385316196,109.279999999999 -8.33519468053538,43.2292248865439,107.788400000005 -8.33517204927841,43.2291504553205,107.045800000007 -8.33517104406362,43.2290942965596,105.974900000001 -8.33517154712016,43.2290418260342,104.764899999995 -8.33518143757144,43.228991534402,103.573099999994 -8.33520071541745,43.2289447634611,102.430500000002 -8.3352553662244,43.2288192023181,101.0 -8.33527665629661,43.2287278397382,100.432199999996 -8.33527682338327,43.2287062145443,100.465700000001 -8.33527028544463,43.2285905442697,99.5630999999994 -8.3352721296859,43.228562045734,99.0 -8.3352897312756,43.2283883725947,97.1386999999959 -8.33530364528101,43.2283229939421,96.2541999999958 -8.33530230409631,43.2281515003991,93.8423000000039 -8.33532091269741,43.2280859539297,92.4054999999935 -8.33532107978404,43.2278303055962,90.5706000000064 -8.33532845585084,43.2277473249571,90.2231000000029 -8.33540255159043,43.2274123837982,87.690300000002 -8.33548201206889,43.2270239664158,85.1897000000026 -8.33546323727945,43.22680938964,84.1895999999979 -8.33539299710907,43.2266779618836,83.0470000000059 -8.33527581727015,43.2265299375065,81.8858999999939 -8.33521261809496,43.226411584642,81.0298999999941 -8.33504548294309,43.2260853608226,79.8589000000065 -8.33492361030514,43.2257891445345,78.9955999999947 -8.33483073887778,43.2254949396098,77.0 -8.33482654733869,43.2254005597118,76.0353000000032 -8.33480458712325,43.225248846989,74.4921000000031 -8.334783297051,43.2251772655049,73.5838999999978 -8.33461917934019,43.2249997370919,70.1114999999991 -8.33471808564958,43.224891777895,69.6594999999943 -8.33473652626573,43.224814664814,67.4345999999932 -8.33479469667197,43.2246748541492,66.0 -8.33485303416484,43.2245280038072,64.0 -8.33497842730038,43.2242973331837,62.9858999999997 -8.33503223997918,43.2240636460129,62.0 -8.33503659770663,43.2236705348325,62.0 -8.33513366067308,43.2230298218278,62.0 -8.33514371910931,43.2228511200123,62.0 -8.33506912031315,43.2226005012809,62.0 -8.33505118275357,43.2223681547798,63.0 -8.33493869751032,43.221483025525,68.0 -8.33475764835301,43.2211851326584,69.6352999999945 -8.33484347878515,43.2211013135735,70.2035999999935 -8.33482520615396,43.2206973061018,72.5081999999966 -8.33485370520634,43.220461103813,74.3068000000058 -8.33488639400122,43.2202597705918,74.2375999999931 -8.33494188293633,43.220103699656,75.2473000000027 -8.33505587645094,43.2196856103254,77.3439000000071 -8.33508571578973,43.2194660043463,79.1686000000045 -8.33508789510262,43.2193238476372,81.0913 -8.33506710808692,43.2191332428013,81.6606999999931 -8.33507582533845,43.2189354297793,82.0834000000032 -8.33510315029276,43.2188251240821,82.8622000000032 -8.33513097830364,43.2187486815369,83.4208999999973 -8.3352654237623,43.2186051830993,85.8396999999968 -8.33545435204299,43.2184962181726,87.0720000000001 -8.33561964295355,43.2183927854666,88.2776000000013 -8.33576012419264,43.2182249797698,89.3378999999986 -8.33583589618855,43.2180952283936,91.0 -8.33586439524093,43.2178677431889,92.4131999999954 -8.33593882605211,43.2167915069847,97.1518000000069 -8.33590228078972,43.2165578191943,99.0 -8.33584561955317,43.2163824699483,100.025999999998 -8.33573263125338,43.2161176019088,101.107900000003 -8.33555577363519,43.2158384844031,103.727899999998 -8.3354184778221,43.2156770488701,105.455600000001 -8.33530498646574,43.2155705985607,106.799199999994 -8.33520591217136,43.2154537550567,107.500599999999 -8.33513936048356,43.2153533398422,108.727299999999 -8.33508336939021,43.2151796670434,109.804600000003 -8.33507096365612,43.2151189820388,110.398499999996 -8.33507230484086,43.2149974442496,110.620800000004 -8.33510583266219,43.2149117809255,111.0 -8.33522535890062,43.2146980427247,112.465899999996 -8.33527062051621,43.2145840487113,112.430600000007 -8.33528252319375,43.2143899238534,113.899799999999 -8.33528855807582,43.2142749243142,114.708799999993 -8.33527648831165,43.2141428253188,116.215100000001 -8.33525469518287,43.2140382192202,116.714699999997 -8.33522267653119,43.2139222140622,117.807799999995 -8.33515780020138,43.2137420026657,119.229699999996 -8.33508135716398,43.2135912960082,120.629199999996 -8.33502285168615,43.2134027034771,121.279800000004 -8.33494875594656,43.2131269387173,123.811400000006 -8.33492713080273,43.2130087542803,123.176800000001 -8.33492310724856,43.2129049862231,124.215500000006 -8.33492964518721,43.2127777487298,125.456000000006 -8.33492746587431,43.2125923408038,125.683900000004 -8.33494339120769,43.2124697975825,127.233600000007 -8.33496250196704,43.2123402133511,128.222800000003 -8.33498530120894,43.2122587410349,128.627099999998 -8.33502268459949,43.2121851480797,129.486199999999 -8.33508605175964,43.2120954615172,129.0 -8.33520222458714,43.2119581659088,130.078699999998 -8.33526676494704,43.211870826825,130.574699999997 -8.33532510333821,43.2117843256541,131.658500000005 -8.33535628386173,43.2116968187135,131.924299999999 -8.33536952772397,43.2116203757435,132.760299999994 -8.3353728802366,43.2115270009679,133.857399999994 -8.3353728802366,43.2111695968221,138.963600000003 -8.33542535083233,43.2110155375062,140.014500000005 -8.33549894351538,43.2108971846412,141.0 -8.33560572894814,43.2107907344997,141.264999999999 -8.3357778937673,43.2106507568018,143.1391 -8.33598995546314,43.2104271276942,143.045299999998 -8.33612993364565,43.2102611660677,144.535900000003 -8.33626622334562,43.2100460863822,146.146500000003 -8.33631986714112,43.2099045997699,147.324800000002 -8.33641592399446,43.2096013423549,148.120800000004 -8.33646688631882,43.2094134203821,149.5959 -8.33650041414019,43.2093218899142,149.890899999999 -8.33658758575703,43.2092151044129,150.678799999994 -8.33672957526748,43.2090900467284,151.944399999993 -8.33690224224488,43.2090224886798,153.0 -8.33710659280234,43.2089321315881,155.485199999996 -8.33723450122068,43.2088456301778,157.0 -8.33735503267393,43.2087291221161,159.540299999993 -8.33745393898336,43.2086168042395,160.508199999997 -8.33757614759122,43.2085173952525,161.523000000001 -8.33769835530079,43.2084153035791,162.694699999993 -8.33779726161021,43.2083254490939,164.0 -8.33796691114656,43.208153620372,167.891699999993 -8.33811677978035,43.2079983873144,168.152100000007 -8.33830738431736,43.2078339348476,171.585300000006 -8.33841567891978,43.2077583297127,174.237500000003 -8.33853989795728,43.2077162528316,176.065799999997 -8.33864936575948,43.207688257216,177.094400000002 -8.33872916220785,43.207693454055,177.941600000006 -8.33897106324251,43.207695465481,181.157699999996 -8.33912948114288,43.207686245135,181.196100000001 -8.33931740331042,43.2076502031416,183.045199999993 -8.33954891173556,43.2075687311079,184.923299999995 -8.33978863435562,43.207451384474,186.0 -8.33997940687758,43.2073439284927,188.342499999999 -8.34022482840984,43.2071555032515,189.748900000006 -8.34049539648184,43.206976130917,192.147299999997 -8.34075121242024,43.2068096662033,194.0 -8.34117449858212,43.2065702789945,196.760699999999 -8.34146467957172,43.2063813504606,199.745200000005 -8.34174027641267,43.2061994634698,201.482699999993 -8.34246145560087,43.2057755069077,207.137400000007 -8.34269765772334,43.2056268117024,209.952699999994 -8.34301114101141,43.2053599319361,210.671799999996 -8.3431375402601,43.2052362152097,211.560599999997 -8.34325069564655,43.2050539928262,211.987099999998 -8.3433403816479,43.2048783079899,212.366200000004 -8.34358496595029,43.204393666213,214.030599999998 -8.34373483458408,43.2042407802054,215.083199999994 -8.34380926539529,43.204175736452,215.017800000001 -8.34396919246532,43.2040409557837,216.1584 -8.34409140017489,43.2039212621025,216.933300000004 -8.34424730369074,43.2037620062946,218.205400000006 -8.34435878282088,43.2036696377094,219.0 -8.34448233261348,43.2036047616319,220.0 -8.34462482518047,43.2035415617879,222.0 -8.34482599031195,43.2034389674076,223.0 -8.3450043570998,43.2033378815319,223.0 -8.34519144113921,43.2031895221954,223.0 -8.34529470607435,43.203074187228,223.0 -8.3453211929005,43.2029447703111,224.0 -8.34556426893157,43.2028135098197,225.0 -8.34566283927107,43.2027591949833,225.0 -8.3457220157904,43.2026892902698,226.0 -8.34583248970572,43.2024933209119,227.438699999999 -8.34591731402474,43.2023535107957,229.257299999997 -8.34596458786656,43.2020214200501,233.780100000004 -8.34598889537985,43.2019025645093,236.201199999996 -8.34607405566879,43.2017292266581,238.973599999998 -8.34612384479338,43.2015510275338,241.294500000004 -8.34615753970138,43.2013240457338,244.087199999994 -8.34622576854386,43.2011857442878,246.456300000005 -8.34640815888587,43.2008980770354,251.0 -8.34686916350992,43.2004290261362,253.0 -8.34695197650101,43.2002984360276,253.905100000004 -8.34699556275858,43.2001867889018,254.0 -8.34704669216961,43.1999725479105,254.9908 -8.3471253145199,43.1996228543432,254.640499999994 -8.34723779976315,43.1991445831359,256.0 -8.34725959199364,43.1989373827613,257.0 -8.34716236194053,43.1985937243335,259.426600000006 -8.3471730914183,43.1984912977901,259.746799999994 -8.34720142158743,43.1982819177806,261.505300000004 -8.34729278474339,43.1979583764091,265.920400000003 -8.3472979814973,43.1977796738108,267.789699999994 -8.34728138512242,43.1975081003135,272.252600000007 -8.3472575806657,43.1972886620148,273.831900000005 -8.34724752222947,43.1970098800799,277.784700000004 -8.34724551090157,43.1968932040302,280.345400000006 -8.34738682937049,43.1967699901074,283.773400000005 -8.34764281329385,43.1965904497113,287.0 -8.34760878241594,43.196428176063,290.136100000003 -8.34749981767028,43.1962513177206,294.178799999994 -8.34745254382846,43.1961032934801,296.0 -8.34746360747951,43.195688892329,301.385800000004 -8.34749495598795,43.1948813795451,312.502200000003 -8.34748942416246,43.1944857540222,318.409899999999 -8.34744533484832,43.1943402442613,320.556500000006 -8.34738029143185,43.1940229049244,324.524999999994 -8.34726193929149,43.193829283089,327.846000000005 -8.34710771203191,43.1936331464321,330.400999999998 -8.3465298635389,43.1931699627545,340.086899999995 -8.34617145370682,43.1928700578589,349.215500000006 -8.34596274452362,43.1926020049905,354.465500000006 -8.34582511363892,43.192374854985,358.020199999999 -8.34574297079103,43.1921410002914,361.4614 -8.34575856105279,43.1918545066039,364.539099999995 -8.34576107543726,43.1916692669271,367.282300000006 -8.34580985844877,43.1913646685877,372.674499999994 -8.34593458144115,43.1909722275106,379.775099999999 -8.34595235101577,43.1908293998745,382.238700000002 -8.34590507627562,43.1906862372279,384.475900000005 -8.34575051484279,43.190220706117,393.593900000007 -8.34561405715786,43.1898839214441,397.7405 -8.34536964084043,43.1894390101229,401.685700000002 -8.34466388482733,43.1881579197872,414.0 -8.34441360071446,43.1877297724254,420.145099999994 -8.34430631222511,43.1875208951931,423.112399999998 -8.34421545302403,43.1872493212355,426.0 -8.34414303264245,43.1869383527349,427.604000000007 -8.34410665536503,43.1866842138951,428.258799999996 -8.34401948374819,43.1862356139191,430.0 -8.34399014746594,43.1861058619558,430.0 -8.34394505203868,43.1858783773057,430.779500000004 -8.34393532957237,43.185822721683,430.363599999997 -8.34388839080213,43.1856269201994,430.342999999993 -8.34380021307214,43.185590207556,431.0 -8.34368269905994,43.1855281818059,431.0 -8.34365470306413,43.1855058856372,431.0 -8.34360122725358,43.1854044648219,430.933999999994 -8.3435506000008,43.1853100844474,431.0 -8.34349863246161,43.1852083279455,431.0 -8.34342386568049,43.1850862877777,431.126000000004 -8.34336334797643,43.1849967690111,431.982499999998 -8.34330467541197,43.1849213314225,432.0 -8.34321985019465,43.1848274546561,433.0 -8.34314256902905,43.1847463176395,433.0 -8.34309898277148,43.1846801002906,433.690400000007 -8.34304517099102,43.184595946107,434.443199999994 -8.34303393935502,43.1845667772409,434.726299999995 -8.34299236532368,43.1844598239576,435.877399999998 -8.34297543387718,43.1843899192401,436.0 -8.34297258442112,43.1843198461045,436.966899999999 -8.34296755475384,43.18425580883,437.143500000006 -8.34296889593854,43.1841205249951,438.399000000005 -8.34297258442112,43.1840335207249,439.0 -8.34298096570271,43.1839741763373,439.637799999997 -8.34300342987303,43.1838709117251,440.211599999995 -8.34303595158125,43.1837579238525,441.209199999998 -8.3430758493563,43.1836739367376,441.822400000005 -8.34311574713132,43.1836001763297,442.0 -8.34315262746529,43.1835168597388,442.188099999999 -8.34317559379385,43.1834518161644,442.0 -8.34318749647136,43.1834161096361,442.0 -8.34319923116394,43.1833433543761,442.127299999993 -8.34321113294312,43.1832538356738,442.0 -8.34321062988658,43.183105979036,442.0 -8.34320861855864,43.1827167233233,443.255799999999 -8.3432094566868,43.1824910824031,443.921300000002 -8.34321381531255,43.1823668627491,443.707800000004 -8.34322068832281,43.1822143119511,445.0 -8.34323007571751,43.181970398881,446.911600000007 -8.34323191995879,43.18159841002,449.0 -8.34323208794378,43.1814931330297,450.0 -8.34322571799009,43.1812088191377,451.0 -8.34322135936431,43.1810901313635,451.0 -8.34317760512178,43.1808425298054,452.0 -8.34312748182387,43.1806569547302,452.353900000002 -8.3430838955663,43.1805922461157,452.665200000003 -8.34299018601079,43.180561401023,453.0 -8.3429824748724,43.1803211758587,453.0 -8.34292044889698,43.1802750750477,452.530899999998 -8.34275566014463,43.1801929323651,452.0 -8.34300376494461,43.1793205438969,456.0 -8.34325237190287,43.1784738042086,452.7166 -8.34342671513658,43.1778733244597,454.050799999997 -8.34346208719922,43.1777449140192,453.439899999998 -8.34361279396118,43.1771702507016,454.173999999999 -8.34375344228689,43.1766688451137,454.0 -8.3438285441396,43.1766623072751,454.0 -8.34403105045578,43.1766480583221,455.0 -8.34412576612438,43.1766326354366,455.0 -8.34418946835612,43.1766044722667,455.0 -8.34423657511131,43.1765754705622,455.0 -8.34437336786782,43.1764197352811,456.0 -8.34447529161829,43.1763077529512,457.0 -8.34472591080275,43.1760792622424,459.218999999997 -8.34480905886546,43.1759617476104,460.0 -8.3449538987303,43.1757128052204,461.0 -8.34519546469334,43.1753341105422,462.0 -8.34542211143616,43.1749721804599,461.0 -8.34559662265483,43.174490388729,459.104699999996 -8.34566518656889,43.1743155422353,459.0 -8.34591027392785,43.1737814473737,457.964600000007 -8.34597095871858,43.173659742063,457.0 -8.34604874294071,43.1735070234165,457.0 -8.34615770768634,43.1733422355901,456.0 -8.34626164276471,43.1732042690504,455.550600000002 -8.34637144563853,43.1730775351026,455.0 -8.34642609554715,43.1730191968325,455.0 -8.34684703530952,43.1726294385256,455.0 -8.34712766091942,43.1727129219653,456.0 -8.34729881962546,43.1724123472431,455.0 -8.34753569189117,43.1721706126726,454.0 -8.34790566932913,43.171912617758,453.0 -8.34812594611826,43.1717709640998,452.0 -8.34858007773205,43.1714918461342,451.0 -8.34889708061941,43.1712464239997,450.0 -8.34920201464091,43.1709771977896,449.0098 -8.34984725384824,43.1706036999495,448.082599999994 -8.35037698947298,43.1702456249829,448.002600000007 -8.35094729481257,43.1696436367083,448.0 -8.35148692088858,43.1692159924023,449.0 -8.3520833779827,43.168770410242,448.0 -8.35346672692639,43.1677877154684,445.0 -8.35506448486378,43.1666529734395,442.482999999993 -8.35630232469772,43.1657450461766,440.1927 -8.35651136895255,43.1655547764817,440.0 -8.35859024928474,43.1635010429161,431.786699999997 -8.35895419094231,43.1631696227124,429.0 -8.36054423863961,43.1616275196684,418.0 -8.36038699393901,43.1615294514524,418.0 -8.36005255565032,43.161446638126,417.050900000002 -8.35997242502866,43.1613318061432,416.0 -8.36001064654736,43.1611033157577,414.999899999995 -8.36002606882417,43.1608746574256,413.0 -8.36001701650105,43.1608054229078,413.0 -8.35998902140354,43.1606719828006,412.0 -8.35993202419707,43.1605263052889,411.276100000003 -8.35940815546947,43.159887269027,407.0 -8.35919575780369,43.1596619637803,405.068100000004 -8.3591511663313,43.1595784795398,405.0 -8.35915837441314,43.1595094132702,405.0 -8.35920866569601,43.1593642382072,404.526700000002 -8.35927974399455,43.159097861216,403.480800000005 -8.35932685074974,43.1589456461136,402.796799999996 -8.35936339601213,43.1588839550146,402.017900000006 -8.35928980243078,43.158766776223,402.224900000001 -8.35918955493666,43.15870190025,402.801699999996 -8.35907354919582,43.1585843862571,402.082500000004 -8.35900096262592,43.1585044227219,402.015899999999 -8.35893625428103,43.1583411435262,402.0 -8.35881991346861,43.1581332718888,401.0 -8.35878387126276,43.1580873391207,401.0 -8.35876576571823,43.158024307079,401.0 -8.35876626877477,43.1579770334964,401.0 -8.35877448296973,43.1579399850998,401.0 -8.35879627609852,43.1579029373361,401.0 -8.35905225912358,43.1576325369964,402.082999999999 -8.35945375305498,43.1572989375342,403.0 -8.35984719897975,43.1568379329617,403.0 -8.35996639014659,43.1566414612063,403.482399999994 -8.35997125093059,43.1565442309924,404.0 -8.35993705296605,43.1564525327583,404.0 -8.35985608421624,43.1563563088028,403.986499999999 -8.35961317617013,43.1560547276314,403.0 -8.35956372301542,43.1559429130763,403.0 -8.35986966225173,43.1557638758087,404.0 -8.3601031829031,43.1556210483765,404.053899999999 -8.36028205274752,43.1554998455542,405.0 -8.36053786778763,43.1553060563216,405.0 -8.36066376397974,43.155215196355,405.901199999993 -8.36083358150108,43.1550410201297,405.0 -8.36096551257526,43.1548919902986,405.0 -8.36099065821671,43.1548405254354,404.885699999999 -8.36108554187027,43.1547089295053,404.0 -8.36117573092816,43.1546323188115,403.041299999997 -8.3617651461288,43.1547494976677,404.0 -8.36222531262466,43.1540871594942,399.0 -8.36253678458479,43.1537186910071,397.0 -8.36273912381434,43.1535089758948,396.0 -8.36295051536702,43.1532228179916,395.213099999994 -8.36332870610161,43.1526570392298,392.8177 -8.36337899828281,43.1525733881341,392.008100000006 -8.3634175548731,43.1524382720038,392.0 -8.36344873539662,43.1521935204246,391.0 -8.36348276627453,43.152063600443,390.979800000001 -8.36349969772102,43.1520215238287,390.497000000003 -8.36352953705981,43.1519744173064,390.0 -8.36371460887296,43.1517568233548,390.0 -8.36386615376307,43.1515794620385,390.0 -8.36392801265186,43.1514584274936,389.165999999997</coordinates>
</LineString>
</Placemark>
</Folder>
</Document></kml>
