<?xml version="1.0" encoding="UTF-8"?>

<kml xmlns:xsd="http://www.w3.org/2001/XMLSchema" xmlns:gx="http://www.google.com/kml/ext/2.2" xmlns:atom="http://www.w3.org/2005/Atom" xmlns="http://www.opengis.net/kml/2.2">
<Document>
<name>ES06a_04a_betanzos-hospital_de_bruma</name>
<visibility>1</visibility>
<Schema name="ES06a_04a_betanzos-hospital_de_bruma" id="kml_schema_ft_ES06a_04a_betanzos-hospital_de_bruma">
<SimpleField type="xsd:string" name="id">
<displayName>id</displayName>
</SimpleField>
<SimpleField type="xsd:string" name="nombre">
<displayName>nombre</displayName>
</SimpleField>
<SimpleField type="xsd:double" name="longitud">
<displayName>longitud</displayName>
</SimpleField>
<SimpleField type="xsd:string" name="_formato">
<displayName>_formato</displayName>
</SimpleField>
</Schema>
<Folder id="kml_ft_ES06a_04a_betanzos-hospital_de_bruma">
<name>ES06a_04a_betanzos-hospital_de_bruma</name>
<Placemark id="kml_1">
<name>&lt;img height='20' src='https://nco.ign.es/iconos/icono_todos_caminos_azul.png' /&gt;&lt;img height='20' src='https://nco.ign.es/iconos/Camino Santiago_20.png' /&gt;&lt;img height='20' src='https://nco.ign.es/iconos/icono_todos_caminos_azul.png' /&gt;  Camino de Santiago </name>
<visibility>1</visibility>
<description><![CDATA[<!DOCTYPE html>
<html>
<head>
<style>
#nco {
  border-collapse: collapse;
  overflow:hidden;
}
#nco th, #nco td {
  padding: 4px;
  text-align: left;
}
#nco th {
  color: #364B5F;
  padding-right: 5px;
}
#nco td {
  color: rgb(51, 51, 51);
  font-size: 12px;
  padding-right: 5px;
}
</style>
</head>
<body>
<table id="nco">
<tr>
<td>Caminos de Galicia</td>
</tr>
<tr>
<th><b>Camino: </b></th>
<td>ES06a Camino Inglés</td>
</tr>
<tr>
<th><b>Etapa: </b></th>
<td>04a Betanzos-Hospital de Bruma</td>
</tr>
<tr>
<th><b>Longitud: </b></th>
<td>24.01 km</td>
</tr>
</table>
</body>
</html>]]></description>
<Style>
<IconStyle>
<scale>0.8</scale>
</IconStyle>
<LabelStyle>
<color>ffffffff</color>
<scale>0.75</scale>
</LabelStyle>
<LineStyle>
<color>ffff0000</color>
<width>3.0</width>
<gx:labelVisibility>1</gx:labelVisibility>
</LineStyle>
<PolyStyle>
<color>66ff0000</color>
</PolyStyle>
</Style>
<ExtendedData>
<SchemaData schemaUrl="#kml_schema_ft_ES06a_04a_betanzos-hospital_de_bruma">
<SimpleData name="id">ES06a_04a</SimpleData>
<SimpleData name="_formato">kml</SimpleData>
</SchemaData>
</ExtendedData>
<LineString>
<extrude>0</extrude>
<tessellate>1</tessellate>
<coordinates>-8.21028471013474,43.2803395760514,23.2225000000035 -8.21033013973529,43.2802976669883,23.002800000002 -8.21024330319003,43.2800654881759,20.7256000000052 -8.21032863146393,43.2798116837661,20.0 -8.21082215779619,43.2790561390177,21.0 -8.21076784295916,43.2787203602855,22.0 -8.21074470864567,43.2785889320196,22.0 -8.21066122461305,43.2785899378709,22.0 -8.21063658202818,43.2783710026221,23.8448999999964 -8.21063440271528,43.2781513968852,25.0 -8.21066759546503,43.2779882847305,26.0 -8.21071252200904,43.2776907269566,28.8736999999965 -8.21077957765174,43.2773157208351,29.9247000000032 -8.21079801736956,43.2772077621171,31.2247999999963 -8.21083540076011,43.2770263774884,33.1603000000032 -8.21085099102186,43.2768349348246,34.6900000000023 -8.21089742673553,43.2766676321037,35.0 -8.211037572903,43.2765169253833,33.2195999999967 -8.21119733198807,43.2763694040378,31.4214000000065 -8.21130059692324,43.2762482016036,30.5868000000046 -8.2114593498952,43.2759729402848,26.6010999999999 -8.2115196996143,43.2758550902675,24.9747999999963 -8.21193493866789,43.2749984600037,10.4909000000043 -8.21198824829011,43.2749196699374,9.20660000000498 -8.2121079416152,43.2747309094085,6.04889999999432 -8.212291337172,43.2745691386833,5.0 -8.21248948576076,43.2744838108948,3.99439999999595 -8.21267422250229,43.2744105533787,6.11160000000382 -8.21273624937604,43.2744647003891,6.02909999999974 -8.21283934632626,43.2744078711422,7.0 -8.21278452843268,43.2743505388816,6.46390000000247 -8.21293456505143,43.2742563262245,7.0 -8.21284454308016,43.2741565814905,8.22040000000561 -8.21270674510884,43.2740145922539,11.2317000000039 -8.21261957259367,43.2738928867434,13.1717000000062 -8.21254480671091,43.2737361454106,15.6891999999934 -8.2125040699094,43.2736481354923,16.5185000000056 -8.2124475766578,43.2735829244436,17.7872999999963 -8.21235118473285,43.2734726182418,20.0967999999993 -8.21209888929208,43.273011613333,22.0709000000061 -8.21193393345307,43.2727512715807,26.1454999999987 -8.21187643319006,43.272667955758,26.4195000000036 -8.21158507810239,43.272302840228,31.338699999993 -8.21157988134845,43.2722009162073,33.5390999999945 -8.21183284783079,43.2723055219032,37.2703000000038 -8.21197148393027,43.2723673802681,39.4701999999961 -8.21223333475074,43.2725008201405,42.0396000000037 -8.21249971128362,43.2726711410458,45.2810999999929 -8.21261035318392,43.2726925982385,46.9018999999971 -8.21276323836043,43.2726703025368,49.803700000004 -8.21291629242023,43.2726293987197,50.2041999999929 -8.21298334716461,43.2725898363604,50.3620999999985 -8.21304269166893,43.2725407180927,50.4422999999952 -8.21306565799745,43.2724855653805,52.0151000000042 -8.21311075252641,43.2723237945731,52.0 -8.21314863897353,43.2722144946622,52.6690999999992 -8.21325156793876,43.2719150929529,56.2664999999979 -8.2132869400014,43.2718019372046,57.9850000000006 -8.2133420929666,43.2716698386137,59.4180999999953 -8.2134420053891,43.2715161146928,61.397100000002 -8.21361165492548,43.2712036371275,63.8280999999988 -8.21371039414825,43.2710299638757,65.0957999999955 -8.21377610770788,43.270881771876,66.6852000000072 -8.21387803145836,43.2706700450332,69.2854999999981 -8.21390619543913,43.2705014014923,72.2988000000041 -8.21391055316658,43.2702737488791,75.9134000000049 -8.21389848340241,43.2700916940701,77.9646999999968 -8.21390435119785,43.269942998751,79.7345000000059 -8.21392681446987,43.269719201901,82.8381999999983 -8.21396805342959,43.269548881892,84.0696000000025 -8.21403628227207,43.2693168707235,86.1006000000052 -8.21407014516502,43.2692132704759,87.3834999999963 -8.2141618433926,43.2689841092623,89.4891000000061 -8.21425488190655,43.2688513399855,90.7544000000053 -8.21435563245725,43.2687215878085,92.6181999999972 -8.21452863540456,43.2685531115531,93.9716000000044 -8.21469191498722,43.268428388837,95.1714000000065 -8.21474053001377,43.268397208118,95.0167999999976 -8.21492442862718,43.2682917636765,97.0593999999983 -8.2150776497736,43.2682547161695,98.6140000000014 -8.21520036053971,43.2682335936252,99.0715000000055 -8.21543103083669,43.2681494389338,100.920299999998 -8.21555307145964,43.2680931126893,102.0 -8.21567142359999,43.2680138198275,103.4755 -8.21581894493594,43.267906196521,104.819799999997 -8.21593076003599,43.2678193601583,106.532300000006 -8.21600871134478,43.267740737409,108.199800000002 -8.21608817182324,43.2676470280016,109.201000000001 -8.21615824490696,43.2675722617093,110.790800000002 -8.21627039418029,43.2674757020462,112.822100000005 -8.21638505873644,43.2673821596855,115.345600000001 -8.21654431566326,43.2672698425967,117.253400000001 -8.21663651604909,43.2671913879011,119.196800000005 -8.21677129747766,43.2670597921362,121.554999999993 -8.21688378272091,43.2669310461089,124.304000000004 -8.21702878877408,43.2667099312262,127.021299999993 -8.21709969998599,43.2665741440722,128.0 -8.21723230210171,43.2664026509103,129.0 -8.21733489599535,43.266226127641,129.0 -8.21739524571445,43.2660978848418,129.469100000002 -8.21749130256778,43.2658221197167,130.0 -8.21755651396921,43.2656214570422,130.0 -8.2175674105336,43.2654843290888,130.117299999998 -8.21759406444638,43.2653386518458,129.281600000002 -8.21770906407411,43.2652528211628,124.167000000001 -8.21775784708562,43.2651777189707,129.766799999998 -8.21783814569223,43.2650115897927,131.004700000005 -8.21811173120528,43.2646322247849,133.0 -8.21821667239677,43.2644805122665,134.0 -8.2184391284988,43.2642002215717,136.055800000002 -8.21843711627256,43.2642000541082,136.023300000001 -8.21885269129603,43.263763859903,141.127699999997 -8.21898713675473,43.2636099681742,142.043699999995 -8.21909358711587,43.2634490353083,144.0 -8.21922618923159,43.2632768713282,145.207399999999 -8.21939332438346,43.2630919663233,146.124599999996 -8.2196483012954,43.2628909682194,148.0 -8.21988835898709,43.2627188039694,148.112500000003 -8.2204144079259,43.2624586301424,149.032099999997 -8.22050359087068,43.262419570119,149.0 -8.22058992435936,43.2623553649344,149.186900000001 -8.22059897668248,43.2622982005641,150.0 -8.22062982213441,43.2621741479916,150.0 -8.22065698000206,43.2620812765199,150.0 -8.2206898367819,43.2619595713513,150.0 -8.22073727860867,43.2617555556994,151.0 -8.22076678287588,43.2615735009261,152.0 -8.22081925347161,43.2613071237993,145.242599999998 -8.22095017843271,43.2606020381534,152.922300000006 -8.22096409243815,43.2604969295486,160.0 -8.22101991644484,43.2604598812228,160.0 -8.22151629223317,43.2605487292615,157.344800000006 -8.22172231994527,43.2605881241237,156.0 -8.22187537310674,43.2606181312959,154.563800000004 -8.22212733347597,43.2606481391074,153.066500000001 -8.22244601351795,43.2606883719251,150.0 -8.22270836649666,43.2604903915334,149.534700000004 -8.22282839579166,43.2604074108844,148.0 -8.2230002246409,43.2602568712791,147.0 -8.22305655080584,43.260183278699,146.426600000006 -8.22313517315614,43.2600687816221,146.0 -8.22323223612258,43.2598917558781,145.157399999996 -8.22338411608431,43.2595992274587,142.570399999997 -8.22347933391118,43.2594215310972,140.769799999995 -8.22356985893899,43.2591873407596,138.665299999993 -8.22365518631455,43.2588768750613,137.847699999998 -8.22371251859261,43.2587094045617,136.691000000006 -8.22383539734371,43.2585677502286,136.016099999993 -8.22396582014653,43.2584862781973,135.184800000003 -8.22410127171834,43.2584178818803,134.965599999996 -8.22416765631951,43.2583535089214,134.252500000002 -8.22418425269439,43.2582872916546,134.436499999996 -8.22420369852536,43.2581478168521,133.999100000001 -8.22422532366918,43.2580878026749,134.0 -8.22426589248573,43.2580187359884,134.0 -8.2243357966862,43.2579292169518,133.848199999993 -8.22438525073921,43.2578189111669,134.0 -8.2244211249601,43.2576164046758,134.656300000002 -8.22447141624297,43.2574452461043,134.0 -8.22447175131455,43.2574108802156,134.0 -8.22449639479776,43.2573607565814,134.0 -8.22457116068055,43.2573101298044,134.0 -8.22464173682084,43.2572459244654,134.0 -8.2247138212325,43.2571647875938,134.0 -8.22478724682885,43.2570486145888,134.078999999998 -8.22487726790182,43.2569349555769,135.0 -8.22496477548857,43.2568675650362,135.0 -8.22510391464463,43.2567527332986,135.632899999997 -8.22526283560154,43.2566432654207,136.243199999997 -8.22537699710111,43.256607391066,137.265199999994 -8.2254973614677,43.2565777188488,138.118600000002 -8.22563314811109,43.256562631508,139.741399999999 -8.2257618937593,43.2565155251699,140.647299999997 -8.22590120179862,43.2564721067308,141.984500000006 -8.22605760747276,43.2564045488471,143.0 -8.22640394754063,43.255983777515,146.0 -8.22649799306606,43.2558922469593,147.357000000004 -8.22659438499097,43.2557693681347,149.0 -8.22669848805431,43.2557038219306,149.010500000004 -8.22683192829818,43.2556292228506,150.454700000002 -8.22694189825866,43.2555894924226,151.134900000005 -8.22720257587938,43.2555172406426,154.376999999993 -8.22744129238633,43.2554503529583,155.772299999997 -8.2276298846971,43.2553838008303,157.0 -8.22789911158437,43.2552848940129,159.011100000003 -8.22844091787157,43.2550887573986,163.0 -8.22877921172948,43.2549759374068,166.0 -8.22890661619295,43.2548076285455,167.0 -8.22917802239311,43.2545441018618,168.0 -8.22955688416924,43.2541883735749,170.0 -8.22984723404212,43.2542458733441,170.0 -8.23009986455452,43.2543040436762,170.0 -8.23033606667702,43.2543506472906,170.0 -8.23044234905321,43.2543650639088,169.675000000003 -8.23062272716903,43.2543677463742,169.431700000001 -8.23080327326977,43.2543560115683,169.4997 -8.23093721657022,43.2543295251559,169.010699999999 -8.23106998577256,43.2542961650703,169.0 -8.23120711360068,43.2542596200239,169.0 -8.23138380413224,43.2542326304425,169.0 -8.23152579364266,43.2542130163398,169.0 -8.2317049985587,43.254157025268,168.5726 -8.23180859946379,43.2541188039174,168.0 -8.23198931265119,43.2540140302263,167.0 -8.2321334814745,43.2539189793831,166.100099999996 -8.23225468396928,43.2538244315218,165.305300000007 -8.23250848768145,43.253621924832,163.061300000001 -8.23280604563614,43.2534355112011,161.703399999999 -8.23301794024535,43.2533371076251,160.0 -8.23313193375996,43.2533179970226,159.803499999995 -8.23326235656282,43.2533190026374,159.0 -8.23357768319383,43.2532814520434,158.445900000006 -8.23379293121401,43.2532576470238,158.136400000003 -8.2339456493039,43.2532259632504,158.0 -8.23407121042443,43.2531962913483,158.0 -8.23421655244748,43.2531599144442,157.630799999999 -8.23431260840252,43.2531475087759,157.219299999997 -8.23437329409153,43.2531334275116,157.0 -8.23441956182024,43.2531079461856,157.0 -8.23454931358157,43.2529890907663,156.239100000006 -8.23458937934154,43.2529527137385,156.165999999997 -8.23476338750367,43.2528021746767,156.0 -8.23491711170664,43.2526918687642,155.0 -8.23516270122388,43.2525631224488,155.0 -8.23526445788766,43.2525212132319,155.0 -8.23547299908594,43.2524501348621,155.0 -8.23578631528735,43.2523341288644,154.0 -8.23586275832479,43.2523056303098,154.0 -8.23612712352974,43.252186942784,153.001399999994 -8.23639618243208,43.2520209809867,152.0 -8.23657907583067,43.2519002816299,150.0 -8.23697805447926,43.2516146267323,147.0 -8.23726437989965,43.2513977025743,144.636199999994 -8.23740854872299,43.2512981258301,143.277000000002 -8.23785027460269,43.2510905896797,140.065700000006 -8.23785128071581,43.2510890808753,140.051000000007 -8.23806317532502,43.2509990596208,138.313299999994 -8.23820147635289,43.2509504447512,137.746100000004 -8.23842912920882,43.250877689547,136.0 -8.23867304246972,43.2507729155143,134.061000000002 -8.238802962216,43.2507127337655,133.851899999994 -8.2389345582186,43.2506198624778,133.0 -8.23916640171536,43.2504262403712,131.055300000007 -8.23922105162398,43.2504021005412,130.440900000001 -8.23941517665854,43.2503073849528,129.991099999999 -8.23960578029721,43.2502438500895,129.021500000003 -8.2398753422561,43.250112924996,128.127200000003 -8.24013669002002,43.2499851847872,127.904500000004 -8.24025990474104,43.2498852720365,126.679600000003 -8.24044145605659,43.249713443314,126.0 -8.24056215549477,43.2495724596611,125.390499999994 -8.24068654341556,43.2494695298529,125.008000000002 -8.24082786188448,43.2493920807991,124.433300000004 -8.24096683395388,43.2493151354687,124.0 -8.24110547095166,43.2492293044433,123.129100000006 -8.24117001131156,43.2491632552287,123.0 -8.24122181176412,43.2491049170616,123.0 -8.2413450255868,43.2489295678684,122.0 -8.24165616157702,43.2486571555866,120.0 -8.24194248789574,43.2484402320187,118.0 -8.24222596386007,43.2482927106741,116.297099999996 -8.24274865938792,43.2481032793327,112.7742 -8.24329096783337,43.2479415091622,106.927899999995 -8.24342172570781,43.2479034553452,106.005399999995 -8.24350336549912,43.2477187176204,103.9807 -8.24348006409898,43.2475728728921,103.155100000004 -8.24345910909835,43.2474484853994,103.261700000003 -8.24350353348408,43.2473611461185,102.0 -8.24354376633072,43.2473217512054,101.162400000001 -8.24362440000895,43.2472842001855,100.407800000001 -8.24394710360509,43.2471703737605,98.0 -8.24406763505834,43.2471163941916,96.975099999996 -8.24417810897366,43.2470506803244,96.014599999995 -8.24425170165667,43.246994856722,95.0 -8.24432227779697,43.2469343394899,94.5853000000061 -8.24447298455892,43.2468072698579,92.9893000000011 -8.24457893186353,43.2467606663603,92.0 -8.24466895293646,43.2467390410218,91.4143999999942 -8.24487498064856,43.2466864024725,90.7912000000069 -8.24509810689378,43.2466123066604,89.0372000000061 -8.24521746514726,43.2465682176563,87.7151000000013 -8.24530832434835,43.246557321525,87.0013999999937 -8.24544042340753,43.2465886698176,85.0 -8.24562314882115,43.246655389908,83.1052999999956 -8.24575306856744,43.2466944495745,82.0133999999962 -8.24588717895451,43.2467311620916,80.8867000000027 -8.24604526178327,43.2467718981323,79.7195000000065 -8.24616897866252,43.2468039170142,78.7718000000023 -8.2464038396003,43.2468687929375,77.0476999999955 -8.24660953134245,43.2469279688382,75.4305000000022 -8.24694246046149,43.2470042445238,73.4529999999941 -8.24706131565843,43.2469995502959,72.4789000000019 -8.24722224884157,43.2469687054017,71.5947000000015 -8.24740648252656,43.2469172402823,70.0804000000062 -8.24757009718084,43.2468451561942,69.1886999999988 -8.2477526555078,43.2467631809949,68.0 -8.24797729002439,43.2466449963276,65.9474999999948 -8.24810016877549,43.2465719061913,64.1499999999942 -8.24813202034051,43.2465247993229,64.1137000000017 -8.24814207877674,43.2464646173027,63.9857999999949 -8.24813470270994,43.2463967244163,63.9183000000048 -8.2479635440039,43.2458032851382,60.8610000000044 -8.24788995042259,43.2455977613798,59.854600000006 -8.24775164939469,43.2454007860921,58.832899999994 -8.24762726237226,43.2453298754346,58.0871000000043 -8.24755450691907,43.2453119381995,57.6576000000059 -8.24743364039424,43.2453033883686,56.4912999999942 -8.24730103827853,43.2453139496933,56.4431999999942 -8.24717899765558,43.2453169675882,55.4284999999945 -8.24703935544298,43.2453092559895,55.0715999999957 -8.24692804339951,43.2452871275893,54.4661999999953 -8.24679644739691,43.2452207429947,53.0072999999975 -8.24665043523062,43.2451305540578,51.8828000000067 -8.24648916697586,43.2450272889089,50.2451000000001 -8.24640216334398,43.2449711297282,49.914300000004 -8.24630979407487,43.244934752492,50.0062000000034 -8.24618205453981,43.2448926757445,49.0 -8.24609639119429,43.2449020632158,49.0617000000057 -8.24589489009293,43.2449273765323,48.4182000000001 -8.24580905966079,43.2449404519777,48.6209999999992 -8.245747200772,43.2449466546665,48.6956999999966 -8.2456464502213,43.2449340817718,47.8043999999936 -8.24550194632641,43.2449096066952,47.3717000000033 -8.24541477470953,43.2448792646012,46.8589000000065 -8.24531503027195,43.2448455688863,46.5522000000055 -8.24517019130544,43.2447930981808,46.0 -8.24500473240989,43.2447622528236,46.392399999997 -8.24480306332357,43.2447540386038,46.1217000000033 -8.2447527720407,43.244649600196,46.0 -8.24469091405023,43.2445403003287,45.5602999999974 -8.2445579768629,43.2443805413816,45.9220999999961 -8.2444116287267,43.2441621086582,45.2609999999986 -8.24430484329393,43.243990447669,45.0 -8.24417207409159,43.2438268323682,45.0 -8.24408339330503,43.2436907108353,45.0 -8.24403779571952,43.2436182911608,45.0 -8.24385188487992,43.2433851060298,45.0181000000011 -8.24370637577018,43.2432384231359,45.0 -8.24377359849954,43.2431153767797,45.0 -8.24384635305439,43.2429318128929,45.0022999999928 -8.2439596764258,43.2427517696967,45.9603000000061 -8.24411692112639,43.2425573098307,46.0 -8.24451170823586,43.2420029305077,47.0 -8.24464699272105,43.2418071293598,47.851800000004 -8.2447190771327,43.2416693306772,48.0 -8.2447130422506,43.2415273415741,48.315499999997 -8.24465118336184,43.2413498123575,49.5587999999989 -8.2444558851275,43.2410762275178,47.3788999999961 -8.24424784608746,43.2408153827247,47.3717999999935 -8.24405657140729,43.240662496409,47.0415999999968 -8.24385741760374,43.2405154777924,45.946100000001 -8.24366413069731,43.2403369437248,45.7937999999995 -8.24350688599671,43.2401835542743,45.7657000000036 -8.24328526892118,43.2400563174279,45.6444000000047 -8.24312416865141,43.2399810480395,45.7685000000056 -8.24280180012685,43.2397490367534,46.5936999999976 -8.24261555421563,43.2396186146003,46.0 -8.24254665522998,43.2395014350034,46.0 -8.24252067146037,43.2393207213586,46.7888999999996 -8.24256274854828,43.2390573619502,46.8401000000013 -8.24258923537444,43.2389009556468,47.0769 -8.24264522646779,43.2387371735415,47.3610000000044 -8.24271244919712,43.2386151331138,47.9925999999978 -8.24278537173693,43.2384166496903,48.5605999999971 -8.24278084602452,43.2381512785706,49.2063999999955 -8.24277212877302,43.2378367894774,49.9455000000016 -8.2427451388903,43.2376262356518,49.8010999999969 -8.24265662608872,43.2373236494757,50.0 -8.24243182358718,43.2370351441685,50.2443000000058 -8.24221221694125,43.2368232498806,49.102899999998 -8.24208430942123,43.2366748901945,49.0 -8.24195774308588,43.236416727485,49.7002999999968 -8.24184508985768,43.2360363564385,50.4992000000057 -8.24179580468796,43.2357352787513,50.0213999999978 -8.24184475478609,43.2355503738881,51.0715999999957 -8.24193377064421,43.2354422475104,51.4355000000069 -8.24212286601152,43.2353314382915,52.8978000000061 -8.2423843817604,43.2351810670719,56.4646000000066 -8.24261454900081,43.2350317013979,59.7612999999983 -8.24277732552693,43.2349001055017,62.1916999999958 -8.24287572877978,43.2347784003314,64.1241000000009 -8.24293054667336,43.2346528394258,65.0 -8.24296575075104,43.234586790114,65.741399999999 -8.24299994871558,43.2344773223192,67.3374999999942 -8.24299458397671,43.2344005440204,67.3574999999983 -8.24297362897609,43.2343296336489,67.1232000000018 -8.24297346188943,43.2340917550498,68.2929000000004 -8.24305476660919,43.233966361585,69.9413999999961 -8.24311159583067,43.2339142264206,70.8475000000035 -8.24318887699627,43.2338677904241,71.0 -8.24329733868535,43.2338307422605,72.0 -8.24349464824762,43.2339259612379,73.6196000000054 -8.24371894859092,43.2340050864402,75.851999999999 -8.24387166668077,43.2340542043832,76.0185999999958 -8.24399638877481,43.2340847141789,77.0 -8.24413988745495,43.2341120392721,77.2216999999946 -8.24431188428915,43.2341246117822,77.8315000000002 -8.24449963847173,43.2341167331841,78.0 -8.24467180329088,43.2341039924716,78.7179999999935 -8.24478613187707,43.2340956105775,79.0 -8.24488805562751,43.2340734826856,79.2563999999984 -8.24505737009228,43.2340345903274,80.0 -8.2452878724043,43.2339915073172,81.0 -8.24533363797476,43.233959823994,81.0 -8.24549993499847,43.2337950357602,80.9695000000065 -8.24565902394034,43.233578782474,80.7976000000053 -8.24597435057139,43.2330582665249,80.6355999999942 -8.2461185193947,43.2327243310531,81.0 -8.24611131131285,43.2327120940088,81.0 -8.24612153683575,43.2326495644212,81.0 -8.2461163400818,43.2325657453913,81.0 -8.24609622320934,43.2324970143159,81.2127999999939 -8.24602849742343,43.2324088367893,82.0 -8.24593948156532,43.2322732172712,83.110400000005 -8.24593311161163,43.2322038150056,84.0 -8.24595473675546,43.2321407828961,84.5914000000048 -8.24600804637768,43.2320403683294,85.7678000000014 -8.24605029055222,43.2319979554266,86.0 -8.24604392059857,43.2319201713086,86.614499999996 -8.24604023211598,43.2317981309725,87.1165000000037 -8.24602095427,43.231670055214,88.9815999999992 -8.24601944510031,43.2315480150314,89.694399999993 -8.24603570640361,43.2314848153448,90.0 -8.24609437986636,43.2313785326987,91.0 -8.24616193766731,43.2312333583395,92.0 -8.24619529750372,43.231146689592,92.9406000000017 -8.24619513041706,43.2309971562926,93.7780999999959 -8.24619814785811,43.2309124991785,94.2691999999952 -8.24622094620171,43.2307564280245,95.0639999999985 -8.24631767319824,43.2304360716398,98.0 -8.24637316123502,43.2302541843929,99.1067000000039 -8.24645496901133,43.2300412840902,101.0 -8.24654599619738,43.2298483329147,102.950800000006 -8.24661908672214,43.2297519405498,103.728900000002 -8.24672905758092,43.2296367736262,104.676300000006 -8.24681421697153,43.2295747474867,105.146399999998 -8.24692670221478,43.2295016571616,106.058399999994 -8.24701907148386,43.2294419780205,106.3554 -8.24745811499413,43.2291895150827,108.468599999993 -8.24767017758833,43.2290681454098,109.0 -8.24778903278523,43.228980470185,109.826400000005 -8.24785575245802,43.2288969864664,110.013399999996 -8.24792616061336,43.2287747784065,111.0 -8.24800662720493,43.2285900415854,111.379000000001 -8.24808156107268,43.2284220682476,112.0 -8.2481246442737,43.2283109242307,112.367100000003 -8.24822086821369,43.2282064857824,113.0 -8.24830083174869,43.2281489856509,113.0 -8.24837677172956,43.2280717045455,113.0 -8.2484657875877,43.2279533520564,113.0 -8.24853234017383,43.2277976163067,113.0 -8.2485913487082,43.2276720554188,112.324399999998 -8.24864163999107,43.2274727338753,112.0 -8.24872931466449,43.227208704056,112.0 -8.24878932931201,43.2270757664523,112.0 -8.24883006521518,43.2269906064306,112.0 -8.24888220073933,43.226911648851,112.0 -8.2489465740126,43.2268380559067,112.0 -8.24931889785008,43.2264037057013,111.0 -8.24967278196975,43.2259509152694,110.242100000003 -8.24995290452311,43.2256272064554,110.6538 -8.25008282426939,43.2254922578365,111.0 -8.25015641785071,43.2254424692588,111.0 -8.25064759688512,43.2250927763878,111.0 -8.25091749391563,43.2249313404823,111.0 -8.25103718813902,43.2248688114216,111.0 -8.25132502272909,43.2247662169127,111.009300000005 -8.25175467884466,43.224588353467,112.0 -8.25184168337488,43.2245546576585,112.0 -8.25192885499172,43.224496487719,112.0 -8.25197227326436,43.224444184736,112.115300000005 -8.25204553087576,43.2243417577401,112.448699999994 -8.25206296537879,43.2242785577817,112.820399999997 -8.25219640472437,43.2240193894824,113.0 -8.25229648513187,43.2238500753911,113.0 -8.25241768762662,43.2236564533003,113.740399999995 -8.25263058745065,43.2233826999977,114.295299999998 -8.25293786787166,43.2229813744718,116.0 -8.25299067443734,43.2229176723359,116.0 -8.25305974140798,43.2228105512658,117.026500000007 -8.25309393937251,43.2227460110641,117.0 -8.25311690570107,43.2226615211959,117.205199999997 -8.25321329762599,43.2221971635858,120.0 -8.25335428102332,43.2215698625017,123.0 -8.25339451476825,43.2214329017837,123.434299999994 -8.25347431031833,43.2212267073217,125.0 -8.25352057804703,43.2210966199684,125.0 -8.25370833312794,43.2206649520812,126.0 -8.25382165649935,43.220436125974,126.0 -8.25395191131722,43.2202738522538,124.993900000001 -8.25405182284143,43.220201265313,124.0 -8.25416212877182,43.2201348802272,123.330900000001 -8.2543505539959,43.220060616618,122.043300000005 -8.25450981002442,43.2200044579929,121.0 -8.25471282029548,43.2199395822687,119.297900000005 -8.25481960572824,43.2199013603974,118.0 -8.25501339479293,43.2198163677582,116.001300000004 -8.25517918876006,43.2197260109469,115.030400000003 -8.2552549616543,43.2196670023983,114.1057 -8.25529502741428,43.2196323016266,114.055800000002 -8.25533341601964,43.2195684316784,112.857900000003 -8.2553401219432,43.2195235041579,112.499200000006 -8.25533526026091,43.2194175574315,111.858399999997 -8.25532436369652,43.2192856260345,112.0 -8.25533693651723,43.2191880608762,111.342900000003 -8.25536929113882,43.2190227692197,111.0 -8.25539611303656,43.2188750804152,110.696200000006 -8.25551027453612,43.218745496047,111.0 -8.25565712483057,43.2185817134548,112.018100000001 -8.25579039708949,43.2184187696789,114.097099999999 -8.25601251811989,43.2181570868401,116.0 -8.25626045493495,43.2179109940579,117.755000000005 -8.25690317885947,43.2172632405583,118.0 -8.25728036437928,43.2169402018138,115.391600000003 -8.2574431409054,43.2168376070555,114.178199999995 -8.25763944525286,43.2167274690854,113.000700000004 -8.25774220713149,43.2166671195,112.0 -8.25782502102091,43.2166334238961,112.004499999995 -8.25800053745436,43.2165972143581,111.408299999996 -8.25813850430898,43.2165653629093,110.567299999995 -8.25834872176355,43.2165164128701,110.0 -8.25845668129439,43.2164644447771,109.925700000007 -8.25855642573197,43.2164032569569,109.229800000001 -8.25861560225129,43.2163412311001,109.0 -8.25867310161601,43.2162431630271,109.0 -8.25867075431816,43.2161784541698,109.0 -8.25862264234818,43.21609731759,109.060500000007 -8.2585899535533,43.2160475291957,110.077399999995 -8.25845349586841,43.2159536518632,111.127999999997 -8.25838157944168,43.2158693299988,111.622799999997 -8.25836012138451,43.21582943223,112.268899999995 -8.25832860578938,43.2156783902999,113.656900000002 -8.25834101062516,43.2155122609627,115.091100000005 -8.25835861221482,43.2154368237778,116.002200000003 -8.25841695060599,43.215264994795,117.921900000001 -8.25866287609315,43.2146764171367,123.288199999995 -8.25879531022391,43.2144856452309,125.0 -8.25893126395393,43.2143701424161,126.281199999998 -8.25908180362925,43.2142553104404,127.0 -8.25927173712473,43.2141542248122,128.050499999998 -8.25938153999854,43.2141146624331,128.0 -8.25967658267046,43.2140281611713,127.049799999993 -8.2599617357894,43.2139758577187,125.526299999998 -8.26017178615734,43.2139398155137,124.405599999998 -8.26030002874898,43.2139344516053,123.867299999998 -8.26043246287974,43.2139277455734,122.706000000006 -8.26058786333905,43.2139203697886,121.6587 -8.26068911694629,43.2139049471545,121.349700000006 -8.26079204680989,43.2138499619656,121.0 -8.26089397056033,43.2137844151771,120.0 -8.26096689310014,43.2136903700318,119.0 -8.26107099616347,43.2135393286959,118.213799999998 -8.26115665950898,43.21335308245,117.0 -8.26126931273719,43.2130808384601,116.049899999998 -8.26133385309709,43.2129150444573,115.377800000002 -8.26135799262539,43.2127230983893,115.020699999994 -8.2613920235033,43.2124967873337,115.890700000004 -8.26140660765194,43.2123231142563,116.0 -8.26142320402682,43.2122508622293,116.479200000002 -8.26146796348416,43.2120864094431,117.446100000001 -8.2615390417827,43.211896307721,117.644799999995 -8.26159838628702,43.2118059509583,118.0 -8.26174003982752,43.2116482032558,118.024600000004 -8.26205201484423,43.2113613749329,119.048899999994 -8.26230615362799,43.2111219872553,118.0 -8.26253162717106,43.2110068204914,116.926500000001 -8.26276078829835,43.2109275272875,115.776299999998 -8.26293613764518,43.210827950528,115.0 -8.26301107151293,43.2107499986298,114.872199999998 -8.26310126146915,43.2105248607319,116.0 -8.263108301566,43.2103686221476,116.798500000004 -8.26308080952506,43.2102289793594,118.0 -8.2630553279137,43.2100930250304,119.0 -8.26301643625179,43.2099563999478,120.0 -8.26295943904532,43.2097517138247,121.470600000001 -8.26293379034733,43.2095471952831,123.0 -8.26296212141479,43.2094444335678,124.0 -8.2630048695442,43.2093502206632,124.729099999997 -8.26313177095113,43.2092045433793,126.0 -8.26325112920461,43.2090764679477,128.0 -8.26321693124007,43.2089673354021,129.0 -8.26319195358358,43.2087901421633,130.811700000006 -8.26319379692656,43.2086369208111,132.697400000005 -8.2632269896763,43.2084840349621,135.0 -8.26327946027203,43.2083593123221,136.486600000004 -8.26331131183709,43.2082268783737,138.061799999996 -8.26330611508314,43.2081444000953,139.039699999994 -8.26329806797484,43.2080315795977,140.581699999995 -8.26327476657467,43.2078941163894,142.969700000001 -8.26326839662102,43.207808788801,143.972200000004 -8.26327644283102,43.2077424039738,145.0821 -8.2633062821698,43.2076961359563,145.973899999997 -8.26336495563259,43.2075836511774,148.179099999994 -8.26345514469048,43.2074547375187,151.055699999997 -8.26351800969236,43.2073414141956,152.854099999997 -8.263503759717,43.2073031922849,153.432700000005 -8.26343100516215,43.2071990891013,154.267200000002 -8.26331885499051,43.207084089753,154.384900000005 -8.26325012398982,43.2069898771312,154.930900000007 -8.26320016777854,43.2068926465306,155.881599999993 -8.26319128254208,43.2068537545089,156.025999999998 -8.2631782066648,43.2067377494355,157.990099999995 -8.26318407446024,43.2066730409687,158.801099999997 -8.26324962093325,43.2062579690869,162.0 -8.26329136294954,43.2060767522214,163.0 -8.26329756491827,43.2057284005867,164.630099999995 -8.26328868058011,43.2056063601984,165.0 -8.26326303188212,43.2054856605653,166.888699999996 -8.26325414664566,43.2053644584724,167.650899999993 -8.26324492723588,43.2051745243781,168.997199999998 -8.26323537185622,43.2050181182132,170.320300000007 -8.26319161761366,43.2048479656083,171.552100000001 -8.26311232512017,43.2042858748272,173.0 -8.26294284356878,43.2041804307047,173.158100000001 -8.26293831695807,43.2041222603168,173.0 -8.26292373280943,43.2040845418945,173.0 -8.26289657494174,43.2040369326906,173.0 -8.26281258875088,43.2039066777053,172.396900000007 -8.26277520536033,43.2038158180046,172.0 -8.2627269254054,43.2036728226773,171.006399999998 -8.26270563533315,43.2036154906104,171.0 -8.26326034951268,43.2030808924889,171.0 -8.26404657211735,43.2023486494237,171.0 -8.26478434768039,43.2016581486263,170.0 -8.26515248087708,43.2012906854384,171.0 -8.26522825287299,43.2012348624815,171.0 -8.26540024970718,43.2011398111547,171.0 -8.26563494266,43.2010414075924,171.0 -8.26585907501834,43.2009475307355,170.0 -8.26605621749395,43.2008390686036,169.0 -8.26660908743221,43.2004431077936,168.0 -8.26664529762298,43.2003824225326,167.265899999999 -8.26665585821745,43.2002887129557,166.980100000001 -8.26665451793105,43.2001758923357,166.0 -8.26666792887995,43.2000615634036,164.929199999999 -8.26672442213152,43.1999574603039,163.592399999994 -8.26680120113887,43.1998954340925,163.0 -8.26712809537581,43.1997281314989,163.0 -8.26780451420833,43.1994756686304,164.0 -8.26806636502883,43.1993879934158,164.291899999997 -8.26821288114995,43.1993189269779,164.224300000002 -8.26832117485411,43.1992357785292,164.0239 -8.26851412668893,43.1989702394505,162.343299999993 -8.26856190358729,43.1988964785358,161.474100000007 -8.26861940295201,43.1987818145391,161.284599999999 -8.26861856482385,43.1986887750428,160.821800000005 -8.26858503700251,43.1986153497303,160.301500000001 -8.26851613801684,43.1985348832817,160.237399999998 -8.26844690395957,43.1984879449075,159.177899999995 -8.26832653959298,43.1984436881505,158.2837 -8.26821053385214,43.1983865240529,157.478300000002 -8.26810793995846,43.1983278504458,157.003500000006 -8.26803669367497,43.1982832589382,156.971799999999 -8.26795287457076,43.1982255911009,156.294200000004 -8.26784072439913,43.1981065683787,156.160799999998 -8.26772119816066,43.1979960946897,156.072400000005 -8.26756127198897,43.1978593023712,155.664799999999 -8.26750075428491,43.1977857090693,154.784400000004 -8.26739933359101,43.1977173127125,154.231799999994 -8.26735289787735,43.1976826118938,154.1155 -8.2672484588441,43.1976103595511,153.0 -8.26727628685495,43.197561744654,153.449999999997 -8.26769270000661,43.1970719059502,159.0 -8.2680454109265,43.1966814773436,164.0 -8.26815403970224,43.1965671477577,165.270799999998 -8.26824774925773,43.1964913754171,166.0 -8.2683590613012,43.1964112447416,167.662299999996 -8.26854698346877,43.1963049618561,169.0 -8.26872417705687,43.1962990947562,170.414499999999 -8.26894981768657,43.196304794206,171.413799999995 -8.26921569206121,43.1963507270497,173.068299999999 -8.26929766692414,43.1963586059445,173.994999999995 -8.26926195978991,43.1962866892991,174.0 -8.26913991916697,43.1960434467411,173.870200000005 -8.26901234671853,43.1957316395991,173.233900000007 -8.26941903650555,43.1957846135853,176.205300000001 -8.26963948127963,43.1958332285886,177.285000000003 -8.2699940355425,43.1959011221388,179.0 -8.27041866288909,43.1959442052174,179.304799999998 -8.27072426705381,43.1960010343364,180.0 -8.27095409832431,43.1960414349309,181.0 -8.27110497307122,43.1960652393828,181.0 -8.27126171471523,43.1961187160312,182.0 -8.27135944782488,43.1961376592409,181.648499999996 -8.27143086119504,43.1960833443553,181.022299999997 -8.27152859430469,43.1960114280404,180.0 -8.27174669088263,43.1959083304867,178.870999999999 -8.27192874615305,43.195847812951,177.713399999993 -8.27208062611478,43.1958126087696,177.087299999999 -8.27219730199882,43.1957871283586,177.565799999997 -8.27228916821136,43.1957485711091,177.814599999998 -8.27246267331692,43.1956300510955,178.882400000002 -8.27260063927317,43.1955120338086,178.992499999993 -8.27269837238285,43.1954478288351,179.336800000005 -8.27281605438001,43.1953616626014,179.0 -8.27290255585364,43.1952723114947,178.9277 -8.2730041445325,43.1951380337642,177.096099999995 -8.27308528126727,43.1949776037196,176.280799999993 -8.27319541921267,43.1948289090472,175.364100000006 -8.27325141030603,43.1947598420332,174.851699999999 -8.2733325470408,43.1946879254684,173.386400000003 -8.27341552801688,43.1946275756869,173.484400000001 -8.27347336335147,43.1945875101209,173.649999999994 -8.27353270695746,43.1945016792925,172.889200000005 -8.27362725553943,43.1943757832932,172.0 -8.27458245663892,43.1935833580377,171.815100000007 -8.27477959911456,43.1934197436423,173.765100000004 -8.27513214204949,43.1936074981085,177.0 -8.27554671095985,43.1937830149979,181.100600000005 -8.27566070447446,43.1938046401349,182.003200000006 -8.27576212606665,43.1938158718429,183.323099999994 -8.27587025268415,43.193815536529,184.240999999995 -8.27622598014676,43.1938054784198,187.0 -8.27657265618458,43.1937867027982,189.0 -8.27698186035607,43.193773962826,191.0 -8.27714614605188,43.1937654129691,192.203699999998 -8.27729701990046,43.193772118598,193.0 -8.27752048121726,43.1936058215331,194.0 -8.27765191013324,43.1935027238447,194.793699999995 -8.27771460625186,43.1933783366729,195.0 -8.2777499783145,43.1932479141958,195.695600000006 -8.27777612917074,43.1931309028395,195.335099999997 -8.27779155234584,43.1929376161125,195.857399999994 -8.27783497061845,43.1927900946724,195.770300000004 -8.27791107858427,43.1926294973443,195.508700000006 -8.27797058927692,43.1925517134284,195.214500000002 -8.27810687987518,43.1923715024213,195.645099999994 -8.27843477932694,43.1919505633046,195.944199999998 -8.27866109099814,43.1916488146739,196.0 -8.2787759226409,43.1916305420326,196.749800000005 -8.27887566797682,43.191566336905,197.703299999994 -8.2789767535991,43.1914964318116,198.282300000006 -8.27907767123642,43.1914466436387,198.240099999995 -8.27917037557712,43.1914318912159,198.433099999995 -8.27928889570244,43.1914315558888,199.161800000002 -8.27938009087344,43.1914302145807,200.022800000006 -8.2794971018291,43.1914375911202,200.847399999999 -8.27963238541595,43.1914575397989,201.872700000007 -8.27980002362436,43.1914843620148,203.470700000005 -8.27994570161736,43.191505316658,204.0 -8.28009037259892,43.1915051489947,204.526599999997 -8.28030511756255,43.1915180571038,205.875799999994 -8.28044543081666,43.1915437056506,206.842499999999 -8.28053779918744,43.1915509145133,207.0 -8.28062999957326,43.1915725397862,207.0 -8.28071985355953,43.1915854478811,207.390599999999 -8.28079763778167,43.1916107610735,208.0 -8.28090677051229,43.1916370802332,208.196500000005 -8.28098991857499,43.1916576994982,208.668600000005 -8.28111715595184,43.1916860305915,209.900599999994 -8.28140733783974,43.1917462123445,210.0 -8.28157849654577,43.1917747110593,210.0 -8.28179055824165,43.1917894633993,210.0 -8.28187370630432,43.191770017162,209.710399999996 -8.28196071083453,43.1917314606491,209.815600000002 -8.28214276610496,43.191643953104,210.0 -8.28231560106731,43.1915582903833,211.0 -8.28245323195201,43.191488552944,211.0 -8.28264182426275,43.1913926638348,212.0 -8.28277140893742,43.1913467311888,213.0 -8.28296083937635,43.1912945955993,214.0 -8.28319687351387,43.1912702882596,216.064899999998 -8.28342217907198,43.1912707912514,218.115399999995 -8.28354857832064,43.1912714612523,219.013900000005 -8.28374287134019,43.1912518478409,220.2497 -8.28398125277556,43.1912495011996,221.909799999994 -8.28417906539437,43.191260229731,223.044899999994 -8.28448835804165,43.1913155503078,225.9948 -8.28470394023512,43.1913712061618,227.647299999997 -8.28494701536785,43.1914213297233,229.472899999993 -8.28516544791571,43.1914541871848,230.806100000002 -8.28532654818551,43.1914808417388,232.673699999999 -8.2855711315896,43.1915090045959,234.211899999995 -8.28594462952516,43.1915418620102,236.0 -8.2862908025064,43.1915564460884,237.0 -8.28659674174272,43.1915706954917,238.929300000003 -8.28679874500236,43.1915691865235,239.054399999994 -8.28692480917943,43.1915814246216,239.147500000006 -8.28705925463812,43.1915592963623,240.448499999999 -8.2872081171588,43.1915354914627,241.381500000003 -8.28751791286262,43.1914325618699,243.349199999997 -8.28772444273297,43.1913718768165,244.752299999993 -8.28783743103276,43.1913349966899,245.519 -8.28805083391333,43.1912986188777,247.720199999996 -8.28840186857694,43.1912525184969,250.831099999996 -8.28873714409546,43.1912223435523,253.0 -8.28889690318053,43.1912102737013,254.698699999994 -8.28913059091856,43.1911896542851,255.664300000004 -8.28949386243293,43.1911653469035,257.679699999993 -8.28968513801143,43.1911554560219,258.778900000005 -8.28991128169767,43.1911465711245,260.237899999993 -8.29008478680323,43.1911492530983,260.0 -8.29026818236006,43.1911566296718,261.0 -8.29035149930605,43.1911415418502,261.0 -8.29044822630258,43.1911257840225,261.146599999993 -8.29053975654517,43.1910882330893,261.886499999993 -8.29065509124451,43.1910290566752,263.029599999994 -8.29076573224649,43.1909779274579,263.613100000002 -8.29085072544877,43.1909303178508,264.074399999998 -8.29093487962459,43.1908810322113,265.082699999999 -8.29114342082284,43.1907447426579,267.018800000005 -8.29133084083217,43.190597053491,268.987500000003 -8.29158749400039,43.1903685632061,272.216799999995 -8.2918176612408,43.1901774552605,274.803899999999 -8.29199116634635,43.1900346277293,276.191800000001 -8.2921279591029,43.189920131122,277.316600000006 -8.29225184396708,43.1897970845419,279.0 -8.29238729553889,43.1896758827206,280.360000000001 -8.29259533457889,43.1894933243726,282.333599999998 -8.29273413866334,43.1894178877561,283.215899999996 -8.29313160814227,43.1892810945471,283.232699999993 -8.29347023707176,43.1891785004216,283.993499999997 -8.29372001812809,43.1890933398702,284.9283 -8.29401254641554,43.1890160590427,285.343599999993 -8.29421773510115,43.1889553742064,286.480299999996 -8.29447120464003,43.1888834573511,287.0 -8.29464504481721,43.1888303162534,287.891300000003 -8.29489147246257,43.1887159870228,289.0245 -8.29510185880043,43.1886001491914,288.812399999995 -8.29529564786507,43.188435863849,289.246199999994 -8.29544015265833,43.1883243843045,289.182000000001 -8.29570569106305,43.1881230510998,288.529399999999 -8.29597508503698,43.1879007633223,288.046100000007 -8.29607499745952,43.1878202964997,288.0 -8.29613937073275,43.1877797280289,287.858399999997 -8.29619066812874,43.1877304424652,287.906900000002 -8.29631036145383,43.1876369007817,287.864499999996 -8.29639317444492,43.1875706839484,287.999800000005 -8.29648755504194,43.1875150279036,287.0 -8.29673716811331,43.1873192266084,287.060800000007 -8.29689491497215,43.1871953423042,287.0 -8.29696968175324,43.1871510858722,287.0 -8.29704444853432,43.1871019674762,287.0 -8.29737670751016,43.1868714650946,287.0 -8.29755641548274,43.1867487542713,287.0 -8.2977337761575,43.1866191697655,287.0 -8.29803686593772,43.1864190099173,287.0 -8.29818002864792,43.1863256358667,287.0 -8.29842092446779,43.1861001628636,286.900699999998 -8.29863533346148,43.1859108991189,287.254799999995 -8.29868814002716,43.1858502144705,287.076199999996 -8.29875502768487,43.1858031078305,287.113700000002 -8.29887337982526,43.1857083927139,287.136599999998 -8.29923329882699,43.1854381599924,288.535799999998 -8.29941585625567,43.1853105874884,289.105200000005 -8.29967016392271,43.1851173008851,289.940799999997 -8.300232254169,43.1846388616242,292.162500000006 -8.30045169193168,43.184472564564,292.496400000004 -8.30054355814422,43.1844063475731,292.7071 -8.30073097725518,43.1843027470158,292.864000000001 -8.30086207020124,43.1842301598407,293.4571 -8.30105854163535,43.1841332650173,293.713600000003 -8.30119717863314,43.1840682214446,293.972899999993 -8.30140220023212,43.1840276531003,294.574299999993 -8.30154418974254,43.184017930056,296.0 -8.30166019458508,43.184020612343,296.238800000006 -8.30175122266946,43.1840239653654,296.734100000001 -8.30182531840902,43.1840311738062,297.0 -8.30201257043339,43.1840665452622,297.0 -8.30209437731136,43.1840776091135,297.280199999994 -8.3022271465137,43.1840841474682,297.5625 -8.30234566663905,43.1840933674509,297.889800000004 -8.30251364081738,43.1840876675157,297.936600000001 -8.30269485706135,43.1840707360457,298.747499999998 -8.30290608152736,43.1840454230013,299.258900000001 -8.30310171483332,43.1840207800269,300.049599999998 -8.3032624800315,43.183980882387,300.0 -8.30342676482898,43.1839560717025,300.0 -8.30350236973823,43.1839565747546,300.045199999993 -8.30360395841709,43.1839590893603,300.0 -8.30369766797257,43.1839595924124,300.0 -8.30403244133288,43.1839512101748,298.480899999995 -8.30418884790532,43.183935954853,297.349199999997 -8.30444181348933,43.1839155032836,296.0 -8.30461129504071,43.1838984040817,294.486499999999 -8.30474188582849,43.1838668879572,293.9277 -8.30503273785962,43.1838258170809,291.0 -8.30522468358133,43.1837773693675,290.0 -8.30534504704962,43.1837265753402,289.0 -8.30542501058462,43.1836937183039,289.0 -8.30558594286946,43.1836194542099,289.0 -8.30570630723609,43.1835772100265,289.0 -8.30593479822017,43.1835195420478,289.0 -8.30688295922277,43.1831747107653,289.0 -8.3078478836869,43.1829517519067,293.0 -8.30805256931594,43.1829282829539,293.899099999995 -8.30818919498583,43.1829309652888,294.0 -8.30835180352699,43.1829539311801,294.0 -8.30843361130329,43.182968683687,294.811799999996 -8.30864399674281,43.1830233338271,295.369099999996 -8.30907247965861,43.1831344778548,297.545499999993 -8.30948922788185,43.1832608765195,297.0 -8.30956835328873,43.1828220001688,298.0 -8.30972073630699,43.1818976438632,299.0 -8.30973850588161,43.1818205301311,299.132599999997 -8.30981696024695,43.181669488491,299.351599999995 -8.30989792899677,43.1815375573241,300.0 -8.31004913881529,43.1814039496167,300.1011 -8.31019347562356,43.1813144313458,301.0 -8.31033345290778,43.1812542491328,302.358699999997 -8.31103116271084,43.1810582803704,307.044099999999 -8.31152921565381,43.1808869539182,310.0 -8.31175938289422,43.1807929091506,311.170599999998 -8.31191394522538,43.1807176393007,312.789900000003 -8.31202324504262,43.1806125304501,313.0 -8.31237897250527,43.1802506002107,315.010599999994 -8.31280862951913,43.1797937863186,316.117400000003 -8.313163183782,43.1794137504846,315.949800000002 -8.31338178341648,43.1791864334869,317.0 -8.31345588005437,43.1790830009399,317.948900000003 -8.31348001958271,43.1790211421717,318.0 -8.31348219889556,43.178940172997,318.816999999995 -8.31345688526919,43.1788828412748,319.180399999997 -8.31342520168913,43.1788092480172,319.168999999994 -8.31323795056309,43.1785442122463,321.470600000001 -8.31310937200154,43.1783956845417,322.566699999996 -8.31304080808748,43.1783609838731,322.670299999998 -8.31296738249109,43.1782919165661,323.0 -8.31292513741822,43.1782230175357,323.0 -8.3129321784134,43.1781725588727,323.040500000003 -8.31293536383941,43.178124949104,323.884999999995 -8.31291893455119,43.1780743226597,324.903200000001 -8.3128778635764,43.1780235284732,325.668799999999 -8.31277845421043,43.1779457442863,326.596600000004 -8.31267284197741,43.177848011466,327.370599999995 -8.31259421962711,43.1777769324766,327.853199999998 -8.31253906756025,43.1777003218843,327.218699999998 -8.31431016351653,43.1768742016739,351.286099999998 -8.31478457908944,43.1767198068209,356.007500000007 -8.31487728253181,43.1766938231882,356.845400000006 -8.31517852807075,43.176662139571,359.0 -8.31562645771585,43.1766619718669,364.0 -8.3159168066904,43.1766675041363,367.032999999996 -8.31637244657555,43.1766768916329,371.993499999997 -8.31647906492165,43.1766814176767,373.0 -8.3166768775405,43.1766988523426,374.912299999996 -8.31694861881224,43.1767280210373,377.5435 -8.31717878605265,43.1767647337693,380.988100000002 -8.31739839180028,43.1767964179883,383.675099999993 -8.31762587667126,43.1768331306792,386.486399999994 -8.31779871163361,43.1768664905878,388.941999999995 -8.31792477491239,43.176897838692,390.073000000004 -8.31815997182007,43.1769402512699,391.787899999996 -8.31830548092979,43.176974448981,392.237399999998 -8.31854168305226,43.1770368109666,392.899999999994 -8.31867143481359,43.1770757029962,393.0 -8.31913897737628,43.1771947254632,393.0 -8.31928432029766,43.1772413290871,393.180399999997 -8.31958455972349,43.1772832383192,394.0 -8.31979796260406,43.1773053671683,394.827499999999 -8.31996308642803,43.177327327652,395.0 -8.32009954411295,43.1773472763564,396.0 -8.32025276525938,43.1773843241203,397.0 -8.32049701359186,43.1774362920973,398.985499999995 -8.32067487732316,43.1774840687946,400.013800000001 -8.32088006690711,43.1775320138113,401.291599999997 -8.32104351357643,43.1775930336153,402.934899999993 -8.32117041588166,43.1776585799847,404.770900000003 -8.32129329463276,43.1777269765485,406.541100000002 -8.32139052468583,43.1777799504399,408.007299999997 -8.32150166874438,43.1778463351128,409.675600000002 -8.32162505055202,43.1778832155283,410.958400000003 -8.32197038450681,43.1779777632935,413.324500000002 -8.32242082763802,43.1781081856457,415.688800000004 -8.32347611004333,43.1784060786235,421.427800000005 -8.32359697656817,43.1784323975812,422.0 -8.32364777090761,43.1784317267842,422.118799999997 -8.3236908541086,43.1784215010611,422.497099999993 -8.32372639325791,43.1783884760906,422.370899999994 -8.32416811913761,43.1777725742151,422.0 -8.3242797662527,43.1777988934458,422.0 -8.3244537744148,43.1778409706511,423.0 -8.32458486736086,43.1778798621686,423.974400000006 -8.32469165369192,43.1778919326903,424.757899999997 -8.32481520258622,43.1779021585021,425.315400000007 -8.32495568292698,43.1779125520129,426.0 -8.32504319051374,43.1778939437886,427.0 -8.32523496825048,43.177860751487,428.0 -8.32539556546374,43.1778169979413,429.026700000002 -8.3255261553532,43.1777871589628,430.0 -8.32569949337212,43.1777700593546,430.0959 -8.32589378549334,43.1777407228015,431.0 -8.32603476978898,43.1777130625912,431.755300000004 -8.32611724770848,43.1776696443422,432.0 -8.32625370449508,43.1778267213181,431.590100000001 -8.32637071634903,43.1779571433378,431.0 -8.32651907581317,43.1780751605057,430.002200000003 -8.326668776462,43.1781998834751,429.214099999997 -8.32676935902774,43.1783006343248,429.0 -8.32690497858448,43.1783928349632,429.0 -8.32696264593415,43.1783598099772,429.0 -8.32723422011927,43.1781765817058,430.0 -8.32745634025137,43.1779977117854,431.0 -8.3280762658323,43.1775077062317,432.698699999994 -8.32824725655338,43.1773581730682,432.827300000004 -8.32830911544217,43.1772917878646,432.342099999994 -8.32835001843201,43.1772091426463,433.013800000001 -8.3283837142383,43.1771422548274,433.217699999994 -8.32842327694174,43.1770279259794,433.565700000006 -8.32849971908084,43.1769003535884,433.863200000007 -8.32859996747326,43.1767789833502,433.625700000004 -8.32876291108605,43.1766416875303,434.314100000003 -8.32892769983839,43.1765731240118,435.0 -8.32907773555881,43.1765501576857,435.0 -8.32920782239176,43.1765595452004,436.854600000006 -8.32934696244611,43.1765746326957,438.095499999996 -8.32944855112494,43.1765818407058,439.0 -8.32956589715221,43.1765654122325,440.726500000004 -8.32975918405862,43.1765122708932,443.041800000006 -8.32989899425618,43.1764653326137,445.226200000005 -8.33009395741893,43.176382686932,447.513399999996 -8.33023929944202,43.1763119436122,449.107499999998 -8.33046762244115,43.1761890648213,452.600399999996 -8.3305734026591,43.1761469877878,453.425399999993 -8.33072528262082,43.1761025635018,454.385699999999 -8.3308821913515,43.1760390285868,455.0 -8.33094337919877,43.1759902464886,455.0 -8.33102351071875,43.1759287232749,454.0 -8.33108922427839,43.175861499951,454.0 -8.33121763575332,43.1757314127992,453.289199999999 -8.33133967637625,43.175568803961,452.036699999997 -8.3314416001267,43.1754462603997,451.268800000005 -8.33150010560453,43.1753845695855,451.083299999998 -8.33160420866786,43.1752854955887,450.374200000006 -8.33171702898269,43.1751896065756,449.403699999995 -8.33194065828446,43.1750140899392,447.090700000001 -8.33216378452968,43.1748363932351,444.638399999996 -8.33245631281712,43.1745929833005,442.0 -8.33255823656756,43.1745059785554,441.0 -8.33289150165652,43.1742064097513,438.0 -8.33311932159908,43.1739492528228,436.0 -8.33324069118049,43.1737965342451,435.0 -8.33333423364934,43.1737008132268,435.0 -8.33342593187692,43.1736565568389,435.0 -8.3334961720473,43.1736521982833,435.0 -8.3335519951557,43.1736783496123,435.0 -8.33362340942415,43.1736947782071,435.1875 -8.33373472056933,43.1737487579383,436.448300000004 -8.33400059494396,43.1738580576417,438.724300000002 -8.33409748992545,43.1739008051336,440.131200000003 -8.33428658529276,43.1739572997003,442.0 -8.33456570263131,43.173947744074,444.6777 -8.33486460177073,43.1739083488826,447.176000000007 -8.33518713738192,43.1738436409775,449.180300000007 -8.33566842596506,43.1737366879079,451.907800000001 -8.33602884802337,43.173640631371,452.946800000005 -8.33629639775602,43.173549435729,453.0 -8.33651449523226,43.1734300779374,453.0 -8.33665246118855,43.1733383794966,453.0 -8.3368635176696,43.1731588396171,453.0 -8.33714213195161,43.1728555823466,451.878299999997 -8.33726685494398,43.1726735272876,451.379100000006 -8.33739509843394,43.1725779735347,451.0 -8.33753390251835,43.1724675001517,450.940300000002 -8.33769936141391,43.172386195372,451.0 -8.33794578905931,43.1723265166789,452.0 -8.33809180212389,43.1723105908641,452.0 -8.33826899571199,43.1723025444247,453.0 -8.33852112316784,43.1723323834627,453.347699999998 -8.33870384858147,43.1723568588529,455.040800000002 -8.33892177807276,43.1724282723762,456.245899999994 -8.33918362889325,43.1725016984022,457.0 -8.33945821962109,43.1725228207259,458.0 -8.33969123631759,43.1725578568671,458.691900000005 -8.33981830660778,43.1725600358564,458.0291 -8.33991838611695,43.1725484693923,458.198099999994 -8.34009608276162,43.1724991833246,457.194399999993 -8.3403845874949,43.1724001092328,456.240399999995 -8.34070444073666,43.1722906418246,455.0 -8.34090275731034,43.1722522525165,455.0 -8.34122562799315,43.1722616406919,454.675099999993 -8.34144657492548,43.1722582876787,454.519799999995 -8.34160717213871,43.1722333097554,454.354600000006 -8.34256220615156,43.1720435431117,457.053100000005 -8.34262389705537,43.1720343232747,457.270699999994 -8.34331506891982,43.1718841195975,457.220600000001 -8.34363911280237,43.171783201581,456.206600000005 -8.34429256620466,43.1715706363336,453.164199999999 -8.34480168279866,43.1713786905649,450.0 -8.34500133965878,43.1712868252559,448.940900000001 -8.34510661682019,43.1711827215545,448.0 -8.34533108425011,43.1711887568224,447.761199999994 -8.34613004676211,43.1713552210946,449.0 -8.34713704921245,43.1715587342459,452.0 -8.34734139976994,43.1716266272815,453.0 -8.34758112239001,43.1717329099003,453.0 -8.34790566932913,43.171912617758,453.0 -8.34812594611826,43.1717709640998,452.0 -8.34858007773205,43.1714918461342,451.0 -8.34889708061941,43.1712464239997,450.0 -8.34920201464091,43.1709771977896,449.0098 -8.34984725384824,43.1706036999495,448.082599999994 -8.35037698947298,43.1702456249829,448.002600000007 -8.35094729481257,43.1696436367083,448.0 -8.35148692088858,43.1692159924023,449.0 -8.3520833779827,43.168770410242,448.0 -8.35346672692639,43.1677877154684,445.0 -8.35506448486378,43.1666529734395,442.482999999993 -8.35630232469772,43.1657450461766,440.1927 -8.35651136895255,43.1655547764817,440.0 -8.35859024928474,43.1635010429161,431.786699999997 -8.35895419094231,43.1631696227124,429.0 -8.36054423863961,43.1616275196684,418.0 -8.36038699393901,43.1615294514524,418.0 -8.36005255565032,43.161446638126,417.050900000002 -8.35997242502866,43.1613318061432,416.0 -8.36001064654736,43.1611033157577,414.999899999995 -8.36002606882417,43.1608746574256,413.0 -8.36001701650105,43.1608054229078,413.0 -8.35998902140354,43.1606719828006,412.0 -8.35993202419707,43.1605263052889,411.276100000003 -8.35940815546947,43.159887269027,407.0 -8.35919575780369,43.1596619637803,405.068100000004 -8.3591511663313,43.1595784795398,405.0 -8.35915837441314,43.1595094132702,405.0 -8.35920866569601,43.1593642382072,404.526700000002 -8.35927974399455,43.159097861216,403.480800000005 -8.35932685074974,43.1589456461136,402.796799999996 -8.35936339601213,43.1588839550146,402.017900000006 -8.35928980243078,43.158766776223,402.224900000001 -8.35918955493666,43.15870190025,402.801699999996 -8.35907354919582,43.1585843862571,402.082500000004 -8.35900096262592,43.1585044227219,402.015899999999 -8.35893625428103,43.1583411435262,402.0 -8.35881991346861,43.1581332718888,401.0 -8.35878387126276,43.1580873391207,401.0 -8.35876576571823,43.158024307079,401.0 -8.35876626877477,43.1579770334964,401.0 -8.35877448296973,43.1579399850998,401.0 -8.35879627609852,43.1579029373361,401.0 -8.35905225912358,43.1576325369964,402.082999999999 -8.35945375305498,43.1572989375342,403.0 -8.35984719897975,43.1568379329617,403.0 -8.35996639014659,43.1566414612063,403.482399999994 -8.35997125093059,43.1565442309924,404.0 -8.35993705296605,43.1564525327583,404.0 -8.35985608421624,43.1563563088028,403.986499999999 -8.35961317617013,43.1560547276314,403.0 -8.35956372301542,43.1559429130763,403.0 -8.35986966225173,43.1557638758087,404.0 -8.3601031829031,43.1556210483765,404.053899999999 -8.36028205274752,43.1554998455542,405.0 -8.36053786778763,43.1553060563216,405.0 -8.36066376397974,43.155215196355,405.901199999993 -8.36083358150108,43.1550410201297,405.0 -8.36096551257526,43.1548919902986,405.0 -8.36099065821671,43.1548405254354,404.885699999999 -8.36108554187027,43.1547089295053,404.0 -8.36117573092816,43.1546323188115,403.041299999997 -8.3617651461288,43.1547494976677,404.0 -8.36222531262466,43.1540871594942,399.0 -8.36253678458479,43.1537186910071,397.0 -8.36273912381434,43.1535089758948,396.0 -8.36295051536702,43.1532228179916,395.213099999994 -8.36332870610161,43.1526570392298,392.8177 -8.36337899828281,43.1525733881341,392.008100000006 -8.3634175548731,43.1524382720038,392.0 -8.36344873539662,43.1521935204246,391.0 -8.36348276627453,43.152063600443,390.979800000001 -8.36349969772102,43.1520215238287,390.497000000003 -8.36352953705981,43.1519744173064,390.0 -8.36371460887296,43.1517568233548,390.0 -8.36386615376307,43.1515794620385,390.0 -8.36392801265186,43.1514584274936,389.165999999997</coordinates>
</LineString>
</Placemark>
</Folder>
</Document></kml>
