<?xml version="1.0" encoding="UTF-8"?>

<kml xmlns:xsd="http://www.w3.org/2001/XMLSchema" xmlns:gx="http://www.google.com/kml/ext/2.2" xmlns:atom="http://www.w3.org/2005/Atom" xmlns="http://www.opengis.net/kml/2.2">
<Document>
<name>ES08a_18a_torrijos-escalona</name>
<visibility>1</visibility>
<Schema name="ES08a_18a_torrijos-escalona" id="kml_schema_ft_ES08a_18a_torrijos-escalona">
<SimpleField type="xsd:string" name="id">
<displayName>id</displayName>
</SimpleField>
<SimpleField type="xsd:string" name="nombre">
<displayName>nombre</displayName>
</SimpleField>
<SimpleField type="xsd:double" name="longitud">
<displayName>longitud</displayName>
</SimpleField>
<SimpleField type="xsd:string" name="_formato">
<displayName>_formato</displayName>
</SimpleField>
</Schema>
<Folder id="kml_ft_ES08a_18a_torrijos-escalona">
<name>ES08a_18a_torrijos-escalona</name>
<Placemark id="kml_1">
<name>&lt;img height='20' src='https://nco.ign.es/iconos/icono_todos_caminos_azul.png' /&gt;&lt;img height='20' src='https://nco.ign.es/iconos/Camino Santiago_20.png' /&gt;&lt;img height='20' src='https://nco.ign.es/iconos/icono_todos_caminos_azul.png' /&gt;  Camino de Santiago </name>
<visibility>1</visibility>
<description><![CDATA[<!DOCTYPE html>
<html>
<head>
<style>
#nco {
  border-collapse: collapse;
  overflow:hidden;
}
#nco th, #nco td {
  padding: 4px;
  text-align: left;
}
#nco th {
  color: #364B5F;
  padding-right: 5px;
}
#nco td {
  color: rgb(51, 51, 51);
  font-size: 12px;
  padding-right: 5px;
}
</style>
</head>
<body>
<table id="nco">
<tr>
<td>Caminos del Este</td>
</tr>
<tr>
<th><b>Camino: </b></th>
<td>ES08a Camino de Levante</td>
</tr>
<tr>
<th><b>Etapa: </b></th>
<td>18a Torrijos-Escalona</td>
</tr>
<tr>
<th><b>Longitud: </b></th>
<td>25.11 km</td>
</tr>
</table>
</body>
</html>]]></description>
<Style>
<IconStyle>
<scale>0.8</scale>
</IconStyle>
<LabelStyle>
<color>ffffffff</color>
<scale>0.75</scale>
</LabelStyle>
<LineStyle>
<color>ffff0000</color>
<width>3.0</width>
<gx:labelVisibility>1</gx:labelVisibility>
</LineStyle>
<PolyStyle>
<color>66ff0000</color>
</PolyStyle>
</Style>
<ExtendedData>
<SchemaData schemaUrl="#kml_schema_ft_ES08a_18a_torrijos-escalona">
<SimpleData name="id">ES08a_18a</SimpleData>
<SimpleData name="_formato">kml</SimpleData>
</SchemaData>
</ExtendedData>
<LineString>
<extrude>0</extrude>
<tessellate>1</tessellate>
<coordinates>-4.28065454579669,39.9827241890234,522.977400000003 -4.28311262297663,39.9827044079796,523.775599999994 -4.28471189008367,39.9825523605456,525.523199999996 -4.28593749216853,39.9826028195851,527.518899999995 -4.2861803993163,39.9827915799913,528.919500000004 -4.28700786088069,39.982726033042,528.145199999999 -4.28835432949038,39.9838233922086,528.112399999998 -4.29049858831063,39.9853255969264,528.891699999993 -4.2920066602467,39.9863230432446,529.547699999996 -4.29225107656413,39.9865897554092,529.578399999999 -4.29980786553259,39.9912656836695,537.046000000002 -4.29982412593755,39.9916411932477,537.257800000007 -4.30038051637339,39.991847722911,538.220000000001 -4.30004708509611,39.9922342966796,537.527499999997 -4.30025864373541,39.9927139091715,536.303 -4.30221095683396,39.9936838629294,541.456399999995 -4.30371953182657,39.9945668125824,542.224000000002 -4.30550990652719,39.9962197241418,547.807400000005 -4.30761560785882,39.9989547385685,556.899399999995 -4.30959055221431,40.0017137260195,564.080100000006 -4.31083945569931,40.0032918707656,569.065900000001 -4.31287055823481,40.0045017149911,566.586299999995 -4.31500459063387,40.0048319614792,567.233600000007 -4.31560859088145,40.0051087322354,567.028000000006 -4.31628752499678,40.0059299907694,566.470400000006 -4.3171661159722,40.0078340239199,565.329700000002 -4.31766349787367,40.0085087672624,562.705300000001 -4.3209436718791,40.0099945434022,550.068199999994 -4.32187003975291,40.0101797837492,549.365900000004 -4.32458912962516,40.0117002608601,544.153699999995 -4.32568816447637,40.0122641952948,541.900999999998 -4.32558657579751,40.0136822458068,541.439400000003 -4.32596158200446,40.0137415895268,540.968500000003 -4.32633390674028,40.0144176738731,543.141699999993 -4.32653959848243,40.0145784389158,543.523499999996 -4.32654244793853,40.0152020525298,546.095499999996 -4.32730486608648,40.0165181786357,549.369300000006 -4.32791724761564,40.0179598660422,548.231400000004 -4.32843860195876,40.0186793684948,546.545100000003 -4.32865301185078,40.0203126663951,545.431899999996 -4.32784834863,40.0213741505844,545.974199999997 -4.32802872764411,40.0216556147502,544.916899999997 -4.3297411501376,40.0220683398516,541.151500000007 -4.33388700722615,40.0240124385033,532.952999999994 -4.33574292839978,40.0249084636179,530.297999999995 -4.33594862014197,40.0257422958701,526.762199999997 -4.3356505591307,40.0274672915149,524.016799999998 -4.33542458342939,40.0287061366421,522.955799999996 -4.3354108374089,40.0291483659346,523.806700000001 -4.33492502221505,40.0302309725619,527.2935 -4.33502543679583,40.0312800514257,525.708799999993 -4.33650936920357,40.0327224091273,523.381399999998 -4.3369707088992,40.0335852423348,522.2549 -4.33875152822012,40.0354589330083,520.059500000003 -4.33939626437088,40.0365827785376,517.089999999997 -4.34002591331646,40.038155391404,510.896299999993 -4.34088371727621,40.0397373915379,503.701499999996 -4.34127615798616,40.0413116805573,500.412200000006 -4.3415016306309,40.0415654844783,499.902799999996 -4.34521196380847,40.0432581260473,495.860499999995 -4.34807455146253,40.0447023278964,492.3272 -4.34963392079455,40.0459178719857,490.534899999999 -4.35142412751021,40.0464994081142,489.703699999998 -4.35349194329303,40.0478428593569,489.107799999998 -4.35448570188116,40.0483870129212,488.324399999998 -4.35675987954936,40.049203577918,486.945900000006 -4.3596705791734,40.0516504231324,485.968599999993 -4.36183897752198,40.0534431443228,480.185800000007 -4.36804527432658,40.0586275195377,466.060100000002 -4.36920315062553,40.0596330123924,463.289199999999 -4.36925780053415,40.060064680523,462.203099999999 -4.36963515314059,40.0600391994603,461.982399999994 -4.37040243297086,40.0610716819324,459.905599999998 -4.37047870802331,40.0614912803103,460.611000000004 -4.37053956079899,40.0617740859742,460.413199999995 -4.36977194589713,40.063037238466,462.981100000005 -4.36996037112124,40.0632477919696,463.639800000004 -4.37199801249369,40.0646405291123,472.034599999999 -4.37278943095393,40.0661296579624,470.975200000001 -4.37269672751157,40.0682266426163,478.998699999996 -4.37292253612622,40.0691281995969,484.554499999998 -4.37362141912906,40.0704164983807,489.280499999993 -4.3734681979826,40.0714902205393,490.586299999995 -4.37325395607554,40.0746025881411,494.249200000006 -4.37343534120277,40.0768511180462,495.933699999994 -4.37327139057861,40.0793086918667,498.845300000001 -4.37319746282397,40.0802291923444,501.221600000004 -4.37286101320734,40.0813880745029,504.459400000007 -4.37281876813447,40.0833470927195,508.325100000002 -4.37282228863207,40.0860737258859,513.425199999998 -4.37289370200222,40.0880560462591,517.331600000005 -4.37343014444886,40.0896581631351,522.106400000004 -4.37348999111142,40.0908051427234,523.741899999994 -4.37418820307273,40.0922525296006,524.392399999997 -4.37501616769369,40.0939937864962,523.021200000003 -4.37705615546565,40.0965504342559,520.938399999999 -4.37860865178744,40.0991617325259,509.670299999998 -4.37963074054467,40.1009648475264,505.730299999996 -4.37995796985323,40.1034395207376,501.1538 -4.38013214600028,40.1046222072032,500.894400000005 -4.38166452544961,40.1067473547668,492.680600000007 -4.38242979305362,40.1077717912985,485.528900000005 -4.38321903309931,40.1093988860266,490.224700000006 -4.38448805345677,40.1118209206855,497.853600000002 -4.38512038477178,40.1130984905471,498.846699999995 -4.38563033949396,40.1150476184818,493.781400000007 -4.38676608759251,40.1179038358741,489.426300000006 -4.38701905317652,40.11865653075,489.343099999998 -4.38716389214303,40.1203407901335,487.4997 -4.38725307598614,40.122039634342,485.492199999993 -4.38743580139977,40.1227210830787,484.747499999998 -4.38796821939394,40.123501270138,482.842900000003 -4.39006771875684,40.1258683199897,479.373200000002 -4.39031347625901,40.1269693668707,483.300499999998 -4.39130941416,40.1287496831286,487.0524 -4.39194208054663,40.1300011009201,486.000700000004 -4.39228204976252,40.1312934228659,481.957899999994 -4.3925368595878,40.1326320126852,479.188099999999 -4.39325753571943,40.1340331316787,473.144400000005 -4.39350966407361,40.1350223638765,471.2405 -4.3937227318826,40.1356860432108,470.402799999996 -4.3940938825203,40.1379893903269,464.130600000004 -4.39503969622509,40.1403363232426,461.274300000005 -4.39529836161958,40.1410393969133,460.753200000006 -4.39601082355624,40.1435462568113,455.244900000005 -4.39669780477987,40.146236512522,441.007599999997 -4.3968282266844,40.1476912757038,442.084900000002 -4.39866302577074,40.1502271365999,446.391300000003 -4.39865833117508,40.1535200508407,431.123600000006 -4.39853109379823,40.1544343491178,430.266199999998 -4.3985020925876,40.1558247391016,426.876699999993 -4.39856277737829,40.1580856733643,421.893299999996 -4.39865196122139,40.1587701398536,421.295899999997 -4.39897902344329,40.1592960202381,420.570399999997 -4.39919007902605,40.1597791534868,420.548599999995 -4.39980950244873,40.1598381619604,420.7405 -4.40236195932735,40.1623114936519,416.532000000007 -4.40362427376125,40.1634879777825,426.873300000007 -4.40228467816179,40.1647729235636,452.200100000002 -4.40281273753021,40.1652852255448,456.269899999999 -4.40312571866003,40.1658221701904,459.210399999996 -4.4034910015023,40.1660493197145,459.119500000001</coordinates>
</LineString>
</Placemark>
</Folder>
</Document></kml>
