<?xml version="1.0" encoding="UTF-8"?>

<kml xmlns:xsd="http://www.w3.org/2001/XMLSchema" xmlns:gx="http://www.google.com/kml/ext/2.2" xmlns:atom="http://www.w3.org/2005/Atom" xmlns="http://www.opengis.net/kml/2.2">
<Document>
<name>ES08a_16a_mora-toledo</name>
<visibility>1</visibility>
<Schema name="ES08a_16a_mora-toledo" id="kml_schema_ft_ES08a_16a_mora-toledo">
<SimpleField type="xsd:string" name="id">
<displayName>id</displayName>
</SimpleField>
<SimpleField type="xsd:string" name="nombre">
<displayName>nombre</displayName>
</SimpleField>
<SimpleField type="xsd:double" name="longitud">
<displayName>longitud</displayName>
</SimpleField>
<SimpleField type="xsd:string" name="_formato">
<displayName>_formato</displayName>
</SimpleField>
</Schema>
<Folder id="kml_ft_ES08a_16a_mora-toledo">
<name>ES08a_16a_mora-toledo</name>
<Placemark id="kml_1">
<name>&lt;img height='20' src='https://nco.ign.es/iconos/icono_todos_caminos_azul.png' /&gt;&lt;img height='20' src='https://nco.ign.es/iconos/Camino Santiago_20.png' /&gt;&lt;img height='20' src='https://nco.ign.es/iconos/icono_todos_caminos_azul.png' /&gt;  Camino de Santiago </name>
<visibility>1</visibility>
<description><![CDATA[<!DOCTYPE html>
<html>
<head>
<style>
#nco {
  border-collapse: collapse;
  overflow:hidden;
}
#nco th, #nco td {
  padding: 4px;
  text-align: left;
}
#nco th {
  color: #364B5F;
  padding-right: 5px;
}
#nco td {
  color: rgb(51, 51, 51);
  font-size: 12px;
  padding-right: 5px;
}
</style>
</head>
<body>
<table id="nco">
<tr>
<td>Caminos del Este</td>
</tr>
<tr>
<th><b>Camino: </b></th>
<td>ES08a Camino de Levante</td>
</tr>
<tr>
<th><b>Etapa: </b></th>
<td>16a Mora-Toledo</td>
</tr>
<tr>
<th><b>Longitud: </b></th>
<td>39.34 km</td>
</tr>
</table>
</body>
</html>]]></description>
<Style>
<IconStyle>
<scale>0.8</scale>
</IconStyle>
<LabelStyle>
<color>ffffffff</color>
<scale>0.75</scale>
</LabelStyle>
<LineStyle>
<color>ffff0000</color>
<width>3.0</width>
<gx:labelVisibility>1</gx:labelVisibility>
</LineStyle>
<PolyStyle>
<color>66ff0000</color>
</PolyStyle>
</Style>
<ExtendedData>
<SchemaData schemaUrl="#kml_schema_ft_ES08a_16a_mora-toledo">
<SimpleData name="id">ES08a_16a</SimpleData>
<SimpleData name="_formato">kml</SimpleData>
</SchemaData>
</ExtendedData>
<LineString>
<extrude>0</extrude>
<tessellate>1</tessellate>
<coordinates>-3.77192482383662,39.684799667109,715.289799999999 -3.77349022805071,39.6844516503614,716.412899999996 -3.77434954028185,39.6867023591516,714.084900000002 -3.77610018519237,39.688716865343,711.376999999993 -3.7798463925908,39.6914768589531,714.595499999996 -3.78235425799704,39.6919053412831,713.039600000004 -3.78668535488369,39.6919376956628,715.807199999996 -3.78738323267174,39.6921635040091,716.245200000005 -3.78850758114933,39.6932150974416,716.847500000003 -3.78960477175926,39.693622290246,716.123900000006 -3.79199545822488,39.694220255215,718.801300000006 -3.79558928350337,39.6957767746286,724.213499999998 -3.79794543603454,39.6985387800005,719.283299999996 -3.80155954527212,39.7046235386111,729.867100000003 -3.80447560963502,39.7060358889338,730.767000000007 -3.80690015809529,39.7060806482003,733.418600000005 -3.80825852938249,39.7067007419504,727.719400000002 -3.81007321159637,39.7106635379298,723.886899999998 -3.81229994833613,39.7124592768917,718.047699999996 -3.81337735804347,39.7128356244616,715.005799999999 -3.81376460199955,39.7136619126444,714.152400000006 -3.81337635193036,39.7144476316007,713.881999999998 -3.81158329575864,39.7157649320895,712.437300000005 -3.81315104637228,39.7172736742032,714.124599999996 -3.81357818810334,39.71811505002,715.015199999994 -3.81527720054629,39.7189475407084,717.472699999998 -3.81593182714836,39.7188511484443,717.667499999996 -3.82314512550497,39.722115564547,715.110499999995 -3.82653007271696,39.7236296716581,712.549199999994 -3.82826261208295,39.7255821523492,715.722500000003 -3.83072638907334,39.7277326134737,717.416100000002 -3.83164437476724,39.728048610677,718.1351 -3.83203044552354,39.728752020014,716.301000000007 -3.83257023958447,39.7290245995054,715.751499999998 -3.83293736756638,39.7298049550475,718.721300000005 -3.83456312149961,39.7311133700769,722.530199999994 -3.83573072026484,39.7323331042121,724.571100000001 -3.83669262728792,39.7329863899931,725.686100000006 -3.83863840244786,39.7344460146654,727.126000000004 -3.8416101228325,39.7379027115024,733.433199999999 -3.84269256130883,39.7399770648553,734.622700000007 -3.84365094783432,39.74195016475,734.263999999996 -3.84387206275161,39.7442104289447,737.126000000004 -3.84426617971791,39.7455584063684,737.777199999997 -3.84430021059582,39.7467248326004,739.321599999996 -3.84470522412648,39.7473360405789,739.3701 -3.84293848679596,39.749206546248,729.414399999994 -3.84665854243985,39.7526176452275,728.340899999996 -3.8485302218602,39.7537481962362,722.873999999996 -3.85097622837764,39.7537765277311,719.566600000006 -3.85411206647313,39.7533086494488,715.245999999999 -3.85509140799925,39.7537160103509,709.911500000002 -3.85694498187503,39.7540708995821,702.084700000007 -3.85910281873081,39.7549146219332,695.465800000005 -3.86090140762635,39.755638315737,690.808499999999 -3.86497953892903,39.758969451862,683.635800000004 -3.8653421403002,39.7597789761682,678.270900000003 -3.86701147959266,39.7612862095282,671.531400000007 -3.86694375380679,39.7622385614499,667.804199999999 -3.8688994203163,39.7627921027184,664.710300000006 -3.87398405011442,39.7654399455731,667.849100000007 -3.87778909896059,39.767655953032,668.871199999994 -3.88176782089727,39.7693142288594,665.386199999994 -3.88369984913839,39.770568496627,672.252600000007 -3.88521026837227,39.7704804868917,674.565900000001 -3.88666570172762,39.7707612806804,676.686700000006 -3.89282271246417,39.7731853273489,683.924899999998 -3.89467628633995,39.7738055881063,683.350399999996 -3.90576856219569,39.7794585109475,700.815300000002 -3.90987116809826,39.7832080719441,688.354800000001 -3.91578359543071,39.7882600126318,679.609400000001 -3.91804251790877,39.7899511448315,677.681200000006 -3.92024427609373,39.7908748309229,674.001099999994 -3.92623163729393,39.792300760266,672.958700000003 -3.93127586715879,39.7939271849535,669.324299999993 -3.93328869706306,39.7941875264511,669.750400000004 -3.93486868632413,39.7948042669479,673.116800000003 -3.9388415404654,39.7958161303594,671.269899999999 -3.94191015493323,39.7961597883866,670.363400000002 -3.94380966236443,39.7968506247926,674.737800000003 -3.94428810149148,39.7969237147525,676.249299999996 -3.94467920101673,39.797887633873,676.960099999997 -3.94650142638404,39.7987477851048,677.357199999999 -3.94965620725392,39.7981084130879,681.667300000001 -3.95633658366152,39.7958835210394,688.709700000007 -3.96148961028707,39.7943156020192,695.600399999996 -3.96488277259232,39.7936737157246,696.596799999999 -3.96851263917833,39.7928465894129,693.741800000003 -3.97284423912152,39.7924576691523,697.886299999998 -3.9758064041265,39.7926655404687,701.168099999995 -3.97899739428886,39.7932220990903,694.079500000007 -3.98070948171076,39.7932085202167,692.202900000004 -3.98272046827213,39.7933298899746,689.430399999997 -3.98451536868513,39.7936371710982,687.025699999998 -3.98677496220469,39.7944470304209,681.735199999996 -3.98924913270296,39.7949481002789,677.709600000002 -3.9913021963522,39.795222356664,675.447199999995 -3.99137746529154,39.796311668661,677.504400000005 -3.99142306287704,39.7967259020746,677.337700000004 -3.99518385532244,39.7967552387512,666.609299999996 -3.99700440443343,39.7960799930106,663.908800000005 -4.00064818592317,39.7962791465308,664.028300000005 -4.00270007547434,39.7964612019325,667.076499999996 -4.0103817545218,39.7938624766317,686.156000000003 -4.01057772379763,39.7933044095216,686.204500000007 -4.01050262194496,39.7922617003713,684.675499999998 -4.01228159702458,39.7914789986055,692.422900000005 -4.01415847230054,39.793304577247,702.700100000002 -4.01429945569784,39.7940195531303,704.678100000005 -4.01722926608123,39.7970789476641,693.892699999997 -4.01894604809884,39.7986852560566,688.785900000003 -4.02134159624678,39.8000214986695,683.747799999997 -4.02293231318894,39.8012968891674,684.511199999994 -4.02379648800071,39.8032233856539,679.426999999996 -4.0250730515116,39.8047778935267,673.115300000005 -4.02700541572264,39.8049297734013,668.4614 -4.02889654007563,39.8063251926932,671.8505 -4.02973104263523,39.8075766114259,672.428 -4.03134372069114,39.808974377064,674.205400000006 -4.03245331703516,39.809992946388,674.250799999994 -4.03424955863289,39.8103454891292,676.822 -4.03334599000097,39.8111365728149,676.7016 -4.03239011785996,39.8124345945802,673.846699999995 -4.03070971401815,39.8158569258905,674.811700000006 -4.03018232479293,39.8164904300597,665.440199999997 -4.0298061444879,39.8181031081861,672.386599999998 -4.02926584737039,39.8192438853466,670.433799999999 -4.02988325766854,39.8219398403912,656.811100000006 -4.03022222256795,39.8235624090316,649.580799999996 -4.03035918241112,39.8247432519308,645.894899999999 -4.03105035427557,39.8257195759693,645.419500000004 -4.03114305771794,39.8279290454052,630.862800000003 -4.03120894016086,39.8285930597217,631.290200000003 -4.031086731553,39.8297452365545,625.158200000005 -4.03048876708578,39.8310246500039,611.915500000003 -4.03058968472314,39.8330364744722,589.880999999994 -4.03101816763894,39.8350741147465,581.264200000005 -4.03176466045351,39.8359163287541,576.656199999998 -4.03219264031273,39.8365880543226,571.0095 -4.03220772751795,39.8389363285197,558.458199999994 -4.03256345498056,39.8393902921862,557.979800000001 -4.03254803270375,39.8396974053819,558.2984 -4.0322422605541,39.8405599028409,554.360700000005 -4.03260452685368,39.8421531351619,552.556700000001 -4.03279580153386,39.8429651736065,545.435100000002 -4.03255742009849,39.8443334355792,542.837499999994 -4.0322826613857,39.8459322000168,537.3649 -4.03171738571336,39.8467509444681,532.285399999993 -4.0321649793885,39.8473918248048,523.951300000001 -4.03306033472379,39.8473534355492,519.9571 -4.03356827811804,39.8480397456041,514.106599999999 -4.03387756986698,39.8487585778395,514.509699999995 -4.03439942726668,39.8490457418605,512.906900000002 -4.03507685311061,39.8490859750316,510.683900000004 -4.03510015451079,39.8493161416694,508.271099999998 -4.03462020711235,39.8491823670949,509.301600000006 -4.03352335067574,39.8490695464494,501.949800000002 -4.03231618920703,39.8495714547246,506.370500000005 -4.03060711922617,39.8498017893912,501.758100000006 -4.02936039505403,39.850319623358,514.057499999995 -4.02679989106711,39.8495292100896,514.412299999996 -4.02586379982865,39.8495223369029,517.503100000002 -4.0250765720092,39.8501434361368,529.453599999993 -4.0210544317999,39.8501484651179,525.159700000004 -4.01927864214626,39.8512540382103,523.367899999997 -4.01800643636278,39.851403571268,514.530499999993 -4.01716087015213,39.8507819689561,504.006099999999 -4.01644773807226,39.851034096591,507.819799999997 -4.01668628659429,39.8537178149357,495.053199999995 -4.01770619693695,39.8544696712569,492.742299999998 -4.01757694823217,39.855161681487,490.443599999999 -4.0165496618227,39.8570739286007,487.784799999994 -4.01642980051269,39.8581307191243,464.332800000004 -4.01599343847351,39.859608113144,469.339999999997 -4.01688259094174,39.860490560255,467.691600000006 -4.01817390658624,39.8602800068809,471.031700000007 -4.01788188135537,39.8580420387653,481.140599999999 -4.01891604077506,39.8593070351324,503.048999999999 -4.02090959283336,39.8594585800321,524.061799999996 -4.0210255976759,39.8592275751028,525.513500000001 -4.02154410256296,39.8592845718509,526.929799999998 -4.0217461067209,39.8594825520215,526.978000000003 -4.02279334111954,39.8589362197241,525.997099999993 -4.02351921400511,39.8582086709415,521.008600000001 -4.02401240526576,39.8578977023595,519.282800000001 -4.02439495552443,39.8578505957941,519.296600000001</coordinates>
</LineString>
</Placemark>
</Folder>
</Document></kml>
