<?xml version="1.0" encoding="UTF-8"?>

<kml xmlns:xsd="http://www.w3.org/2001/XMLSchema" xmlns:gx="http://www.google.com/kml/ext/2.2" xmlns:atom="http://www.w3.org/2005/Atom" xmlns="http://www.opengis.net/kml/2.2">
<Document>
<name>ES08a_13a_el_toboso-la_villa_de_don_fadrique</name>
<visibility>1</visibility>
<Schema name="ES08a_13a_el_toboso-la_villa_de_don_fadrique" id="kml_schema_ft_ES08a_13a_el_toboso-la_villa_de_don_fadrique">
<SimpleField type="xsd:string" name="id">
<displayName>id</displayName>
</SimpleField>
<SimpleField type="xsd:string" name="nombre">
<displayName>nombre</displayName>
</SimpleField>
<SimpleField type="xsd:double" name="longitud">
<displayName>longitud</displayName>
</SimpleField>
<SimpleField type="xsd:string" name="_formato">
<displayName>_formato</displayName>
</SimpleField>
</Schema>
<Folder id="kml_ft_ES08a_13a_el_toboso-la_villa_de_don_fadrique">
<name>ES08a_13a_el_toboso-la_villa_de_don_fadrique</name>
<Placemark id="kml_1">
<name>&lt;img height='20' src='https://nco.ign.es/iconos/icono_todos_caminos_azul.png' /&gt;&lt;img height='20' src='https://nco.ign.es/iconos/Camino Santiago_20.png' /&gt;&lt;img height='20' src='https://nco.ign.es/iconos/icono_todos_caminos_azul.png' /&gt;  Camino de Santiago </name>
<visibility>1</visibility>
<description><![CDATA[<!DOCTYPE html>
<html>
<head>
<style>
#nco {
  border-collapse: collapse;
  overflow:hidden;
}
#nco th, #nco td {
  padding: 4px;
  text-align: left;
}
#nco th {
  color: #364B5F;
  padding-right: 5px;
}
#nco td {
  color: rgb(51, 51, 51);
  font-size: 12px;
  padding-right: 5px;
}
</style>
</head>
<body>
<table id="nco">
<tr>
<td>Caminos del Este</td>
</tr>
<tr>
<th><b>Camino: </b></th>
<td>ES08a Camino de Levante</td>
</tr>
<tr>
<th><b>Etapa: </b></th>
<td>13a El Toboso-La Villa de Don Fadrique</td>
</tr>
<tr>
<th><b>Longitud: </b></th>
<td>26.83 km</td>
</tr>
</table>
</body>
</html>]]></description>
<Style>
<IconStyle>
<scale>0.8</scale>
</IconStyle>
<LabelStyle>
<color>ffffffff</color>
<scale>0.75</scale>
</LabelStyle>
<LineStyle>
<color>ffff0000</color>
<width>3.0</width>
<gx:labelVisibility>1</gx:labelVisibility>
</LineStyle>
<PolyStyle>
<color>66ff0000</color>
</PolyStyle>
</Style>
<ExtendedData>
<SchemaData schemaUrl="#kml_schema_ft_ES08a_13a_el_toboso-la_villa_de_don_fadrique">
<SimpleData name="id">ES08a_13a</SimpleData>
<SimpleData name="_formato">kml</SimpleData>
</SchemaData>
</ExtendedData>
<LineString>
<extrude>0</extrude>
<tessellate>1</tessellate>
<coordinates>-2.99549354226968,39.5143895402312,689.6728 -2.99566252166282,39.515127986467,690.286800000002 -2.99565011592874,39.5166052129757,690.016199999998 -2.99696540491324,39.5175309101829,690.130799999999 -2.99795480487559,39.5180453910523,689.767800000001 -3.0008753949509,39.5184475551545,690.752299999993 -3.00161166134432,39.5191489529099,688.660999999993 -3.00224164536148,39.5204486504121,688.059599999993 -3.00337621936196,39.5216174233474,689.118300000002 -3.00387108687892,39.5216831375138,688.590800000005 -3.00486082191289,39.5226554383923,688.341499999995 -3.00559708830627,39.5235811353464,686.002500000002 -3.00618851573314,39.5240394578782,684.941500000001 -3.00677994226168,39.5249837632721,684.187600000005 -3.00831299275251,39.5265637516984,683.457899999994 -3.00910994393661,39.5272208929557,684.222299999994 -3.00972567887675,39.5281185948418,685.527000000002 -3.00979809836002,39.5290256846325,687.590899999996 -3.01028106319948,39.529886003275,690.178799999994 -3.0112106164993,39.5306619997074,692.121199999994 -3.01241794595293,39.5323355302124,692.199099999998 -3.01318237542881,39.5330572124079,692.684099999999 -3.0136894806949,39.5337302791635,692.307199999996 -3.01512613926078,39.5344315094058,689.893899999995 -3.01555931587394,39.5347374484424,689.576300000001 -3.0169480295565,39.5367940320804,689.746799999994 -3.01734583410702,39.5373400293522,689.539099999995 -3.01892766760936,39.5389010753541,695.262799999997 -3.02041243724695,39.5398909779771,694.342000000004 -3.02259810301191,39.5413863092514,699.002399999998 -3.02355213091162,39.5421996890767,697.750100000005 -3.02618455132527,39.5434519459018,698.566300000006 -3.02656961596842,39.5440349909651,697.221900000004 -3.02660582615922,39.5444185470561,697.224300000002 -3.0270891260703,39.5454470061307,697.838600000003 -3.02846610506028,39.5469332854076,701.976800000004 -3.02964745074436,39.5485652418875,702.574699999997 -3.02928535242974,39.5491544898099,702.536200000002 -3.02924947820885,39.5500615790246,703.287299999996 -3.02953999516836,39.5518098762861,703.564499999993 -3.02996462251498,39.5525548599746,703.2359 -3.03012186631724,39.5531627155056,703.437900000004 -3.0301704813438,39.5540978007561,704.283899999995 -3.03055705515664,39.554752259983,704.044800000003 -3.03068999234397,39.5550328858695,703.872199999998 -3.03135450939728,39.5558274905933,704.242599999998 -3.03149951634879,39.5562016583927,704.2837 -3.03195867673152,39.5568375099092,704.218500000003 -3.03193470428985,39.5575389076956,704.509399999995 -3.03274422919296,39.5586981247655,704.387199999997 -3.0326964522946,39.5600445938178,704.453399999999 -3.03349424160683,39.561671185604,699.638399999996 -3.03394401459486,39.5630433030766,698.346600000004 -3.03411332905963,39.5637071502789,695.939899999998 -3.0345604196782,39.5643336137473,694.148300000001 -3.03619170543692,39.5659972536081,689.585800000001 -3.03704632486899,39.5671361867895,687.997099999993 -3.03738478581355,39.5677252665811,687.1967 -3.03745737328175,39.5681462062355,687.8223 -3.03807394545174,39.5692866476367,687.764200000005 -3.03799046231745,39.5713435666234,689.632100000003 -3.03818978410596,39.5723998538503,689.593599999993 -3.03866118223782,39.5731664633142,688.3655 -3.03968897080553,39.5750453504768,687.903900000005 -3.04055767132967,39.5732878326745,685.071200000006 -3.04166391516102,39.5734382042256,685.450200000007 -3.04179718741994,39.5741488219798,686.056599999996 -3.04243790001656,39.5751491182036,687.227799999993 -3.04284911641428,39.5762149614419,687.333799999993 -3.04292405028203,39.577081817733,687.503299999997 -3.04285196587038,39.577960743901,688.463900000002 -3.04349854626241,39.5801417151249,687.966899999999 -3.04478902377875,39.582160245,687.596399999995 -3.04295690706187,39.5847862951312,689.2255 -3.04171504457205,39.5865436453045,688.377399999998 -3.04157054067712,39.5874319593853,687.263600000006 -3.04178847016844,39.5884324232024,686.484100000001 -3.04106360339599,39.5887695430728,687.384399999995 -3.04145051138212,39.5892838572676,687.920299999998 -3.04188586730817,39.5901907788319,688.765400000004 -3.04209189502028,39.5913127801297,688.539799999999 -3.04240604845151,39.5914061549857,688.865900000004 -3.0421405100468,39.591864309936,688.305200000003 -3.04234603380403,39.5922850815491,688.213699999993 -3.04245499854968,39.5926498617864,688.059800000003 -3.04295053710818,39.5930050865859,687.744699999996 -3.04281759992085,39.5931923383241,687.643299999996 -3.04303502635559,39.5933514268658,687.990399999995 -3.04417010431094,39.5922948040721,689.022599999997 -3.04481048093765,39.5923883465112,687.907900000006 -3.04610464693654,39.5944727581323,686.529299999995 -3.04646624219459,39.5950190905616,687.0386 -3.04717903920287,39.5949067725842,687.152700000006 -3.04730007461099,39.5952995486399,687.896800000002 -3.05057371067781,39.5942608633246,689.756699999998 -3.05235084151615,39.5941175325519,689.846000000005 -3.05737746889305,39.5943582608521,688.762199999997 -3.06147336977031,39.594561438259,688.292000000001 -3.06751739220707,39.5948425675625,689.303400000004 -3.07582100816338,39.5952380256093,697.899000000005 -3.08732550563162,39.5957850289805,699.9228 -3.09001006156942,39.5956291253367,698.876999999993 -3.1012976356595,39.5969662067478,695.814100000003 -3.10916405144852,39.597970191079,695.953599999993 -3.11322055760734,39.5984313634352,695.512499999997 -3.11590276624729,39.5982419323361,693.738100000002 -3.11635103096396,39.5989522147828,693.544899999994 -3.11902217595286,39.5993795238041,692.230299999996 -3.12087222933105,39.6001536763482,691.2984 -3.12268557036019,39.6006381508777,690.075899999996 -3.12506753957431,39.6014491836914,686.047300000006 -3.12998034052319,39.6028856742202,681.743300000002 -3.13059641053494,39.6031156737537,681.419800000003 -3.1340800969697,39.6048787229725,680.821100000001 -3.13639886700862,39.6055848144673,680.341199999995 -3.1369197182952,39.6062201625487,679.469299999997 -3.13880698797727,39.6072464434189,681.110000000001 -3.13993100048497,39.6073761952082,681.639999999999 -3.1417574173914,39.6081407920584,682.243400000007 -3.14488822581961,39.6085484876367,682.340599999996 -3.1455430204066,39.6086599675328,682.017800000001 -3.14637769005287,39.6090425170304,680.114700000006 -3.14768426088751,39.609704855139,679.727400000003 -3.1482041069593,39.6098540535124,679.7016 -3.1492691118309,39.6105821051819,679.361399999994 -3.15108345807486,39.6113185396183,679.615399999995 -3.15240109345888,39.6115039466712,680.119500000001 -3.15342955306809,39.6120356948879,679.056700000001 -3.15455373356072,39.6121652792244,678.984200000006 -3.15640428999548,39.6128173910052,678.696800000005 -3.16363200541411,39.6129292058927,677.152799999996 -3.16747510779402,39.6128584626204,677.601800000004 -3.17146070274096,39.6133125940711,677.317599999995 -3.1731292048036,39.6135720975071,677.447100000005 -3.17414408547898,39.6134399988927,677.188899999994 -3.17586086659822,39.6136619517698,676.700299999997 -3.17999415086607,39.613609145917,676.1296 -3.18195484614453,39.6136121631581,676.349199999997 -3.18593239398317,39.6140548955011,675.463000000003 -3.18991212203297,39.6153106718743,675.639299999995 -3.19184985008458,39.6158328647029,674.599000000002 -3.19727780340788,39.616235363725,674.191200000001 -3.19947352671074,39.6166294810083,673.342199999999 -3.20115409763921,39.6168418782739,673.200100000002 -3.20534840266769,39.6169096038381,672.100399999996 -3.21102177752325,39.6162060270055,670.639200000005 -3.21424880989145,39.6161911074444,670.605800000005 -3.21570172886229,39.6170487437846,671.667600000001 -3.21698432815361,39.6175233271531,671.788400000005 -3.21673119458465,39.6177950684921,672.265299999999 -3.21740861953028,39.6180183623093,671.741999999998</coordinates>
</LineString>
</Placemark>
</Folder>
</Document></kml>
