<?xml version="1.0" encoding="UTF-8"?>

<kml xmlns:xsd="http://www.w3.org/2001/XMLSchema" xmlns:gx="http://www.google.com/kml/ext/2.2" xmlns:atom="http://www.w3.org/2005/Atom" xmlns="http://www.opengis.net/kml/2.2">
<Document>
<name>ES08a_09a_albacete-la_roda</name>
<visibility>1</visibility>
<Schema name="ES08a_09a_albacete-la_roda" id="kml_schema_ft_ES08a_09a_albacete-la_roda">
<SimpleField type="xsd:string" name="id">
<displayName>id</displayName>
</SimpleField>
<SimpleField type="xsd:string" name="nombre">
<displayName>nombre</displayName>
</SimpleField>
<SimpleField type="xsd:double" name="longitud">
<displayName>longitud</displayName>
</SimpleField>
<SimpleField type="xsd:string" name="_formato">
<displayName>_formato</displayName>
</SimpleField>
</Schema>
<Folder id="kml_ft_ES08a_09a_albacete-la_roda">
<name>ES08a_09a_albacete-la_roda</name>
<Placemark id="kml_1">
<name>&lt;img height='20' src='https://nco.ign.es/iconos/icono_todos_caminos_azul.png' /&gt;&lt;img height='20' src='https://nco.ign.es/iconos/Camino Santiago_20.png' /&gt;&lt;img height='20' src='https://nco.ign.es/iconos/icono_todos_caminos_azul.png' /&gt;  Camino de Santiago </name>
<visibility>1</visibility>
<description><![CDATA[<!DOCTYPE html>
<html>
<head>
<style>
#nco {
  border-collapse: collapse;
  overflow:hidden;
}
#nco th, #nco td {
  padding: 4px;
  text-align: left;
}
#nco th {
  color: #364B5F;
  padding-right: 5px;
}
#nco td {
  color: rgb(51, 51, 51);
  font-size: 12px;
  padding-right: 5px;
}
</style>
</head>
<body>
<table id="nco">
<tr>
<td>Caminos del Este</td>
</tr>
<tr>
<th><b>Camino: </b></th>
<td>ES08a Camino de Levante</td>
</tr>
<tr>
<th><b>Etapa: </b></th>
<td>09a Albacete-La Roda</td>
</tr>
<tr>
<th><b>Longitud: </b></th>
<td>40.42 km</td>
</tr>
</table>
</body>
</html>]]></description>
<Style>
<IconStyle>
<scale>0.8</scale>
</IconStyle>
<LabelStyle>
<color>ffffffff</color>
<scale>0.75</scale>
</LabelStyle>
<LineStyle>
<color>ffff0000</color>
<width>3.0</width>
<gx:labelVisibility>1</gx:labelVisibility>
</LineStyle>
<PolyStyle>
<color>66ff0000</color>
</PolyStyle>
</Style>
<ExtendedData>
<SchemaData schemaUrl="#kml_schema_ft_ES08a_09a_albacete-la_roda">
<SimpleData name="id">ES08a_09a</SimpleData>
<SimpleData name="_formato">kml</SimpleData>
</SchemaData>
</ExtendedData>
<LineString>
<extrude>0</extrude>
<tessellate>1</tessellate>
<coordinates>-1.85409659556646,38.9950748155838,678.522299999997 -1.85542294730368,38.9957731957683,680.166400000002 -1.85619207137519,38.9960256583291,680.360400000005 -1.85751205315873,38.9958268398616,678.189299999998 -1.85887143055908,38.9957752071782,677.8024 -1.86291988960957,38.9961901114304,676.842499999999 -1.86751635781432,38.9963329393984,676.752699999997 -1.86831431421321,38.9974012964132,676.7644 -1.86935601768469,38.9976073236989,677.150399999999 -1.8701440845306,38.9979903770573,677.257100000003 -1.87098177161788,38.9978845973066,677.385399999999 -1.87134554618883,38.998655061596,677.262900000002 -1.87244692833785,38.9990573930706,676.686499999996 -1.87565736433117,39.0009319215478,676.171499999997 -1.87689168366753,39.0008625193179,676.459799999997 -1.87773138298104,39.0006261502293,676.024099999995 -1.87815718352741,39.0014460679625,675.136799999993 -1.8826741912537,39.0040018776262,675.085000000006 -1.88612233853919,39.0058898175441,675.651700000002 -1.88670890428373,39.0057977840314,675.2984 -1.88714157784032,39.0061937455703,675.406099999993 -1.88784331119755,39.0067553327001,677.323099999994 -1.88892876711493,39.0081851179765,678.248000000007 -1.88938608415473,39.0083364950566,678.231799999994 -1.88925499120867,39.0086781414513,678.973700000002 -1.89146848408619,39.0115216181877,679.377200000003 -1.89363403208038,39.0146837747303,677.132199999993 -1.89487975103767,39.0152341310928,675.016499999998 -1.89554376503444,39.0155506312619,678.044899999994 -1.89598146825831,39.0156202012512,680.058399999994 -1.89517227932512,39.0192341429579,680.165200000003 -1.89587719721002,39.0195828297609,680.450100000002 -1.89888378570243,39.0225641053168,682.056200000006 -1.90293777747678,39.0255160437117,682.583100000003 -1.9090253861711,39.0285596807171,677.244399999996 -1.91942514807939,39.0342221592523,675.410699999993 -1.92328467974752,39.0360309737502,676.393599999996 -1.92367125266206,39.0367360597367,677.2647 -1.92410862081435,39.0368381509462,678.6728 -1.92465143321467,39.0368922983786,680.566999999995 -1.93158343402154,39.0404634916588,676.569499999998 -1.93368444255411,39.0416047718396,679.576799999995 -1.93951925275108,39.0430774717665,677.752099999998 -1.94480454552243,39.0431607878855,682.305999999997 -1.94615453462972,39.0437931188344,681.914799999999 -1.94724636139908,39.0449124381187,680.256899999993 -1.94758063170282,39.0463348470207,678.349400000006 -1.9484270360416,39.0470768130085,678.164799999999 -1.94610692571628,39.0483446599321,678.350900000005 -1.94614313500875,39.048704075871,678.246199999994 -1.94549856684295,39.0498240658957,679.265499999994 -1.94549689058663,39.0513250969501,679.335399999996 -1.94599879909881,39.0527327542944,680.156700000007 -1.94709129601135,39.0538195518563,682.258499999996 -1.94860741505571,39.054551291472,682.581200000001 -1.94967929293757,39.055621492994,682.959099999993 -1.95007910971432,39.0568650321027,682.353700000007 -1.94970242635276,39.0582648097434,682.627600000007 -1.94762120051937,39.060318041114,682.148199999996 -1.94450564638301,39.0636305693494,681.1826 -1.94831438371173,39.0664058176445,683.210399999996 -1.95655697980574,39.0719564813689,685.225200000001 -1.9590514342631,39.0735297643382,685.574900000007 -1.96184931357227,39.0753819973424,686.071899999995 -1.96801135307777,39.0798525691687,688.358900000007 -1.97032425532128,39.081977549511,688.324099999998 -1.9722945059794,39.0843036955259,689.730599999995 -1.97357492505954,39.0854734733835,688.518200000006 -1.97450179598989,39.0865094764962,687.471000000005 -1.97511283723269,39.0876569592625,685.9234 -1.97776822397487,39.0907473668147,683.530700000003 -1.97908837374337,39.0922314667989,686.616800000003 -1.97920119405823,39.0930973175627,688.897400000002 -1.97896063330997,39.093796871144,691.580400000006 -1.97907982357849,39.094222336314,690.002200000003 -1.97991047056889,39.0946702650759,686.132299999997 -1.981501523481,39.0961035708647,687.9905 -1.97913061791794,39.0979100383744,687.310599999997 -1.98477733886068,39.1026577160977,689.607399999994 -1.98939878472192,39.1069034852571,690.998099999997 -1.99012449052083,39.1073830978514,691.308799999999 -1.99022490510158,39.1076615447265,691.637199999997 -1.99334934357614,39.1102498764759,691.869000000006 -1.9952320866475,39.1119470442316,690.899900000004 -1.99609659653085,39.1129823768227,688.307499999995 -1.99725011330572,39.1143139258221,687.167499999996 -2.0004754703159,39.1172128912983,689.848400000003 -1.99991790578198,39.1181218249129,693.197100000005 -1.99942354132156,39.1189987395435,692.905199999994 -1.99902087419042,39.1193217776638,692.326499999996 -1.99896723039488,39.1201371693712,692.400699999998 -1.99699278909596,39.1234971392326,693.827000000005 -2.00337074676481,39.1258586564346,696.646599999993 -2.01385416069067,39.1295773713892,700.179300000003 -2.0269698279435,39.1350386843452,703.378299999997 -2.02426264074876,39.1399717695162,704.549899999998 -2.0228167627731,39.1428118939421,705.150999999998 -2.0336178506278,39.1464420963957,704.801000000007 -2.03386947502711,39.1476824503284,704.836800000005 -2.03289667143964,39.1498605713157,704.872499999998 -2.04266209160328,39.1554207908054,705.550799999997 -2.05184279026365,39.1614467088308,706.635699999999 -2.05651519844927,39.1645141496016,708.691099999996 -2.05817883793128,39.1623093744203,707.230200000005 -2.06767654037731,39.1664684741667,708.458299999998 -2.06832110854311,39.1668327520934,709.021800000002 -2.07243695830792,39.1738303002717,710.817899999995 -2.0744201168584,39.1744009402255,709.260599999994 -2.07579726383337,39.1748523892763,708.542199999996 -2.07726124645526,39.1750599254072,709.552500000005 -2.08086529725661,39.1767036165836,711.445399999997 -2.08859173576141,39.1807021196355,711.755600000004 -2.09639998114418,39.184828530344,711.619099999996 -2.09993043926252,39.1867181466563,709.718699999998 -2.10345402347229,39.1881811244354,708.536099999998 -2.10652934386373,39.1892816679523,711.292499999996 -2.10808720402609,39.1903867378957,713.811199999996 -2.10929587466445,39.1909345789539,714.327399999995 -2.109728716206,39.1914928139187,715.829700000002 -2.11048023778956,39.1917271717909,714.657200000001 -2.11199970934656,39.1925708943181,711.8946 -2.11701996587144,39.1934085817158,706.888600000006 -2.11847908770933,39.1940560002301,708.915399999998 -2.12003041083135,39.1940353807717,710.097399999999 -2.12095040785315,39.1942057005053,709.495599999995 -2.12318770608571,39.1946469240313,708.875400000004 -2.12456703147524,39.1949674484617,707.234500000006 -2.12592607380397,39.1952388544295,706.315799999997 -2.12667524808965,39.1956688461433,705.938599999994 -2.12748058145367,39.1966376259962,705.775099999999 -2.12908655448431,39.1972860499652,705.378100000002 -2.13083988086596,39.1978866970949,705.950800000006 -2.13322201716674,39.1985082990558,704.016099999993 -2.13441342128703,39.1987783644715,703.959499999997 -2.13526351410836,39.1995352503748,706.199399999998 -2.13651660823419,39.199903718334,707.336899999995 -2.14062524991715,39.201647154648,708.140700000004 -2.14233431989801,39.2024270066815,708.291299999997 -2.1417658587997,39.2026186170486,708.828699999998 -2.14197121547027,39.2029466844151,708.685200000007 -2.144001144806,39.2032553064457,715.703200000004 -2.14696716538019,39.204158204831,711.756399999998 -2.1496466916507,39.2044879488729,705.649399999995 -2.15043073494248,39.2037761579529,702.801300000006 -2.15155826884607,39.2041434530089,702.4755 -2.15220216686867,39.2046213890287,702.566800000001 -2.15414559473076,39.205141402055,702.274999999994 -2.15619346162606,39.2056947754353,702.273799999995 -2.15747052819353,39.2058347530327,701.672399999996</coordinates>
</LineString>
</Placemark>
</Folder>
</Document></kml>
