<?xml version="1.0" encoding="UTF-8"?>

<kml xmlns:xsd="http://www.w3.org/2001/XMLSchema" xmlns:gx="http://www.google.com/kml/ext/2.2" xmlns:atom="http://www.w3.org/2005/Atom" xmlns="http://www.opengis.net/kml/2.2">
<Document>
<name>ES08a_14a_la_villa_de_don_fadrique-tembleque</name>
<visibility>1</visibility>
<Schema name="ES08a_14a_la_villa_de_don_fadrique-tembleque" id="kml_schema_ft_ES08a_14a_la_villa_de_don_fadrique-tembleque">
<SimpleField type="xsd:string" name="id">
<displayName>id</displayName>
</SimpleField>
<SimpleField type="xsd:string" name="nombre">
<displayName>nombre</displayName>
</SimpleField>
<SimpleField type="xsd:double" name="longitud">
<displayName>longitud</displayName>
</SimpleField>
<SimpleField type="xsd:string" name="_formato">
<displayName>_formato</displayName>
</SimpleField>
</Schema>
<Folder id="kml_ft_ES08a_14a_la_villa_de_don_fadrique-tembleque">
<name>ES08a_14a_la_villa_de_don_fadrique-tembleque</name>
<Placemark id="kml_1">
<name>&lt;img height='20' src='https://nco.ign.es/iconos/icono_todos_caminos_azul.png' /&gt;&lt;img height='20' src='https://nco.ign.es/iconos/Camino Santiago_20.png' /&gt;&lt;img height='20' src='https://nco.ign.es/iconos/icono_todos_caminos_azul.png' /&gt;  Camino de Santiago </name>
<visibility>1</visibility>
<description><![CDATA[<!DOCTYPE html>
<html>
<head>
<style>
#nco {
  border-collapse: collapse;
  overflow:hidden;
}
#nco th, #nco td {
  padding: 4px;
  text-align: left;
}
#nco th {
  color: #364B5F;
  padding-right: 5px;
}
#nco td {
  color: rgb(51, 51, 51);
  font-size: 12px;
  padding-right: 5px;
}
</style>
</head>
<body>
<table id="nco">
<tr>
<td>Caminos del Este</td>
</tr>
<tr>
<th><b>Camino: </b></th>
<td>ES08a Camino de Levante</td>
</tr>
<tr>
<th><b>Etapa: </b></th>
<td>14a La Villa de Don Fadrique-Tembleque</td>
</tr>
<tr>
<th><b>Longitud: </b></th>
<td>29.05 km</td>
</tr>
</table>
</body>
</html>]]></description>
<Style>
<IconStyle>
<scale>0.8</scale>
</IconStyle>
<LabelStyle>
<color>ffffffff</color>
<scale>0.75</scale>
</LabelStyle>
<LineStyle>
<color>ffff0000</color>
<width>3.0</width>
<gx:labelVisibility>1</gx:labelVisibility>
</LineStyle>
<PolyStyle>
<color>66ff0000</color>
</PolyStyle>
</Style>
<ExtendedData>
<SchemaData schemaUrl="#kml_schema_ft_ES08a_14a_la_villa_de_don_fadrique-tembleque">
<SimpleData name="id">ES08a_14a</SimpleData>
<SimpleData name="_formato">kml</SimpleData>
</SchemaData>
</ExtendedData>
<LineString>
<extrude>0</extrude>
<tessellate>1</tessellate>
<coordinates>-3.21737291329435,39.6179878520486,671.836500000005 -3.21829810707009,39.6182488644688,670.927200000006 -3.21946486860554,39.617169945632,669.088000000003 -3.22167416994393,39.6164871563315,669.479200000002 -3.22242485339929,39.6168125418114,669.617400000003 -3.22335071821656,39.6172725403191,669.630600000004 -3.22472132725289,39.6177498056765,667.237599999993 -3.22659149750355,39.6188692929125,666.346699999995 -3.22769371778073,39.6195643203927,666.931100000002 -3.22868948769676,39.6199155217636,666.7264 -3.22998885044959,39.6200851719366,666.451799999995 -3.23490399869632,39.6201480360593,666.609700000001 -3.23669219408405,39.6204030133629,666.776400000002 -3.23793405657386,39.620742648578,668.433000000005 -3.24028937187517,39.6216611372078,667.031700000007 -3.24573576491632,39.6230558861572,667.810800000007 -3.24722271386678,39.6232791796078,668.027700000006 -3.25092416270616,39.624230861348,668.026400000002 -3.2540254668672,39.6242912107237,667.9761 -3.2567489144669,39.6245800511571,668.462799999994 -3.25987368801301,39.6246186082829,671.059800000003 -3.26041130365941,39.6242565094931,670.851599999995 -3.2607366887267,39.6236677649557,669.560700000002 -3.26604092517074,39.6244434262563,667.730200000005 -3.2698414474062,39.6247818875265,668.394199999995 -3.27326729850633,39.6240139373591,668.034599999999 -3.27418293780071,39.6238389233234,668.523300000001 -3.27573912260505,39.6237631512103,668.379100000006 -3.28108794962319,39.6239406798912,667.977299999999 -3.28567150993561,39.624103623768,668.009399999995 -3.29073585577463,39.6246206196877,668.311499999996 -3.29516015916023,39.624763614712,666.767099999997 -3.30072674858302,39.6247349486149,666.9323 -3.30347165423992,39.6242436016993,665.824999999997 -3.30823592863804,39.6236805054106,665.416599999997 -3.31318728617727,39.6231189177968,666.309899999993 -3.31449620430975,39.6227264773558,666.598100000003 -3.31452922907455,39.6222832420815,665.746700000003 -3.31469083240089,39.6218215670779,665.363100000002 -3.31525040826275,39.6213496654278,665.021699999998 -3.32119736863132,39.6218224050241,665.284799999994 -3.32414746297383,39.6220768793437,663.423299999995 -3.32792149838314,39.623324442267,661.250100000005 -3.33015175562049,39.6250408885323,664.179999999993 -3.33041394151258,39.6263243249718,661.967699999994 -3.33236910406722,39.6264909572845,664.069000000003 -3.33422519232747,39.6255084308949,667.201100000006 -3.33431906986795,39.6253386134278,666.951700000005 -3.33507947578963,39.6252824544873,668.786699999997 -3.33660129464448,39.625368788331,672.166400000002 -3.33805102818935,39.6250752537916,674.951499999996 -3.33909055234791,39.6246833163981,676.701100000006 -3.34026049841103,39.6236989452655,678.859599999996 -3.34189496959575,39.6229160760393,681.328599999993 -3.34385164042175,39.6219144385822,684.634300000005 -3.34942493576811,39.6201874308527,701.314299999998 -3.35071071958711,39.6198618778677,705.767699999997 -3.35297953341478,39.6195928190996,711.391099999993 -3.35400849608056,39.6192929139942,713.628800000006 -3.359347767719,39.6176296096104,720.3416 -3.3661731519764,39.618499986143,722.819099999993 -3.37515536697642,39.6201637941178,721.543300000005 -3.38407572398599,39.62212314749,719.274699999994 -3.38958665738704,39.6240417651436,710.977499999994 -3.39436015119493,39.6271174212529,707.309999999998 -3.40122727657033,39.6316748294944,700.570300000007 -3.40944036839713,39.6370637222395,690.173500000004 -3.41633129822921,39.6416583463571,685.436100000006 -3.41817883812126,39.6425619160098,685.840400000001 -3.43366222461284,39.6487336787727,683.339000000007 -3.44023380425974,39.6526109793483,668.442800000004 -3.44156200023824,39.6539606335968,665.733800000002 -3.44272859378869,39.654923881703,662.924499999994 -3.44371095275586,39.6555359281762,661.1679 -3.44533469536115,39.656814001219,657.166100000002 -3.44693413045314,39.6578282112491,655.605599999995 -3.44846315649151,39.6585084867106,653.895999999993 -3.45003979323994,39.6595052623264,652.648199999996 -3.45346665045318,39.6615501116866,650.363200000007 -3.4546620772293,39.6622107729715,649.558900000004 -3.4543034994123,39.6630742770095,648.953299999994 -3.45457959930983,39.6635483572461,648.848499999993 -3.45558241022105,39.6637733276331,648.692299999995 -3.45672653960118,39.6647189740465,648.188500000004 -3.45831474305721,39.667439236801,646.361300000004 -3.45924379330045,39.6686403634372,645.299899999998 -3.46057148622241,39.6697962279843,644.829299999998 -3.46244450682746,39.6708092649347,644.445999999996 -3.46397621523525,39.671823642955,644.492899999997 -3.46557430914255,39.6725562207181,644.833100000003 -3.46713015797698,39.6737814873437,644.455600000001 -3.4695738180949,39.6750030663613,645.676800000001 -3.47131239234296,39.6762979026088,643.420199999993 -3.47284426873575,39.6773121129181,642.683900000004 -3.47387105208864,39.6776775637081,642.516900000002 -3.4750119969411,39.6780953177598,642.336299999995 -3.47688484956119,39.679020176976,642.887700000007 -3.47934979975135,39.6799777253255,643.431100000002 -3.48176697304316,39.6806011716253,642.807000000001 -3.48236259111082,39.6811441513942,642.566699999996 -3.48348090380801,39.6815795076273,642.659599999999 -3.48468940735974,39.6818737121414,642.6302 -3.48530681765789,39.6822934781927,642.428899999999 -3.48662830861109,39.6824817355331,643.108200000002 -3.48836168610524,39.6829672154321,645.280499999993 -3.48916534321291,39.6839490713206,644.952000000005 -3.49319368628926,39.6870279120446,642.173599999995 -3.49432792521815,39.6877899943865,641.452900000004 -3.49602844593247,39.6900168985455,638.334400000007 -3.49701734283824,39.6914200292978,637.945300000007 -3.495971448726,39.6916181776991,638.009099999996 -3.49747667120594,39.6919988838737,637.512300000002 -3.49788738454712,39.6921380234471,643.061300000001 -3.49832558992923,39.6929279337761,636.164000000004 -3.49949603904889,39.6942247820229,635.5717 -3.49970541927363,39.6948572804066,635.718699999998 -3.50048158344203,39.6951531612145,635.398499999996 -3.50263439152886,39.6969029675808,635.392800000001 -3.5032626983914,39.6967473995917,635.118199999997 -3.50321760386244,39.696981924745,635.059800000003</coordinates>
</LineString>
</Placemark>
</Folder>
</Document></kml>
