<?xml version="1.0" encoding="UTF-8"?>

<kml xmlns:xsd="http://www.w3.org/2001/XMLSchema" xmlns:gx="http://www.google.com/kml/ext/2.2" xmlns:atom="http://www.w3.org/2005/Atom" xmlns="http://www.opengis.net/kml/2.2">
<Document>
<name>ES08a_27a_toro-zamora</name>
<visibility>1</visibility>
<Schema name="ES08a_27a_toro-zamora" id="kml_schema_ft_ES08a_27a_toro-zamora">
<SimpleField type="xsd:string" name="id">
<displayName>id</displayName>
</SimpleField>
<SimpleField type="xsd:string" name="nombre">
<displayName>nombre</displayName>
</SimpleField>
<SimpleField type="xsd:double" name="longitud">
<displayName>longitud</displayName>
</SimpleField>
<SimpleField type="xsd:string" name="_formato">
<displayName>_formato</displayName>
</SimpleField>
</Schema>
<Folder id="kml_ft_ES08a_27a_toro-zamora">
<name>ES08a_27a_toro-zamora</name>
<Placemark id="kml_1">
<name>&lt;img height='20' src='https://nco.ign.es/iconos/icono_todos_caminos_azul.png' /&gt;&lt;img height='20' src='https://nco.ign.es/iconos/Camino Santiago_20.png' /&gt;&lt;img height='20' src='https://nco.ign.es/iconos/icono_todos_caminos_azul.png' /&gt;  Camino de Santiago </name>
<visibility>1</visibility>
<description><![CDATA[<!DOCTYPE html>
<html>
<head>
<style>
#nco {
  border-collapse: collapse;
  overflow:hidden;
}
#nco th, #nco td {
  padding: 4px;
  text-align: left;
}
#nco th {
  color: #364B5F;
  padding-right: 5px;
}
#nco td {
  color: rgb(51, 51, 51);
  font-size: 12px;
  padding-right: 5px;
}
</style>
</head>
<body>
<table id="nco">
<tr>
<td>Caminos del Este</td>
</tr>
<tr>
<th><b>Camino: </b></th>
<td>ES08a Camino de Levante</td>
</tr>
<tr>
<th><b>Etapa: </b></th>
<td>27a Toro-Zamora</td>
</tr>
<tr>
<th><b>Longitud: </b></th>
<td>36.76 km</td>
</tr>
</table>
</body>
</html>]]></description>
<Style>
<IconStyle>
<scale>0.8</scale>
</IconStyle>
<LabelStyle>
<color>ffffffff</color>
<scale>0.75</scale>
</LabelStyle>
<LineStyle>
<color>ffff0000</color>
<width>3.0</width>
<gx:labelVisibility>1</gx:labelVisibility>
</LineStyle>
<PolyStyle>
<color>66ff0000</color>
</PolyStyle>
</Style>
<ExtendedData>
<SchemaData schemaUrl="#kml_schema_ft_ES08a_27a_toro-zamora">
<SimpleData name="id">ES08a_27a</SimpleData>
<SimpleData name="_formato">kml</SimpleData>
</SchemaData>
</ExtendedData>
<LineString>
<extrude>0</extrude>
<tessellate>1</tessellate>
<coordinates>-5.39412751819992,41.5206133193496,0.0 -5.39639214048847,41.5217735428855,0.0 -5.39736209461988,41.522000189204,0.0 -5.39813943198806,41.521862725887,0.0 -5.39843816314253,41.5217039726607,0.0 -5.39871208372716,41.521846297661,0.0 -5.3990845755496,41.5217398476861,0.0 -5.39920376581812,41.5214096003098,0.0 -5.40210021636513,41.520756650242,0.0 -5.40538592219612,41.5201404129253,0.0 -5.40585245954396,41.5196681763118,0.0 -5.4079693925116,41.5192601452027,0.0 -5.40998456971372,41.5191642561635,0.0 -5.41073424705601,41.5187669539374,0.0 -5.41263459261537,41.5170303911614,0.0 -5.41375089398465,41.5162124850804,0.0 -5.4137706757855,41.5154579459691,0.0 -5.41311537814193,41.5146997193629,0.0 -5.41102325574416,41.5128763201994,0.0 -5.41055370095524,41.5118133272104,0.0 -5.41043149324567,41.5106130387597,0.0 -5.4100990671832,41.5098613498397,0.0 -5.4103584027209,41.5096090540735,0.0 -5.41256485550153,41.5088850252655,0.0 -5.41535351450266,41.5080812011169,0.0 -5.41714590053118,41.5097089665461,0.0 -5.41756415702578,41.5098796222762,0.0 -5.42057225468785,41.5091924734029,0.0 -5.42353140225181,41.5084835321918,0.0 -5.4268184492675,41.507597397233,0.0 -5.43084662435889,41.5065803370193,0.0 -5.43884966491946,41.5042909041759,0.0 -5.44458406053562,41.5024854426209,0.0 -5.44846186393668,41.5016090306912,0.0 -5.45387070650063,41.5007171959531,0.0 -5.4560523478131,41.5004089096367,0.0 -5.46389713845829,41.4985833310608,0.0 -5.46962181070983,41.4968554856511,0.0 -5.47335544618584,41.4961730308792,0.0 -5.47977196044504,41.4949531288783,0.0 -5.48556352035432,41.4937813385181,0.0 -5.48871394259846,41.4936346555697,0.0 -5.49102717991352,41.4940468772901,0.0 -5.49340847898444,41.4950245425314,0.0 -5.49605866897271,41.4954469907358,0.0 -5.49961913351649,41.4966083873081,0.0 -5.50298597698055,41.4972591581213,0.0 -5.50506971809674,41.4974318254443,0.0 -5.50803875521365,41.4979952567836,0.0 -5.50847662642247,41.4961099993728,0.0 -5.51089346374436,41.4955948477301,0.0 -5.51475064811468,41.4948213657178,0.0 -5.51554458185773,41.4943503022201,0.0 -5.51866013599409,41.4942036192144,0.0 -5.52112458312768,41.4946207027232,0.0 -5.52243316529029,41.4948537198063,0.0 -5.52467700056316,41.49407168766,0.0 -5.53436363128985,41.4937276944954,0.0 -5.54004220289935,41.4938465503459,0.0 -5.5416372793656,41.4939856893719,0.0 -5.54326605073984,41.4946911108269,0.0 -5.54541382915938,41.4950188428183,0.0 -5.54671637733822,41.4950946151171,0.0 -5.54900228969897,41.4953930109965,0.0 -5.55103171597816,41.4950687992289,0.0 -5.55171819414524,41.4951145644239,0.0 -5.55309031145293,41.4954853799341,0.0 -5.55600553768767,41.4952635942776,0.0 -5.55717028699685,41.4953772529359,0.0 -5.55811811202953,41.4949898416261,0.0 -5.55869612850754,41.4952298994079,0.0 -5.55997755370076,41.4950617585303,0.0 -5.56095337472928,41.4947957165881,0.0 -5.5636729676581,41.4949097104745,0.0 -5.56404797386502,41.4947093828346,0.0 -5.56678198295753,41.4943080575485,0.0 -5.56994933664812,41.4922482888938,0.0 -5.57083882418793,41.4918533333467,0.0 -5.57183442611901,41.490627228659,0.0 -5.57403853160182,41.489443703932,0.0 -5.57422712481089,41.4898146871595,0.0 -5.57383619237227,41.4919519045752,0.0 -5.57527067162529,41.4941880290791,0.0 -5.57567484702782,41.4950164959171,0.0 -5.57543462135118,41.4968625261547,0.0 -5.57769069437315,41.4964020248757,0.0 -5.57858873117953,41.4962248313203,0.0 -5.58263266451764,41.496081668144,0.0 -5.58403696846196,41.4957971864477,0.0 -5.58681339061226,41.4947139091187,0.0 -5.58735100536034,41.4945186111398,0.0 -5.58744002121849,41.494132707955,0.0 -5.59040922632036,41.4938130222819,0.0 -5.59014368791564,41.492100431662,0.0 -5.5896556934089,41.4891714595758,0.0 -5.59329109271872,41.4866555477673,0.0 -5.59369543610618,41.4848668498359,0.0 -5.59344783436274,41.4838953867807,0.0 -5.59402316847131,41.4829053168573,0.0 -5.59532923624941,41.4833643097206,0.0 -5.5977842959883,41.4815117416628,0.0 -5.60223760058452,41.4806085075371,0.0 -5.60319313765392,41.481005474574,0.0 -5.60437716570744,41.4818947945578,0.0 -5.60497663934428,41.4823782621686,0.0 -5.60618028031539,41.4823075189971,0.0 -5.61094941549754,41.482914536627,0.0 -5.61385139787004,41.4835378149152,0.0 -5.61856739231322,41.4836834924305,0.0 -5.62749093385049,41.4840294972563,0.0 -5.63498301447409,41.4842591613817,0.0 -5.63506985101935,41.484972628943,0.0 -5.64142769181572,41.4835529022137,0.0 -5.64349500454203,41.4833222321845,0.0 -5.64567781995257,41.4825130433803,0.0 -5.64826129026808,41.4824273803712,0.0 -5.65165998439886,41.4829859507649,0.0 -5.65363090520018,41.4829577874238,0.0 -5.65597146746959,41.4817523016381,0.0 -5.65734324970569,41.4804033183254,0.0 -5.65979864451616,41.4797445006099,0.0 -5.66191272802771,41.4809431127465,0.0 -5.66791735574598,41.4839443376109,0.0 -5.67265799277404,41.4863816268417,0.0 -5.67661257428409,41.4880343708888,0.0 -5.67692337520273,41.4879746913688,0.0 -5.67972695432238,41.4898460350658,0.0 -5.68119496139677,41.4908413026815,0.0 -5.68314861478172,41.491511016674,0.0 -5.6857307439125,41.4925062836067,0.0 -5.68722590795621,41.4930296499971,0.0 -5.68736018632828,41.493274401571,0.0 -5.68684553701043,41.4939266807942,0.0 -5.68682257068187,41.4940953252259,0.0 -5.68777056369951,41.4943310241895,0.0 -5.6887334768357,41.4945663878865,0.0 -5.68946421140359,41.4948438288836,0.0 -5.69020533947927,41.4947593394838,0.0 -5.69069601635547,41.4947367080754,0.0 -5.6916166844188,41.4946703236869,0.0 -5.69251824172278,41.4945038587853,0.0 -5.69350998808465,41.4943575105374,0.0 -5.69401022034051,41.494211498388,0.0 -5.69475688024171,41.4942612865339,0.0 -5.69568492437184,41.4940156969403,0.0 -5.69590670943237,41.4936187302109,0.0 -5.69604283204567,41.4933132933435,0.0 -5.69620829094122,41.4929961221832,0.0 -5.6969480778322,41.4928781051897,0.0 -5.69773295925213,41.4927701460948,0.0 -5.69852387555414,41.4928078646794,0.0 -5.69913525097022,41.4928273107086,0.0 -5.69944772904347,41.492820102221,0.0 -5.69999959286861,41.4924824792604,0.0 -5.70036169118324,41.4925973109103,0.0 -5.70045875414968,41.4927855690259,0.0 -5.70019640027264,41.4932846271488,0.0 -5.7004148328205,41.4935260262158,0.0 -5.70081649383852,41.493516638394,0.0 -5.70147480802481,41.4932324919592,0.0 -5.70255909074242,41.4928040091165,0.0 -5.70390053058316,41.4921116640541,0.0 -5.70538513403239,41.4916402652674,0.0 -5.70644795869283,41.4914139540614,0.0 -5.70759678266863,41.4911070089434,0.0 -5.70880511733711,41.4907988901896,0.0 -5.70984564760879,41.4903938767454,0.0 -5.71098139480904,41.4901321935247,0.0 -5.71176057641849,41.4898901243839,0.0 -5.71244085171852,41.4897732806607,0.0 -5.71455325897375,41.4900705026159,0.0 -5.71651730676485,41.4903826447283,0.0 -5.71798665412564,41.4906170026617,0.0 -5.72058035086231,41.4910258717257,0.0 -5.72233149793108,41.4912307258459,0.0 -5.72344344067461,41.4914620661772,0.0 -5.72428548728598,41.4916548500527,0.0 -5.72557026499183,41.4921061316319,0.0 -5.72539055701925,41.4931521931077,0.0 -5.72510557278356,41.4945254843565,0.0 -5.72544319559997,41.4947640333048,0.0 -5.72584468863304,41.4965238975187,0.0 -5.72566799810148,41.4969314260274,0.0 -5.72647450466527,41.4973381156491,0.0 -5.727181769848,41.497511956167,0.0 -5.72725502745943,41.4981934050983,0.0 -5.72795491657538,41.4983685869328,0.0 -5.7310250402129,41.4985311954264,0.0 -5.73336560248231,41.4984493886382,0.0 -5.73418300561046,41.4982991846498,0.0 -5.7369460168119,41.4983293597694,0.0 -5.73994757563703,41.4982403434963,0.0 -5.74209384578521,41.497683115021,0.0 -5.74307570259413,41.4978515908866,0.0 -5.7460764232911,41.4971954555171,0.0 -5.74742993379431,41.4973723140412,0.0 -5.74795464065006,41.4977089312129,0.0 -5.74801364918446,41.4980041413605,0.0 -5.74817240215642,41.4981922317053,0.0 -5.74815463258176,41.5005131805315,0.0 -5.74716707686069,41.5010340319333,0.0 -5.74737209845968,41.5014915164857,0.0 -5.74663214358375,41.5018319894749,0.0 -5.74721904439988,41.5028123365954,0.0 -5.74655352123345,41.5032644567437,0.0 -5.74645478290898,41.5033977285543,0.0 -5.74658051111614,41.5036302424546,0.0</coordinates>
</LineString>
</Placemark>
</Folder>
</Document></kml>
