<?xml version="1.0" encoding="UTF-8"?>

<kml xmlns:xsd="http://www.w3.org/2001/XMLSchema" xmlns:gx="http://www.google.com/kml/ext/2.2" xmlns:atom="http://www.w3.org/2005/Atom" xmlns="http://www.opengis.net/kml/2.2">
<Document>
<name>ES08a_04a_moixent-la_font_de_la_figuera</name>
<visibility>1</visibility>
<Schema name="ES08a_04a_moixent-la_font_de_la_figuera" id="kml_schema_ft_ES08a_04a_moixent-la_font_de_la_figuera">
<SimpleField type="xsd:string" name="id">
<displayName>id</displayName>
</SimpleField>
<SimpleField type="xsd:string" name="nombre">
<displayName>nombre</displayName>
</SimpleField>
<SimpleField type="xsd:double" name="longitud">
<displayName>longitud</displayName>
</SimpleField>
<SimpleField type="xsd:string" name="_formato">
<displayName>_formato</displayName>
</SimpleField>
</Schema>
<Folder id="kml_ft_ES08a_04a_moixent-la_font_de_la_figuera">
<name>ES08a_04a_moixent-la_font_de_la_figuera</name>
<Placemark id="kml_1">
<name>&lt;img height='20' src='https://nco.ign.es/iconos/icono_todos_caminos_azul.png' /&gt;&lt;img height='20' src='https://nco.ign.es/iconos/Camino Santiago_20.png' /&gt;&lt;img height='20' src='https://nco.ign.es/iconos/icono_todos_caminos_azul.png' /&gt;  Camino de Santiago </name>
<visibility>1</visibility>
<description><![CDATA[<!DOCTYPE html>
<html>
<head>
<style>
#nco {
  border-collapse: collapse;
  overflow:hidden;
}
#nco th, #nco td {
  padding: 4px;
  text-align: left;
}
#nco th {
  color: #364B5F;
  padding-right: 5px;
}
#nco td {
  color: rgb(51, 51, 51);
  font-size: 12px;
  padding-right: 5px;
}
</style>
</head>
<body>
<table id="nco">
<tr>
<td>Caminos del Este</td>
</tr>
<tr>
<th><b>Camino: </b></th>
<td>ES08a Camino de Levante</td>
</tr>
<tr>
<th><b>Etapa: </b></th>
<td>04a Moixent-La Font de la Figuera</td>
</tr>
<tr>
<th><b>Longitud: </b></th>
<td>16.96 km</td>
</tr>
</table>
</body>
</html>]]></description>
<Style>
<IconStyle>
<scale>0.8</scale>
</IconStyle>
<LabelStyle>
<color>ffffffff</color>
<scale>0.75</scale>
</LabelStyle>
<LineStyle>
<color>ffff0000</color>
<width>3.0</width>
<gx:labelVisibility>1</gx:labelVisibility>
</LineStyle>
<PolyStyle>
<color>66ff0000</color>
</PolyStyle>
</Style>
<ExtendedData>
<SchemaData schemaUrl="#kml_schema_ft_ES08a_04a_moixent-la_font_de_la_figuera">
<SimpleData name="id">ES08a_04a</SimpleData>
<SimpleData name="_formato">kml</SimpleData>
</SchemaData>
</ExtendedData>
<LineString>
<extrude>0</extrude>
<tessellate>1</tessellate>
<coordinates>-0.751972887258809,38.8739501123031,332.0 -0.752600859948066,38.8736269060357,329.0 -0.752839241383465,38.8736238882658,327.705900000001 -0.753016770043152,38.8735925398178,327.0 -0.753151718558387,38.8735065420243,324.572100000005 -0.753318015582098,38.8734611117324,326.304799999998 -0.753461346277282,38.873458261804,326.429300000003 -0.754381176212452,38.8739462567086,327.0 -0.755266808183052,38.873111251564,328.053599999999 -0.755875334143044,38.8711537414835,323.0 -0.755739714586278,38.8711021088774,328.809899999993 -0.755898132486647,38.8704214984505,326.029899999994 -0.756027382089728,38.8700471624208,334.305099999998 -0.7563569586961,38.869894779933,329.061799999996 -0.756689719830182,38.8698111283652,328.191900000005 -0.757213421471149,38.8698387884227,326.911600000007 -0.757753718588661,38.8700086057481,328.907800000001 -0.758464169197424,38.8702602308834,333.0 -0.758658126247029,38.8702520164249,334.0 -0.758836996091482,38.8702168120917,335.552800000005 -0.761586930517334,38.8689994245431,343.983699999997 -0.762070398413334,38.8687769689501,347.010699999999 -0.762288160817989,38.8686401765296,348.021500000003 -0.762449764144332,38.8684083329153,348.642300000007 -0.762606002731809,38.8681662637097,347.0 -0.762879420259903,38.8676903389798,349.506899999993 -0.76312584790527,38.8673577451897,346.6872 -0.76334998026361,38.8670543203591,346.467799999999 -0.763671006705107,38.8667317849687,361.459300000002 -0.763895139063447,38.866600021058,343.0 -0.764133017442271,38.8665250868958,342.251999999993 -0.7650610615724,38.8664985999045,340.0 -0.766209717563244,38.8665061440362,343.833100000003 -0.767080094343735,38.8664575289264,346.0 -0.767976957950345,38.8664120990253,346.016499999998 -0.76865840734848,38.8663636517164,346.381099999999 -0.768996030164854,38.8663076602225,346.767200000002 -0.769364331346502,38.8662303791308,343.086200000005 -0.769503638487487,38.8661889729657,345.0 -0.769593324488836,38.8660930838076,346.0 -0.769939664556743,38.8654451623838,347.279200000004 -0.770210232628743,38.8649206228611,352.462599999999 -0.77036932067228,38.8648694935308,351.962899999999 -0.770672578437491,38.8646746982723,350.531300000002 -0.771386548645515,38.8640026373837,350.988100000002 -0.771799609284507,38.8635466615458,350.751199999999 -0.771938748440568,38.8632883313194,350.167499999996 -0.772094987028045,38.8629253948051,352.079899999997 -0.772144943239298,38.8626486241546,351.703899999993 -0.772161874685791,38.862541838676,351.232000000004 -0.77226597774909,38.8624566787769,350.581099999996 -0.772379301120498,38.8623872766152,350.095199999996 -0.772566050088293,38.8622050539996,349.284100000004 -0.772752463984471,38.8619150400415,347.384099999996 -0.773134511186605,38.8616313965127,345.0 -0.773335844303044,38.8615462362226,345.083599999998 -0.773453861371785,38.8614635911857,345.0 -0.773480348197937,38.861094619246,346.0 -0.773454532413317,38.8608505385774,346.0 -0.77346844641876,38.86069714939,345.911699999997 -0.773490238649247,38.8605836584138,345.089800000002 -0.773580930763678,38.8604753645171,346.104200000002 -0.773668941407007,38.8604200441003,346.436700000006 -0.773845463953612,38.8603685792721,346.0 -0.773962642894228,38.8603052117435,347.008300000001 -0.774114522855922,38.860233127701,347.774399999995 -0.774244107530621,38.8601888710804,348.0 -0.774468910032161,38.8601757953348,348.070699999997 -0.774534624490131,38.8601152780979,348.568100000004 -0.774624310491446,38.8599788208606,349.0 -0.774832516618111,38.8596053231121,350.365999999995 -0.775206517610243,38.8592836255163,351.353099999993 -0.775550008222057,38.8588992313133,354.0 -0.775898359617899,38.8585071263659,356.294599999994 -0.776119977591729,38.8581611211012,359.409499999994 -0.77623615041923,38.8579336363109,362.357699999993 -0.776388868509115,38.8576939140197,363.339399999997 -0.776499845481004,38.8574216699301,366.467600000004 -0.776701848740611,38.85722821555,368.994200000001 -0.776868816805854,38.856946583366,376.641900000002 -0.776931009867902,38.8568523704143,379.887700000007 -0.777561496941635,38.8563756081534,383.895300000004 -0.778128616855246,38.8559281821693,392.899000000005 -0.778750385779148,38.8554961790534,402.462499999994 -0.779047272692344,38.8552777462824,406.453899999993 -0.779133271109441,38.8552180671335,407.302299999996 -0.779252629362915,38.8550517702924,410.095100000006 -0.779356397354664,38.8549391174629,411.502800000002 -0.779385231478631,38.8548504367076,412.4375 -0.779279619245642,38.8545937832001,414.882599999997 -0.778957586690995,38.8541378078888,417.684099999999 -0.77875675663113,38.8538538290288,420.357399999994 -0.778571348848068,38.8534082466269,422.632199999993 -0.778419300901417,38.8530572125331,423.764599999995 -0.778084527541103,38.8525087009348,428.0 -0.778786931041534,38.8522862448145,432.420899999997 -0.778984911645305,38.8521363770226,435.740699999995 -0.779042243923392,38.8520356264231,439.532600000006 -0.7790554877856,38.8517685788585,443.125199999995 -0.779120866273689,38.8516242422843,444.758400000006 -0.780008844643808,38.8508720507541,449.0 -0.780247058992547,38.8507743178033,448.674100000004 -0.780399609097475,38.8506720583509,447.1495 -0.780470855380971,38.8505161545536,446.0 -0.780527684602484,38.8503102950319,445.532200000001 -0.780735388570904,38.8500388894821,444.073399999994 -0.78082054885981,38.8498967321525,444.671900000001 -0.780900679481466,38.849753401306,444.527199999997 -0.781176779378993,38.8495775490918,444.756800000003 -0.781586821678638,38.8494134316263,445.668300000005 -0.781721435122289,38.8494325420475,445.254700000005 -0.782384946960815,38.849185611728,448.542799999996 -0.783498230889049,38.8487401973728,458.0 -0.784403141603992,38.8483142288649,464.917700000005 -0.784703884086396,38.8481019992424,469.644799999995 -0.785126164135133,38.8476611109581,476.555699999997 -0.785268489615498,38.8473248288029,478.862699999998 -0.785444342018868,38.8470784011963,481.969400000002 -0.785497315671205,38.8461505240953,487.600200000001 -0.785614326626831,38.8458538050782,489.518200000006 -0.785765871516941,38.8456445926704,488.545299999998 -0.786248334198155,38.8451815761135,485.001600000003 -0.786924417959094,38.8449004475531,482.0 -0.787675436486078,38.8444211703805,480.1921 -0.787949860127287,38.8441970377783,479.437999999995 -0.788435172264595,38.8437103849329,481.0 -0.788819398779587,38.8433932136385,483.926999999996 -0.78910538912839,38.8430229011395,487.387600000002 -0.789361540138407,38.8427672530633,489.748099999997 -0.789630431954057,38.8424562843722,493.248800000001 -0.789933018677736,38.8422029830739,497.786999999997 -0.790194533528321,38.841987065407,501.0 -0.790200233338805,38.8419937711257,501.0 -0.790518913380784,38.8417493548281,507.284199999995 -0.790715384814898,38.8414474383965,513.242199999993 -0.790914539516743,38.8410311931681,520.0196 -0.790966003999356,38.840793147043,522.852199999994 -0.791046135519343,38.8405587889009,525.122099999993 -0.791132133038109,38.8404709466426,526.0 -0.791340340063105,38.8405450427393,527.957299999995 -0.791614930790941,38.8406000280694,530.716400000005 -0.791857335780473,38.8406535048217,532.0 -0.792070068517846,38.8408374038379,534.0 -0.792232845043965,38.8409725201132,535.0 -0.792524200131634,38.8410390723534,536.0 -0.792736261827508,38.8410833282957,536.602400000003 -0.792974308191256,38.8410964047526,537.0 -0.793477221918258,38.8410640505055,538.566600000006 -0.793955158887062,38.8410122498147,540.0 -0.794335528934548,38.8410137590419,542.0 -0.794735681681248,38.8411089774322,543.036099999998 -0.795103311821364,38.8411674831495,544.078699999998 -0.795652829246985,38.8410642177308,544.0 -0.79611014538845,38.8408860189705,544.0 -0.79645179175899,38.8408427683596,545.0 -0.796869043038775,38.840703628614,545.973100000003 -0.79705948048912,38.8405862819157,545.671600000001 -0.797358043658632,38.840363155289,545.105200000005 -0.797890126581219,38.8400763268478,544.284199999995 -0.798202100699599,38.8398811963925,543.0 -0.799066945654531,38.8396630991077,543.0 -0.800755731676293,38.8393224584725,546.139999999999 -0.803522430461977,38.8382663387111,551.261199999994 -0.805871877967843,38.8373961291938,546.964500000002 -0.807831064076648,38.8366831645826,544.0 -0.80869976460079,38.8363561027151,545.0 -0.809211730650876,38.8362555200953,546.0 -0.809590928396916,38.8361628163588,545.0 -0.8098229389803,38.8360726266555,544.902799999996 -0.810005664393929,38.8359986987371,544.622199999998 -0.811669639845857,38.8350005814024,542.919500000004 -0.812140367834521,38.8347496271155,542.964900000006 -0.812487546030586,38.8344210567919,543.763000000006 -0.813013762056029,38.8341110942641,546.0 -0.81344023364389,38.8337550309475,550.0 -0.813923198483348,38.8333511909165,554.119399999996 -0.814461987329534,38.8330668764644,556.520199999999 -0.815034974140223,38.8328724160614,559.386199999994 -0.815284252140014,38.8328424092973,560.032399999996 -0.816047005359548,38.8329600906578,564.0 -0.816739518408702,38.8329483562593,567.858099999998 -0.817623976281263,38.8328984005471,570.0 -0.818372145352153,38.8328137432774,570.121400000004 -0.818552859437848,38.8327904409752,571.108800000002 -0.818852428720476,38.8328154192235,572.480500000005 -0.820571389152642,38.8325941373202,570.632100000003 -0.821697245901585,38.83270796336,565.169800000003 -0.822138637608004,38.8328061990704,562.172300000006 -0.822459496962875,38.8327949677804,561.0 -0.822822097435743,38.8327661337969,559.149300000005 -0.823159385180532,38.8326571691543,557.527499999997 -0.823566410937458,38.8324891954031,554.973899999997 -0.824074856489953,38.8323307780626,552.0 -0.824449192553669,38.832290209384,551.0 -0.824780780487974,38.8321970022429,551.710200000001 -0.824888572033856,38.8321572725185,551.779500000004 -0.825112369320577,38.8322241597973,552.171700000006 -0.825177747808666,38.8320719446817,550.0 -0.825130473966846,38.831843621398,546.818400000004 -0.825044140478132,38.8317091756734,545.439799999993 -0.824810955796675,38.8314778351663,543.572 -0.824571736233151,38.831190001012,542.147400000002 -0.824167895902233,38.8306552354446,540.853099999993 -0.823944602570383,38.8302859287429,541.0 -0.823806635715768,38.8300316219053,540.087700000004 -0.823638495349113,38.829898852272,539.205300000001 -0.823475047781462,38.8297877082665,537.053700000004 -0.822975821638745,38.8291778410856,533.955199999997 -0.822753366435053,38.8289309104532,533.917600000001 -0.822580363487743,38.8286345262218,535.0 -0.822417251890007,38.8284119023784,536.008000000002 -0.822227485481194,38.8281973257015,538.008000000002 -0.82194233326055,38.8277411826085,542.0 -0.821584258500092,38.8274645801742,539.982999999993 -0.821225512698136,38.8272147995154,536.587199999994 -0.820861738127195,38.8268781820906,535.844400000002 -0.820508189079148,38.8264838970276,537.0 -0.820346083594527,38.8262626150373,539.123800000001 -0.820903312158532,38.8262590948766,536.493199999997 -0.821930598567999,38.8263486132787,533.0 -0.822455640495369,38.8264124834427,533.0 -0.822677258469233,38.8263321847141,532.394700000004 -0.822934247607375,38.8263246412198,532.120899999994 -0.82316827041699,38.8263772798026,531.204100000003 -0.823473203540187,38.8263576656086,530.0 -0.823725666965953,38.8264262295346,530.0484 -0.823976286150443,38.8264986494624,529.518800000005 -0.824443660728142,38.8265092106083,526.0 -0.825099796499868,38.8264575784803,522.571899999995 -0.825621653001264,38.82645774574,522.0 -0.826263036639389,38.8265462589359,522.0 -0.826867707030171,38.8266334304487,522.759099999996 -0.827233325842387,38.8267261339997,524.0 -0.827719476107853,38.8267750848916,524.858699999997 -0.828257929882388,38.8269142245753,521.992599999998 -0.8287807924969,38.8270837063082,520.422900000005 -0.829037614548415,38.8271740634624,521.0 -0.829508006567164,38.8272513443028,518.0 -0.829866416399206,38.8271973648038,515.326199999996 -0.830603018762536,38.8271351714238,514.0 -0.83092521840381,38.8276117664391,508.609700000001 -0.831310283046961,38.8280203005058,504.824500000002 -0.831575654365053,38.8282893595943,499.674700000003 -0.832259282177716,38.8282905324812,497.092999999993 -0.832985826104779,38.82835859348,493.710300000006 -0.834125596859198,38.8285497015249,489.217999999993 -0.83505330591771,38.8284893512294,488.247000000003 -0.83581287371127,38.8283123253604,484.563500000004 -0.836114287235173,38.8282432586851,483.023499999996 -0.837007966314106,38.828157260633,480.0 -0.837429072264803,38.8280254966383,479.0 -0.837734509342872,38.8279636384939,476.309299999994 -0.838296431604211,38.8280134269143,477.585099999997 -0.838512517752549,38.8278744552356,480.901800000007 -0.838842429430537,38.8278110881526,482.887700000007 -0.839607865019504,38.8277612995907,487.878599999996 -0.840444881065288,38.8277381649906,493.720600000001 -0.841145105252826,38.8276818386673,499.018899999995 -0.84158549084613,38.8276711104386,502.677100000001 -0.841746088059391,38.8275827644986,505.100999999995 -0.841879695389892,38.8274518392263,507.664999999994 -0.841983966438182,38.8273594711353,509.554000000004 -0.842136852513025,38.8273911548849,510.945300000007 -0.842671114748469,38.8276102576275,509.473199999993 -0.843048636238193,38.8278105849836,508.082299999995 -0.843276288195826,38.8279468743901,508.152600000001 -0.843612234755883,38.8280043747949,508.0 -0.843869056807398,38.8280384054392,507.052599999995 -0.844124033719342,38.8281126684393,506.5429 -0.84446215959229,38.8282124136919,504.782999999996 -0.844542626183861,38.8281949792248,504.281700000007 -0.844518821727142,38.8281037842881,505.680800000002 -0.844406001412276,38.8279973339458,506.778000000006 -0.8442631737737,38.8278652351424,508.464000000007 -0.844047423595277,38.8277272688139,509.617299999998 -0.843773670097269,38.82760371991,511.474700000006 -0.84353243920581,38.8273779114515,514.051600000006 -0.843297243196452,38.8271019787379,515.826300000001 -0.843277126323985,38.8269821175319,516.411999999997 -0.843350886991957,38.8269185830959,516.964300000007 -0.843443423347696,38.8268860607433,517.0 -0.843621958120499,38.8268293992283,517.256899999993 -0.84372539104063,38.8267434008679,516.863299999997 -0.843878779273717,38.8265802888776,516.707699999999 -0.843991432501923,38.8264527167528,515.828899999993 -0.844105594001489,38.8263241380402,514.842900000003 -0.844239536403608,38.8260208810694,510.2304 -0.844182037038927,38.825919460137,509.163 -0.844081956631431,38.8258126748056,509.0 -0.844026803666235,38.8257033747938,509.0 -0.844057649118138,38.8255597089779,508.780899999998 -0.844293181097443,38.8254867863091,508.075899999996 -0.84465645261181,38.8254183901402,507.939700000003 -0.844774972737126,38.8252522601904,508.486699999994 -0.844901539072477,38.8251508395628,507.986199999999 -0.845065153726755,38.8251535213651,508.479900000006 -0.84534326585048,38.8252272820876,508.633400000006 -0.845575276433864,38.8252760653479,508.950599999996 -0.845838803510682,38.8252204089262,509.668699999995 -0.846022031980852,38.825194089912,509.955600000001 -0.846255719718883,38.8252222530135,509.948399999994 -0.846587978694688,38.8251546950035,509.584000000003 -0.846914872931626,38.8251112766678,509.681500000006 -0.847428180166445,38.8251082596384,510.0 -0.847513675527001,38.8252603069854,508.0 -0.847620460959767,38.8253969322992,506.003299999997 -0.847955737376622,38.8255352334683,503.033200000005 -0.848194788955189,38.8256002772933,499.924700000003 -0.849074554028679,38.8256078208642,495.0 -0.849124342255008,38.8255578648994,494.806599999996 -0.849166754414504,38.8245721529624,497.333400000003 -0.849212016928423,38.8238290136398,499.083499999993 -0.849245041693216,38.8233279429282,502.0 -0.849556345668395,38.8213052221289,503.0 -0.849773101061603,38.8199198611207,493.0 -0.849834959950398,38.8196127484279,490.042400000006 -0.849953312090756,38.8194459484258,488.0 -0.850503165486291,38.8192286892976,485.0 -0.850979089330533,38.8190855269463,482.903699999995 -0.851367674471309,38.8189690180871,482.0 -0.85170412408794,38.8188112705665,479.776500000007 -0.852179545773971,38.8186759869373,476.322899999999 -0.852541476103605,38.818542212055,475.0 -0.852755214954093,38.8184252004714,473.0 -0.853033494164511,38.8183784296598,472.369500000001 -0.853359550273291,38.818348254407,471.566699999996 -0.853904206016587,38.8181487655196,469.860000000001 -0.854239314448485,38.817978445018,467.054300000003 -0.854602083804607,38.8177341961198,464.429600000003 -0.854871812850152,38.8175514706679,461.399099999995 -0.855098962649508,38.8174136719323,459.388600000006 -0.855275988252654,38.8173316972434,458.0 -0.855425186743245,38.8173191245631,457.082899999994 -0.855685025337514,38.8173710922805,455.145000000004 -0.855940003147755,38.8174995030821,454.446299999996 -0.856169332260003,38.8176460184285,454.0 -0.856317858810765,38.8176185256515,454.0 -0.856533776974145,38.8176020971724,455.789199999999 -0.85677601397872,38.8173719300854,458.497600000002 -0.858277547976112,38.8154811404284,465.0 -0.858328845372098,38.8153626203437,465.0 -0.858335215325783,38.8151515642464,466.0 -0.858368240090577,38.8149567686302,466.0 -0.858550630432589,38.8142597299451,467.0 -0.858707372076641,38.8137601681987,468.699399999998 -0.858734697030951,38.813467807876,469.0 -0.85888171531032,38.8129162780448,471.0 -0.859154295608586,38.8119766670766,475.0 -0.85927365386206,38.8114868288171,478.0 -0.859320089575722,38.8113285782377,478.0 -0.859384294864035,38.8113037674459,478.253599999996 -0.859617814617076,38.8112875069054,479.017800000001 -0.860028191988338,38.8112606850552,480.0 -0.860368162102561,38.8112077112064,480.992400000003 -0.860717017453241,38.8111181926692,481.914900000003 -0.861255135257895,38.8108580179976,482.0 -0.862013529851678,38.8104670860697,483.0 -0.862583667206307,38.8101993680175,484.145300000004 -0.863215327479782,38.8099482465061,485.8992 -0.863846651783377,38.8097737351226,487.039900000003 -0.864473953431102,38.8095408862468,488.452300000004 -0.865078121663674,38.8093742537557,488.396200000003 -0.865612383899119,38.8092503692071,488.362800000003 -0.866108257529201,38.8090969800722,488.968699999998 -0.866615864953537,38.8089028553014,489.483500000002 -0.867291111484614,38.8086879433311,491.058399999994 -0.867679864610347,38.8085811580594,492.055500000002 -0.868015811170403,38.808522820161,493.486499999999 -0.868357121571028,38.8084611291762,495.0 -0.868816449938725,38.8083449557416,496.758900000001 -0.869661513991138,38.8081162973645,499.176600000006 -0.870855767567518,38.8077991263652,500.0 -0.871069505519676,38.8077339150773,500.234200000006 -0.871382318664545,38.8075431431743,500.857699999993 -0.871503018102753,38.8074536242321,501.0 -0.871737207998995,38.8074542948493,501.0 -0.872339699076919,38.8075298995497,501.276500000007 -0.872725266776645,38.8076697096525,501.328999999998 -0.873422641508123,38.8078143817813,502.399699999994 -0.874812528390425,38.8079796724965,504.044399999999 -0.875661783083631,38.8081447962255,505.0 -0.875938888195943,38.8081910641495,505.054900000003 -0.876588654014018,38.8082971793967,507.038199999995 -0.877560451488376,38.8084076527394,512.812999999995 -0.878159254982015,38.8084239132373,515.0 -0.878652110272783,38.8083615522581,518.033200000005 -0.879769250668523,38.8076241120054,524.0</coordinates>
</LineString>
</Placemark>
</Folder>
</Document></kml>
