<?xml version="1.0" encoding="UTF-8"?>

<kml xmlns:xsd="http://www.w3.org/2001/XMLSchema" xmlns:gx="http://www.google.com/kml/ext/2.2" xmlns:atom="http://www.w3.org/2005/Atom" xmlns="http://www.opengis.net/kml/2.2">
<Document>
<name>ES08a_06a_almansa-higueruela</name>
<visibility>1</visibility>
<Schema name="ES08a_06a_almansa-higueruela" id="kml_schema_ft_ES08a_06a_almansa-higueruela">
<SimpleField type="xsd:string" name="id">
<displayName>id</displayName>
</SimpleField>
<SimpleField type="xsd:string" name="nombre">
<displayName>nombre</displayName>
</SimpleField>
<SimpleField type="xsd:double" name="longitud">
<displayName>longitud</displayName>
</SimpleField>
<SimpleField type="xsd:string" name="_formato">
<displayName>_formato</displayName>
</SimpleField>
</Schema>
<Folder id="kml_ft_ES08a_06a_almansa-higueruela">
<name>ES08a_06a_almansa-higueruela</name>
<Placemark id="kml_1">
<name>&lt;img height='20' src='https://nco.ign.es/iconos/icono_todos_caminos_azul.png' /&gt;&lt;img height='20' src='https://nco.ign.es/iconos/Camino Santiago_20.png' /&gt;&lt;img height='20' src='https://nco.ign.es/iconos/icono_todos_caminos_azul.png' /&gt;  Camino de Santiago </name>
<visibility>1</visibility>
<description><![CDATA[<!DOCTYPE html>
<html>
<head>
<style>
#nco {
  border-collapse: collapse;
  overflow:hidden;
}
#nco th, #nco td {
  padding: 4px;
  text-align: left;
}
#nco th {
  color: #364B5F;
  padding-right: 5px;
}
#nco td {
  color: rgb(51, 51, 51);
  font-size: 12px;
  padding-right: 5px;
}
</style>
</head>
<body>
<table id="nco">
<tr>
<td>Caminos del Este</td>
</tr>
<tr>
<th><b>Camino: </b></th>
<td>ES08a Camino de Levante</td>
</tr>
<tr>
<th><b>Etapa: </b></th>
<td>06a Almansa-Higueruela</td>
</tr>
<tr>
<th><b>Longitud: </b></th>
<td>39.17 km</td>
</tr>
</table>
</body>
</html>]]></description>
<Style>
<IconStyle>
<scale>0.8</scale>
</IconStyle>
<LabelStyle>
<color>ffffffff</color>
<scale>0.75</scale>
</LabelStyle>
<LineStyle>
<color>ffff0000</color>
<width>3.0</width>
<gx:labelVisibility>1</gx:labelVisibility>
</LineStyle>
<PolyStyle>
<color>66ff0000</color>
</PolyStyle>
</Style>
<ExtendedData>
<SchemaData schemaUrl="#kml_schema_ft_ES08a_06a_almansa-higueruela">
<SimpleData name="id">ES08a_06a</SimpleData>
<SimpleData name="_formato">kml</SimpleData>
</SchemaData>
</ExtendedData>
<LineString>
<extrude>0</extrude>
<tessellate>1</tessellate>
<coordinates>-1.09416609644929,38.8728411863111,683.480500000005 -1.09457261825134,38.8729233292597,683.134999999995 -1.09543947543254,38.873342088832,682.086899999995 -1.10062770523742,38.8745834487313,686.685800000007 -1.09962942093691,38.8790816805007,686.002800000002 -1.10059635672897,38.879360965532,684.692200000005 -1.09962942093691,38.8790816805007,686.002800000002 -1.10059635672897,38.879360965532,684.692200000005 -1.10835229950094,38.87861246189,695.367599999998 -1.11112419504053,38.8785998888463,695.722800000003 -1.11677058001339,38.8779953863916,703.848199999993 -1.11740458758472,38.8781586658428,703.969400000002 -1.11780809194572,38.878814298134,708.462299999999 -1.11920334356692,38.8792789908657,703.052500000005 -1.12000314510542,38.8795084871054,702.948000000004 -1.12207096088826,38.8795607905356,703.550300000003 -1.12435787936217,38.8799740179597,704.207299999995 -1.12663457141485,38.8812334827856,701.622000000003 -1.12880196454861,38.8820773727075,701.126000000004 -1.12910589245702,38.8828630924132,699.806299999997 -1.13020006562591,38.882880862423,700.955799999996 -1.13303750763851,38.8820331163991,700.978499999997 -1.13687993987526,38.8820834082286,705.241200000004 -1.13797344290094,38.8835118522277,713.318799999994 -1.14047879392267,38.8838623828377,717.971000000005 -1.14292329216878,38.884240071792,722.020199999999 -1.1460961776849,38.8853062494448,729.411500000002 -1.14941524335227,38.8873447289278,745.777600000001 -1.1513752675892,38.8883165265137,754.987299999993 -1.15290446251085,38.8887359568274,761.184800000003 -1.15418152907832,38.8886715839369,765.094500000007 -1.15578683106746,38.888010754357,773.337599999999 -1.15680741155333,38.8885537346322,778.647599999997 -1.15845529368692,38.8885798861695,792.440700000006 -1.15898100665582,38.8882498066494,798.572499999995 -1.15978516682007,38.8887894337452,805.358399999997 -1.16098696354987,38.8893071000592,807.499299999996 -1.1629610697772,38.8892725666209,804.738299999997 -1.16467315719911,38.8896098544393,800.733600000007 -1.16569004920243,38.889362755293,807.777900000001 -1.16785861553594,38.8892559700916,807.819399999993 -1.1695467305162,38.889583702582,809.825800000006 -1.17067811998897,38.8895640890324,808.828999999998 -1.17354640745351,38.8907942168072,804.0435 -1.17470797133668,38.8910101352198,806.312900000004 -1.17658132701335,38.8930427464496,821.5916 -1.17777340127684,38.8930878412032,821.366999999998 -1.17884008240478,38.8934844727182,823.541700000002 -1.18029585083171,38.8944291133405,828.896099999998 -1.1807131021115,38.8949633757022,832.159400000004 -1.18237322199422,38.8959205890077,838.989400000006 -1.18304327087309,38.8955926892945,839.993300000002 -1.18367845164419,38.8952171798362,839.945500000002 -1.18428044056384,38.8951985718287,841.2258 -1.1846753956583,38.8948005991112,840.8845 -1.18485577377408,38.89432400396,840.229699999996 -1.18547385601206,38.8941458051144,840.9859 -1.18705501757457,38.8949040319049,846.710000000006 -1.18806269016811,38.8945529978464,847.040099999998 -1.18864405915875,38.8939228465279,848.177200000006 -1.19003461708258,38.8927124995885,847.192999999999 -1.1912563626999,38.8929292553777,848.017099999997 -1.19272503991749,38.8929051155772,851.544999999998 -1.19382675713813,38.8926400799416,854.509300000005 -1.19535846644422,38.8929743502033,859.983300000007 -1.19603890883091,38.8931825563833,862.055999999997 -1.19721572880258,38.8927966534775,862.824299999993 -1.19857929684369,38.8926392416246,867.360000000001 -1.20035055988663,38.8920649138247,869.9611 -1.20120434119054,38.892078324907,870.626999999993 -1.20182108134549,38.8919470638571,872.511799999993 -1.2026643011566,38.8919038135349,875.149900000004 -1.20328187943971,38.8917442217295,876.802500000005 -1.20460672290554,38.8916895716986,879.0524 -1.20644621568925,38.8917464011016,881.754300000001 -1.20764818040402,38.8922729520698,883.725399999996 -1.20962262170296,38.8927079731005,881.995699999999 -1.2105840256695,38.8927604437062,880.776100000003 -1.21116220923414,38.8932115581493,879.705799999996 -1.21224129609613,38.8933600850413,879.336800000005 -1.21306171666534,38.8932693931451,876.690400000007 -1.21410325125353,38.8934737439252,872.602100000004 -1.21510958266234,38.8941288734251,869.042499999996 -1.21551711147584,38.894661962757,867.759099999996 -1.21680624780745,38.8950768663204,864.744300000006 -1.21736984722347,38.8956312460692,862.452300000004 -1.21905863324519,38.896428532107,855.608800000002 -1.22329685870453,38.8958538692943,833.583299999998 -1.22827872662404,38.8950647967861,808.813999999998 -1.22935412410519,38.8957363549132,805.374400000001 -1.23293738789087,38.894398770378,790.294899999994 -1.23375043239328,38.8970352142426,787.427100000001 -1.23411504509238,38.8996969715126,792.191800000001 -1.2344563563913,38.9024093552616,790.409 -1.23433498680989,38.9056218035307,792.604099999997 -1.23413432383669,38.9073387525374,795.969200000007 -1.23389091363234,38.9093852779547,799.515199999994 -1.23274326285628,38.9126448330954,798.355299999996 -1.23229533410955,38.9131361802389,801.730500000005 -1.23205561148945,38.9140545011588,800.102899999998 -1.23123452077704,38.9151144767216,802.329199999993 -1.23089320947809,38.9172161548437,802.974100000007 -1.22937692334709,38.9172337569006,811.591 -1.22933367305944,38.9175153892183,810.968500000003 -1.23128531511645,38.9179307959649,804.948499999999 -1.23286178298159,38.9189141608057,801.244399999996 -1.23506085969546,38.9208378077071,806.106100000005 -1.2381943504931,38.9231237202431,825.754799999995 -1.23935289693525,38.9241159705376,823.335099999997 -1.24295996517765,38.926248996605,819.1198 -1.24689543592835,38.9273151753045,836.206900000005 -1.24802598727299,38.9268171223942,835.741099999999 -1.24934529891333,38.9270159410258,835.362500000003 -1.25312268773357,38.9281166528115,843.783899999995 -1.25379474794034,38.9281927603373,844.868499999997 -1.25898482288485,38.9296248925588,855.0288 -1.26427346816884,38.9304463186957,867.133799999996 -1.27269912474806,38.9317755212415,877.839900000006 -1.2750028075818,38.9304121204286,884.002399999998 -1.27596739697431,38.9293544922005,883.051999999996 -1.27820335312385,38.928494341205,887.590800000005 -1.28030704312755,38.9271336230668,887.621100000004 -1.28775805277635,38.9282024831592,873.390499999994 -1.29176326064085,38.9287059003074,871.6253 -1.29861429359624,38.9266714448001,874.9853 -1.29946237419134,38.9264488217712,876.6155 -1.3036040406391,38.9279669519134,874.340299999996 -1.31661074224797,38.9299076979175,872.247900000002 -1.32514536357289,38.9309084968258,878.301800000001 -1.33410478022931,38.9303987095993,880.205799999996 -1.33327379816733,38.9314216367163,878.431100000002 -1.33215766388467,38.9322806145846,881.827799999999 -1.33141720685049,38.9340666303019,879.998699999996 -1.33018523481199,38.9351230856206,880.426800000001 -1.32911352401676,38.9366596559051,879.157600000006 -1.32828455418101,38.9370805950025,876.229200000002 -1.32809093220299,38.9376235745325,874.7503 -1.32872326261967,38.9399182048445,875.921000000002 -1.32907262102692,38.9410070138152,877.041700000002 -1.33616019027807,38.9396882051166,886.421300000002 -1.34928708916691,38.9391938402993,898.204400000002 -1.35632587630488,38.9404876709689,905.796499999997 -1.36258145827923,38.9415426171636,912.701799999995 -1.3634890504653,38.9413392725453,913.431200000006 -1.37414127579933,38.9452502687239,937.062000000005 -1.38567913310398,38.946133385943,940.204299999998 -1.39320641780523,38.9485985034508,951.424700000003 -1.39458591117972,38.9496423857955,957.299199999994 -1.39604704434555,38.9541920827495,966.469599999997 -1.40068408136685,38.9572524833796,972.372600000002 -1.40229290385358,38.9581236982134,976.714099999997 -1.40928190186689,38.9581469999433,991.8174 -1.41194365946108,38.9584807674984,998.689799999993 -1.41474204182683,38.9577572415637,1006.38310000001 -1.41997654025877,38.9576546471093,1022.4279 -1.42186313889935,38.9578497776244,1021.46679999999 -1.42590003124224,38.9572179501656,1018.8928 -1.42781244566747,38.957337978788,1019.4702 -1.4300410266485,38.9567755531703,1012.92140000001 -1.43090151207935,38.9565240955634,1005.6946 -1.43507771156327,38.9583109500778,995.397599999997 -1.43811648669231,38.9595898607096,997.984200000006 -1.44115844724736,38.9610565265273,1005.29949999999 -1.44340747927415,38.9628324841791,1012.1007</coordinates>
</LineString>
</Placemark>
</Folder>
</Document></kml>
