<?xml version="1.0" encoding="UTF-8"?>

<kml xmlns:xsd="http://www.w3.org/2001/XMLSchema" xmlns:gx="http://www.google.com/kml/ext/2.2" xmlns:atom="http://www.w3.org/2005/Atom" xmlns="http://www.opengis.net/kml/2.2">
<Document>
<name>ES03a_14a_santillana_del_mar-san_vicente_de_la_barquera</name>
<visibility>1</visibility>
<Schema name="ES03a_14a_santillana_del_mar-san_vicente_de_la_barquera" id="kml_schema_ft_ES03a_14a_santillana_del_mar-san_vicente_de_la_barquera">
<SimpleField type="xsd:string" name="id">
<displayName>id</displayName>
</SimpleField>
<SimpleField type="xsd:string" name="nombre">
<displayName>nombre</displayName>
</SimpleField>
<SimpleField type="xsd:double" name="longitud">
<displayName>longitud</displayName>
</SimpleField>
<SimpleField type="xsd:string" name="_formato">
<displayName>_formato</displayName>
</SimpleField>
</Schema>
<Folder id="kml_ft_ES03a_14a_santillana_del_mar-san_vicente_de_la_barquera">
<name>ES03a_14a_santillana_del_mar-san_vicente_de_la_barquera</name>
<Placemark id="kml_1">
<name>&lt;img height='20' src='https://nco.ign.es/iconos/icono_todos_caminos_azul.png' /&gt;&lt;img height='20' src='https://nco.ign.es/iconos/Camino Santiago_20.png' /&gt;&lt;img height='20' src='https://nco.ign.es/iconos/icono_todos_caminos_azul.png' /&gt;  Camino de Santiago </name>
<visibility>1</visibility>
<description><![CDATA[<!DOCTYPE html>
<html>
<head>
<style>
#nco {
  border-collapse: collapse;
  overflow:hidden;
}
#nco th, #nco td {
  padding: 4px;
  text-align: left;
}
#nco th {
  color: #364B5F;
  padding-right: 5px;
}
#nco td {
  color: rgb(51, 51, 51);
  font-size: 12px;
  padding-right: 5px;
}
</style>
</head>
<body>
<table id="nco">
<tr>
<td>Caminos del Norte</td>
</tr>
<tr>
<th><b>Camino: </b></th>
<td>ES03a Camino del Norte</td>
</tr>
<tr>
<th><b>Etapa: </b></th>
<td>14a Santillana del Mar-San Vicente de la Barquera</td>
</tr>
<tr>
<th><b>Longitud: </b></th>
<td>34.35 km</td>
</tr>
</table>
</body>
</html>]]></description>
<Style>
<IconStyle>
<scale>0.8</scale>
</IconStyle>
<LabelStyle>
<color>ffffffff</color>
<scale>0.75</scale>
</LabelStyle>
<LineStyle>
<color>ffff0000</color>
<width>3.0</width>
<gx:labelVisibility>1</gx:labelVisibility>
</LineStyle>
<PolyStyle>
<color>66ff0000</color>
</PolyStyle>
</Style>
<ExtendedData>
<SchemaData schemaUrl="#kml_schema_ft_ES03a_14a_santillana_del_mar-san_vicente_de_la_barquera">
<SimpleData name="id">ES03a_14a</SimpleData>
<SimpleData name="_formato">kml</SimpleData>
</SchemaData>
</ExtendedData>
<LineString>
<extrude>0</extrude>
<tessellate>1</tessellate>
<coordinates>-4.10592656544579,43.3919124300953,79.6316999999981 -4.10726482075886,43.3906105529617,85.0 -4.10759054089772,43.3905398096053,87.7399000000005 -4.10837659641573,43.3907932782892,89.5246000000043 -4.10834172740966,43.3911143050268,90.0 -4.10886324973774,43.3918141937688,98.105899999995 -4.11004677383635,43.3925447606628,110.0 -4.11118000755042,43.3933128782165,120.096999999994 -4.11194494008285,43.3936318935044,124.0 -4.11325033771775,43.3937854502845,129.0 -4.11475857763874,43.3942425992871,136.937600000005 -4.11542460296344,43.3944959003939,143.588199999998 -4.1158700173257,43.3945909508633,140.037800000006 -4.11668607926915,43.3947017598811,144.852400000003 -4.11734238302584,43.3949802068126,149.058499999999 -4.11812424700472,43.3949962996401,139.591700000004 -4.11865163622994,43.3953473342278,133.427100000001 -4.12012601235968,43.3958316403694,137.397599999997 -4.12067770999646,43.3957312250253,133.494699999996 -4.12162218251651,43.3957456420724,126.0 -4.12221444807154,43.3960723683727,124.075500000006 -4.12251619666706,43.3965442694552,120.909100000004 -4.12282012367714,43.3971348583103,114.242100000003 -4.12344843143798,43.3976511836367,113.0 -4.12397548559161,43.3979784133493,109.0 -4.12418318956003,43.3986412541156,99.7878000000055 -4.12448544031376,43.3991367923964,94.8518999999942 -4.12472465987729,43.3997518562305,78.8769999999931 -4.12519287348148,43.4004121830202,77.2430000000022 -4.12530418462665,43.4011471079877,82.364499999996 -4.12528088322651,43.4016459988008,87.756899999993 -4.12542823657749,43.4025706905027,92.3896999999997 -4.12596233172631,43.4032777880282,100.0 -4.12652023133182,43.4035096312223,107.128700000001 -4.12775052711404,43.4031176934639,108.274999999994 -4.12859357894019,43.4029193773151,112.565400000007 -4.12884000658556,43.4021571276361,113.799199999994 -4.1295501221227,43.4018176600199,107.414900000003 -4.12986779605157,43.4013871654591,102.503800000006 -4.13024883714058,43.4008609498692,92.216499999995 -4.13065569491255,43.3999783353774,82.3613999999943 -4.13112374053178,43.3988814794702,71.0 -4.13172690175287,43.3980442950928,61.046199999997 -4.13248797871609,43.3969445896195,59.0 -4.13332650393153,43.3965088979868,57.0 -4.13442201918344,43.3958805904803,52.0 -4.13563152794997,43.3961298684632,53.7446999999956 -4.13631867626025,43.3963129289729,56.0 -4.13726197558056,43.3962561000662,56.8996000000043 -4.13805892676463,43.3970792024678,63.5988999999972 -4.13894992347413,43.3977115333003,68.2826999999961 -4.14023000748265,43.3982447902872,72.2280000000028 -4.1422654686439,43.3991269019957,86.0 -4.14321497083123,43.3994023307445,91.0 -4.1441993411263,43.3997961129061,96.7592000000004 -4.1450440701071,43.3996926801891,98.0 -4.14612131182952,43.3998244437929,97.6744000000035 -4.14707047894523,43.4000760682977,92.8193000000028 -4.14857033668631,43.4001796687545,83.4554000000062 -4.14957784129489,43.4000745599258,77.1224999999977 -4.15107652583622,43.4001070816177,66.6708999999973 -4.15371783058804,43.400294165694,52.0 -4.15386434670919,43.3994378702256,49.2982999999949 -4.1534968836557,43.3989428350316,47.0 -4.15365278717156,43.3985850957659,50.0 -4.15433423567137,43.3985842570356,46.4002999999939 -4.15572814610784,43.3987185353189,39.0927999999985 -4.15724527126532,43.3992424041266,35.0 -4.15941769226974,43.3999287143439,40.0 -4.16015664103256,43.3999215059921,44.0467000000062 -4.16061412515898,43.3995998085938,46.059699999998 -4.16102986816744,43.3993636067193,48.7602999999945 -4.16198238689749,43.3984028730207,56.8894 -4.16308879871379,43.3981809197696,64.0498999999982 -4.16427182065416,43.3976297261671,73.3646000000008 -4.16592825205433,43.3963449481216,82.0304999999935 -4.16691329339093,43.3955743161298,85.2831000000006 -4.16776740886813,43.395544643831,88.6089999999967 -4.16855899621163,43.394511658488,94.0 -4.16865019138267,43.3932216829378,103.090200000006 -4.16899485519423,43.392309564631,112.009999999995 -4.16974118002385,43.3918918107221,105.901800000007 -4.1705559007826,43.3919308704818,97.6306000000041 -4.17148629221055,43.3922634642688,91.8607000000047 -4.1723581772624,43.3916524232476,77.1696999999986 -4.17312797147711,43.3909895824088,67.0 -4.17441090584002,43.3898987614924,59.6852999999974 -4.17579794326627,43.3889442302466,54.1334000000061 -4.17652817477758,43.3877427683702,63.8714999999938 -4.17648006190927,43.3867607449064,56.0296999999991 -4.17709210926519,43.3861946311855,49.9703000000009 -4.17813984672037,43.3864269771481,47.0313000000024 -4.1792135688435,43.3865114669025,42.8274999999994 -4.17969703673954,43.3867920927646,38.9579999999987 -4.18020062150804,43.3872489067371,36.0 -4.18017312856877,43.3875104222283,37.4640999999974 -4.18067067845517,43.3879801436197,32.4665999999997 -4.18135330105305,43.3879256616322,30.4844000000012 -4.18183341643645,43.387493322711,29.0054999999993 -4.18270111084747,43.3869144685949,29.6671999999962 -4.18357031442819,43.386406692774,31.0 -4.18427674058445,43.3859007615566,31.0 -4.18466364946891,43.3857068042619,34.0 -4.18531240917384,43.3855814111397,33.0 -4.18605219606481,43.3851225855637,35.3372999999992 -4.18655879827436,43.3843812901767,34.0 -4.18733529751438,43.3841357002096,33.1999000000069 -4.18854044765515,43.3834079835893,34.0 -4.18906213706985,43.3834133475841,36.0 -4.18938752303547,43.3837590173997,39.7679999999964 -4.18912885674264,43.3846179950468,55.6992000000027 -4.18934829540362,43.3847321564425,59.3883999999962 -4.19011641336205,43.3847455674415,66.4766999999993 -4.19081931902072,43.3851294588037,66.7418999999936 -4.19127261250635,43.3853574464999,70.2817000000068 -4.19283634046412,43.385299108373,75.7137999999977 -4.19365458172047,43.3856607034474,77.4986999999965 -4.19546222293913,43.3854727816325,83.1401999999944 -4.19765342052962,43.3849219229118,87.5286999999953 -4.1989417187331,43.3849643350042,94.0 -4.20011367612412,43.384769539709,94.5861000000004 -4.20186281186495,43.3845063482529,93.7209000000003 -4.20282321061667,43.3840543957362,94.7462999999989 -4.20337188991414,43.3839538126776,90.3420000000042 -4.20353533658342,43.3834676625751,91.0 -4.20424561920723,43.3831753015766,92.0 -4.20485900684954,43.382907583983,94.4747999999963 -4.20563684817259,43.3827332400492,97.1220999999932 -4.206541087846,43.3823674536315,99.0917999999947 -4.20725673431035,43.3823361054439,94.715400000001 -4.20820254801513,43.3824210983964,93.4336000000039 -4.20918758935173,43.3828381817878,91.1561999999976 -4.20926067987649,43.3832410159557,90.1900000000023 -4.20910360316086,43.3835276770776,88.0 -4.2089798862816,43.3838614444777,87.3457999999955 -4.20898843554818,43.3842887535368,85.8108000000066 -4.20954566411218,43.3844728206175,83.9807000000001 -4.21009819987712,43.3848887304214,78.0798000000068 -4.21074829986848,43.3847975355241,81.8635000000068 -4.21125020838063,43.3845388698129,83.7985000000044 -4.21118818240521,43.3852152893668,79.0 -4.21139052163476,43.3855693406237,74.0 -4.21208638719655,43.3861793755756,67.0 -4.21244680925486,43.3862942077626,66.148000000001 -4.21278141463018,43.3867418015689,61.0 -4.21279566370724,43.3874540955787,56.0 -4.21345096045248,43.3876607937124,56.0 -4.21426283175514,43.3875571933952,57.0 -4.21485526529513,43.3878832490004,55.0 -4.2158381264205,43.3881814770399,56.0 -4.21656986710151,43.388957306074,58.0 -4.21717721986172,43.3900194611865,56.6686000000045 -4.2168783207223,43.3913523511925,48.2439000000013 -4.21635478706629,43.3928538853055,33.0938000000024 -4.21729926048463,43.3928676319897,26.3022000000055 -4.2179854026818,43.3929789435267,20.7430000000022 -4.2188086736054,43.3934451446138,12.6276999999973 -4.21975750475123,43.3936724619795,8.0 -4.2203435674392,43.3936662594414,5.0 -4.22157822184718,43.3935343283941,3.0 -4.22197032748554,43.3936013834135,2.0 -4.22206034855848,43.393220509917,3.0 -4.2221054430874,43.3922227277396,3.0 -4.22202212703977,43.3913211708478,4.43580000000657 -4.22299727792506,43.3912395306872,11.8102000000072 -4.22326834905364,43.3917590409038,22.2462999999989 -4.22334529424929,43.3923518096661,32.7185999999929 -4.22446461395792,43.3929573179465,46.0 -4.225921388498,43.3925380553736,57.9314000000013 -4.22618994524207,43.3929387101107,65.3110000000015 -4.22600705184348,43.3935581326897,74.045299999998 -4.22606220480868,43.3946735963142,79.3641000000061 -4.22662328894186,43.3950474292936,88.5149999999994 -4.22784453240096,43.3942508135573,95.0 -4.22826010742443,43.3938664192428,100.002800000002 -4.22948654763745,43.3933308155479,105.087799999994 -4.23036128304366,43.3931076896256,109.940499999997 -4.23113342365793,43.3926481931786,108.0 -4.23177145388508,43.3920002720587,111.080000000002 -4.23274861609834,43.3920135156437,106.763099999996 -4.2333403785968,43.3922919625244,101.782699999996 -4.23399332894255,43.3923799723536,99.0 -4.23575419937593,43.3925033539239,94.7713999999978 -4.23636976633111,43.3923543241573,93.0 -4.23697963347583,43.3919203091524,89.2719999999972 -4.2382486538333,43.3918827579618,82.0 -4.2389381494414,43.3921601988602,81.0 -4.2392631994371,43.3921330420012,79.7936000000045 -4.24010960377588,43.392123821513,81.0 -4.24131207154722,43.3920156952733,85.7540000000008 -4.24221044432352,43.391364923855,94.1646000000037 -4.24276398530328,43.3913588888468,98.8375999999989 -4.24347812349626,43.3912561271543,100.0 -4.24370409919757,43.3911587292498,98.0629000000044 -4.24356563018471,43.3907565652389,91.0065999999933 -4.24277655812399,43.3903852471281,86.8876000000018 -4.24227079404263,43.3895358253764,73.0 -4.24268871546561,43.3892701191054,66.2816000000021 -4.24297286157314,43.3888396241793,60.8886999999959 -4.24355741598975,43.3887620078869,58.0351999999984 -4.24432989167561,43.3883261490564,51.462400000004 -4.24434782923522,43.3876136870726,41.6538 -4.24388347209853,43.3871912389295,40.213699999993 -4.24354484316905,43.3865538791884,39.7970000000059 -4.24356563018471,43.385983742016,39.9333000000042 -4.24466131252329,43.3854256752509,43.0 -4.24524033421608,43.385087046174,42.1533999999956 -4.24542741825545,43.3846811943583,43.0 -4.24615798483835,43.3837947247021,44.0 -4.24699014010014,43.38309701471,46.0 -4.24795640664727,43.3825878978863,47.7041000000027 -4.24863852529028,43.3825091081953,50.0 -4.24928896125156,43.3824782627999,52.088499999998 -4.24975885111206,43.3831617230944,55.0 -4.25057105748627,43.3830817596264,54.8610000000044 -4.25101932130465,43.3827206675548,47.3144000000029 -4.25160471384942,43.3826904927744,41.9931999999972 -4.25194568917847,43.3824759156896,37.2890000000043 -4.25184577675593,43.3811460427374,32.0 -4.25374310487423,43.381125423619,30.0 -4.25421902871851,43.3810147823843,29.8218999999954 -4.25564412057683,43.3812741186385,28.9440000000031 -4.25695119446804,43.3800232029981,33.8010000000068 -4.2577563598471,43.3797296690829,41.0 -4.259332325554,43.3795752742618,50.2523999999976 -4.25987496996936,43.3791997651369,56.2960000000021 -4.25986390542001,43.3786717049844,56.9192999999941 -4.26074484369328,43.3778380408335,67.7507999999943 -4.26130810713935,43.3784556197833,74.0 -4.26176810654858,43.3796872565929,73.0 -4.26247889133059,43.3797325190413,71.0 -4.26325991718132,43.3803687054126,69.0755000000063 -4.26358412994716,43.3813376531062,67.0 -4.26378395389391,43.38189572029,69.8356000000058 -4.26389576899395,43.3824019872177,66.0829999999987 -4.26457436713937,43.3829865415982,60.7871000000014 -4.26503084605097,43.3833410955263,54.7081999999937 -4.26509756572376,43.3837633759467,50.0727000000043 -4.26466824467981,43.3840220417026,47.5544999999984 -4.26554080077316,43.3848790074378,41.0 -4.26579963415261,43.3854895455023,36.7207000000053 -4.26585545726097,43.3860806370603,32.4257000000071 -4.26605863461868,43.3861000832934,30.934699999998 -4.26777994234866,43.3859649668695,38.0 -4.26832878963105,43.3858851709632,39.8680000000022 -4.26890714118067,43.3851393495304,47.7381000000023 -4.26973778727274,43.3853733721414,53.0 -4.27207650619917,43.385664726947,54.8794000000053 -4.27283255349514,43.3858045373505,55.1535000000003 -4.27350277125723,43.3859770366538,54.0 -4.27443534109977,43.3862310081743,52.0031000000017 -4.27481956761479,43.3865966270032,53.9940999999963 -4.27589077535345,43.3865532087238,53.5571999999956 -4.27628355113502,43.3866336748673,49.395199999999 -4.27700791485086,43.3873233378526,35.8481000000029 -4.27809504792289,43.3873431192414,26.1634000000049 -4.27928611607326,43.3874886288786,18.3053999999975 -4.27973102737897,43.3872936660838,32.752999999997 -4.28039822770005,43.3873287021538,13.9550000000017 -4.28086878770375,43.3869749862838,11.2927999999956 -4.28169624836985,43.3870502553199,20.6576999999961 -4.2823101390687,43.3873077476252,17.0 -4.28608652177583,43.3870646724738,29.297900000005 -4.2887157576618,43.386686648658,36.2556999999942 -4.29034804953364,43.3864571520273,29.4051000000036 -4.29062834007196,43.386010396982,24.0 -4.29196491823037,43.3855094939661,18.0 -4.29245660121966,43.3854618849187,17.0 -4.29634647438486,43.3844243731355,25.0 -4.29754709791492,43.3843372011272,28.0 -4.30286709260572,43.3831038881796,38.1245000000054 -4.3048978600696,43.3825417973114,32.0 -4.31076083334901,43.3802982974484,18.3864999999932 -4.31435264640127,43.3789047222539,12.3488999999972 -4.31540574859536,43.3787027181588,9.1310999999987 -4.31642666415281,43.3790188833087,9.0 -4.3178254362716,43.3800595804256,0.873399999996764 -4.31858718427635,43.3817840737057,9.61089999999967 -4.31862691406641,43.3822221118975,12.0 -4.31895548455967,43.3823609163132,11.6584000000003 -4.31934239344413,43.3821900931218,11.0757000000012 -4.32015191744894,43.3819907709337,10.0 -4.32086639071354,43.3819113106036,10.4063000000024 -4.32152822629575,43.3824023227994,8.0 -4.32122547158711,43.383450731011,12.0 -4.32121088743847,43.3842818808544,11.6474000000017 -4.32144859783234,43.3847303121198,11.0 -4.32196944911888,43.3847242777567,8.96080000000075 -4.32277947707856,43.384548760636,7.43459999999322 -4.32401329246005,43.3843920186465,7.47209999999905 -4.32583434462761,43.3842996504614,6.0 -4.32638771852074,43.3842932798313,6.0 -4.32876013235516,43.3840994904025,7.0 -4.32941308270088,43.3841868298856,1.0 -4.33023769391088,43.3846758298227,8.0 -4.33005748288176,43.3853666667118,9.91190000000643 -4.32987257815524,43.385843597116,13.0 -4.33025194298794,43.3868127125672,8.0 -4.33003183418377,43.3871714581439,8.21980000000622 -4.32951366526662,43.3872963485622,8.63259999999718 -4.32818630741628,43.3876441975665,5.17440000000352 -4.32803710892569,43.3882632845246,6.0 -4.32915424932143,43.3887251277913,5.0 -4.33069081941155,43.3890159794895,5.0 -4.33187987623402,43.3897857737748,9.53810000000522 -4.33417718821574,43.3906137379449,22.0 -4.33539558221876,43.3912407043991,27.0 -4.33746574440112,43.3920949876504,31.5043000000005 -4.33923767848556,43.392715416288,40.1925999999949 -4.34051357185329,43.3929854810055,46.1505000000034 -4.34163439983328,43.3936134536355,52.6650999999983 -4.34175090863069,43.3944668985968,57.453800000003 -4.34247661353127,43.3948856589172,61.8993000000046 -4.34338655301516,43.3948038512326,68.0127999999968 -4.34569777900232,43.3947766942527,82.0 -4.3477823582467,43.3947994928266,88.9606000000058 -4.34983894239354,43.3950365329956,91.0 -4.35212720205214,43.3954368526766,81.1635999999999 -4.35338884634281,43.3950657022758,73.0 -4.35557669052236,43.3938763098494,61.2283000000025 -4.35666482880915,43.3930324196256,58.0 -4.35721350810661,43.3928121432538,59.0 -4.35881394931172,43.3930305755554,52.9279999999999 -4.3596046976288,43.3934486649685,45.0 -4.36025999527237,43.3936307198388,41.6465000000026 -4.36169547974017,43.3937561132813,34.2409999999945 -4.36322014805108,43.3935004656627,27.0 -4.36477851127002,43.3932919237984,21.0 -4.36607318032548,43.3929440745677,15.726800000004 -4.36654809895494,43.3923447688289,8.53170000000682 -4.36686024105828,43.3917474742602,8.0 -4.36737472149287,43.3914562870824,12.1033000000025 -4.36845581968277,43.3917521677628,19.7994000000035 -4.36897231234359,43.391555863502,23.75 -4.3697060643525,43.3908822942879,32.9199999999983 -4.3692695352267,43.3902938842446,30.4863999999943 -4.37001016024584,43.3899287688316,24.0936999999976 -4.37055666023041,43.3896136091015,24.1732999999949 -4.37132444221893,43.3890107824574,9.17339999999967 -4.37197336901048,43.3889080207005,5.57099999999627 -4.37269153075763,43.3889943544537,5.0 -4.37319260114165,43.3895582884214,5.33950000000186 -4.37385058025635,43.3898590313006,7.24880000000121 -4.37525991386792,43.3902695766652,16.0 -4.37665315326289,43.3899678285508,22.0 -4.37759025061447,43.3896478075879,25.0 -4.37878333009274,43.3891348347944,32.5632000000041 -4.3794716525011,43.3893401915516,36.0 -4.3802198206737,43.3893075021845,35.7136000000028 -4.38103672074531,43.3894401037266,23.1872000000003 -4.38178321355988,43.3893360005244,10.7737999999954 -4.38307888783016,43.3890354254337,5.0 -4.38462769656771,43.3884230436206,4.0 -4.38558910053421,43.3877466239554,6.0 -4.38606586340498,43.3872420337375,6.0 -4.38588917287341,43.3866268017979,6.0 -4.38606988606081,43.3859835748879,12.4320000000007 -4.38655536618308,43.385859019286,9.40640000000712 -4.38723128285735,43.3855183792432,6.57749999999942 -4.38774291383583,43.3851085041676,12.0847000000067 -4.38851254096395,43.3846003926649,10.0 -4.38870381564412,43.3837179461088,8.12320000000182 -4.3892260081154,43.3830483996451,5.98639999999432 -4.38972624037126,43.3828096830044,5.0 -4.39092468458844,43.3820006621725,2.12420000000566 -4.3924523703404,43.3817743502241,0.380300000004354 -4.39420435553732,43.3815155175309,0.655199999993783 -4.39697574802037,43.3812771356654,5.85300000000279 -4.3975661693341,43.3810462983969,11.5041999999958 -4.39795576058799,43.3814898686545,14.6508000000031 -4.39875405295679,43.381638563433,23.5283000000054 -4.39912587373773,43.3817641246689,25.0 -4.399190247011,43.3817520546987,25.0485999999946 -4.39981536934587,43.3820169229739,22.9955000000045 -4.40027100923102,43.3820113904107,21.0 -4.40046798462,43.3820801223855,20.4906999999948 -4.40070955058305,43.3826708789632,17.0 -4.40097743628562,43.3829999523305,16.9655999999959 -4.40124381371679,43.3832579475783,15.9891000000061 -4.40184060498423,43.3837254900039,24.5054999999993 -4.40194755750366,43.3841278214463,31.9845000000059 -4.40269572657455,43.3840949640935,35.0 -4.40340952969594,43.3839911964241,36.6693999999989 -4.40353961652885,43.3839895198653,38.1490999999951</coordinates>
</LineString>
</Placemark>
</Folder>
</Document></kml>
