<?xml version="1.0" encoding="UTF-8"?>

<kml xmlns:xsd="http://www.w3.org/2001/XMLSchema" xmlns:gx="http://www.google.com/kml/ext/2.2" xmlns:atom="http://www.w3.org/2005/Atom" xmlns="http://www.opengis.net/kml/2.2">
<Document>
<name>ES03a_31a_sobrado-arzua</name>
<visibility>1</visibility>
<Schema name="ES03a_31a_sobrado-arzua" id="kml_schema_ft_ES03a_31a_sobrado-arzua">
<SimpleField type="xsd:string" name="id">
<displayName>id</displayName>
</SimpleField>
<SimpleField type="xsd:string" name="nombre">
<displayName>nombre</displayName>
</SimpleField>
<SimpleField type="xsd:double" name="longitud">
<displayName>longitud</displayName>
</SimpleField>
<SimpleField type="xsd:string" name="_formato">
<displayName>_formato</displayName>
</SimpleField>
</Schema>
<Folder id="kml_ft_ES03a_31a_sobrado-arzua">
<name>ES03a_31a_sobrado-arzua</name>
<Placemark id="kml_1">
<name>&lt;img height='20' src='https://nco.ign.es/iconos/icono_todos_caminos_azul.png' /&gt;&lt;img height='20' src='https://nco.ign.es/iconos/Camino Santiago_20.png' /&gt;&lt;img height='20' src='https://nco.ign.es/iconos/icono_todos_caminos_azul.png' /&gt;  Camino de Santiago </name>
<visibility>1</visibility>
<description><![CDATA[<!DOCTYPE html>
<html>
<head>
<style>
#nco {
  border-collapse: collapse;
  overflow:hidden;
}
#nco th, #nco td {
  padding: 4px;
  text-align: left;
}
#nco th {
  color: #364B5F;
  padding-right: 5px;
}
#nco td {
  color: rgb(51, 51, 51);
  font-size: 12px;
  padding-right: 5px;
}
</style>
</head>
<body>
<table id="nco">
<tr>
<td>Caminos del Norte</td>
</tr>
<tr>
<th><b>Camino: </b></th>
<td>ES03a Camino del Norte</td>
</tr>
<tr>
<th><b>Etapa: </b></th>
<td>31a Sobrado-Arzúa</td>
</tr>
<tr>
<th><b>Longitud: </b></th>
<td>21.91 km</td>
</tr>
</table>
</body>
</html>]]></description>
<Style>
<IconStyle>
<scale>0.8</scale>
</IconStyle>
<LabelStyle>
<color>ffffffff</color>
<scale>0.75</scale>
</LabelStyle>
<LineStyle>
<color>ffff0000</color>
<width>3.0</width>
<gx:labelVisibility>1</gx:labelVisibility>
</LineStyle>
<PolyStyle>
<color>66ff0000</color>
</PolyStyle>
</Style>
<ExtendedData>
<SchemaData schemaUrl="#kml_schema_ft_ES03a_31a_sobrado-arzua">
<SimpleData name="id">ES03a_31a</SimpleData>
<SimpleData name="_formato">kml</SimpleData>
</SchemaData>
</ExtendedData>
<LineString>
<extrude>0</extrude>
<tessellate>1</tessellate>
<coordinates>-8.16050458663157,42.9271628891334,385.436900000001 -8.16051146054012,42.9273313654149,387.0 -8.160723522236,42.9277392282486,392.0 -8.16085109468443,42.9277732593408,392.0 -8.16086433854668,42.928171064168,395.0 -8.16079024190875,42.9284977906326,397.0 -8.16067205775335,42.9287209168732,398.0 -8.16032856714154,42.9290447937035,400.0 -8.15953295714217,42.929808050059,402.0 -8.15907429891767,42.930276598541,404.0 -8.15852092592288,42.9306138861522,406.0 -8.15753890202729,42.9312566103166,412.0 -8.15639678397509,42.9317320320898,412.0 -8.15589588157603,42.9320203693799,411.0 -8.1554787982812,42.9325024965051,408.0 -8.15480237855034,42.933230381025,402.491299999994 -8.15441899016348,42.9338640530228,396.798299999995 -8.15422771458501,42.9343351159012,391.525099999999 -8.15415060140437,42.9347319148418,385.872399999993 -8.15398028082649,42.9351226796473,381.024000000005 -8.15382655752182,42.9355975980511,375.0 -8.15367803007276,42.9358301118308,373.0 -8.15338013704645,42.9360146812676,371.004499999995 -8.15339874474923,42.9360503881333,371.0 -8.15335700273293,42.9361006801068,370.577699999994 -8.15307872352251,42.9363144182341,365.705400000006 -8.15316405179641,42.9364458468801,364.0 -8.15318131831449,42.93656017598,363.011799999993 -8.15318617999681,42.9366917718054,361.228099999993 -8.15323177758231,42.9369477546595,358.481799999994 -8.15325574912566,42.9370236952719,357.334799999997 -8.15342204614937,42.9371693725316,355.367599999998 -8.15374961142784,42.9374930812963,352.085800000001 -8.15329598287063,42.9377173810828,349.0 -8.15318567694023,42.9379636415924,348.009699999995 -8.15305743345031,42.9383049526699,347.679399999994 -8.1531078927181,42.9387579109303,348.0 -8.15309297259957,42.9390152353258,347.0 -8.15302172631608,42.9399152838572,340.766199999998 -8.15299239003383,42.9404284238343,340.0 -8.15282508689701,42.9425125005519,331.038100000005 -8.15273556888061,42.9434946921725,324.0 -8.1527037173156,42.9439439619982,322.209900000002 -8.15261319318609,42.9451539734509,322.080900000001 -8.15254228197421,42.9459366755425,324.855299999996 -8.15252300322987,42.946319896074,327.017699999997 -8.1524235938639,42.9465963316659,326.017999999996 -8.15226450582037,42.9472137423301,325.578899999993 -8.15202394507211,42.9481853724987,324.0 -8.15167307839349,42.9496248803286,328.588799999998 -8.15136797728534,42.9508360655515,338.0 -8.15119883080553,42.9514938774707,340.634900000005 -8.1507255884324,42.9524559524331,343.310400000002 -8.1505059826848,42.9530498938086,343.916299999997 -8.15046742519615,42.9533528155431,343.8989 -8.15033934969117,42.9545472368225,344.153900000005 -8.15030347547028,42.9550208147237,345.0 -8.15024245560798,42.9553886124747,344.0 -8.15016115088825,42.9556380580441,343.0 -8.14985873214953,42.9562278083401,339.0098 -8.14929479766193,42.9572333018202,336.0 -8.14914409089997,42.9574700066,337.0 -8.14898248757363,42.9577761135575,339.0 -8.14892347903926,42.9579507924862,340.0 -8.1489226409111,42.9580820533189,341.715800000005 -8.14897427337867,42.9581796184567,342.862899999993 -8.14909698414478,42.9583360249053,344.379199999996 -8.15002469320333,42.9594389155933,345.0 -8.1500515151011,42.9595725235221,344.0 -8.15007632567093,42.9597088127643,342.990300000005 -8.14985688790826,42.9599532293522,342.0 -8.14994975933558,42.9600276604346,340.691399999996 -8.15013298780578,42.9600348689728,338.6878 -8.15040607026226,42.9601579155983,336.680500000002 -8.15068786997027,42.9603416468773,333.954800000007 -8.15078543509496,42.9604844743168,333.0 -8.15081426832063,42.9606702175996,332.060200000007 -8.15078375883864,42.9609335767484,333.0 -8.15068686385712,42.9613090859582,335.0 -8.15051872259213,42.9619881880067,339.006800000003 -8.15062466989674,42.9621667224067,340.509600000005 -8.15158205120744,42.9629081855173,346.0 -8.15220130574687,42.9633856190146,350.0 -8.15261118095986,42.9636808294868,352.950200000007 -8.15291628206801,42.9638020314628,353.0 -8.15342841700138,42.9640033648028,354.0 -8.15367434159018,42.9640918777697,354.0 -8.15393250392813,42.9642424166385,354.0 -8.15415143953253,42.964490689073,354.0 -8.15447498125683,42.964881285373,355.0 -8.15472174397382,42.9651744843821,356.0 -8.15507361676555,42.9656797457739,358.0 -8.15557401610804,42.9663068797544,360.052200000006 -8.1559461728589,42.9668146553772,362.0 -8.15614851208842,42.9673920004747,362.401599999997 -8.15630424761935,42.9676716208482,363.0 -8.15645160186867,42.9680144407669,363.0 -8.15649468417137,42.968161626874,363.997700000007 -8.1565630809988,42.9683879387291,364.0 -8.15659727896334,42.9685022676658,365.0 -8.1566423734923,42.9688484405417,366.300799999997 -8.15676826968442,42.9691952832459,368.0 -8.1569841878478,42.9697092617235,370.0 -8.15724419442699,42.9704039536295,372.0 -8.15741451500487,42.9708198637197,374.0 -8.15763831139329,42.9714127996533,377.0 -8.15775783763172,42.9717100216871,378.0 -8.1578852420952,42.9718863772308,378.0 -8.15814323734649,42.9720278639547,378.0 -8.15831322195445,42.9722043868516,378.0 -8.15826477491286,42.97235006433,378.0 -8.15810535089937,42.9726117473706,378.0 -8.15806327381146,42.972779385491,378.0 -8.15808640812498,42.9730434151463,378.0 -8.15820761061976,42.9739510077426,378.0 -8.1582161598863,42.9740717070519,378.0 -8.15812328845898,42.9741862035417,378.0 -8.15801197641551,42.9743099205313,378.0 -8.15774744412387,42.9745560136143,378.0 -8.15753068783237,42.9747726015025,376.9804 -8.1574663145591,42.9749730970864,376.0 -8.15755633653033,42.9751595103993,376.0 -8.15779421490915,42.9752973089916,376.0 -8.15805237724707,42.9754476804436,376.451199999996 -8.15820777770639,42.9755888316654,377.0 -8.158433754306,42.9757920087767,377.0 -8.15857591090308,42.975985798474,377.0 -8.15866341848987,42.9762749741668,377.0 -8.1587036513365,42.9766791497063,378.0 -8.15875427769096,42.9776496061557,380.0 -8.15884413167727,42.9777682936729,381.0 -8.15925719231626,42.9782294665951,382.301200000002 -8.15992020109821,42.9789436044433,387.0 -8.15976144722796,42.9790695003711,386.318599999999 -8.15952692136177,42.9792103166467,385.0 -8.15904714194832,42.9795412340191,383.049100000004 -8.15875109316328,42.9798094551949,382.236699999994 -8.15823979635807,42.9802645922249,380.0 -8.15793301899359,42.9806826819146,379.0 -8.15765775722423,42.981117032197,379.0 -8.15739473320398,42.981600164747,378.785699999993 -8.1573360597412,42.9819045954373,379.0 -8.15733304230018,42.9821929329964,379.0 -8.15728006864788,42.9824777500391,379.016799999998 -8.15716708034805,42.9828426984514,378.900999999998 -8.15694931884173,42.9834627913938,373.690400000007 -8.15685074760392,42.9837028492866,371.081900000005 -8.15666466967762,42.9839087083937,369.249100000001 -8.15625814697727,42.9842164922862,368.0 -8.15570812649511,42.9846800114987,370.0 -8.15533127604692,42.9849200692384,373.0 -8.15503003050794,42.9850013734363,374.988299999997 -8.15467715250143,42.9850484796553,377.0 -8.15424397588827,42.9850548500288,380.0 -8.15403040502273,42.9851088292911,381.260599999994 -8.15380174695198,42.9852182971338,383.0 -8.15358566080365,42.9854140982064,385.0 -8.1534086352005,42.9856060438718,386.561900000001 -8.15309397871269,42.9858409046372,388.0 -8.1527660783626,42.9861049347245,389.080600000001 -8.15244589004926,42.9862702262383,389.472999999998 -8.15208278562152,42.9864100363818,390.0 -8.15174851531778,42.9864636806316,390.0 -8.15044362073946,42.9865019019832,385.0 -8.14975362297308,42.9865008959163,380.987399999998 -8.14886564370463,42.9865151451332,375.157800000001 -8.14854897588888,42.9865426381479,376.824999999997 -8.14839189827492,42.9865828709242,378.215400000001 -8.14811998991651,42.9867738108205,381.0 -8.14757265180379,42.9871872064417,385.520399999994 -8.14739998392809,42.9874244143153,387.640899999999 -8.14708918300945,42.9878948064258,391.0 -8.14680486891697,42.9882797034736,394.533299999996 -8.14637202737542,42.9887676981761,399.224799999996 -8.1460615624267,42.9890567059895,402.701300000001 -8.1453558055153,42.9898469516289,410.0 -8.1445979139781,42.9905961264279,417.910099999994 -8.14410723710192,42.9910631661472,422.325899999996 -8.14376760295761,42.9912536026019,425.060800000007 -8.14341522710931,42.9913716199206,428.0 -8.14291164234084,42.9915286969545,431.0 -8.14224578410276,42.9917965826325,435.683499999999 -8.14190514384538,42.9918973330081,438.953399999999 -8.14127918338235,42.9920767057471,442.877600000007 -8.14077828098328,42.9922594309858,446.0 -8.1403367221902,42.9924067850964,448.6489 -8.13972199336319,42.9926188473186,451.0 -8.13913140406448,42.9928176657057,452.945699999997 -8.13823286420155,42.9931261198727,456.033500000005 -8.13795408193458,42.9932330726729,457.647599999997 -8.13767161208337,42.9933490782235,457.942299999995 -8.13738880716058,42.9935547703306,458.163199999995 -8.13715428129442,42.9938560162242,458.164300000004 -8.13697172296742,42.994247283472,458.0 -8.13671573994239,42.9950571426682,458.979099999997 -8.1366693042287,42.995427957968,459.427500000005 -8.13655732204202,42.9960111710876,460.0 -8.13636604736185,42.9970924365947,463.0 -8.13626412271308,42.9975802634313,463.586299999995 -8.13619153614318,42.9981264279201,465.0 -8.13604133243777,42.9987145021947,467.0 -8.13605809589931,42.998851630415,467.0 -8.13549080889907,42.9991079486423,468.0 -8.13497012469912,42.9993488448585,470.0 -8.13489485575979,42.9994695442403,471.0 -8.13469938954049,42.999780177757,472.524900000004 -8.13453007507573,43.0000403519023,474.0 -8.13433595004114,43.0002748776384,476.0 -8.13425078975223,43.0004720196056,477.0 -8.13383823216978,43.0012786938845,484.0 -8.13343120731118,43.0019559519698,486.0 -8.13310917475654,43.0021656674159,486.0 -8.13252311206856,43.0022981011697,484.0 -8.13164519123635,43.0030120717574,481.0 -8.13058119247783,43.0038697080498,482.0 -8.1296524782045,43.0046720236178,485.0 -8.12897505236054,43.0054059431559,486.0 -8.12849812240314,43.0059231065487,486.0 -8.12718132514732,43.0072970683588,487.0 -8.12617952034918,43.0082616575266,484.0 -8.12602780747411,43.008508756386,483.0 -8.12568129942125,43.0093801387924,481.0 -8.12495073283835,43.0112075616116,476.0 -8.12461880983246,43.0119797025026,476.0 -8.12430599668759,43.0123597377459,476.0 -8.12385622369955,43.0128400209686,476.127500000002 -8.12343277045104,43.0132245824606,476.562399999995 -8.12272969590908,43.0136921254253,477.0 -8.12187189194933,43.0142329255111,477.0 -8.12123319157893,43.0145782602697,477.0 -8.1201883035798,43.015095255795,477.984599999996 -8.11905423173757,43.0156558374186,479.0 -8.1187394072648,43.0159594301308,478.168000000005 -8.11834260792907,43.0164693848474,476.0 -8.11809450402738,43.0166791000063,474.0 -8.11780935180674,43.0166953612526,473.0 -8.11589458918536,43.0165942751863,470.0 -8.1141613796762,43.016482460621,467.1005 -8.10796229185175,43.0161471845047,464.0 -8.10754017888963,43.0160925343111,464.0 -8.10717489604733,43.0159275785101,464.0 -8.10685118633807,43.0157508882179,464.930600000007 -8.10629043727648,43.0155373169827,465.408800000005 -8.10602255157391,43.0155326233464,466.0 -8.1055917222586,43.0155542484875,465.104800000001 -8.10497917274444,43.0155607864721,464.0 -8.10467172433847,43.015565480763,463.617100000003 -8.10437969820927,43.0155498904875,463.0 -8.09902936202144,43.0149090095633,462.577900000004 -8.09418428685847,43.014347087095,463.0 -8.09402871841419,43.0144329180014,461.467399999994 -8.09255082178686,43.0141953742999,461.856899999999 -8.09105834011255,43.0140577436927,464.0 -8.09094736314069,43.0147958539709,463.0 -8.09050530218937,43.0169256960424,462.772500000006 -8.08981413032492,43.0168728895386,462.914699999994 -8.08901902248379,43.0168065048308,463.8174 -8.08819944004274,43.0167570518811,468.510699999999 -8.08756761268261,43.0166495955345,471.944300000003 -8.08699931956926,43.016605842244,475.323199999999 -8.08668483016807,43.0165304051006,476.207299999995 -8.0864826589235,43.0164542972612,477.346699999995 -8.08596700439084,43.0162834744733,482.005699999994 -8.08561915515327,43.0162457557152,484.117700000003 -8.08556299697329,43.0162385471979,484.660799999998 -8.08538244997422,43.0162621845634,486.959400000007 -8.08520810674051,43.016265033815,487.9804 -8.08496922224857,43.0162341885897,488.980100000001 -8.08469714590521,43.0163332627783,491.249899999995 -8.08458818115955,43.0163284010591,492.0 -8.08428425325117,43.0163191813942,491.138600000006 -8.08410773070457,43.0163138165561,490.0 -8.08384001298696,43.0163027525613,489.334400000007 -8.08356039259184,43.0163295747814,489.307199999996 -8.08339359251159,43.0163344365005,488.869600000005 -8.0833040735969,43.0163429855587,488.698000000004 -8.08314900820916,43.0163666228838,488.139299999995 -8.08289738380989,43.0163989767371,487.669200000004 -8.08270091147748,43.016424457708,487.0 -8.08252187454639,43.016475084645,486.866999999998 -8.08240687491867,43.0164747496719,487.554399999994 -8.08211769914386,43.0164772639406,487.507500000007 -8.08189775832465,43.0164576502774,488.854300000006 -8.0817765558299,43.0164430658051,489.430600000007 -8.0815227512194,43.0163919363814,490.049799999993 -8.08134388137498,43.0163589112633,491.102199999994 -8.08114439249984,43.0163258867843,491.560800000007 -8.08089695874136,43.0162752603811,493.076199999996 -8.0807921846365,43.0162263094654,492.925600000002 -8.08064734566999,43.0161525487005,492.905700000003 -8.08049546570826,43.0160861645275,493.667199999996 -8.08038331553663,43.0160353697821,494.187699999995 -8.08027585996066,43.0159763615193,494.493799999997 -8.08011643594718,43.0159560770874,495.949999999997 -8.0799836667448,43.0159606032034,496.969899999996 -8.07970773393394,43.0159647943431,498.2264 -8.07959172909139,43.0160113980106,499.0 -8.07951478299745,43.0160861645275,500.137400000007 -8.07945258903703,43.0161547280076,500.706900000005 -8.07940933874938,43.0162150779675,501.003200000006 -8.07936139386603,43.0163642760974,502.0 -8.07926131435686,43.0165936045846,503.744999999995 -8.07925980518717,43.0166559659164,503.636400000003 -8.07926248755664,43.0167178247272,503.596799999999 -8.07920314395065,43.0167729774784,503.195200000002 -8.07911546927723,43.0167912498418,503.514500000005 -8.07883752513843,43.0168536116297,503.625100000005 -8.07870106745351,43.0168638374409,503.717399999994 -8.07837920288385,43.0168859652264,503.894 -8.07813780400744,43.0168864683395,504.0 -8.07781543548288,43.0168737276228,504.251900000003 -8.0776813250958,43.0168581376795,505.0 -8.07761929912038,43.0168402003072,505.043699999995 -8.07749105652874,43.0167971170951,506.402499999997 -8.07726675618545,43.0165905872051,506.175700000007 -8.07723188807767,43.0165327518806,506.256200000003 -8.07712778411604,43.0163577381984,506.717600000004 -8.07708000721765,43.016259669629,507.0 -8.07693701249241,43.0162464263208,508.0 -8.07659855154788,43.0162375416179,511.183199999999 -8.0765068533203,43.0162452525969,512.133000000002 -8.07637911288691,43.0162739191707,513.317500000005 -8.07614877855985,43.0162782777761,514.919699999999 -8.07606462348573,43.0162933647487,515.0 -8.07598466084903,43.0162920241954,516.087100000004 -8.07566648386359,43.0162356972882,518.286699999997 -8.07541033285357,43.0161765210737,519.4712 -8.07531226467234,43.0161579135527,520.044800000003 -8.07526934855794,43.0161453408291,520.727499999994 -8.07516843092062,43.0161393053691,521.447799999994 -8.07503733797455,43.0161512081442,522.645900000003 -8.07426787883142,43.0162766009347,527.454599999997 -8.07385314283444,43.0163488528548,530.0 -8.07300019965869,43.0164851430328,535.118400000007 -8.07281546291712,43.0165163237617,536.370699999999 -8.07244162990995,43.0165803613483,538.236900000004 -8.0722786862972,43.0166514398518,539.0 -8.07222805904442,43.0166977080263,539.650999999998 -8.07203929874872,43.0168792598974,542.177800000005 -8.07201633242016,43.0169362568123,542.950700000001 -8.07198582203984,43.0169687785074,543.0 -8.07161282716083,43.0173449583271,546.404899999994 -8.07147653746089,43.0175335511374,548.0 -8.07136924897155,43.0177072242301,550.0 -8.07123782095391,43.0178411672903,551.0 -8.07068746540013,43.0179982443082,551.0049 -8.07037515531184,43.0180790456463,552.0 -8.07012202174287,43.0181199493784,552.399999999994 -8.06955155021495,43.0181942128528,555.0 -8.06916933502786,43.0182393074927,555.0 -8.06904712731829,43.0182508748973,555.0 -8.06863205535137,43.0183035127344,554.0 -8.06812142958768,43.0183590009946,554.0 -8.06799637152373,43.0183739212882,554.0 -8.06787600715714,43.0183804589725,554.0 -8.06769009721579,43.0183774416809,553.0 -8.06741785288748,43.0183636950715,552.0 -8.06727938387465,43.01836822101,551.0 -8.06712113306094,43.0183819676184,549.436000000002 -8.06704100243929,43.018379620909,548.132899999997 -8.0668970007026,43.0183784472258,546.712199999994 -8.06680329114712,43.0183754299341,545.816399999996 -8.06675082055136,43.0183787821886,545.232399999994 -8.06662995402652,43.0183625213881,544.0 -8.06643113529456,43.0183432432901,542.597899999993 -8.06622846009513,43.0183130683781,541.600600000005 -8.06603718541492,43.0182830609329,540.075100000002 -8.06586300926787,43.0182300874579,540.344800000006 -8.06555187327765,43.0181482801131,541.226599999995 -8.06540384888513,43.0180741840653,542.4807 -8.06529119655522,43.0180421654024,541.658299999996 -8.0650035290518,43.0180503792583,543.355599999995 -8.06476062190403,43.0180475294327,545.254499999995 -8.06468032329741,43.0180961445892,546.0 -8.06457957274671,43.0181833166787,547.0 -8.06437606031742,43.0184245479315,550.251199999999 -8.06427111822759,43.0184875792985,551.090200000006 -8.06403022240775,43.0184262240574,552.008600000001 -8.06387498993339,43.0183395554139,552.292300000001 -8.06368321219665,43.0182569094929,552.282500000001 -8.06361380925613,43.0182158383702,551.863299999997 -8.06347819059769,43.0181821429918,551.0 -8.06317744811528,43.0181548178215,551.120200000005 -8.06295985369559,43.0181264870898,551.233900000007 -8.06273052458334,43.018087092015,550.231100000005 -8.06255584537971,43.0180326097166,549.7503 -8.06218067208613,43.0178228945827,548.721699999995 -8.06196274259482,43.0176959923463,548.502900000007 -8.06161439030068,43.0174892947117,545.852299999999 -8.06124357473456,43.0173372474863,543.045800000007 -8.06112622870732,43.0173025460632,542.283800000005 -8.06097032519146,43.0172971819679,541.850399999996 -8.06075641925431,43.0173731219353,541.339099999997 -8.0604476296636,43.0174398416552,540.5049 -8.06020304536118,43.0174530853629,539.909400000004 -8.05999048060877,43.0175038795924,538.359100000001 -8.05958328776521,43.0177130920528,538.181800000006 -8.05928975336465,43.0177980841238,537.205199999997 -8.05913502394687,43.0177987547124,535.400500000003 -8.05900443315905,43.0177886965398,535.833899999998 -8.05887669362396,43.0177850086303,535.0 -8.05864920875298,43.0179506346262,535.081699999995 -8.05689504334487,43.0193768992847,539.0 -8.05682983284177,43.0194094210008,539.0 -8.05673846968577,43.0194732913758,539.0 -8.05665615975126,43.0195078247506,539.0 -8.05641794540252,43.0196642308773,538.965400000001 -8.05633429428327,43.0197904624197,539.905700000003 -8.05616380661877,43.0199445218337,540.0 -8.05573331147671,43.0201936320079,541.0 -8.05566944215834,43.0202204544988,541.0 -8.05534841481852,43.0202611899849,542.157099999997 -8.0548101290289,43.020337968264,545.594700000001 -8.05475966976108,43.0203451769568,545.970600000001 -8.05452430576676,43.020392451144,547.0 -8.05437292886161,43.0204367074475,547.219700000001 -8.05423999167428,43.0205198561449,548.893400000001 -8.05419841764294,43.0205775235226,550.0 -8.05415667562661,43.0206507811439,550.646599999993 -8.05404285009696,43.0207340970264,551.943899999998 -8.05382072906655,43.0208755836312,554.310400000002 -8.05350389326585,43.0210625000517,557.0 -8.05327758159462,43.0212048252382,558.090500000006 -8.05306149634461,43.0213186513925,559.280199999994 -8.05279260542726,43.021430298216,560.0 -8.05246034645142,43.0215910629278,559.127600000007 -8.05220771593903,43.0217382494938,558.0 -8.05159650760961,43.0220928035329,555.394 -8.05086610811333,43.0225011699358,546.969500000007 -8.05073903872144,43.0226190195294,545.0 -8.05052077415854,43.0228403018975,542.612099999998 -8.05022271314727,43.0230630926555,540.889500000005 -8.0499394051679,43.0232806871571,540.0 -8.04969431870727,43.0234721296985,540.0 -8.04952885981172,43.0235777418175,539.383100000006 -8.04936792662857,43.0237126906637,539.136700000003 -8.04918419600012,43.0238582001061,539.0 -8.04895620807261,43.0240194680823,539.0 -8.04857918963943,43.0241964938114,538.039900000003 -8.04837567721013,43.0242573461442,538.0 -8.04814349864179,43.0243153495387,537.019499999995 -8.04778240644032,43.0243461946448,534.621400000004 -8.04758777834915,43.0243485417829,533.030899999998 -8.04702518504627,43.0243812309574,526.8171 -8.04679133022162,43.0243996711484,524.3024 -8.04640861197798,43.024527578765,520.571299999996 -8.04591441550252,43.024709969104,515.0 -8.04563764456349,43.024818431232,511.615600000005 -8.04547570616553,43.0248791161414,509.045499999993 -8.045137245221,43.0250408864521,507.0 -8.04482007434868,43.0251946109003,504.0 -8.04455151760461,43.0253235242619,502.240399999995 -8.0443242007186,43.0254584732109,500.3508 -8.04399747356828,43.0256628238554,497.762199999997 -8.04370192783982,43.0258220801851,496.186300000001 -8.04356111242744,43.0259015407341,495.036800000002 -8.04320588712308,43.0261364018166,492.216199999995 -8.04274940821144,43.0265311889556,484.9424 -8.04257908853189,43.0266091407999,483.773100000006 -8.04221799633039,43.0269568219469,484.0 -8.04178984848621,43.0272411366711,485.063500000004 -8.04122943449619,43.0277462301245,486.150899999993 -8.04116254683845,43.0278461420592,486.3747 -8.04099876419921,43.0279385104637,487.063099999999 -8.04049266504624,43.0282043848817,486.0 -8.04018018787132,43.0283636405279,486.057100000005 -8.03990291387571,43.0285493836455,486.845199999996 -8.0394808018119,43.0288595141862,488.056500000006 -8.03893195452952,43.0292866558275,493.655799999993 -8.03872291027469,43.0294164077021,496.012499999997 -8.03871285183846,43.0294660284132,495.466499999995 -8.0384912338646,43.0296631712521,496.1783 -8.03795713961411,43.0300705318501,496.0 -8.03759755568396,43.030277732159,494.0 -8.03602024879237,43.031073845403,492.0 -8.03483135995485,43.0316775102254,489.0 -8.03376367271379,43.0322367506187,485.0 -8.03295548989371,43.0326856855121,483.0 -8.0322210677416,43.0332450933523,482.028699999995 -8.03167238844417,43.0336492691778,481.0 -8.03129738223722,43.0340180727324,482.0 -8.03113024708536,43.0341017243924,482.0 -8.03110292213104,43.0343944199288,485.0 -8.03099026890284,43.0345493179646,486.0 -8.03084643515114,43.0346504033598,486.0 -8.03081810498202,43.0347003593094,486.881500000003 -8.0305342939461,43.0349674073504,488.0 -8.02925789752184,43.0360013986825,494.0 -8.0289095452277,43.0361834535496,495.956000000006 -8.02855482297987,43.0362821921978,496.0 -8.02841551583886,43.0363651730121,496.0 -8.02843093901399,43.0364181465973,496.0 -8.02876755571724,43.0366208212383,500.522100000002 -8.02878146972269,43.0368680876617,503.023000000001 -8.02882388278052,43.0370767968452,504.767900000006 -8.02904700902574,43.0375812197457,507.890899999999 -8.02933601681556,43.0381114591131,508.172900000005 -8.02932344399485,43.0382187472367,508.0 -8.02884550792434,43.0389853563091,508.0 -8.02856152890347,43.0393070533613,508.0 -8.02820647158407,43.0396082994338,508.848100000003 -8.02794495583518,43.0397574971782,508.585500000001 -8.02765997159949,43.0399204415976,508.741599999994 -8.02750105064259,43.039975259013,508.630600000004 -8.02725562821201,43.040042313963,508.0 -8.0269939453765,43.0401551347966,508.0 -8.02677970346943,43.040267619923,508.0 -8.02661860319963,43.0403081878157,508.0 -8.02646940560737,43.0403108704996,508.0 -8.02583204552338,43.0401951998417,506.0 -8.02532326400097,43.0401430646575,503.029200000004 -8.02512997799286,43.0400729916226,502.0 -8.02494876085059,43.0400713154311,502.0 -8.02325561620308,43.0403980419031,502.0 -8.02271431297245,43.0405291352594,504.0 -8.02241206132036,43.0406337410819,506.0</coordinates>
</LineString>
</Placemark>
</Folder>
</Document></kml>
