<?xml version="1.0" encoding="UTF-8"?>

<kml xmlns:xsd="http://www.w3.org/2001/XMLSchema" xmlns:gx="http://www.google.com/kml/ext/2.2" xmlns:atom="http://www.w3.org/2005/Atom" xmlns="http://www.opengis.net/kml/2.2">
<Document>
<name>ES03a_05a_markina-gernika</name>
<visibility>1</visibility>
<Schema name="ES03a_05a_markina-gernika" id="kml_schema_ft_ES03a_05a_markina-gernika">
<SimpleField type="xsd:string" name="id">
<displayName>id</displayName>
</SimpleField>
<SimpleField type="xsd:string" name="nombre">
<displayName>nombre</displayName>
</SimpleField>
<SimpleField type="xsd:double" name="longitud">
<displayName>longitud</displayName>
</SimpleField>
<SimpleField type="xsd:string" name="_formato">
<displayName>_formato</displayName>
</SimpleField>
</Schema>
<Folder id="kml_ft_ES03a_05a_markina-gernika">
<name>ES03a_05a_markina-gernika</name>
<Placemark id="kml_1">
<name>&lt;img height='20' src='https://nco.ign.es/iconos/icono_todos_caminos_azul.png' /&gt;&lt;img height='20' src='https://nco.ign.es/iconos/Camino Santiago_20.png' /&gt;&lt;img height='20' src='https://nco.ign.es/iconos/icono_todos_caminos_azul.png' /&gt;  Camino de Santiago </name>
<visibility>1</visibility>
<description><![CDATA[<!DOCTYPE html>
<html>
<head>
<style>
#nco {
  border-collapse: collapse;
  overflow:hidden;
}
#nco th, #nco td {
  padding: 4px;
  text-align: left;
}
#nco th {
  color: #364B5F;
  padding-right: 5px;
}
#nco td {
  color: rgb(51, 51, 51);
  font-size: 12px;
  padding-right: 5px;
}
</style>
</head>
<body>
<table id="nco">
<tr>
<td>Caminos del Norte</td>
</tr>
<tr>
<th><b>Camino: </b></th>
<td>ES03a Camino del Norte</td>
</tr>
<tr>
<th><b>Etapa: </b></th>
<td>05a Markina-Gernika</td>
</tr>
<tr>
<th><b>Longitud: </b></th>
<td>24.17 km</td>
</tr>
</table>
</body>
</html>]]></description>
<Style>
<IconStyle>
<scale>0.8</scale>
</IconStyle>
<LabelStyle>
<color>ffffffff</color>
<scale>0.75</scale>
</LabelStyle>
<LineStyle>
<color>ffff0000</color>
<width>3.0</width>
<gx:labelVisibility>1</gx:labelVisibility>
</LineStyle>
<PolyStyle>
<color>66ff0000</color>
</PolyStyle>
</Style>
<ExtendedData>
<SchemaData schemaUrl="#kml_schema_ft_ES03a_05a_markina-gernika">
<SimpleData name="id">ES03a_05a</SimpleData>
<SimpleData name="_formato">kml</SimpleData>
</SchemaData>
</ExtendedData>
<LineString>
<extrude>0</extrude>
<tessellate>1</tessellate>
<coordinates>-2.49676477155423,43.2671645656199,80.2033999999985 -2.49694196514233,43.2672146896868,80.3383000000031 -2.49772533739258,43.2668854483559,82.844299999997 -2.49782776419959,43.2668142022892,83.5626999999949 -2.49796690425395,43.2669094207371,83.9291999999987 -2.49810118262598,43.2669384220203,84.6962000000058 -2.49870417676045,43.2666517609715,88.5210999999981 -2.49973397665609,43.2660006543139,92.1448999999993 -2.49990412924898,43.2659342700557,91.8421999999991 -2.50069638673572,43.2658241318414,90.6634999999951 -2.50283243136104,43.2655803856071,88.4988000000012 -2.50288456688515,43.2656709105796,88.5436000000045 -2.50438442462626,43.2654684033844,87.4159999999974 -2.50457720847612,43.2656932062289,87.9330000000045 -2.50469807500096,43.2658224552889,87.3503000000055 -2.50525647766304,43.265578709702,87.9027999999962 -2.50587975575663,43.2655544018773,86.4278999999951 -2.50616004719325,43.2655108158823,87.2550999999949 -2.5064269267827,43.2654593513864,88.3050999999978 -2.50655500228771,43.2654521427557,89.2808999999979 -2.50659188262171,43.2655009252829,89.474000000002 -2.50653237103076,43.2656234691735,88.2829000000056 -2.50649750202469,43.2656563259081,90.099000000002 -2.50659774951882,43.265748359209,90.6882999999943 -2.50675030052204,43.2656866687717,90.2016000000003 -2.50684769856011,43.2655195336071,87.9470000000001 -2.50696051887494,43.2653896140631,89.661500000002 -2.50714827305752,43.265248295148,90.0837000000029 -2.50730870318412,43.2651710139973,90.4416000000056 -2.50742638518128,43.265142347448,90.5181000000011 -2.50808000567023,43.2650652342781,91.2532000000065 -2.50898961008251,43.2649619689124,92.596000000005 -2.50982176534426,43.2648623921071,93.8239999999932 -2.510926332021,43.2647249288281,94.4015999999974 -2.51216417185495,43.2645628227474,95.2970999999961 -2.51314032795509,43.2644578812476,97.3383999999933 -2.51394297894964,43.2644085961501,99.096000000005 -2.51414280379472,43.2644153012073,99.8595999999961 -2.51445092234389,43.2645413653051,99.3883999999962 -2.51461101739888,43.2645049879827,100.563800000004 -2.51607013833848,43.2644399444126,110.032999999996 -2.51687899220009,43.2643309796614,113.956000000006 -2.51774568139629,43.2640808631699,120.092099999994 -2.51919021818725,43.2633249831183,116.922600000005 -2.52039184783043,43.2626095044728,117.0389 -2.5215299423285,43.261740300863,118.7837 -2.52161946124319,43.261657990491,118.717300000004 -2.52279443697356,43.2622593085608,105.438800000004 -2.52295050757608,43.2623464799421,102.7016 -2.52334697184019,43.2620294761482,103.773300000001 -2.52358719661854,43.2618730699497,104.142000000007 -2.52374276506281,43.261762261703,104.929999999993 -2.52384854438246,43.261695541153,104.550600000002 -2.52400545401144,43.261446766686,104.435500000007 -2.52406245121791,43.2612108996085,105.169099999999 -2.52407368285392,43.2607809079592,106.049799999993 -2.52407602925344,43.2604853620892,106.174199999994 -2.52417795390221,43.2597844675556,106.598100000003 -2.52427501597032,43.2595869899241,108.701000000001 -2.52487532773536,43.2591994108973,107.457599999994 -2.52511639154015,43.2589035295908,108.523700000005 -2.52559935637965,43.2582594638424,111.581600000005 -2.52571217759281,43.2570724187809,111.403900000005 -2.52591501898058,43.2565959916606,111.982199999999 -2.52630092175192,43.2561086676985,113.395699999994 -2.52680316533569,43.2550396400562,114.563299999994 -2.52696091309282,43.2542021202675,116.808000000005 -2.5271077642856,43.2537370922239,116.444300000003 -2.52742946176862,43.253348339493,117.671000000002 -2.52783061973011,43.2529252210945,123.410999999993 -2.52857325607718,43.2526779548898,124.417600000001 -2.52990715186616,43.2521770519829,127.905299999999 -2.53079244876518,43.2519884590846,128.971900000004 -2.53123082213225,43.2519321329359,129.3557 -2.53184286858983,43.252068590675,131.630399999995 -2.5322269280182,43.2522011917636,134.999400000001 -2.5327075455598,43.2521690056052,139.166899999997 -2.5338880531157,43.2517889704069,135.414699999994 -2.53463370690382,43.2515202460633,136.295700000002 -2.53556359527522,43.2515013030435,137.115000000005 -2.53789745251936,43.2522355579752,143.480299999996 -2.53921357873369,43.2523768769986,155.331300000005 -2.53957081626429,43.2522536626308,153.648799999995 -2.54024120021474,43.2517240938354,148.623999999996 -2.54193635619019,43.2508701461524,149.332500000004 -2.54297940084634,43.2501835003159,152.004000000001 -2.54383569563643,43.2496546025091,154.961899999995 -2.54445612427393,43.249543793619,157.090599999996 -2.5490722062946,43.2496866211843,170.554900000003 -2.54993990070563,43.2497095874659,173.473199999993 -2.55023594949067,43.2498648203276,175.429199999999 -2.55050115282377,43.2499001922201,176.925300000003 -2.55078479677305,43.2498653234907,179.015100000004 -2.55079736959376,43.2497637348572,178.319000000003 -2.55112845447153,43.2495934146333,178.496599999999 -2.55133850483947,43.2491729783602,180.803100000005 -2.55145601885167,43.2488710619718,181.367700000003 -2.55146959778549,43.2486415657276,182.148499999996 -2.55143925539013,43.2484554869155,182.620200000005 -2.55139717830225,43.2482140882262,184.630699999994 -2.55162684248608,43.2477732004901,185.501199999999 -2.55185181297258,43.2474863713369,187.4041 -2.55248682575873,43.2470674438191,192.845600000001 -2.5529862198864,43.2467556370907,195.112800000003 -2.553305235,43.2466260531001,196.620299999995 -2.55371963592539,43.2464795370155,199.607499999998 -2.55430536354178,43.2463072053081,204.091 -2.55512947259357,43.2461595165193,208.079800000007 -2.55612071589886,43.2459772934072,215.793699999995 -2.55685379686627,43.2457447795106,218.803899999999 -2.55760733067602,43.2454425281129,222.588900000002 -2.55829682538583,43.2451924125536,226.764800000004 -2.55942469436104,43.2445659488304,233.174599999998 -2.55983892819978,43.2446663643515,235.379300000001 -2.55994370230464,43.2448785938804,237.782999999996 -2.55942838284359,43.2453848610237,244.940600000002 -2.55916502285343,43.2457439412851,249.762000000002 -2.55918312839796,43.2459275052051,251.364600000001 -2.56113678178295,43.246838618022,267.801900000006 -2.56133845086927,43.2469876485225,268.486399999994 -2.56120132304114,43.2472340760682,271.908899999995 -2.5594132956384,43.2474672608615,282.518700000001 -2.55936283637058,43.2477847670928,284.921499999997 -2.56031535599892,43.2482331991215,293.082299999995 -2.56164640143351,43.2484994083557,305.219100000002 -2.56253421271701,43.2485451736448,308.137499999997 -2.56324097484322,43.2483007575639,312.4231 -2.5635420532955,43.2480902039119,315.693799999994 -2.56394756988277,43.2480917127906,315.633900000001 -2.56441729175829,43.2485664633291,317.519 -2.56487343470001,43.2487996482563,317.7255 -2.56579678513277,43.2485084609123,325.668699999995 -2.56638251274916,43.2484616899008,323.464500000002 -2.56743242951727,43.2479394971008,327.370699999999 -2.56783643693485,43.2477936522469,327.967099999994 -2.56852744171265,43.2477681713042,329.195200000002 -2.56971046365302,43.2474218310906,321.847299999994 -2.5699210170775,43.2474858688085,332.714699999997 -2.57007239398265,43.2477810792855,339.858600000007 -2.5703681076961,43.2480487974125,331.7739 -2.57049182457533,43.2482105679524,340.730500000005 -2.57022729138543,43.2486258077041,343.183099999995 -2.5702217595599,43.2488620094692,344.598700000002 -2.57049282979015,43.2490906680119,345.914999999994 -2.57082693300726,43.2492001357256,347.122099999993 -2.57105927956052,43.2492804339088,347.076799999995 -2.57132817047791,43.2492583056426,350.416700000002 -2.571843321954,43.2492757405107,351.138600000006 -2.57235193638975,43.2496425324424,350.055600000007 -2.57233835745593,43.2498406802751,349.192500000005 -2.57218815375055,43.2501643893782,351.772599999997 -2.57222520206948,43.2506150010277,350.627200000003 -2.57222453102798,43.2507140750786,351.892800000001 -2.57214909410366,43.2509231193577,354.702099999995 -2.57219435661758,43.2510538771729,356.627500000002 -2.57199386162929,43.2515170609774,363.842499999999 -2.57203543566066,43.2517582921642,365.964500000002 -2.57247649139717,43.252135980638,363.061499999996 -2.5724785027251,43.2522462869029,361.545100000003 -2.57291251836472,43.2523379845464,360.409299999999 -2.57357887965934,43.2526243106125,355.300499999998 -2.5740021649229,43.252925388589,353.779999999999 -2.57420835972163,43.2529666275502,353.054000000004 -2.57456224384129,43.2530107165029,350.488100000002 -2.57474916079405,43.2531488500354,353.101200000005 -2.57506549353818,43.2533144763896,353.004300000001 -2.57523749037237,43.2533736525708,352.422099999996 -2.57541166651942,43.2535927556008,352.784 -2.57558667989634,43.2536789213503,353.237599999993 -2.57593419406232,43.2537860424705,351.955499999996 -2.577251996533,43.2539057357562,347.4283 -2.57796345235655,43.2539174706488,341.000599999999 -2.57859779499949,43.2539761437693,334.610799999995 -2.57918503178553,43.2541719450594,331.929900000003 -2.5793912265843,43.254215531321,329.304099999994 -2.57979171350425,43.2542168719027,325.110100000005 -2.58016034975752,43.2543781399453,323.182799999995 -2.5803600066176,43.2544735257066,322.342999999993 -2.58061883999705,43.2544587741336,321.219400000002 -2.58103726447662,43.2545570097157,317.599799999996 -2.58169943423211,43.2548673077061,313.218099999998 -2.58233578910129,43.254973422457,308.145300000004 -2.58284138519769,43.2551408934181,305.326499999996 -2.58305612926299,43.2551724093611,304.3217 -2.58346550141944,43.2553732392887,302.741200000004 -2.58371377330608,43.2555423866402,302.527499999997 -2.58366314695163,43.2556545362889,302.307499999995 -2.58373640456302,43.256159797277,297.986000000004 -2.5837992686666,43.2565247453281,295.595499999996 -2.58396372234737,43.2571706547264,285.550399999993 -2.58405894017421,43.2572859900861,283.338600000003 -2.5849668683302,43.2577414622631,262.649600000004 -2.58552527099228,43.2579890638047,246.496899999998 -2.5855363346433,43.2581270296865,243.325700000001 -2.58541043845118,43.2584153677269,235.521800000002 -2.58560992732632,43.2585798204891,226.996899999998 -2.58579667629411,43.2588564231009,216.834900000002 -2.58639229436178,43.2588586022798,213.882199999993 -2.58667543525448,43.2588336244757,212.926999999996 -2.58694600332649,43.2589338718949,212.879300000001 -2.58754732120463,43.2589229753589,214.474199999997 -2.58838299696401,43.2591932083515,211.292300000001 -2.58886445353211,43.2595053498176,210.194300000003 -2.58959887568422,43.2598743214322,205.284299999999 -2.59021209534155,43.2598894092608,202.922099999996 -2.59038861878645,43.2599633371464,202.593900000007 -2.59056430320489,43.2601276228324,202.789099999995 -2.59120568594472,43.2612246460242,203.510800000004 -2.59126402433589,43.2613455133428,205.428599999999 -2.59119747174976,43.2615909355396,208.751600000003 -2.59141992785175,43.2618417216738,211.131200000003 -2.59192485380499,43.2621493377085,210.913400000005 -2.59231310297581,43.2623146288497,209.401800000007 -2.59274728570209,43.262630794474,205.549100000004 -2.59304434060024,43.2632007638635,200.548899999994 -2.59312463920686,43.263524305136,196.603499999997 -2.59290805090028,43.2641484216946,193.888300000006 -2.59324198613243,43.2644728011318,190.336200000005 -2.59328674558978,43.264852166479,186.577900000004 -2.59321466117812,43.265071771802,185.306400000001 -2.59287083549469,43.2653205471557,184.754400000005 -2.59288240220232,43.2653636295977,184.768899999995 -2.5927511412713,43.2656001674327,184.624100000001 -2.59237797930566,43.2658402249118,184.462499999994 -2.59282406381111,43.2661478410207,184.020300000004 -2.593364193842,43.2665159736877,189.574900000007 -2.59422333898648,43.2667992823248,201.092999999993 -2.59542513661459,43.2670017890173,214.928 -2.5966971744131,43.2672820798952,230.878599999996 -2.59701518341358,43.2673090695795,234.921600000001 -2.59725775548974,43.2672366498604,237.220499999996 -2.59755363718815,43.2670436987341,245.039999999994 -2.59765455482548,43.2669836841678,246.433999999994 -2.59881058688316,43.266940433454,253.814100000003 -2.59957769872844,43.2668869567689,255.194699999993 -2.60074429227889,43.2670247553102,255.839000000007 -2.60185573286418,43.2666492465039,256.507199999993 -2.60206192766291,43.266667351453,256.973899999997 -2.60268503777155,43.2669798287591,266.824099999998 -2.60322634100218,43.2671583632314,267.0717 -2.60403972147449,43.2672259209573,265.557700000005 -2.6046358417004,43.2671677505416,266.061799999996 -2.60480079843771,43.2671724445232,267.657099999997 -2.60505979890382,43.2672725244936,270.430999999997 -2.60528259007743,43.2674500533803,272.315900000001 -2.60588508115532,43.2673142665691,269.5095 -2.60709593110657,43.2670167089322,255.451100000006 -2.608176358255,43.2668480650806,260.204500000007 -2.60834734897605,43.2668614759653,257.311799999996 -2.60852856522002,43.2671120951728,254.1967 -2.60880433004593,43.2673241568739,255.864799999996 -2.60908646482553,43.2674587701733,255.533500000005 -2.60934328687704,43.2678776980589,256.8079 -2.60915134115534,43.2683856415056,255.622000000003 -2.60840971002309,43.2690553554056,252.1109 -2.60834969537557,43.2692060616356,251.068400000004 -2.60834818710421,43.2694732767663,247.739799999996 -2.60816277932115,43.2698776202089,242.077799999999 -2.60798357440511,43.2702217808366,238.919299999994 -2.60787427458787,43.2707127927225,234.547999999995 -2.60784141690973,43.271259963764,231.471699999995 -2.60772172358464,43.2715095765529,230.8217 -2.6074513234976,43.2723058574396,224.075400000002 -2.60776296254439,43.2724061049134,220.769199999995 -2.60829923700607,43.2725199312629,213.070600000006 -2.608930394223,43.2724833860353,203.568799999994 -2.60952768854699,43.2722139916838,198.525999999998 -2.61004418120781,43.271724320986,190.984100000001 -2.61012665912732,43.2717462814947,189.722999999998 -2.61072747394889,43.2718770390728,175.237599999993 -2.61127833255921,43.2718767041881,171.113299999997 -2.61179331694865,43.2718740218399,171.504300000001 -2.61207226630227,43.2718114925493,172.305200000003 -2.61234501368716,43.2717469519197,173.390400000004 -2.61266268761602,43.2717042043027,175.003100000002 -2.61318119250305,43.2716250790097,181.293699999995 -2.61338805744501,43.2715732789101,183.867199999993 -2.6136313005627,43.2714450362572,187.951499999996 -2.613988537195,43.2712929881704,185.393899999995 -2.61452414061515,43.2713473027821,178.177800000005 -2.61532394215364,43.2717394084941,167.279800000004 -2.61559903593805,43.2718016023195,163.2402 -2.61649019973418,43.271977454695,150.727100000004 -2.6170073634365,43.2720864188399,141.999800000005 -2.61731782928356,43.272231761403,141.875799999994 -2.61744288734752,43.2723087072099,141.692899999995 -2.617510948205,43.2724664549014,142.370800000004 -2.61744942528616,43.2727026564176,143.820500000002 -2.61738304068495,43.2728205059993,144.276599999997 -2.61746937417367,43.2728951049459,144.569799999997 -2.61766484039296,43.2727666943681,142.421100000007 -2.61787857834515,43.2725792751873,139.571500000005 -2.61799877472679,43.2725118843031,138.854999999996 -2.61807957638998,43.2725100404942,138.577399999995 -2.61884886754815,43.2729960231684,135.1302 -2.61912681168695,43.273093253641,134.724799999996 -2.61950617651962,43.2732191493337,133.508400000006 -2.6199182310455,43.2734065691602,132.392900000006 -2.62056849902182,43.2737980036295,130.655400000003 -2.62075910355879,43.2739319465995,130.742800000007 -2.62113964159123,43.2739114944643,130.080400000006 -2.62142144129924,43.2738424280697,132.170599999998 -2.62156829249198,43.2737991769971,133.675399999993 -2.62184087189192,43.2738067208215,137.226200000005 -2.6225771382853,43.2738484629941,146.193899999998 -2.62314274902922,43.2738895340828,149.632599999997 -2.62326126915454,43.2740891910449,149.274000000005 -2.62339772683946,43.2742952184117,148.463799999998 -2.62348724485582,43.2743545619131,148.364400000006 -2.62384699677093,43.2742792923963,147.450500000006 -2.62401580817911,43.2745686357243,145.109599999996 -2.62401983173328,43.2748485915526,148.069900000002 -2.62390583732034,43.2749225202394,146.710300000006 -2.62399066253769,43.2752378473107,143.617700000003 -2.62412175548372,43.2753214984051,142.828899999993 -2.62423776122456,43.2754661700525,143.941200000001 -2.62424580743456,43.2756150330442,143.896299999993 -2.62443657995652,43.2757709363037,144.233699999997 -2.62458208906624,43.2759727721998,141.087899999999 -2.62467697271982,43.2761020210147,138.226800000004 -2.6247036266326,43.2761568388584,136.981799999994 -2.62474235120788,43.2761876846652,136.560200000007 -2.62476883803403,43.2762577569042,134.859299999996 -2.62482851760993,43.2762797177391,134.337299999999 -2.62511098746111,43.2764305918228,132.975900000005 -2.62490546370391,43.2767403872317,124.173599999995 -2.62487512041022,43.2768503578851,121.281300000002 -2.62493027337542,43.277005758311,119.994500000001 -2.62505583449595,43.2772454804248,117.827999999994 -2.62540083337912,43.2772724702691,118.102700000003 -2.62562781609185,43.2772925870738,117.920700000002 -2.62588111674745,43.2773883084151,117.598599999998 -2.6264024710906,43.2775323093657,115.892999999996 -2.62658201197655,43.2776385919349,114.538100000005 -2.62689096865388,43.2777904717839,114.184699999998 -2.62701418247656,43.2779136861413,113.7215 -2.6273082199337,43.2780722714726,113.656400000007 -2.62769110526399,43.2782028617677,113.857300000003 -2.62814205145177,43.2783034441869,113.332599999994 -2.62870766219569,43.2784519719292,111.336200000005 -2.62892911218457,43.2784548214116,111.255799999999 -2.62919314231793,43.2786756006351,111.287599999996 -2.62962246336191,43.2789465039266,110.945900000006 -2.62984927719135,43.2790269701999,109.993000000002 -2.6300477608517,43.279364090538,107.677200000006 -2.6302028262394,43.279608171351,108.137100000007 -2.63068160043807,43.2799590378479,105.277499999997 -2.63112332631777,43.2801308668914,105.248800000001 -2.63139691183082,43.280274030141,105.194799999997 -2.63160813629684,43.280460107855,106.328099999999 -2.6317377200732,43.2805187815558,106.203699999998 -2.63236954833167,43.2805013471317,106.212299999999 -2.63259384777664,43.2805041971722,106.313899999994 -2.63281445963738,43.2806019296752,106.744399999996 -2.63299316149685,43.2808439991261,107.8701 -2.633144538402,43.2811980505315,108.919299999994 -2.63319550072637,43.2815130429497,110.625599999999 -2.63328334338474,43.2816384359798,111.545100000003 -2.6337312721315,43.2817757315754,111.765100000004 -2.63378961052267,43.2818813436127,111.866500000004 -2.63367913660736,43.2820580340148,112.614499999996 -2.633568830677,43.2822689227524,113.287400000001 -2.63357100998986,43.2824067211271,113.804799999998 -2.63377049976332,43.2826016841649,116.334900000002 -2.63395288920704,43.2827230544352,116.802599999995 -2.63440098593876,43.2828041912486,118.133499999996 -2.63463668500469,43.2828588408739,119.519799999995 -2.63477465096098,43.2829542271361,119.687099999996 -2.63481538776248,43.2830858231934,120.443400000004 -2.63481153219328,43.2832281476658,121.494099999996 -2.63488747217414,43.283362090805,122.429499999998 -2.6351608897022,43.2835483362938,123.909700000004 -2.63528410352488,43.2836737297066,124.569399999993 -2.63529801753033,43.2838096840487,125.925799999997 -2.63525275501644,43.2839625699507,127.4709 -2.63528460658146,43.2840877957549,127.790999999997 -2.63544855630732,43.2842824238204,129.214900000006 -2.63551862939107,43.2844076489662,129.637700000007 -2.63553271048314,43.2845456151357,130.758499999996 -2.63550253607274,43.2846555860688,131.819699999993 -2.63548946019549,43.2848560807056,133.419399999999 -2.63558568413545,43.2850698193795,134.741500000004 -2.63577058886197,43.2852428221761,136.454100000003 -2.63606211193459,43.2853408903786,137.783500000005 -2.63634843735498,43.285330999732,137.255499999999 -2.63757420742479,43.2851750961183,131.910799999998 -2.63776078840763,43.2850766928364,131.388000000006 -2.63819513822054,43.2845045440462,127.995299999995 -2.63828968590418,43.2844725253701,127.581999999995 -2.63892134617769,43.2849531431316,124.564299999998 -2.63908630201666,43.2850098049326,122.799100000004 -2.63960095133451,43.2848517222473,123.667499999996 -2.63970689863912,43.2848824001634,123.497300000003 -2.63980966051775,43.2849754395644,125.357300000003 -2.63939140402315,43.2853232879693,123.790900000007 -2.6393318924322,43.2854178359576,123.714300000007 -2.63937463966332,43.2856768372512,123.700100000002 -2.63948796303472,43.2859489132368,122.650200000004 -2.6397112572649,43.2861631548575,121.646399999998 -2.6400322837064,43.2862288690192,121.085300000006 -2.64017360307365,43.2863219083226,121.4035 -2.64020696291003,43.2866648956878,120.337 -2.6404585873093,43.28705130132,118.577000000005 -2.6407923545565,43.2876604984916,116.845700000005 -2.64096552548877,43.2878319919115,115.697499999995 -2.64132980221795,43.2878609930331,114.789600000004 -2.64164077112155,43.2877506872122,115.628100000002 -2.64193648483497,43.2874256373435,116.373000000007 -2.64228668047208,43.2871047779424,121.5717 -2.64257619131848,43.2869188676811,119.419599999994 -2.64269622061349,43.2868635468674,118.936400000006 -2.6429081152227,43.2869158498863,115.008900000001 -2.64301037404472,43.287095054983,117.043000000005 -2.6427550611629,43.2879647609741,118.508100000006 -2.6421963234292,43.2885752992847,122.558799999999 -2.64204762889348,43.2888809035486,120.671499999997 -2.64206321915524,43.2890121637648,120.860499999995 -2.64219263584499,43.2892153413198,121.112800000003 -2.64263721207908,43.2894909383284,120.508400000006 -2.64273980597272,43.2896384598995,120.604399999997 -2.6426080428835,43.2898367757363,120.772800000006 -2.64245934744945,43.2901304777062,118.6492 -2.64241743834653,43.2907941564153,116.603199999998 -2.64254651996462,43.2910410873425,115.335200000001 -2.6427248867525,43.2912444320476,113.992100000003 -2.64286067339589,43.2912685720304,113.414399999994 -2.64324741429539,43.2912300156628,111.339399999997 -2.64351965862371,43.2912229748582,110.781400000007 -2.64376390695622,43.2913072964164,109.766900000002 -2.64435835182411,43.2914227992182,107.396200000003 -2.64479856943245,43.2913979890882,106.722599999994 -2.64520643241924,43.2912677337777,106.258700000006 -2.64534540448864,43.2911529022003,105.521699999998 -2.6458203231181,43.2908915539543,103.266900000002 -2.64616146643206,43.2907713579826,102.007500000007 -2.64634536594376,43.2905656656073,102.280499999993 -2.64659564915834,43.2903581299222,101.468099999998 -2.64680637056781,43.2903121972842,101.303499999995 -2.6469582505295,43.2903673501855,101.378500000006 -2.64700200387373,43.2904766501833,101.418999999994 -2.64694266026775,43.2906786537274,102.218800000002 -2.64668550314465,43.2915817200753,104.666800000006 -2.64644410426823,43.292624428717,109.163100000005 -2.64649003782365,43.2933018540364,110.745699999999 -2.64666186667288,43.2937615178487,111.467900000003 -2.64678826592158,43.2939296588562,111.820000000007 -2.64688096936394,43.2941745782883,111.566300000006 -2.64686001436332,43.2944233530197,112.063599999994 -2.64694500756559,43.2945671861535,112.858999999997 -2.64704441693156,43.2946320621829,113.603199999998 -2.64730123808478,43.2947279510834,112.903099999996 -2.6475639270334,43.2947448825611,112.780700000003 -2.64922035843357,43.2945983671936,110.572 -2.64933686723099,43.2945703716025,110.997000000003 -2.64947516825886,43.2946052402276,111.318799999994 -2.64964062715441,43.2947048174047,111.812900000004 -2.6496838774421,43.2948687674041,113.019899999999 -2.64961615165619,43.2951172071541,113.646099999998 -2.64946594795078,43.2952199689079,114.368600000002 -2.64905506752298,43.2954207994384,116.918900000004 -2.64886328978623,43.2955617828395,116.839500000002 -2.64879321670251,43.2956808062055,117.119099999996 -2.64883395260569,43.2958186042742,117.790500000003 -2.64903511863547,43.2960274812552,120.103099999993 -2.64909781475409,43.2961490189197,120.175499999998 -2.64909479731307,43.2962298207274,120.424499999994 -2.64883495871881,43.2966475750697,122.588199999998 -2.64871694165003,43.2969303799157,123.185100000002 -2.64866346494119,43.2975650578957,124.781499999997 -2.64865726207416,43.2981554788511,126.998699999996 -2.6486570949875,43.2986853831693,126.678499999995 -2.64868307875711,43.2989381811202,127.113100000002 -2.64884216680065,43.2992075754821,126.841700000004 -2.64920527122839,43.2996514812187,127.024999999994 -2.64948589683829,43.2999131644686,126.274000000005 -2.64984766008133,43.3001247235241,126.019199999995 -2.65005737537765,43.3002465962268,125.965700000001 -2.65035476534742,43.3005265515757,124.335999999996 -2.65053430533505,43.3005999776971,124.300199999998 -2.65088047831629,43.3005666174726,122.138900000005 -2.6514370367371,43.3005703053513,121.514800000004 -2.6515833848733,43.3006415517758,120.848499999993 -2.65188379228408,43.3008708807657,120.427299999996 -2.65222426545488,43.30135518688,118.405599999998 -2.65249701194144,43.3015744571586,117.089300000007 -2.6529382356629,43.3018852581295,115.067299999995 -2.65305407341879,43.3020007611067,114.569399999993 -2.65322975783723,43.3022339453363,113.249599999996 -2.65335313964487,43.3024686388174,112.2019 -2.65351809548385,43.3026573995802,111.150999999998 -2.65390416624015,43.3029153945774,109.727799999993 -2.65419401215813,43.3030880615852,108.5098 -2.65470262659391,43.3032453058541,106.786200000002 -2.65493480516225,43.3033026383423,106.288499999995 -2.65517804738161,43.3033903131444,105.003200000006 -2.65544828038203,43.3035792410155,104.662100000001 -2.65559161107718,43.3037069812074,103.722899999993 -2.65572069179697,43.3038933945121,102.963399999993 -2.6558189279632,43.3041322791552,101.974400000006 -2.65581490440903,43.3043668044923,100.861199999999 -2.65579780587591,43.3048965409296,98.4464000000007 -2.65583619448127,43.3054527637312,95.2470999999932 -2.65589034223165,43.3057240021009,94.4603999999963 -2.65595722899107,43.3061365596411,92.716499999995 -2.65607943759896,43.3065596781557,89.9850000000006 -2.65619477229827,43.3066812156861,89.3162000000011 -2.65644924705197,43.306773081694,88.4753000000055 -2.65702994500108,43.3069061859341,86.3650999999954 -2.65764953551042,43.3070273880805,84.0629000000044 -2.65788707881763,43.3071190862198,83.5187000000005 -2.65808254503692,43.3073036561122,82.5362000000023 -2.65830114467144,43.3078400979528,79.8444000000018 -2.65848705551104,43.3082674071215,77.8524999999936 -2.65848319994187,43.3084352125544,77.803700000004 -2.65839351304222,43.3086452633386,76.8464999999997 -2.65830986192294,43.3087602632158,75.6935999999987 -2.65825873251191,43.3089461733844,72.9394999999931 -2.65852410383,43.3090662026978,70.313599999994 -2.65888653721621,43.3091299049518,73.7810000000027 -2.65925232311509,43.3090663700378,73.1952000000019 -2.65962615612226,43.3090655320304,72.5059999999939 -2.6600355282787,43.3091557210372,71.4550000000017 -2.66051111705136,43.3092723972651,69.9731000000029 -2.66102861582527,43.3093102832943,69.4094999999943 -2.66132198313921,43.3093434759572,69.0071999999927 -2.66154108583026,43.3094256185523,68.5602999999974 -2.66171257960788,43.3095627461849,68.171199999997 -2.66181333015858,43.3096631617048,67.6779999999999 -2.6618317698764,43.3099701072038,67.1111999999994 -2.66189178452392,43.3100960030623,64.9039000000048 -2.66197258618707,43.3101516589876,63.7323000000033 -2.66192179184766,43.310180995905,63.1396999999997 -2.66165675560119,43.3104834148313,61.9651000000013 -2.66149817061419,43.3108009211862,63.6241000000009 -2.66122659642908,43.3113547976194,61.2394000000058 -2.66121033602412,43.3115395344025,60.8055000000022 -2.66105761793423,43.3117054960243,57.581600000005 -2.66087405349411,43.3119267781354,55.674199999994 -2.66091864586483,43.3121266030913,54.671199999997 -2.66115468000238,43.3124674114628,54.2335000000021 -2.66169028342252,43.3126722650018,54.7595000000001 -2.6624024102876,43.3129998297402,54.147100000002 -2.66283223438813,43.31307878749,54.5117000000027 -2.6632115992208,43.3131537214038,54.2590000000055 -2.66344897454305,43.3132727443201,53.1174000000028 -2.66364477583396,43.3135322479286,51.5549000000028 -2.66377486266687,43.3138393608231,49.9018999999971 -2.66392087573149,43.3139914091163,48.6717000000062 -2.66432471606241,43.3142329750803,47.2746999999945 -2.66466753563272,43.3145038781828,45.8916000000027 -2.66507003477891,43.314948789899,43.6190999999963 -2.66543330629327,43.3151863330336,42.235400000005 -2.66584670200388,43.3155165796779,39.8171000000002 -2.66613420062405,43.3157246190442,38.0371000000014 -2.66640728308052,43.3157918417964,36.9918999999936 -2.66668103657853,43.3157519434516,35.584400000007 -2.66699032832748,43.3156272207588,34.4723999999987 -2.66714807608461,43.3155278118363,33.3457000000053 -2.66746742626983,43.3154659529126,32.9679000000033 -2.66780136150195,43.3154890871888,31.5939000000071 -2.66812942893866,43.3156672865073,30.1616000000067 -2.66875153383248,43.3167636391891,23.8171000000002 -2.66890794040491,43.3168640545763,23.1247000000003 -2.66917582610748,43.3169460294924,22.2140000000072 -2.67003664750828,43.3169116638705,19.6842999999935 -2.6707499475731,43.3170615326107,17.0331000000006 -2.67262078796696,43.3175919394412,11.232799999998 -2.67341874526418,43.3179565517875,9.2670999999973 -2.67396926880288,43.3181778340125,7.38210000000254 -2.67450386700824,43.3179930971477,5.98080000000482 -2.67484484233729,43.3178267997646,5.23699999999371 -2.67534725390601,43.3175102993763,2.74739999999292 -2.67571873961534,43.3172341993044,4.37940000000526 -2.67629323559575,43.3169108259713,4.23189999999886 -2.67732035402022,43.3163809216909,4.81110000000626 -2.67856322262316,43.3158801868243,5.60950000000594 -2.67830086874612,43.3153824694426,6.13689999999769 -2.67853070091494,43.3152300867158,6.90799999999581</coordinates>
</LineString>
</Placemark>
</Folder>
</Document></kml>
