<?xml version="1.0" encoding="UTF-8"?>

<kml xmlns:xsd="http://www.w3.org/2001/XMLSchema" xmlns:gx="http://www.google.com/kml/ext/2.2" xmlns:atom="http://www.w3.org/2005/Atom" xmlns="http://www.opengis.net/kml/2.2">
<Document>
<name>ES36a_09a_utrera-alcala_de_guadaira</name>
<visibility>1</visibility>
<Schema name="ES36a_09a_utrera-alcala_de_guadaira" id="kml_schema_ft_ES36a_09a_utrera-alcala_de_guadaira">
<SimpleField type="xsd:string" name="id">
<displayName>id</displayName>
</SimpleField>
<SimpleField type="xsd:string" name="nombre">
<displayName>nombre</displayName>
</SimpleField>
<SimpleField type="xsd:double" name="longitud">
<displayName>longitud</displayName>
</SimpleField>
<SimpleField type="xsd:string" name="_formato">
<displayName>_formato</displayName>
</SimpleField>
</Schema>
<Folder id="kml_ft_ES36a_09a_utrera-alcala_de_guadaira">
<name>ES36a_09a_utrera-alcala_de_guadaira</name>
<Placemark id="kml_1">
<name>&lt;img height='20' src='https://nco.ign.es/iconos/icono_todos_caminos_azul.png' /&gt;&lt;img height='20' src='https://nco.ign.es/iconos/Camino Santiago_20.png' /&gt;&lt;img height='20' src='https://nco.ign.es/iconos/icono_todos_caminos_azul.png' /&gt;  Camino de Santiago </name>
<visibility>1</visibility>
<description><![CDATA[<!DOCTYPE html>
<html>
<head>
<style>
#nco {
  border-collapse: collapse;
  overflow:hidden;
}
#nco th, #nco td {
  padding: 4px;
  text-align: left;
}
#nco th {
  color: #364B5F;
  padding-right: 5px;
}
#nco td {
  color: rgb(51, 51, 51);
  font-size: 12px;
  padding-right: 5px;
}
</style>
</head>
<body>
<table id="nco">
<tr>
<td>Caminos Andaluces</td>
</tr>
<tr>
<th><b>Camino: </b></th>
<td>ES36a Vía Augusta desde Cádiz</td>
</tr>
<tr>
<th><b>Etapa: </b></th>
<td>09a Utrera-Alcalá de Guadaira</td>
</tr>
<tr>
<th><b>Longitud: </b></th>
<td>18.71 km</td>
</tr>
</table>
</body>
</html>]]></description>
<Style>
<IconStyle>
<scale>0.8</scale>
</IconStyle>
<LabelStyle>
<color>ffffffff</color>
<scale>0.75</scale>
</LabelStyle>
<LineStyle>
<color>ffff0000</color>
<width>3.0</width>
<gx:labelVisibility>1</gx:labelVisibility>
</LineStyle>
<PolyStyle>
<color>66ff0000</color>
</PolyStyle>
</Style>
<ExtendedData>
<SchemaData schemaUrl="#kml_schema_ft_ES36a_09a_utrera-alcala_de_guadaira">
<SimpleData name="id">ES36a_09a</SimpleData>
<SimpleData name="_formato">kml</SimpleData>
</SchemaData>
</ExtendedData>
<LineString>
<extrude>0</extrude>
<tessellate>1</tessellate>
<coordinates>-5.78331017876792,37.1807991341153,47.7917000000016 -5.78334119130648,37.1810333242175,45.4023000000016 -5.78327983637256,37.1814242566223,42.0 -5.78332778035758,37.1815000289128,41.0 -5.78345803517548,37.1815119311746,41.0 -5.7838994268819,37.1814941615193,40.0 -5.7845439950477,37.1816711872653,39.0 -5.78477282110341,37.1821685695403,41.0 -5.78495051684976,37.1829318253449,45.0 -5.78511195219114,37.1834052350822,45.5672999999952 -5.78540464846355,37.1840692500251,46.0 -5.78563699501684,37.1845426597901,47.0 -5.78697592047307,37.1864257381861,47.1330000000016 -5.78679671555707,37.1865506285469,48.0 -5.78752912548295,37.1873402033717,47.0 -5.78818241090025,37.1881202239186,47.1091000000015 -5.78921036835125,37.1894635075557,48.0 -5.79094458397356,37.1915842967635,49.9349999999977 -5.79144498331605,37.1921245939977,50.0 -5.7932159121857,37.1943310460619,52.0 -5.79244108830367,37.1947628818755,53.0 -5.79193314580775,37.1952111463779,52.0 -5.79220186963844,37.1968927236815,53.0 -5.79245483522245,37.1996247207947,53.0 -5.79255726202946,37.2000657767571,53.0 -5.79261191193808,37.2002852150895,52.8021000000008 -5.79326989105279,37.2017495334365,62.8723999999929 -5.79334448984892,37.2022596562735,61.5157000000036 -5.79342344816913,37.2027255221497,58.8065000000061 -5.79377951070336,37.2036443462346,53.0 -5.79399308156889,37.2042270561397,53.0 -5.79446598887044,37.2054648958598,54.0 -5.79463396215047,37.2059823944934,54.0 -5.79473035407542,37.2075317053229,55.0 -5.79478953059475,37.208247519681,55.0 -5.79491643200168,37.2088354268551,56.0 -5.79501500323949,37.2091596386107,56.0 -5.79544650359633,37.2104450876869,57.9425999999949 -5.79552060023422,37.2106537965276,58.0 -5.79567583270858,37.2115055659741,59.0 -5.79589795284066,37.2124944626966,60.0 -5.7961339878765,37.2130225226778,60.0 -5.79636868082932,37.2135804221406,60.0 -5.7965390014072,37.2141616230914,60.0 -5.79677687978602,37.2149823792913,60.0 -5.79701174072379,37.2155392727343,60.0 -5.79730292782651,37.2163937240704,61.0 -5.79760685573488,37.2173522786741,62.0 -5.79824203650599,37.2187176903758,62.3203000000067 -5.79849399597688,37.2192851456036,63.0 -5.79867018345187,37.2198993709273,63.0 -5.79902423555649,37.2210349517798,63.0 -5.79930720846424,37.2219629959533,63.505799999999 -5.79953838181776,37.2240078449285,63.0 -5.79967047997861,37.2250904512719,63.0 -5.79991489629607,37.2260424677823,63.0 -5.8002064193687,37.2269840914292,64.0 -5.80056197974468,37.2282455671821,66.0 -5.80069676027496,37.2297046895005,65.1064999999944 -5.80070128688567,37.2307259405945,67.0 -5.8007752146403,37.2318199464387,66.0 -5.80096464597753,37.2328581289776,66.0 -5.8009738662856,37.2334113343765,66.0 -5.80103052752216,37.2337637093836,66.0 -5.80123303473663,37.2343154061975,66.0 -5.80257028303825,37.2360836524787,67.0 -5.80320261435326,37.2369245250098,67.747199999998 -5.80344703067072,37.2374217398922,68.0 -5.8042552134908,37.2385491056398,69.0 -5.80634700171533,37.2413748129278,70.0 -5.80675117711783,37.2417848559919,70.0 -5.80748341995708,37.2428709829762,70.8166999999958 -5.80784266791728,37.2433856312493,71.0 -5.80839486771233,37.2444087265122,69.5298000000039 -5.80904178317598,37.2456152175665,69.0 -5.80956783121647,37.2464726862254,69.0 -5.80977804956937,37.246984149923,69.0 -5.80993730559789,37.2474015693237,69.4842000000062 -5.81081254406068,37.2489450124876,70.0 -5.81108395026084,37.2492497786117,70.523000000001 -5.81123365090967,37.2494739105863,70.581600000005 -5.81140598281545,37.2496745735022,70.0 -5.81165157233266,37.2502173858138,70.9097000000038 -5.81238917991077,37.2520521840811,69.2142000000022 -5.8127606656201,37.2527824157438,68.3381999999983 -5.81281883602635,37.2529582682286,68.0 -5.81284264138136,37.253358420195,68.0 -5.81288253915638,37.2535569033736,68.0 -5.81347681603935,37.254729364077,66.8273999999947 -5.81514984381436,37.2581567240263,60.0 -5.81519359715859,37.2583929262702,58.0 -5.81539945688573,37.2587431224875,55.7280000000028 -5.81582659861683,37.2596267426175,52.0 -5.81655498588683,37.2611648219852,50.0 -5.8185069639138,37.2653356569682,43.0 -5.81864928849583,37.2656684185181,42.6549999999988 -5.81973809782415,37.2679761235211,45.0 -5.82109965363906,37.270900066766,40.0 -5.82245182205923,37.2737675160063,40.0 -5.82633381699938,37.2783554347851,38.0 -5.82781825246365,37.2808405010715,38.0 -5.8285473098769,37.2819965336233,37.0 -5.83073364578506,37.2851890324122,36.0 -5.8326242679798,37.2879508693104,36.0 -5.83300983567952,37.2884908321387,36.0 -5.83390368184508,37.2904042530139,37.9805999999953 -5.83460742563195,37.291893046566,37.0 -5.83559565239452,37.2944745051173,36.0 -5.83609387242416,37.2958910467467,35.0 -5.83628531508929,37.2965403086489,35.0 -5.83641221739452,37.2992243620344,34.0 -5.83641355857925,37.3002209702005,32.0 -5.83763949573569,37.302337567901,34.0 -5.83837358281622,37.3033941909357,45.0 -5.83864716832923,37.3041599614142,55.6334999999963 -5.83898412100244,37.3048206231673,65.457699999999 -5.83943255280575,37.3053346015968,73.0654000000068 -5.84041021807554,37.3061156274943,84.054999999993 -5.84102427586103,37.3068482057787,84.5348999999987 -5.84142694209387,37.3076428102874,83.0 -5.8419876920538,37.309290860173,79.4560999999958 -5.84204452127531,37.3099667762496,77.7100999999966 -5.84212582599504,37.3101825265851,76.4423999999999 -5.84245925727229,37.3105744643467,76.0 -5.84307331595611,37.3119832951009,76.0503000000026 -5.84365217056227,37.313145864423,73.0 -5.84410663724767,37.313662693066,72.0 -5.84471717453557,37.3145932514461,69.4294999999984 -5.84494650364782,37.3155709169379,68.0 -5.84482563622465,37.3166974450827,69.0 -5.84494264807861,37.317035570624,69.0 -5.84550641458125,37.3178239727758,66.0 -5.84580346947941,37.3182983881984,63.5347000000038 -5.84600731698032,37.3191178029753,57.7397999999957 -5.84607973736189,37.3199388940801,53.8669999999984 -5.84603346873485,37.3209593075423,53.0 -5.84601687235998,37.3221745153906,52.0 -5.84600346141111,37.3226252941094,51.0 -5.84621703227664,37.3233707808065,49.0 -5.84640294311628,37.3241709169555,47.0 -5.84659002715566,37.3252308927494,45.0 -5.84662657241804,37.3256729545925,45.0 -5.84653386807735,37.3263901098155,43.0 -5.8499551934651,37.3297795837806,31.0 -5.85014680411519,37.3301948233686,29.0 -5.85021821748534,37.3306052013122,28.0 -5.85048979167046,37.3310408929185,26.4174999999959 -5.85082087654819,37.3314936834512,26.0 -5.85132110880406,37.3318985293226,25.0 -5.85180189433062,37.3321898840001,23.1362999999983 -5.85151322161239,37.333007287341,23.0 -5.85137274127163,37.3330007496067,23.0 -5.8512651177107,37.3331859894777,23.8127999999997 -5.8514679599968,37.3335970382066,27.4523999999947 -5.85167314868241,37.3336327451025,27.0 -5.85169577993939,37.3338007182102,28.559699999998 -5.85164330934363,37.3339026422881,30.915599999993 -5.85136117456403,37.3340835236512,35.468200000003 -5.85101500158279,37.3342999440206,40.9945000000007 -5.85075113943439,37.3344281871466,42.7402000000002 -5.85066262663281,37.3345200529086,43.0 -5.85068173739216,37.3345780556258,44.0</coordinates>
</LineString>
</Placemark>
</Folder>
</Document></kml>
