<?xml version="1.0" encoding="UTF-8"?>

<kml xmlns:xsd="http://www.w3.org/2001/XMLSchema" xmlns:gx="http://www.google.com/kml/ext/2.2" xmlns:atom="http://www.w3.org/2005/Atom" xmlns="http://www.opengis.net/kml/2.2">
<Document>
<name>ES36a_02a_san_fernando-puerto_real</name>
<visibility>1</visibility>
<Schema name="ES36a_02a_san_fernando-puerto_real" id="kml_schema_ft_ES36a_02a_san_fernando-puerto_real">
<SimpleField type="xsd:string" name="id">
<displayName>id</displayName>
</SimpleField>
<SimpleField type="xsd:string" name="nombre">
<displayName>nombre</displayName>
</SimpleField>
<SimpleField type="xsd:double" name="longitud">
<displayName>longitud</displayName>
</SimpleField>
<SimpleField type="xsd:string" name="_formato">
<displayName>_formato</displayName>
</SimpleField>
</Schema>
<Folder id="kml_ft_ES36a_02a_san_fernando-puerto_real">
<name>ES36a_02a_san_fernando-puerto_real</name>
<Placemark id="kml_1">
<name>&lt;img height='20' src='https://nco.ign.es/iconos/icono_todos_caminos_azul.png' /&gt;&lt;img height='20' src='https://nco.ign.es/iconos/Camino Santiago_20.png' /&gt;&lt;img height='20' src='https://nco.ign.es/iconos/icono_todos_caminos_azul.png' /&gt;  Camino de Santiago </name>
<visibility>1</visibility>
<description><![CDATA[<!DOCTYPE html>
<html>
<head>
<style>
#nco {
  border-collapse: collapse;
  overflow:hidden;
}
#nco th, #nco td {
  padding: 4px;
  text-align: left;
}
#nco th {
  color: #364B5F;
  padding-right: 5px;
}
#nco td {
  color: rgb(51, 51, 51);
  font-size: 12px;
  padding-right: 5px;
}
</style>
</head>
<body>
<table id="nco">
<tr>
<td>Caminos Andaluces</td>
</tr>
<tr>
<th><b>Camino: </b></th>
<td>ES36a Vía Augusta desde Cádiz</td>
</tr>
<tr>
<th><b>Etapa: </b></th>
<td>02a San Fernando-Puerto Real</td>
</tr>
<tr>
<th><b>Longitud: </b></th>
<td>12.23 km</td>
</tr>
</table>
</body>
</html>]]></description>
<Style>
<IconStyle>
<scale>0.8</scale>
</IconStyle>
<LabelStyle>
<color>ffffffff</color>
<scale>0.75</scale>
</LabelStyle>
<LineStyle>
<color>ffff0000</color>
<width>3.0</width>
<gx:labelVisibility>1</gx:labelVisibility>
</LineStyle>
<PolyStyle>
<color>66ff0000</color>
</PolyStyle>
</Style>
<ExtendedData>
<SchemaData schemaUrl="#kml_schema_ft_ES36a_02a_san_fernando-puerto_real">
<SimpleData name="id">ES36a_02a</SimpleData>
<SimpleData name="_formato">kml</SimpleData>
</SchemaData>
</ExtendedData>
<LineString>
<extrude>0</extrude>
<tessellate>1</tessellate>
<coordinates>-6.19576351710795,36.466154214244,12.0 -6.19393458581704,36.4668443797627,8.0 -6.19274217648194,36.4673493054838,5.0 -6.1922037227074,36.4676016013159,4.0 -6.19168706206162,36.4676537368281,3.0 -6.1916404592613,36.4676207114617,3.0 -6.19153819954094,36.4676408286542,3.0 -6.19106529313772,36.4676768708306,3.0 -6.19081316478357,36.4677177741402,3.0 -6.19059909175976,36.4677472784021,3.0 -6.1906190406473,36.4678741803372,3.0 -6.19070319482309,36.4679506235127,3.0 -6.19080528655853,36.4680356156712,3.41839999999502 -6.19032802063122,36.4686003889062,3.06130000000121 -6.19036104539601,36.4686860514701,4.0 -6.19061434605161,36.4687462338815,4.0 -6.19060730595472,36.4688206650144,4.0 -6.19044989326917,36.4688166419266,3.41640000000189 -6.1903305350157,36.4688779974256,3.22030000000086 -6.1902519126654,36.4689594690039,3.80259999999544 -6.19029499586643,36.4699594303318,3.29720000000088 -6.19030019262033,36.4702641967303,4.0 -6.19006902016514,36.4703382926599,3.85430000000633 -6.18988143306919,36.4706757479034,4.08440000000701 -6.18964020127943,36.4710839464629,5.00960000000487 -6.18936929813582,36.4715357314314,3.0 -6.18913242587011,36.4719446001636,9.40570000000298 -6.18891768180483,36.4723199420466,7.28660000000673 -6.18857938794693,36.4729207570341,3.58340000000317 -6.18834804750675,36.4731893132719,3.0 -6.18841309092322,36.4732317255857,3.07580000000598 -6.1881026250762,36.4735995233778,3.0 -6.18806473952738,36.4736732838324,3.0 -6.18763390931376,36.4742020144286,3.0 -6.18745118390014,36.4744467660733,3.0 -6.18744498103308,36.4745523779347,3.0 -6.18734674486689,36.4745743389427,3.0 -6.18678784004657,36.4752396941446,3.0 -6.18679773049784,36.4753211662599,3.0 -6.18670636824018,36.4753437973878,3.0 -6.18646161595283,36.4756190586971,3.0 -6.18640361353154,36.4757409317948,3.0 -6.1863318641915,36.4758515730052,3.0 -6.18625726539534,36.4758685047009,3.0 -6.18568427858465,36.4765543118373,3.0 -6.18487039595409,36.4772473275274,3.0 -6.18438273651893,36.477781925016,3.0 -6.18430478521017,36.4779153656023,3.0 -6.18404360453287,36.4782496356533,3.0 -6.18392592253571,36.4784357136512,2.99030000000494 -6.18394436315186,36.4786725866296,5.59070000000065 -6.18399633069105,36.4789077823942,2.40609999999288 -6.18386792011446,36.4789597506706,3.76149999999325 -6.18353247661094,36.4791007337754,4.42389999999432 -6.18293870278455,36.4793153106335,5.33179999999993 -6.18233956421929,36.4795587214178,6.0 -6.18188811497494,36.4797637423499,6.0 -6.18154177400873,36.4799216576914,6.0 -6.18111647651891,36.4801107530651,6.0 -6.1807421404552,36.4802907968281,6.0 -6.18046436430135,36.4804207162182,6.09579999999551 -6.18034534111946,36.480474024789,6.0 -6.18014786357223,36.4805454391767,6.0 -6.17975207034965,36.4807271583801,0.187999999994645 -6.17920909086267,36.4809846509122,0.0 -6.17885235728694,36.4811439065078,2.24210000000312 -6.17836922446253,36.4813532866043,5.40350000000035 -6.17784334350867,36.4815827833205,5.0 -6.17732936523235,36.4818198236389,4.90320000000065 -6.17679242062744,36.4820805007015,4.63009999999485 -6.17631951332592,36.4823088237226,4.33460000000196 -6.17611281547061,36.4824337141,2.68499999999767 -6.1759230490618,36.482551731064,2.0 -6.17572858895562,36.4826088958612,3.02479999999923 -6.17545584246906,36.4826925472877,4.32289999999921 -6.17518007764312,36.4828409067157,4.22590000000491 -6.17481345271778,36.4829963073233,4.69439999999304 -6.1743955312948,36.4832046813431,4.21279999999388 -6.17355382065335,36.4835981280022,4.0 -6.17304436898774,36.4838341625365,3.41599999999744 -6.17204491058916,36.4842815879893,3.07589999999618 -6.1712538263022,36.484641339364,3.0 -6.17031471762268,36.4850678111188,2.95200000000477 -6.16978380789987,36.4853065272381,2.66250000000582 -6.16879088833826,36.4857551272328,2.77129999999306 -6.16827556887721,36.4859869704934,3.0 -6.16696145399078,36.4865899646961,3.06269999999495 -6.16634353973776,36.4868808167596,3.27129999999306 -6.16553066322031,36.487260516495,-0.156400000007125 -6.16505926508845,36.48748448146,3.9085999999952 -6.16360550709112,36.4881436338232,4.11909999999625 -6.16272792222882,36.4885494855926,-1.0 -6.16196433088112,36.4888976702891,3.88400000000547 -6.16116167988654,36.4892736818881,3.6698999999935 -6.16107165791531,36.4893559921851,2.97209999999905 -6.16068005533348,36.4895419034008,3.01989999999932 -6.16001470015201,36.4898580687306,3.0 -6.15883117515507,36.4904203263793,2.83770000000368 -6.15773549281649,36.4909302817444,2.0 -6.15712579365676,36.4912194571765,1.96730000000389 -6.15671373913088,36.4914105644604,2.2164000000048 -6.15622088294182,36.4916370436644,2.14629999999306 -6.15560732821287,36.4918906802607,2.92919999999867 -6.15493241675338,36.4922078514019,2.23450000000594 -6.1540073900643,36.4926393519663,2.71180000000459 -6.15325419222443,36.4929850209721,2.37729999999283 -6.15222891804122,36.4934579283436,2.17479999999341 -6.15165224274795,36.493729166337,2.39539999999397 -6.15069754380668,36.4941604995481,3.0 -6.15028297489633,36.4943583121412,3.0 -6.14984728389869,36.4945822768047,3.0 -6.14941662167004,36.4948302138173,3.0 -6.1491844431017,36.4949928221211,2.0 -6.14875026037542,36.4952841770323,2.45119999999588 -6.14843493284607,36.495504286301,2.88439999999537 -6.14802472256147,36.495831180193,2.8917999999976 -6.14767603609404,36.4961555603358,2.95660000000498 -6.14722793936236,36.4965842102492,3.0 -6.14680750265653,36.4970762281333,3.0 -6.1464266295525,36.4975798130109,3.0 -6.14613879496243,36.4980533906298,3.0 -6.14595355426599,36.498413141593,3.0 -6.14570042159535,36.4989366751979,3.0 -6.14546103404684,36.4995431900276,2.79249999999593 -6.14537620882952,36.4998264985836,2.53010000000359 -6.14524913943762,36.5003921088484,3.0 -6.14515945343631,36.5009404529886,3.0 -6.14513011625573,36.5013127775459,3.0 -6.14512508748678,36.5017959102715,3.0 -6.14512458443024,36.5023600121357,3.0 -6.14518811957532,36.5029221024807,3.14620000000286 -6.14531351271089,36.5034716201427,3.0 -6.14544024703117,36.5039339658742,2.65230000000156 -6.14561894889063,36.504409052761,2.50539999999455 -6.14592656528159,36.5050908366019,2.70100000000093 -6.14620870006119,36.5056053172999,2.8064000000013 -6.14643333457777,36.5059454552035,3.0 -6.14672150423947,36.5063234794455,3.0 -6.14696877091129,36.5066248925536,2.92789999999513 -6.1475218088345,36.5072263780136,2.86280000000261 -6.14783713636385,36.5075336585676,2.76009999999951 -6.148105357138,36.5077611433593,2.0 -6.14825204034582,36.507907826564,2.0 -6.14847365742135,36.508172191381,2.38610000000335 -6.14905083577116,36.5087260675296,2.14890000000014 -6.1495247482875,36.5091823789125,2.33179999999993 -6.15007242147185,36.5096894836325,2.0 -6.15022178704907,36.5099246798072,3.25070000000414 -6.15060165493834,36.5102633092022,4.0 -6.15098135574092,36.5106426740835,4.0 -6.15186480839867,36.5115150621411,3.87510000000475 -6.15261733519701,36.5122268533782,3.57289999999921 -6.15373799609037,36.5132945402337,2.49300000000221 -6.15428097557735,36.5138130449181,2.12859999999637 -6.15511782453644,36.5146391652422,2.0 -6.15603078146139,36.5155087041125,2.01579999999376 -6.15657443198986,36.5160536952154,2.0 -6.15733969959391,36.5167762156387,2.23470000000088 -6.15809222639225,36.5175121461019,2.55599999999686 -6.15871181690159,36.5180041638254,2.0 -6.15884559221705,36.5181117875701,2.0 -6.1589366194031,36.5182303075099,2.648199999996 -6.15920634934694,36.5184646655422,2.33179999999993 -6.15978972966551,36.5189120916211,2.48070000000007 -6.16052851044337,36.5194668063261,3.33550000000105 -6.16124650420556,36.5199656973957,3.0 -6.16231821500076,36.5206887198473,3.40069999999832 -6.16243254358698,36.5207914820387,3.77569999999832 -6.16283839524583,36.5210558476077,5.0 -6.16303838807584,36.5211819114266,6.0 -6.16333276060456,36.5213979967356,6.28290000000561 -6.16384791208065,36.5218281557364,7.23309999999765 -6.16418637302518,36.5220340155325,7.0 -6.16428628544772,36.5220222808624,7.00689999999304 -6.16437111066504,36.5219661219048,8.20329999999376 -6.16444135083542,36.5218641979706,9.99379999999655 -6.16464369006498,36.5218335202739,9.98570000000473 -6.164999082456,36.5218031775328,9.0 -6.16514492753563,36.5217815526104,9.0 -6.16524836045576,36.5217681416181,9.0 -6.16531323678557,36.5218035132226,9.0 -6.16532798891917,36.5218772739787,9.0 -6.16599384715722,36.5218819678557,9.0 -6.16652375076691,36.5219810416586,9.0 -6.16655727858825,36.5218740888993,9.0 -6.16669792691397,36.5217369607091,9.0 -6.16679498898211,36.5217014215901,9.0 -6.1668912138204,36.5216935426151,10.0 -6.16700302802212,36.5217056123034,10.0 -6.16709807876233,36.5217599269601,10.0 -6.16719245935935,36.5218070332728,10.0 -6.16744743627129,36.5217042717083,10.0 -6.16771766927168,36.5216454306057,10.0 -6.16782143726342,36.5216311814464,10.0 -6.16800550386175,36.5216512976086,10.0 -6.16819158178802,36.5216975658448,10.0893000000069 -6.16852719327649,36.5217599269601,11.0 -6.16872752117811,36.5218045188481,11.0 -6.16941399844686,36.5219830536269,11.0 -6.169642321446,36.5220323392542,12.3539000000019 -6.17022285230848,36.5221976300725,12.3871999999974 -6.170470118082,36.5222660266677,12.0 -6.17076784402169,36.5223533660808,12.165599999993 -6.17106154550887,36.5224088541049,13.0 -6.17124041535329,36.5224470755074,13.3236000000034 -6.17176210476803,36.5225156393645,13.0 -6.17207709722579,36.5225862151135,13.0 -6.17256995251653,36.5227109380269,13.0 -6.17296943422169,36.5228398513912,12.2638000000006 -6.17341669282522,36.5230158715612,12.0207999999984 -6.17395296728693,36.5232302805491,11.3055000000022 -6.17430919780608,36.5233362279937,11.0 -6.17496382440815,36.5235539900282,10.0 -6.17520891086879,36.5235881877338,10.0 -6.17537353163618,36.523592881507,10.0 -6.1755879406299,36.5235635450586,10.0 -6.17565801371362,36.523586009049,10.0 -6.17569288271969,36.5236247330318,10.0 -6.17574552040208,36.5236329474919,10.0 -6.17589622716403,36.5236339530936,10.0 -6.17604022890071,36.5236398206676,10.0 -6.17613159115838,36.5237182748825,9.92840000000433 -6.17633677984399,36.5237150898788,9.0 -6.17644507444645,36.523725483732,9.0 -6.17662059177824,36.52377057837,9.0 -6.17699895049779,36.5238999945726,9.0 -6.17755182043604,36.5240547244453,8.0 -6.17760580020146,36.52404366072,8.0 -6.17811676103676,36.5242133103506,8.0 -6.17957135626392,36.5246971137072,7.0 -6.1797953206373,36.5248168074516,7.0 -6.18015674880872,36.5249641614458,7.0 -6.18047442273759,36.5251031333795,6.94719999999506 -6.18086904276043,36.5253140217453,6.0 -6.18162123448719,36.5258020159285,6.0 -6.18174210191035,36.5257596035243,6.0 -6.18185089867102,36.5256754492704,6.0 -6.18202323057683,36.5255138467431,6.31399999999849 -6.18191393075956,36.5254281834933,6.0 -6.18218097833397,36.5252057280061,5.1481000000058 -6.18316886912666,36.5258948874118,5.52169999999751 -6.18335142745363,36.5259929562796,5.39280000000144 -6.1835118566819,36.5259947999469,5.32090000000608 -6.18365334313577,36.5259827302058,5.34489999999641 -6.18392709663378,36.5260172632313,5.25299999999697 -6.18436094339015,36.5261176787539,5.03340000000026 -6.18471784495083,36.5261190199944,5.00119999999879 -6.18510793926129,36.5261327659035,5.53770000000077 -6.18539107925567,36.5261188525198,5.39690000000701 -6.18564756623561,36.5260935385866,5.78140000000712 -6.18562946069107,36.5262202734787,6.0 -6.18556307608987,36.5263879115355,6.0 -6.18549870371493,36.5265989674818,6.3347999999969 -6.18668826269564,36.5269313938308,6.0 -6.18785116866184,36.5272530911509,5.0 -6.18917366482986,36.5276260860728,6.0 -6.19066178787838,36.5280331110756,6.0 -6.19178496315623,36.5283325130093,6.0 -6.19223976491322,36.5284701434668,6.0 -6.19264528150045,36.5287065133149,6.0</coordinates>
</LineString>
</Placemark>
</Folder>
</Document></kml>
