<?xml version="1.0" encoding="UTF-8"?>

<kml xmlns:xsd="http://www.w3.org/2001/XMLSchema" xmlns:gx="http://www.google.com/kml/ext/2.2" xmlns:atom="http://www.w3.org/2005/Atom" xmlns="http://www.opengis.net/kml/2.2">
<Document>
<name>ES36a_03a_puerto_real-el_puerto_de_santa_maria</name>
<visibility>1</visibility>
<Schema name="ES36a_03a_puerto_real-el_puerto_de_santa_maria" id="kml_schema_ft_ES36a_03a_puerto_real-el_puerto_de_santa_maria">
<SimpleField type="xsd:string" name="id">
<displayName>id</displayName>
</SimpleField>
<SimpleField type="xsd:string" name="nombre">
<displayName>nombre</displayName>
</SimpleField>
<SimpleField type="xsd:double" name="longitud">
<displayName>longitud</displayName>
</SimpleField>
<SimpleField type="xsd:string" name="_formato">
<displayName>_formato</displayName>
</SimpleField>
</Schema>
<Folder id="kml_ft_ES36a_03a_puerto_real-el_puerto_de_santa_maria">
<name>ES36a_03a_puerto_real-el_puerto_de_santa_maria</name>
<Placemark id="kml_1">
<name>&lt;img height='20' src='https://nco.ign.es/iconos/icono_todos_caminos_azul.png' /&gt;&lt;img height='20' src='https://nco.ign.es/iconos/Camino Santiago_20.png' /&gt;&lt;img height='20' src='https://nco.ign.es/iconos/icono_todos_caminos_azul.png' /&gt;  Camino de Santiago </name>
<visibility>1</visibility>
<description><![CDATA[<!DOCTYPE html>
<html>
<head>
<style>
#nco {
  border-collapse: collapse;
  overflow:hidden;
}
#nco th, #nco td {
  padding: 4px;
  text-align: left;
}
#nco th {
  color: #364B5F;
  padding-right: 5px;
}
#nco td {
  color: rgb(51, 51, 51);
  font-size: 12px;
  padding-right: 5px;
}
</style>
</head>
<body>
<table id="nco">
<tr>
<td>Caminos Andaluces</td>
</tr>
<tr>
<th><b>Camino: </b></th>
<td>ES36a Vía Augusta desde Cádiz</td>
</tr>
<tr>
<th><b>Etapa: </b></th>
<td>03a Puerto Real-El Puerto de Santa María</td>
</tr>
<tr>
<th><b>Longitud: </b></th>
<td>11.89 km</td>
</tr>
</table>
</body>
</html>]]></description>
<Style>
<IconStyle>
<scale>0.8</scale>
</IconStyle>
<LabelStyle>
<color>ffffffff</color>
<scale>0.75</scale>
</LabelStyle>
<LineStyle>
<color>ffff0000</color>
<width>3.0</width>
<gx:labelVisibility>1</gx:labelVisibility>
</LineStyle>
<PolyStyle>
<color>66ff0000</color>
</PolyStyle>
</Style>
<ExtendedData>
<SchemaData schemaUrl="#kml_schema_ft_ES36a_03a_puerto_real-el_puerto_de_santa_maria">
<SimpleData name="id">ES36a_03a</SimpleData>
<SimpleData name="_formato">kml</SimpleData>
</SchemaData>
</ExtendedData>
<LineString>
<extrude>0</extrude>
<tessellate>1</tessellate>
<coordinates>-6.1926791443934,36.5286500192184,6.0 -6.19301810839451,36.5286818708265,6.0 -6.19309371330379,36.5285271408247,6.0 -6.19326101644062,36.5282372940976,6.0 -6.19330074623068,36.5281673890535,6.0 -6.1933223713745,36.5281018425053,6.0 -6.19338355922177,36.527956500526,6.0 -6.19346033822912,36.5277534912258,6.74629999999888 -6.19352219621958,36.5276116690999,6.73230000000331 -6.19355019221539,36.5275543368463,7.0 -6.19359428063124,36.5274336374541,7.0 -6.19366401774504,36.5272421946333,4.35610000000452 -6.19381405436379,36.527234651167,3.8015000000014 -6.19386266939035,36.5271419473208,3.0 -6.19392955704809,36.5269005485048,3.0 -6.19353225465582,36.5267974508191,3.0 -6.19312338555591,36.5267022329054,3.0 -6.19290947872047,36.5265919270954,3.0 -6.19302380820499,36.5262630205789,3.0 -6.19314534577136,36.525939647279,3.0 -6.19353963072262,36.5260303392593,3.0 -6.19433708496326,36.5262139029554,3.0 -6.19493236795931,36.5263624302163,3.0 -6.19581833500153,36.5265753306074,3.0 -6.19637556356553,36.5267178230827,3.0 -6.19679566430141,36.5268572978943,3.0 -6.19702784376808,36.5270090102317,3.0 -6.19720067873044,36.5271776543005,3.0 -6.19740553234443,36.5274492282059,3.0 -6.19762346183575,36.5277355537745,3.0 -6.19787123066582,36.5279412455396,3.0 -6.1980306546793,36.5280735118671,3.0 -6.19826870014475,36.5282750130981,4.0 -6.1983650920697,36.5283636934255,4.0 -6.19850289093932,36.5284842253407,4.0 -6.19858168037628,36.5285452455618,4.0 -6.19876340057509,36.5286107917342,4.0 -6.19881587117082,36.5286087806601,4.0 -6.199047211611,36.5286785178363,4.0 -6.19931744371309,36.5287566370563,4.0 -6.19941618293585,36.5287908353494,4.0 -6.20006645091217,36.5289675255679,4.0 -6.20097655838102,36.5292282027262,4.0 -6.20163436951074,36.5294273571271,4.0 -6.20219444842913,36.5295986833366,4.0 -6.20233392355511,36.5295606293254,4.0 -6.20242964443852,36.5295153669861,4.0 -6.20258621899591,36.5294779835251,4.0 -6.20274078132707,36.5294774811232,4.0 -6.20293792380269,36.5295071524289,4.0 -6.20310086741543,36.5295519123715,4.0 -6.20317110758581,36.5295333040247,4.0 -6.20330739728578,36.5294734575763,4.0 -6.20356321322418,36.529613770529,4.78029999999853 -6.20356036376809,36.5296011975079,4.49959999999555 -6.20359640597393,36.5296759642928,5.0 -6.20356371628075,36.5298389086849,5.0 -6.20355583715738,36.5299098191822,5.0 -6.203576792158,36.5299676542542,5.0 -6.20415380252289,36.529706641767,6.68439999999828 -6.20455529555596,36.5295255925929,7.60490000000573 -6.20519818746548,36.5292300470382,9.59619999999995 -6.20558291703705,36.5290426279018,6.26769999999669 -6.20605867379466,36.5288449826159,9.9204999999929 -6.20628682880884,36.5287539546667,10.0 -6.20640652213393,36.5287418846344,10.0 -6.20652068363349,36.5287428908916,10.0 -6.20665328574921,36.5287812802428,11.0 -6.20676929149005,36.5288716368416,8.22280000000319 -6.20712183442498,36.5291884731314,7.03170000000682 -6.20738284621899,36.5294709426789,7.42849999999453 -6.20771594332299,36.52989674381,6.32529999999679 -6.20773807152336,36.5300112402235,5.94250000000466 -6.2078232318123,36.530037727303,5.0 -6.20787000259758,36.5300427563389,5.0 -6.20795851539915,36.5301627854056,4.74039999999513 -6.20793018523002,36.5302053650268,4.48129999999946 -6.20793554907059,36.5302695707895,4.0 -6.20798584035346,36.5302811374648,3.96289999999863 -6.20806697798656,36.5303175150228,4.0 -6.20819739989109,36.5304092131586,3.0 -6.20842572289022,36.5305793656606,3.0 -6.2087780978402,36.5307989717915,3.0 -6.20940422628818,36.5311324036404,3.0 -6.20976397730495,36.5313287077056,3.0 -6.20984913759389,36.5313880517727,3.44800000000396 -6.20977269455645,36.5315392614969,3.0 -6.20976582154623,36.5315598810803,3.0 -6.2097911351726,36.5316545964011,3.0 -6.2098375708863,36.531807817317,3.12099999999919 -6.20982784752165,36.5319529918157,3.22479999999632 -6.20981108406015,36.5320522338969,3.0 -6.20976984510039,36.5321668981901,3.0 -6.20982835057822,36.5322922913817,3.0 -6.20989423212282,36.5323704105609,3.0 -6.20991636032322,36.5325043540275,3.0 -6.20987897783097,36.5326644477993,2.0 -6.20972123007384,36.5331024862076,2.0 -6.20956683572764,36.5335348249358,2.0 -6.20935728751794,36.5340248308803,2.0 -6.20908286387673,36.5346425768739,2.0 -6.20889309836625,36.5350846388818,2.0 -6.20874624717348,36.5354933403194,2.0 -6.20856922157033,36.5359674207428,2.0 -6.208436284383,36.5364601092751,2.0 -6.20835196222225,36.5367067046243,2.0 -6.20827786648266,36.5369030089758,2.0 -6.20825473216914,36.5369752605445,2.0 -6.20823260396874,36.5372320824475,2.0 -6.20820108837364,36.5375004705366,2.0 -6.20821751676356,36.537590492876,2.0 -6.20826864617459,36.5376893993196,2.0 -6.20832849283711,36.5378129481107,2.0 -6.20833251639128,36.5378825181997,2.0 -6.20826847818963,36.5381393392547,2.0 -6.2081621958134,36.5385958178537,2.0 -6.20807820962254,36.5388556570817,2.0 -6.20805323106775,36.5389305910277,2.0 -6.20804501687282,36.5391081198529,2.0 -6.20804484888783,36.5392797811616,2.0 -6.2080292586261,36.5394331702942,2.0 -6.20791576816804,36.5396715513453,2.0 -6.20784435389958,36.5398849549662,2.0 -6.20778333403728,36.5400566159937,2.0 -6.20764888857858,36.5402805805114,2.0 -6.20774209507753,36.5406223948833,2.0 -6.20774645370328,36.5410067886355,2.0 -6.20773991576467,36.5412208626691,2.0 -6.20772080500528,36.5412994845364,2.0 -6.20762374293717,36.5415016564381,2.00269999999728 -6.20752533878599,36.5417728942424,2.0 -6.20741503285563,36.5421512537175,2.0 -6.20730707422309,36.5425510702409,2.0 -6.20721001215497,36.5428591891629,2.0 -6.2070779130958,36.5429983288579,2.0 -6.20691580671288,36.5432107258881,2.0 -6.20690306680554,36.543254982804,2.0 -6.20690105457931,36.5433631090939,2.0 -6.20689736699506,36.5435154919993,2.0 -6.20690088749265,36.5436702223251,2.0 -6.20678873732102,36.5439022335152,2.0 -6.20671497665302,36.5441427940487,2.0 -6.20666904399593,36.544416881972,2.0 -6.20660601190739,36.5446621362855,2.0 -6.20651448166477,36.5449625441181,2.0 -6.20633980246114,36.5455408950655,2.88490000000456 -6.20672704641718,36.5457365289103,3.0 -6.20711429037322,36.545908861106,3.19530000000668 -6.20718402748706,36.5460070965643,3.0 -6.20720548554423,36.5461051651881,3.0 -6.20719911559058,36.546178255417,3.0 -6.20717044945154,36.5462543629431,3.0 -6.207107417363,36.5463599750198,3.0 -6.20705360558254,36.5464362505192,3.0 -6.20701085745309,36.5465477296268,3.0 -6.20696576292417,36.5466659144381,3.0 -6.20694396979535,36.5467515772583,3.01290000000154 -6.20686132478922,36.5468608771604,3.0 -6.206774320259,36.546959616584,3.0 -6.20678504973677,36.5470063871241,3.0 -6.20680298639805,36.5470405852853,3.0 -6.20693257107271,36.5470722691064,3.15499999999884 -6.20714614193828,36.5471096520004,3.0 -6.2074351497281,36.5471857600529,2.0 -6.20762089258278,36.547245942085,2.0 -6.20782457299703,36.547305286205,1.64930000000459 -6.20846562066524,36.5475032667972,0.0 -6.21002532506888,36.5479848908004,0.098599999997532 -6.210846081608,36.5482443946511,2.0 -6.21084356722352,36.5482790952661,2.0 -6.21185425635978,36.548589393153,2.0 -6.21230553851748,36.5487268569379,2.77730000000156 -6.21302420242287,36.5489456241997,2.49159999999392 -6.21366105945029,36.5491410906627,2.77180000000226 -6.21376063680124,36.5491861849149,3.0 -6.21381780109434,36.5492285974615,3.0 -6.2139877866006,36.5492839182648,3.0 -6.21412122594618,36.5492892823413,3.0 -6.21470812676231,36.5494532325271,2.23500000000058 -6.21508011552821,36.5495645441897,2.81040000000212 -6.21526200281368,36.5495968981145,2.94999999999709 -6.21535101867179,36.549707371731,3.0 -6.21535101867179,36.5502347612068,3.0 -6.21534967838539,36.5506996217256,3.0 -6.21535185679999,36.551569997905,3.0 -6.21534464871814,36.5526678599175,3.0 -6.21535235985653,36.5536270846575,3.0 -6.21533609945157,36.5546764990986,3.0 -6.21534112822052,36.5557832460136,3.0 -6.21533911689262,36.5569919161853,3.0 -6.21533224388236,36.5581083856272,3.0 -6.21532687914349,36.559206750042,3.0 -6.21533375215375,36.5602690723599,3.0 -6.21532034120485,36.5612031521242,2.98489999999583 -6.21531782682037,36.5623117421576,3.0 -6.21533241096902,36.5634132922369,3.0 -6.21533174082581,36.5644434283593,3.0 -6.21532805234327,36.5655645917397,3.0 -6.21532218544612,36.5666450184082,3.0 -6.21530827144071,36.567715890492,3.0 -6.21532084426142,36.5687684900837,3.0 -6.21531246208151,36.5699976126176,3.0 -6.21530659518436,36.5712084621296,3.0 -6.21531480937932,36.5721363386709,3.0 -6.21532570594375,36.5722307193067,3.0 -6.21566936364219,36.5722914041578,2.7274000000034 -6.21595719823227,36.5723782404925,2.0 -6.21619826203706,36.5724687647334,3.0 -6.21639138095854,36.572532467902,3.0 -6.21672464514917,36.5726152804997,3.0 -6.21654828968922,36.5730620361521,3.0 -6.21621804293965,36.5739947744787,3.0 -6.21611192854838,36.5743769894777,2.93379999999888 -6.21591545621597,36.5748510694798,2.77619999999297 -6.21576894099311,36.5752111558926,3.0 -6.21564405001581,36.5754285828128,3.0 -6.21549552346505,36.5756763516532,3.0 -6.21489822824274,36.5765963494655,3.0 -6.21445549624992,36.5772202982898,3.0 -6.21430562851442,36.5774489567072,3.0 -6.21421074486087,36.5775966461083,3.0 -6.21412642270009,36.5777532198803,3.0 -6.21406523485282,36.5778695607021,3.0 -6.21413983364895,36.5779597495522,3.0 -6.21411569412065,36.5780418926523,3.0 -6.21410479755626,36.5781005660356,3.0 -6.2141106653517,36.5781521986339,3.0 -6.21413145236737,36.5782376938128,3.0 -6.21407194077642,36.5783671104584,3.0 -6.21400773548811,36.5784013084462,3.0 -6.21395140842484,36.5784539471747,2.94040000000678 -6.21393816546093,36.5785520150162,3.0 -6.21391419301925,36.578661315383,3.0 -6.21388334756735,36.5786960160439,3.0 -6.21379265545289,36.578703894981,3.0 -6.21379030905337,36.5789062344972,3.0 -6.21388519180863,36.5791114236492,3.0 -6.2143155189657,36.5796807218618,3.0 -6.21483670532389,36.5803789350131,3.0 -6.21545931327425,36.5811968406385,3.0 -6.21624134523809,36.5821116417072,3.0 -6.21695699170247,36.5829511728618,3.0 -6.21705673614005,36.5830678492095,3.0 -6.21733920688956,36.5833255090628,3.0 -6.21760306903796,36.5836205520399,3.0 -6.21772695300384,36.5837777966996,3.0 -6.21777942359957,36.5838121625256,3.0 -6.21786139936083,36.583835799211,3.0 -6.21792593972073,36.5838513894072,3.0 -6.218024007902,36.5838250700841,3.0 -6.21809760148334,36.5838054569998,3.0 -6.21823975808042,36.5839593485265,3.0 -6.21818996985409,36.5840205363061,3.0 -6.21815191542205,36.5840706602465,3.0 -6.21814034871445,36.5841829773414,3.0 -6.21813833738652,36.5842637793592,3.0 -6.21819298729514,36.5843655351912,3.0 -6.21824461976274,36.5844498578226,3.0 -6.21830832199448,36.5844921024172,3.0 -6.21851585797795,36.5847033264861,3.0 -6.21864426855454,36.5848161468667,3.0 -6.21867259962196,36.5849110299148,3.0 -6.2187745233724,36.5850295498874,3.0 -6.21908314497818,36.5853899718514,3.0 -6.21968898946704,36.5860813111862,3.0 -6.22031930855581,36.5868157337449,3.0 -6.22061502226923,36.5871692820056,3.0 -6.22070588147032,36.5871697847539,3.0 -6.22073857116354,36.5872286257553,3.0 -6.22075349128209,36.5872988661682,3.0 -6.22086044380149,36.5874264391269,3.0 -6.22112195955037,36.5877457893144,3.0 -6.2220352515469,36.5888069386702,3.0 -6.22259817992139,36.5894686056153,3.0 -6.22291032202472,36.5898454563217,3.0 -6.22288014761435,36.5898176279643,3.0 -6.22307058416637,36.5900890344439,3.0 -6.22318843414848,36.5903430060701,3.0 -6.22326873275513,36.5905901045892,3.0 -6.22331567152533,36.5907455051897,3.0 -6.22334819323358,36.5909396296389,3.0 -6.22335875382806,36.591118499542,3.0 -6.22337685937259,36.5912588123818,3.0 -6.22334148730998,36.5915265310275,3.0 -6.22330511003256,36.5917421131756,3.48279999999795 -6.22325833924728,36.5919613839581,3.0 -6.22321307673336,36.5921404209883,3.53879999999481 -6.22315222395771,36.5922612883657,3.0 -6.22321676431761,36.5923243203043,3.0 -6.22308433018685,36.5924943054846,3.11350000000675 -6.22301526411454,36.5925373880998,3.0 -6.22295474641048,36.5926673080077,3.45930000000226 -6.22281460114134,36.5929992309546,3.12410000000091 -6.22270597146727,36.5932468323325,3.0 -6.22251385865894,36.5937001256656,3.925900000002 -6.22251167934604,36.5937532667648,3.22259999999369 -6.2225220728539,36.5938236750588,3.0 -6.2225395064586,36.5938935798627,3.0 -6.22259197795266,36.5939596295775,3.0 -6.22268753085112,36.5940473041431,3.0 -6.22268283715375,36.5941470492479,3.0 -6.22262483473249,36.5942177918366,3.0 -6.22255140913611,36.5943063049069,3.0 -6.22246608176054,36.59436615164,3.0 -6.22237371249146,36.5943892859984,3.0 -6.22227262686918,36.5944316982493,3.0 -6.22219048402126,36.5945091473373,3.4719000000041 -6.22215863335454,36.5945971573735,3.83629999999539 -6.22212124996399,36.5947158449441,3.85830000000715 -6.22207615543507,36.5948155891847,3.0 -6.22189896184696,36.5951485183809,3.0 -6.222186964422,36.5953273886255,3.0 -6.22144667447445,36.5966800601502,3.0 -6.22087134036588,36.5980387667759,3.0 -6.22075684379473,36.5986062212071,3.0 -6.22113386132958,36.5989351270983,3.0 -6.22094292172099,36.5993128157543,3.0 -6.22211437695377,36.599885970431,3.0 -6.22243138073943,36.6001600589123,3.0 -6.22209057249705,36.6004628132857,3.0 -6.22170131631478,36.6008539126503,3.0 -6.2210193647584,36.601583641169,3.0 -6.22031377673029,36.6021874731106,4.0 -6.21992133602034,36.6025079975602,4.0 -6.2194192595232,36.6028959120272,4.079899999997 -6.21928229968003,36.6032462755654,5.0 -6.21917383709262,36.6035733371657,5.0 -6.21906437018871,36.6038578187003,6.0 -6.21903821843418,36.603939459004,6.0 -6.21897853885828,36.6040891594726,6.0 -6.21924810081716,36.6042621619595,6.0 -6.21972218131846,36.6046011259993,7.0 -6.22015334660369,36.6049885374042,7.0 -6.22033925744332,36.6051747836797,8.0</coordinates>
</LineString>
</Placemark>
</Folder>
</Document></kml>
