<?xml version="1.0" encoding="UTF-8"?>

<kml xmlns:xsd="http://www.w3.org/2001/XMLSchema" xmlns:gx="http://www.google.com/kml/ext/2.2" xmlns:atom="http://www.w3.org/2005/Atom" xmlns="http://www.opengis.net/kml/2.2">
<Document>
<name>FR03a_28a_arzacq_arraziguet-artherz_de_bearn</name>
<visibility>1</visibility>
<Schema name="FR03a_28a_arzacq_arraziguet-artherz_de_bearn" id="kml_schema_ft_FR03a_28a_arzacq_arraziguet-artherz_de_bearn">
<SimpleField type="xsd:string" name="id">
<displayName>id</displayName>
</SimpleField>
<SimpleField type="xsd:string" name="nombre">
<displayName>nombre</displayName>
</SimpleField>
<SimpleField type="xsd:double" name="longitud">
<displayName>longitud</displayName>
</SimpleField>
<SimpleField type="xsd:string" name="_formato">
<displayName>_formato</displayName>
</SimpleField>
</Schema>
<Folder id="kml_ft_FR03a_28a_arzacq_arraziguet-artherz_de_bearn">
<name>FR03a_28a_arzacq_arraziguet-artherz_de_bearn</name>
<Placemark id="kml_1">
<name>&lt;img height='20' src='https://nco.ign.es/iconos/icono_todos_caminos_azul.png' /&gt;&lt;img height='20' src='https://nco.ign.es/iconos/Camino Santiago_20.png' /&gt;&lt;img height='20' src='https://nco.ign.es/iconos/icono_todos_caminos_azul.png' /&gt;  Camino de Santiago </name>
<visibility>1</visibility>
<description><![CDATA[<!DOCTYPE html>
<html>
<head>
<style>
#nco {
  border-collapse: collapse;
  overflow:hidden;
}
#nco th, #nco td {
  padding: 4px;
  text-align: left;
}
#nco th {
  color: #364B5F;
  padding-right: 5px;
}
#nco td {
  color: rgb(51, 51, 51);
  font-size: 12px;
  padding-right: 5px;
}
</style>
</head>
<body>
<table id="nco">
<tr>
<td>Via Podiensis Le Puy en Velay</td>
</tr>
<tr>
<th><b>Camino: </b></th>
<td>FR03a Via Podiensis Le Puy en Velay</td>
</tr>
<tr>
<th><b>Etapa: </b></th>
<td>28a Arzacq Arraziguet-Artherz de Bearn</td>
</tr>
<tr>
<th><b>Longitud: </b></th>
<td>30.08 km</td>
</tr>
</table>
</body>
</html>]]></description>
<Style>
<IconStyle>
<scale>0.8</scale>
</IconStyle>
<LabelStyle>
<color>ffffffff</color>
<scale>0.75</scale>
</LabelStyle>
<LineStyle>
<color>ffff0000</color>
<width>3.0</width>
<gx:labelVisibility>1</gx:labelVisibility>
</LineStyle>
<PolyStyle>
<color>66ff0000</color>
</PolyStyle>
</Style>
<ExtendedData>
<SchemaData schemaUrl="#kml_schema_ft_FR03a_28a_arzacq_arraziguet-artherz_de_bearn">
<SimpleData name="id">FR03a_28a</SimpleData>
<SimpleData name="_formato">kml</SimpleData>
</SchemaData>
</ExtendedData>
<LineString>
<extrude>0</extrude>
<tessellate>1</tessellate>
<coordinates>-0.410088635644021,43.5361162015374,233.075599999996 -0.411521270655767,43.5355997082401,234.3505 -0.412155110242134,43.5353490894562,236.057799999995 -0.413106120700823,43.5351819547674,232.389500000005 -0.413768794411191,43.5351613347081,230.066699999996 -0.414085798196853,43.5352240317014,229.997300000003 -0.41466213752021,43.5346181877063,228.985499999995 -0.415526479418601,43.5344093108625,223.527000000002 -0.416544545519993,43.5343184506164,205.971600000004 -0.415575597501695,43.5334204137364,206.867700000003 -0.412570517280645,43.5315212422536,207.206699999995 -0.411912538165975,43.5313663448587,211.762400000007 -0.411521103569107,43.5309205947542,209.7834 -0.411261767133115,43.5306280665879,209.539799999999 -0.411055237262768,43.5303942114562,209.367800000007 -0.412242784915548,43.5302834027267,205.417000000001 -0.413449444226011,43.5304919441204,203.923599999995 -0.414440855516261,43.530633431216,205.5533 -0.415619518830881,43.5310132986833,210.743300000002 -0.415648688026466,43.5314072482508,206.630000000005 -0.416019838664207,43.5316541789749,206.531900000002 -0.416188482087437,43.5317837633076,206.746599999999 -0.416530966586135,43.5312664324836,218.291200000007 -0.41741425215725,43.5301451015693,238.377299999993 -0.417832508651855,43.5297384116156,238.229000000007 -0.41911795739924,43.5286184213374,233.297600000005 -0.419655237075736,43.5280482843098,234.713000000003 -0.420103668879041,43.5273482278603,234.212599999999 -0.425576548746315,43.5262904318244,222.280599999998 -0.427055619471755,43.5255482980231,211.011700000003 -0.428035967110986,43.5248774104686,198.443100000004 -0.429404731906003,43.5244097003003,191.606499999994 -0.430171005623162,43.5238819757049,191.644700000004 -0.431700534718066,43.523263391087,180.485799999995 -0.432239491549209,43.5230072404409,173.527400000006 -0.433077681693032,43.5227063298495,169.389299999995 -0.434250645197169,43.5221740789267,161.722500000003 -0.435605999043351,43.5212183744915,150.820399999997 -0.436855573569849,43.5198268106857,126.435700000002 -0.437219348140791,43.519604857809,120.736399999994 -0.437736678929776,43.519424312005,118.824900000007 -0.438234563887793,43.5189384966022,116.074999999997 -0.438253842632101,43.5183827764339,113.434200000003 -0.438524577790729,43.5178124716597,109.450599999996 -0.438982564973726,43.517344258537,102.636400000003 -0.439364780160817,43.517091293009,101.114000000001 -0.440092496389326,43.5167442822034,100.453999999998 -0.440571270587992,43.5166193917255,101.198699999994 -0.441021714617528,43.5163644141232,101.805800000002 -0.440744608606886,43.5151183607985,102.887300000002 -0.440686103129056,43.5145777277329,103.112099999998 -0.440795906002872,43.5142632390461,103.168600000005 -0.441509709124269,43.5136473362716,104.153000000006 -0.442918706765956,43.5126852614792,105.856899999999 -0.44384188921376,43.5123134403611,106.742100000003 -0.443731583283403,43.5119526830923,107.2019 -0.443719681504192,43.5114553008965,107.635500000004 -0.443980526211543,43.5109803827611,110.229399999997 -0.444285795304655,43.5104524905364,118.133400000006 -0.444612521556669,43.5105638021677,121.898799999995 -0.445053074236599,43.5105916297176,122.345199999996 -0.445550959194616,43.5103279349399,129.776500000007 -0.446412954693489,43.5101613029401,136.864199999996 -0.448693670300367,43.5099284538778,159.776899999997 -0.45035848388042,43.509689066663,166.126399999994 -0.451488532168487,43.509480692459,171.268599999996 -0.451890696243087,43.5093001463325,171.180800000002 -0.451813750149141,43.5085363873344,160.918600000005 -0.451644938740921,43.5079302081766,153.068100000004 -0.45223519206972,43.5075082633018,162.072499999995 -0.45261824538497,43.5072444006387,163.280799999993 -0.452603828322986,43.5070081985788,157.653600000005 -0.452654789749058,43.5064073838872,149.491899999994 -0.452311467122168,43.5061331281205,145.276700000002 -0.45171752531082,43.5059664956163,143.366599999994 -0.450874641469629,43.5054944271986,143.737899999993 -0.450223367380228,43.5052307323049,148.385299999994 -0.44990083176904,43.5049371980032,152.131099999999 -0.450429730163916,43.5039494746659,169.212299999999 -0.450625363469872,43.5033692793604,175.824200000003 -0.45054858536085,43.5026330126448,178.349300000002 -0.45055881178204,43.5020373945172,182.190499999997 -0.450376086368411,43.5015773961992,187.612699999998 -0.45001683750988,43.5013762300115,183.403999999995 -0.449408814606464,43.5009893217052,179.920400000003 -0.449068509420624,43.5005123911543,181.394 -0.448896847658047,43.499848209254,192.354000000007 -0.447863694351469,43.4990482404147,192.176600000006 -0.447694714958326,43.4986244512492,198.616699999999 -0.448045749621897,43.4980323541152,202.883199999997 -0.447845756791861,43.4976372306549,205.562000000005 -0.447487682031437,43.497381414996,208.761700000003 -0.446469783915001,43.4972432814791,214.147599999997 -0.445975586541203,43.4970225019182,216.043900000004 -0.444579999848417,43.4958062882589,222.399699999994 -0.443691015365149,43.4945330768897,218.966899999999 -0.442775879127346,43.4935202075221,202.8321 -0.442546718000055,43.492933474588,203.6348 -0.442559625892382,43.4924723022857,200.498800000001 -0.441488083082111,43.4916010871219,213.806800000006 -0.440396256312747,43.4907675904141,215.840700000001 -0.439805667912364,43.4901352597917,217.201199999996 -0.43805871148439,43.4892642123001,224.531499999997 -0.437350608173476,43.4892390665678,227.357399999994 -0.43628392704553,43.4890322015774,230.671100000007 -0.436580814857056,43.4886271877658,231.213000000003 -0.43718481420634,43.4882734717833,230.654599999994 -0.437863748321635,43.4880832020911,226.322700000004 -0.440738741709776,43.4880642591639,192.453200000004 -0.441388673716146,43.4877913447895,189.001699999993 -0.442330464765058,43.4879606592023,189.186000000002 -0.442088730817058,43.4876511988973,191.625199999995 -0.44250279667087,43.4872812218515,207.515199999994 -0.442598350467626,43.4867794814221,219.496700000003 -0.442907978186521,43.4865543430892,231.301099999997 -0.444015730289229,43.4863488187036,237.607600000003 -0.445409975797315,43.486062493027,239.291500000007 -0.446524936880163,43.4857791849841,239.075200000007 -0.447865705679404,43.4854596664418,241.506800000003 -0.448321681534467,43.4851592595152,242.809099999999 -0.448566767995101,43.4849753602589,242.913499999995 -0.448282789872563,43.4844613817101,243.436000000002 -0.448226965865836,43.4837502612436,243.095199999996 -0.448863822893253,43.4835742411243,242.038400000005 -0.452251955531256,43.4837782569312,222.479699999996 -0.45338217180428,43.4837366824961,213.348599999998 -0.454779937809957,43.4834252112769,204.273300000001 -0.455997995843022,43.4834434836598,202.636499999993 -0.45692536982995,43.4833625145529,201.488899999997 -0.457883421283856,43.4830557369555,202.658200000005 -0.458821858921803,43.4830837323131,204.131399999998 -0.459724757410513,43.4830143301872,206.338900000002 -0.460086017596979,43.4826948120123,212.724199999997 -0.460947845110894,43.4823893756978,214.330000000002 -0.461426619309526,43.4821115992697,213.390400000004 -0.462192725041728,43.4822369926419,202.050199999998 -0.462939552927919,43.4821816718386,201.614400000006 -0.463729799086721,43.4823214823562,198.099300000002 -0.465064868075445,43.4821744635028,194.225000000006 -0.465410370015193,43.4820985233497,193.322100000005 -0.465575996895703,43.4819054046996,192.030700000003 -0.466163567855035,43.4812234529696,183.821400000001 -0.467098988950296,43.4806502980036,173.082800000004 -0.467498134685549,43.4805421714398,169.148400000005 -0.46917367684507,43.4807274119544,162.752299999993 -0.470582675385054,43.4806093947503,157.921799999996 -0.471271331966702,43.4803339651896,153.936900000001 -0.47182671718773,43.4800699355317,148.183900000004 -0.472113713649648,43.4797643308106,143.415500000003 -0.472860708622466,43.4795561244873,138.506699999998 -0.473473593208207,43.4791950319732,132.064100000003 -0.474221930264088,43.4791403823869,128.0573 -0.474605988794123,43.4789232912589,124.647500000006 -0.475254747600751,43.4782361425674,121.622199999998 -0.475637800916001,43.4777079151403,119.483800000002 -0.476346407283456,43.4761651420522,114.373200000002 -0.477006733695974,43.4751784245883,113.881399999998 -0.478561744402245,43.4747222809798,113.026599999997 -0.479162056167277,43.474483564474,112.448699999994 -0.479877702631651,43.4741573407866,112.256099999999 -0.479851551775414,43.4737330490527,112.4038 -0.479717440490008,43.4731773286214,112.898100000006 -0.479870494549808,43.472051806681,114.911999999997 -0.479583163016272,43.4715514072441,115.126900000003 -0.479506216922292,43.4710372610366,113.934500000003 -0.479809976845747,43.4708114525286,113.782000000007 -0.480116755108515,43.4707214313851,114.098100000003 -0.480235777392109,43.4704972991213,116.876300000004 -0.480080544917748,43.4697169437303,123.5622 -0.480226725068992,43.4689841979798,130.919699999999 -0.481020658812045,43.4676972404825,141.746100000004 -0.481363814352242,43.4671871180391,141.954899999997 -0.482532084159044,43.4677854178168,140.864000000001 -0.484006963345328,43.4686611593873,140.0193 -0.484887901618594,43.4691478123148,141.236999999994 -0.485155787321162,43.4690784104802,141.340200000006 -0.485481340373367,43.4692594595693,141.379100000006 -0.485804714112714,43.4695353920591,141.300900000002 -0.485962796941466,43.4698384811727,140.922900000005 -0.485825837098297,43.4702327662144,140.780599999998 -0.485894736083977,43.470488413923,140.524300000005 -0.486498065290026,43.4710228443128,140.040999999997 -0.487088989660357,43.4718612023127,138.7209 -0.488969720505493,43.4730812724031,138.884699999995 -0.48980975489059,43.4736663291806,137.313399999999 -0.490518529243036,43.4743063713304,136.570699999997 -0.491322856493907,43.4752211717818,135.6348 -0.493313726182773,43.47642347188,131.649999999994 -0.493832063084874,43.4766826408593,128.603900000002 -0.494636390335779,43.4766965542959,122.522500000006 -0.495249442906477,43.4771691262037,115.077900000004 -0.49569267795584,43.4775064139087,111.413700000005 -0.496340934604224,43.4777392635112,109.0916 -0.497322790514816,43.4782054645562,108.623600000006 -0.498160310515471,43.4782954862851,108.739000000001 -0.498773027116255,43.4783372280784,110.363200000007 -0.498921722550272,43.4784983283417,110.976200000005 -0.499872733008961,43.478998392572,113.767000000007 -0.500650070377139,43.4788934512144,116.113299999997 -0.501531176635363,43.4786991587765,118.664699999994 -0.501912720780922,43.4787264841013,120.658599999995 -0.502450503513992,43.4791024961325,125.656199999998 -0.503192636804485,43.4792922622119,132.689499999993 -0.503440908691126,43.4801602921302,132.748000000007 -0.503669734746833,43.4802283534649,132.964900000006 -0.504327546774876,43.4800337257159,133.978199999998 -0.505046546650182,43.4797544405441,134.401400000002 -0.506270807550305,43.4798714516859,133.589900000006 -0.507661867632383,43.4788211996304,134.808799999999 -0.508637186502663,43.4792972917962,134.401299999998 -0.511030722424374,43.4801554307896,132.717099999994 -0.511682666656976,43.4802008606476,132.739300000001 -0.512025822197206,43.4803292713825,132.938599999994 -0.515056886187833,43.4835314939741,129.075200000007 -0.515321921536011,43.4836478342772,127.437699999995 -0.516107306012488,43.4831197747445,128.790999999997 -0.517816711064961,43.4819424522727,130.994300000006 -0.519306008211559,43.4812993929189,119.127099999998 -0.51966994986916,43.4810214491761,119.5766 -0.519765671650873,43.4806601887752,122.039000000004 -0.519929956448353,43.4800902198241,125.030599999998 -0.519918892797334,43.4799375011425,125.802100000001 -0.520110670534047,43.4798273630516,126.384699999995 -0.520857330435281,43.4799100088447,130.596399999995 -0.521766766862633,43.4798162988448,133.779299999995 -0.52130190666941,43.4815094430842,133.515599999999 -0.521178524861769,43.4822373276705,133.906700000007 -0.521277766242777,43.4825563431176,133.787899999996 -0.522829927492954,43.4829764437548,134.016600000003 -0.523793846742267,43.4834032503865,133.471300000005 -0.52681434924012,43.4856502709347,132.454400000002 -0.527816824181422,43.4862981924021,131.809200000003 -0.52878711338442,43.4867900425004,131.179399999994 -0.529842730861314,43.4874414835782,131.185200000007 -0.531298499288279,43.4878454918753,130.510899999994 -0.533410906543479,43.4881613219695,130.517800000001 -0.534700713916648,43.488263413457,130.302899999995 -0.53534679125214,43.4881401996386,130.481899999999 -0.537713002219541,43.4887081569855,131.629000000001 -0.537828001847266,43.4884023854485,132.224000000002 -0.538402665812602,43.4878253750785,132.639500000005 -0.541983749387093,43.4894752690652,129.569199999998 -0.542271751962128,43.4892362171998,129.398000000001 -0.542808193510465,43.4890137614343,129.325700000001 -0.544535704107471,43.4881143827947,129.312000000005 -0.544038824364239,43.4869845024907,128.356499999994 -0.544821694456274,43.4862371717364,129.5196 -0.545106679590258,43.4851225463201,132.020300000004 -0.545283705193404,43.4843753835027,133.531499999997 -0.545283705193404,43.4837873096408,134.460399999996 -0.547136943997603,43.4824681651727,132.659700000004 -0.548151992657945,43.4819818476403,132.198900000003 -0.54978059604723,43.4809143283843,133.092699999994 -0.55136678727702,43.4790312499375,131.531099999993 -0.552814677478907,43.4777183083222,131.332399999999 -0.55527744835618,43.4768811240987,132.460200000001 -0.555890332941955,43.4768395501324,132.634900000005 -0.558342039269878,43.4761309435304,132.635800000004 -0.561400763286433,43.475340362466,132.673299999995 -0.562421846828843,43.4751998819558,133.219800000006 -0.563717857069036,43.4749112094531,136.981799999994 -0.563820115891094,43.4751445612279,136.6734 -0.564164779702651,43.4754642471006,135.075400000002 -0.565256439385388,43.4750892411012,133.653900000005 -0.565569754688502,43.4748533741359,134.253500000006 -0.565764717851223,43.4744731707356,133.827099999995 -0.565444696624544,43.4739484638985,132.245200000005 -0.565252918887797,43.4729884005946,132.041800000006 -0.56527555014474,43.4726708939968,132.239000000001 -0.56577477628749,43.4721243942729,131.810599999997 -0.565230790687395,43.4715163709989,134.955700000006 -0.566500649173021,43.4705474229848,134.047399999996 -0.568531751708525,43.4693905521885,137.724799999996 -0.569587703358705,43.4686262903225,143.976200000005 -0.570385828640849,43.4679183547709,152.1636 -0.570715237262296,43.4673334659745,155.524900000004 -0.571017823985975,43.4669343198265,160.482000000004 -0.571288559144602,43.4667723809392,163.875 -0.571879986571474,43.4666084309268,172.649900000004 -0.572317856881971,43.4666432998516,176.660399999993 -0.572496559639764,43.4668193197446,180.988299999997 -0.573122687189416,43.4669864547158,184.314599999998 -0.574428587880886,43.4668972715271,197.289099999995 -0.574469491769022,43.466527294521,197.233099999998 -0.574871655843656,43.4663189200166,197.9283 -0.575407929407002,43.4662354367492,199.895300000004 -0.575666762786452,43.4660522081569,200.293000000005 -0.576102789754005,43.4654044548958,200.226699999999 -0.576864704845381,43.464768268258,199.887300000002 -0.577534083581017,43.4647479840382,196.173800000004 -0.578568410087371,43.4645119495737,191.736199999999 -0.58071367412244,43.4643731449591,189.316500000001 -0.582970753257523,43.4640682113092,170.244099999996 -0.583299491735769,43.4640675410505,164.363599999997 -0.58342874044052,43.4638033431704,159.0916 -0.583854876058467,43.4631919676525,143.560299999997 -0.584323759805856,43.4628883751081,137.230200000005 -0.584831703200106,43.4624969397328,136.280499999993 -0.585655309195319,43.4623163939617,136.085600000006 -0.586881078366802,43.4623859639573,136.715500000006 -0.589394979553434,43.4624942579766,139.018899999995 -0.590278767282794,43.4619631805273,137.947899999999 -0.590903386561086,43.4616493619164,137.551600000006 -0.591331869476881,43.461559340168,138.651299999998 -0.593661703166854,43.4615663814353,144.034599999999 -0.595907885737545,43.461290281509,152.831200000001 -0.596193876086348,43.4612034450615,155.203200000004 -0.596382636382045,43.4605484830489,157.939199999993 -0.597902946067205,43.460333403193,165.694900000002 -0.596998538408837,43.4595342724814,164.426300000006 -0.596615989048459,43.4587892886839,169.157300000006 -0.596622694073728,43.4581091816065,173.290500000003 -0.596821847877275,43.4576729871115,174.672300000006 -0.59692276641293,43.4571424124486,172.805699999997 -0.597415622601996,43.4564356504909,177.052100000001 -0.59787528604131,43.4557545368457,172.569300000003 -0.598219949852867,43.4556851352846,172.583499999993 -0.598449781123359,43.4555738235671,172.630499999999 -0.598756224314577,43.4555599091805,174.027799999996 -0.59892067709698,43.4555201790178,174.684999999998 -0.599330887381582,43.4556851352846,177.404800000004 -0.599733050557886,43.4561857019349,187.170299999998 -0.599426608264998,43.4568391553435,192.865099999995 -0.599188729886208,43.4573403932073,193.427100000001 -0.59933859852,43.4581732190981,197.316600000006 -0.600518267947736,43.4582992829101,204.385500000004 -0.600997209233029,43.4586330504666,204.045299999998 -0.601197537134649,43.4591113217451,202.1823 -0.60136098380397,43.4599681198738,201.909 -0.601228885643125,43.4613132473936,204.223899999997 -0.601544548244088,43.462100308454,208.434599999993 -0.602599996837694,43.4632754512109,207.040699999998 -0.603985190022662,43.4641111267535,207.992400000003 -0.604969896287643,43.4645513445696,209.6639 -0.606285855415347,43.4648852797307,208.913199999995 -0.607826617044558,43.464978318513,208.728900000002 -0.608523822892782,43.4648544338993,209.431299999997 -0.609739869597946,43.4643454851882,208.140499999994 -0.611552875555508,43.4641511922683,204.799100000004 -0.613938868323758,43.4644542823003,206.087199999994</coordinates>
</LineString>
</Placemark>
</Folder>
</Document></kml>
