<?xml version="1.0" encoding="UTF-8"?>

<kml xmlns:xsd="http://www.w3.org/2001/XMLSchema" xmlns:gx="http://www.google.com/kml/ext/2.2" xmlns:atom="http://www.w3.org/2005/Atom" xmlns="http://www.opengis.net/kml/2.2">
<Document>
<name>FR03a_11a_conques-livinhac_le_haut</name>
<visibility>1</visibility>
<Schema name="FR03a_11a_conques-livinhac_le_haut" id="kml_schema_ft_FR03a_11a_conques-livinhac_le_haut">
<SimpleField type="xsd:string" name="id">
<displayName>id</displayName>
</SimpleField>
<SimpleField type="xsd:string" name="nombre">
<displayName>nombre</displayName>
</SimpleField>
<SimpleField type="xsd:double" name="longitud">
<displayName>longitud</displayName>
</SimpleField>
<SimpleField type="xsd:string" name="_formato">
<displayName>_formato</displayName>
</SimpleField>
</Schema>
<Folder id="kml_ft_FR03a_11a_conques-livinhac_le_haut">
<name>FR03a_11a_conques-livinhac_le_haut</name>
<Placemark id="kml_1">
<name>&lt;img height='20' src='https://nco.ign.es/iconos/icono_todos_caminos_azul.png' /&gt;&lt;img height='20' src='https://nco.ign.es/iconos/Camino Santiago_20.png' /&gt;&lt;img height='20' src='https://nco.ign.es/iconos/icono_todos_caminos_azul.png' /&gt;  Camino de Santiago </name>
<visibility>1</visibility>
<description><![CDATA[<!DOCTYPE html>
<html>
<head>
<style>
#nco {
  border-collapse: collapse;
  overflow:hidden;
}
#nco th, #nco td {
  padding: 4px;
  text-align: left;
}
#nco th {
  color: #364B5F;
  padding-right: 5px;
}
#nco td {
  color: rgb(51, 51, 51);
  font-size: 12px;
  padding-right: 5px;
}
</style>
</head>
<body>
<table id="nco">
<tr>
<td>Via Podiensis Le Puy en Velay</td>
</tr>
<tr>
<th><b>Camino: </b></th>
<td>FR03a Via Podiensis Le Puy en Velay</td>
</tr>
<tr>
<th><b>Etapa: </b></th>
<td>11a Conques-Livinhac le Haut</td>
</tr>
<tr>
<th><b>Longitud: </b></th>
<td>24.27 km</td>
</tr>
</table>
</body>
</html>]]></description>
<Style>
<IconStyle>
<scale>0.8</scale>
</IconStyle>
<LabelStyle>
<color>ffffffff</color>
<scale>0.75</scale>
</LabelStyle>
<LineStyle>
<color>ffff0000</color>
<width>3.0</width>
<gx:labelVisibility>1</gx:labelVisibility>
</LineStyle>
<PolyStyle>
<color>66ff0000</color>
</PolyStyle>
</Style>
<ExtendedData>
<SchemaData schemaUrl="#kml_schema_ft_FR03a_11a_conques-livinhac_le_haut">
<SimpleData name="id">FR03a_11a</SimpleData>
<SimpleData name="_formato">kml</SimpleData>
</SchemaData>
</ExtendedData>
<LineString>
<extrude>0</extrude>
<tessellate>1</tessellate>
<coordinates>2.39787558133646,44.599465895622,312.703899999993 2.39755572719641,44.599434547359,307.878299999997 2.39741172635805,44.5993860998358,306.610499999995 2.39732405168464,44.599320720593,305.873500000002 2.39725230234457,44.5992099120302,301.743400000007 2.39704074370527,44.5991447008127,298.130499999999 2.39674519707848,44.5991220699426,295.639500000005 2.39640925051842,44.5991135199604,294.674700000003 2.39622166342247,44.5991110055605,294.632899999997 2.39619400339654,44.5990115961696,294.632899999997 2.39614220294401,44.5989178864034,292.184899999993 2.39581849413305,44.5988555250783,288.433900000004 2.3956744932947,44.5988298769291,286.715100000001 2.3955467528613,44.5986820195865,278.059099999999 2.39530719822616,44.598556794246,279.063599999994 2.39493168896267,44.5983977060235,269.1495 2.39475198099009,44.598264098189,263.949500000002 2.39450437924665,44.5981703884965,262.216400000005 2.39428443842744,44.5981532895301,260.572100000005 2.39390641477947,44.5981242880544,253.170899999997 2.39371295988807,44.5981393753479,253.1878 2.39354113103884,44.5981705560833,250.846799999999 2.39348849245815,44.5981784352178,249.705600000001 2.39309219617896,44.5981063505001,238.729399999997 2.39283772142529,44.5981422256031,236.612299999993 2.39245818950596,44.5981851406047,231.174599999998 2.39210229405836,44.5982164889022,231.4948 2.39179870122157,44.5981712264302,234.8027 2.39132445273532,44.5980273933411,243.929499999998 2.39124717156975,44.5979435741218,244.430300000007 2.3911635204505,44.5978411474346,247.315300000002 2.39105187333541,44.5977730863267,251.381200000003 2.39095598446704,44.5978131519694,255.270000000004 2.39113586042458,44.598006773722,247.544599999994 2.39148823537455,44.5982793530327,238.020000000004 2.39161178426885,44.5984397829066,235.812000000005 2.39158429222788,44.5985723848236,235.042400000006 2.39140793676794,44.5987390170958,234.948900000003 2.39113636348115,44.5988273618773,240.453800000003 2.39052498716677,44.5990838479879,254.542499999996 2.39017747300079,44.5992575211427,262.717499999999 2.3900012855258,44.5993383226057,267.117400000003 2.38988997438063,44.5994506404502,270.187900000004 2.389806490348,44.5993646421428,282.024900000004 2.39018702838045,44.5989619752025,268.333400000003 2.3904378155499,44.5987507512493,266.089500000002 2.39062355840458,44.5984602347861,262.9427 2.39077208585363,44.598308354431,263.039900000003 2.39077242092525,44.5981896667245,263.890199999994 2.39037361026158,44.598130490687,274.482900000003 2.3900953310512,44.597961344139,289.541599999997 2.38996574637653,44.5977145808568,294.405199999994 2.38966031019676,44.5974723433419,306.2166 2.38936308731365,44.5973053760966,309.2065 2.38879227981582,44.5971174538971,329.301300000006 2.38870477312736,44.59697529666,330.138600000006 2.38879781253964,44.596869852277,328.407600000006 2.38907609175006,44.5968368279869,321.159199999995 2.38944740947443,44.5968106761746,317.877699999997 2.38963315232911,44.5967776512113,314.185700000002 2.38951278886082,44.596705063902,320.150099999999 2.389411032197,44.5966059900548,326.849600000001 2.38936459648334,44.5965136216187,328.942200000005 2.38925529666607,44.5965013842387,328.942200000005 2.38912135336565,44.5964794233452,330.435899999997 2.38900300122529,44.596507586405,332.577799999999 2.38889185716674,44.5964219234028,334.854699999996 2.38873444537952,44.596488140667,337.641000000003 2.38866219298291,44.5964536071952,338.227400000003 2.38873444537952,44.596488140667,337.641000000003 2.38856798037085,44.5964950138406,336.330199999997 2.38854970773966,44.5963894016338,342.845000000001 2.38844795197415,44.5963632502599,344.8698 2.38839246303907,44.5964360049483,340.838799999998 2.38835256526402,44.5963250284094,347.240900000004 2.38829070727355,44.596310779245,348.495999999999 2.38815156721919,44.5963704586321,348.491200000004 2.38805903086346,44.5962715524464,356.600600000005 2.3880776394646,44.5961857215038,357.659499999994 2.38800069337062,44.5962066763142,359.893100000001 2.3879386673952,44.596298206638,358.738899999997 2.38781830302857,44.5962257869617,364.205199999997 2.38769793866198,44.5962391981855,364.196200000006 2.38758813578816,44.5961875656605,366.264899999995 2.38748537390957,44.596276749084,362.639299999995 2.38739049025598,44.5962844602435,363.334499999997 2.38732578191112,44.5962769166762,365.389899999995 2.38735696333294,44.5962145550754,365.800499999998 2.38740876288717,44.5961780103313,366.077600000004 2.3874357527699,44.5961235280374,368.853199999998 2.38735344283535,44.5961495119267,369.103300000002 2.3872557097257,44.5961863918736,370.274300000005 2.38732276447007,44.5961131340947,371.775200000004 2.38730231342432,44.5960546282328,375.884000000005 2.38723039609932,44.5960693808782,376.817800000004 2.38713266298964,44.5961687901855,374.667000000001 2.38706594331689,44.5961580610658,376.960099999997 2.38695681058627,44.5961044167167,382.160000000003 2.38686511325702,44.5961327475508,380.962599999999 2.38685505482079,44.5960668663465,384.213600000003 2.38691858906757,44.5960656925573,384.296799999996 2.38695882281251,44.5960729009663,383.766499999998 2.38700995222353,44.5960375292834,384.933900000004 2.38705152625487,44.5959384555775,390.857900000003 2.38713936891324,44.5959092860428,390.683300000004 2.38720156287362,44.595938958357,386.881599999993 2.38730499489546,44.5959061011312,387.061300000001 2.38745989319653,44.5958658678595,388.492800000007 2.38757338365456,44.5958110500859,393.900399999999 2.38763038086103,44.5957341047712,398.611099999995 2.38804796721244,44.5956752633398,398.364799999996 2.38847075031775,44.595587421026,403.245899999994 2.38874400075918,44.5955213716091,395.186000000002 2.38905882433366,44.5954077130877,407.226899999994 2.38916695095115,44.5953488719655,402.294999999998 2.38924456718833,44.5950809869383,411.152900000001 2.38918790595178,44.5948680863478,421.330600000001 2.38900769492263,44.5945121907665,442.273100000006 2.38880686486276,44.594163671169,455.791800000006 2.38861609234083,44.5939323306958,464.9519 2.38837435839283,44.5936379583754,466.261100000003 2.38797169215999,44.5934367922027,473.214000000007 2.38793581704077,44.5933159253318,472.3318 2.38784311359841,44.5932834037435,473.038499999995 2.38778745757667,44.5932951383591,474.263900000005 2.38774538048876,44.5932391475127,472.702099999995 2.38765837595855,44.5932287536937,473.472800000003 2.38766642306688,44.5932783744391,475.312699999995 2.38775074522762,44.5933678930507,477.4473 2.38779231925899,44.5934156700724,476.832899999994 2.38766524896877,44.5934844015675,478.710800000001 2.38746291063755,44.5934458451816,479.204700000002 2.38715127069245,44.5935563186617,485.734899999996 2.38661533220069,44.593830239173,491.081399999995 2.38620009314714,44.5939452390125,495.766399999993 2.38572601264584,44.5940335840459,500.731299999999 2.38543247824528,44.5940741525038,503.544599999994 2.38520046676356,44.5938833802654,507.929900000003 2.38486049664934,44.5936156624795,515.289600000004 2.38466486334342,44.5935092121562,519.434599999993 2.38442262633884,44.593336712297,522.371700000003 2.38401627162345,44.5931534841703,525.355899999995 2.38375257656168,44.5930835790739,527.155299999999 2.38346926858231,44.5930617864094,527.447799999994 2.38309828592956,44.5930363052235,527.696400000001 2.38261884068936,44.5928969981103,527.550199999998 2.38236134849464,44.5928091554351,527.318400000004 2.38169649636971,44.5926405115582,527.985100000005 2.38097498210993,44.5925268531595,531.007199999993 2.38051816812671,44.5924934931142,531.571200000006 2.38019160896135,44.592427946829,533.698600000003 2.37954217911323,44.5922482387158,539.400800000003 2.37912995750069,44.5920904913279,540.211200000005 2.37902199886815,44.5920101928352,540.294500000004 2.37890314277292,44.5919731445524,540.584199999998 2.3785583118747,44.5919773353071,541.909599999999 2.37811742322482,44.5919994635874,543.726800000004 2.37792933397063,44.5919773353071,544.618199999997 2.3776357995701,44.5917974601146,545.210200000001 2.3773524906924,44.5915957911511,543.621799999994 2.37707957622088,44.5914823002345,546.015899999999 2.37691998512077,44.5913319286508,545.531900000002 2.37653341130793,44.5911706609497,544.733200000002 2.37605933080663,44.5909663106501,544.205000000002 2.37606452756054,44.5906789788497,543.696800000005 2.37611113125916,44.5901358312542,543.441500000001 2.37612169275196,44.5896697977213,545.395099999994 2.37614650242347,44.5893132312038,547.0965 2.37620953451204,44.589075185457,549.921100000007 2.37641606438235,44.5886200479448,552.381899999993 2.37671010183949,44.5881209896487,558.990399999995 2.37689601267909,44.5877984538935,559.972399999999 2.37699910962931,44.5875776748424,560.600399999996 2.37696843216236,44.5873612536583,560.327799999999 2.37675704060969,44.5871887541044,560.642699999997 2.37639645146476,44.5869758540307,560.755699999994 2.37603586142153,44.586700759863,559.843699999998 2.37589169259818,44.5864109137784,559.005900000004 2.37583519934662,44.5861136915426,558.362999999998 2.37587124065413,44.5857246036232,557.993199999997 2.37600032227226,44.5852144809501,563.212 2.37607341279703,44.5850042626786,563.693400000004 2.37632017551398,44.5845390670784,566.7889 2.37658856427312,44.5840949939208,567.074200000003 2.37682593959537,44.5836287923102,566.905599999998 2.3768623177711,44.583438020335,566.6489 2.3768623177711,44.5830819568687,566.747399999993 2.37674396473244,44.5827222058927,566.745200000005 2.376613206858,44.5824782922669,566.900899999993 2.37628027773896,44.5819403414587,569.164199999999 2.37602798229815,44.5813455618287,576.5095 2.37573947756487,44.5807913506442,581.474000000002 2.37563151893233,44.580541905196,584.516900000002 2.37561089900332,44.5803913658237,586.090400000001 2.37566269945585,44.5802116582458,586.237500000003 2.37579161308902,44.5799472929755,587.810400000002 2.3759362849689,44.5796388390738,588.807499999995 2.37615790204443,44.5795141159307,588.603300000002 2.37641589729573,44.5794445463475,588.759699999995 2.3765037399541,44.5793934165411,589.039799999999 2.37650223078441,44.5793114413722,589.170800000007 2.37693708365389,44.5793385992269,589.777000000002 2.37766949447809,44.5792433803184,591.703299999994 2.37873718171912,44.5790794307216,591.529899999994 2.37929357215497,44.5789939352672,590.463900000002 2.37974736869714,44.5788985487919,590.044500000004 2.3803914338064,44.5786563121908,590.085099999997 2.38114463164628,44.5783294176473,593.246799999994 2.38209849245936,44.5778997612555,595.508600000001 2.3826555539367,44.577720053655,594.8894 2.38320020968,44.5774774813305,595.515400000004 2.383666243073,44.577246476283,597.036600000007 2.38418508303164,44.5768842103099,600.8459 2.38449135823787,44.576453548221,604.271299999993 2.38488865973184,44.5759506338081,606.535900000003 2.38515704849095,44.5756277630527,608.112599999993 2.38534631184322,44.5754675005682,607.837299999999 2.38568292944481,44.5752056502783,607.486499999999 2.38598216365582,44.5750331504894,607.161500000002 2.3861987519624,44.5748971961786,607.016699999993 2.38640528183275,44.5745228604139,606.564700000003 2.38647770131602,44.5743724891109,606.4519 2.38649312449112,44.5741778613927,606.433499999999 2.38632816865211,44.573884159478,605.594299999997 2.38600362081469,44.5734950716191,603.503800000006 2.38575635504117,44.5731904729167,599.779299999995 2.38536978122832,44.5728635790017,596.691099999996 2.38453930222289,44.5723524501405,593.870899999994 2.38387193571348,44.5722042585857,593.126300000004 2.38306039948244,44.5722857305513,593.366099999999 2.38186849320391,44.5724143087642,595.965100000001 2.38153137254578,44.5723378655357,596.730100000001 2.38133339194197,44.5721061899009,597.098700000002 2.38118520046283,44.5717611906215,597.344700000001 2.38092821132465,44.5714783855223,597.454299999998 2.38052219168084,44.5711164547815,594.667700000005 2.37983940199634,44.5698204449877,591.467999999993 2.37934721595047,44.5694405773669,588.302200000006 2.37844247411882,44.569055512674,584.286999999997 2.37820208045722,44.5688412713817,582.118700000006 2.3787859638323,44.568803552366,582.266399999993 2.37920137087085,44.5687872914366,582.164699999994 2.37922316399963,44.5686612279621,580.725999999995 2.37889023488059,44.5685738881566,579.250400000004 2.37872645224139,44.56828538332,576.0337 2.37885922234206,44.5679219441232,565.993499999997 2.37897371891321,44.5676032641836,561.897800000006 2.37894270547635,44.5673663915865,557.739100000006 2.37875545435031,44.5672477034123,556.683699999994 2.37829796932559,44.5671813190792,559.555600000007 2.37812144677899,44.5668851025164,552.741099999999 2.37761199511338,44.5666111817478,548.681200000006 2.37725861405029,44.5663890614492,545.746299999999 2.37691327919717,44.5656182619087,528.309999999998 2.37662712086341,44.5654613523419,525.382199999993 2.37627021930273,44.5653218773849,522.668699999995 2.37587492913668,44.5654033493913,521.589000000007 2.37540336301986,44.5654393918808,517.747799999997 2.37508451589122,44.5657815409773,524.6823 2.37478444355205,44.5659703017691,525.723299999998 2.37442938623261,44.5661597326645,530.360799999995 2.37411757920086,44.5661820282116,529.734700000001 2.3734304308906,44.5665672610455,542.105299999996 2.37325441050224,44.566434323712,540.986199999999 2.3730671593762,44.5661674439795,532.843699999998 2.37254731330444,44.566145483145,535.923699999999 2.37210022268584,44.5663085949751,541.181500000006 2.37179445143448,44.5664634926787,543.675199999998 2.37141357743212,44.5667459631279,552.250799999994 2.37106019636903,44.5668944905044,553.475600000005 2.37075308303465,44.567271340589,563.093699999998 2.36962806441386,44.5677051880168,577.0435 2.36929194986882,44.5677544734421,581.209199999998 2.36903529580226,44.5677004937684,580.954299999998 2.36892800821125,44.5673841613526,577.610199999996 2.36880345230554,44.5672492124954,579.443400000004 2.36850153662339,44.5671915447597,579.396699999998 2.36818972959164,44.5673472804101,588.319399999993 2.36777415456813,44.5673343725866,591.365999999995 2.36693127072694,44.5671474561794,594.669399999999 2.36635929002937,44.5671031998894,598.488700000002 2.36618276658443,44.5672218877184,599.091499999995 2.3659229279902,44.5670738629271,598.119999999995 2.36505959220492,44.567022063057,595.322400000005 2.36399877797412,44.5671407504116,597.641399999993 2.3629899321808,44.5671632138988,599.052100000001 2.36178344085533,44.567363541742,601.456900000005 2.36134674374458,44.567430261218,602.613100000002 2.3608493618431,44.5675722507239,603.596300000005 2.35990069778393,44.5682233571116,610.091499999995 2.3594951811967,44.5685866286729,612.761700000003 2.35915219453975,44.5687351564692,616.574600000007 2.35891314206286,44.5687354911724,616.945699999997 2.35878825198386,44.5687222483138,617.628299999997 2.35809138030895,44.568424187521,619.708100000003 2.35724648424153,44.5683044941882,622.568100000004 2.35655195986444,44.5682984592453,623.976800000004 2.35601250087509,44.5683584733014,624.532099999997 2.35390981698447,44.5688395946686,629.420700000002 2.35293265387292,44.5690402571995,629.867299999998 2.3516948149373,44.5694330335155,625.396699999998 2.35121654379517,44.5697074568011,624.736000000004 2.35039478204127,44.5701372812356,619.430600000007 2.35024005172515,44.5703112891917,618.8217 2.34962129934397,44.5702303200219,615.695399999997 2.3486161420332,44.5698189359714,615.125700000004 2.34785690931126,44.5693966562412,617.721900000004 2.34758667631088,44.5693227279349,618.433199999999 2.34740981869269,44.5691597832678,618.945999999996 2.34735835331174,44.5686233417977,615.896399999998 2.34718115972364,44.5684112792966,615.570000000007 2.34698351508975,44.568218663545,612.826000000001 2.34665092104233,44.5680485109408,609.815199999997 2.34624825391119,44.5681003111768,610.4038 2.34556898472427,44.5683448950114,610.172999999995 2.34530646376057,44.5683522706913,607.422900000005 2.34503874514466,44.5681894941785,605.130000000005 2.3447789065504,44.567893109956,600.971300000005 2.34443524885195,44.5675631981953,598.996499999994 2.34412377689179,44.5674485339905,598.492700000003 2.34395764785303,44.5673746057681,598.350399999996 2.34386343524098,44.5672862605359,598.350300000006 2.34332330521012,44.5672785493692,596.902799999996 2.34266817555151,44.5672788840808,596.994900000005 2.34206501433039,44.5671605317204,599.044299999994 2.34175337438529,44.5671534912418,600.839300000007 2.34139949116393,44.5672720112923,601.107699999993 2.34084846456865,44.5673239792555,601.658800000005 2.34005805132322,44.5674203709302,598.5625 2.33850823737086,44.5677467623375,588.322400000005 2.33750525847468,44.5678562299761,584.791500000007 2.33699999744987,44.5679026654553,584.930300000007 2.33576534304189,44.567812308934,586.415500000003 2.3352213574418,44.5675916971763,587.947799999994 2.33470000309868,44.5674383083552,586.840899999996 2.33431426831233,44.5674834027663,586.541200000007 2.33288230344378,44.5680072715433,581.771800000002 2.33176784631577,44.5689851043829,576.554300000003 2.33111523104164,44.5693473702874,572.712599999999 2.33086310358579,44.5694521440066,569.796100000007 2.33052045110213,44.5692762916695,569.533299999996 2.3303640445297,44.5690818318459,570.320800000001 2.33043830825425,44.5688084141967,570.605599999995 2.33089478716585,44.5681408791751,569.811799999996 2.33111355478532,44.5679779350369,570.603000000003 2.33111523104164,44.5677603407671,569.629300000001 2.33097424764434,44.5675901881021,567.035799999998 2.33061449572923,44.5675261503312,564.808000000005 2.33025005101509,44.5673422514215,560.604399999997 2.32986532144352,44.5668743737511,558.039799999999 2.32914799782454,44.5666591266793,555.734800000006 2.32788719256032,44.5663194915233,557.069000000003 2.32685957107927,44.5662442223556,560.143599999996 2.32599824662193,44.5660234427312,564.692500000005 2.32552818967477,44.5658145656321,569.008700000006 2.32533708208122,44.5657133124074,569.656000000003 2.32510188607186,44.5654885096249,572.643599999996 2.32474850500877,44.5653552376634,575.993499999997 2.32453024044587,44.5649701728054,577.151800000007 2.32432236939079,44.5646367410353,575.300499999998 2.32394820041374,44.564384780787,575.940300000002 2.3237924648828,44.5642220040519,576.045700000002 2.32368869689109,44.5639628360171,570.656300000002 2.32345987083538,44.5637775958755,571.209700000007 2.32272159311406,44.5636072753945,565.194699999993 2.32188960493897,44.5634962988997,564.095600000001 2.32121335319307,44.5632295868161,557.734299999996 2.31994450082056,44.562658946728,552.596799999999 2.31909172652809,44.5624440347984,551.212899999999 2.31810349976549,44.5623255151516,549.6486 2.31713622800354,44.5621997864947,545.264200000005 2.31632502774241,44.5621334015212,538.765700000004 2.31475442677438,44.5619112814059,530.116800000003 2.31377240287883,44.5618153919977,531.688500000004 2.31351742506859,44.5617639273087,532.640199999994 2.31337107693239,44.5616224407823,532.880000000005 2.31314241886164,44.5613188481444,532.554499999998 2.31275768929007,44.5610893515197,529.571500000005 2.31241621090449,44.5609074644327,527.761199999994 2.31188446305352,44.5607857593002,523.916400000002 2.31152068848261,44.5606970789127,521.734299999996 2.31133377152986,44.5606010223685,521.673599999995 2.31107393293559,44.5605567655784,520.887199999997 2.31069976485683,44.5603049732771,513.279200000004 2.31032241135207,44.5602043902085,513.789399999994 2.30932731157924,44.5600303821004,501.612599999993 2.30880662827762,44.5601272767888,500.4378 2.30776660106248,44.5603053086689,497.734700000001 2.30752939372519,44.5602114315282,498.191699999996 2.30643521965801,44.5599422042925,502.067999999999 2.30588419396103,44.5598013886059,503.635800000004 2.3049641960409,44.5600163006964,503.641799999998 2.3041887020157,44.560312852424,500.940199999997 2.30366885684224,44.5602685960549,502.126600000003 2.30302378561986,44.5602389240939,497.578399999999 2.30217101042907,44.5603058117567,488.257500000007 2.30160523170019,44.5603172105967,483.095000000001 2.3011725581436,44.5602984356966,478.128400000001 2.30081917708051,44.5601799155192,474.326400000005 2.30044500900172,44.5601727071395,468.259699999995 2.29956105328743,44.5599727148891,456.570300000007 2.29895789206631,44.5598617385019,450.238700000002 2.29817938060006,44.5597953534208,446.390499999994 2.29787645880479,44.5597656818586,445.354500000001 2.29735644564638,44.5601437052751,441.941699999996 2.29613805164336,44.5609813925534,433.381200000003 2.29576405154956,44.561115168015,431.382599999997 2.29545257958943,44.5611666326378,431.267399999997 2.29488428647607,44.5608863420039,434.588900000002 2.29418372721691,44.5609000884489,426.075400000002 2.2932734526614,44.5608843303131,420.882700000002 2.29258194572537,44.5612264799581,419.704400000002 2.29197543109331,44.561454299756,422.593200000003 2.290969770726,44.5621161351432,422.944499999998 2.29038739562224,44.5625313742073,424.605200000005 2.28991935000301,44.5627094057714,425.146399999998 2.28901460727303,44.5626577735441,424.789699999994 2.28828823222925,44.5625434446492,422.3845 2.28806812342508,44.5624651573018,420.817899999995 2.28780828393251,44.5622281172128,412.886599999998 2.28746630249036,44.5621322283267,412.901100000003 2.28686934323799,44.5621774907015,409.770799999998 2.28612335437826,44.5623838527106,405.220100000006 2.28510411417883,44.5629845001694,393.808499999999 2.28447999795707,44.5633846520852,386.873099999997 2.28418897794099,44.5635997320666,384.8649 2.28414740390965,44.5639110359368,382.526100000003 2.28401245539442,44.5640667714097,375.660699999993 2.28382520337005,44.5638962834498,376.238700000002 2.28340929417329,44.5637335066278,373.259699999995 2.28277495153035,44.5637261310023,365.037100000001 2.28219240933997,44.5637261310023,354.152700000006 2.28174012196746,44.5636614227126,348.159799999994 2.2802265173076,44.5634371227418,340.226899999994 2.27934256159328,44.5635633543442,335.170299999998 2.27872883887938,44.5636744983973,333.826700000005 2.27837545781629,44.5636748337697,331.380799999999 2.27813607116611,44.5635858179329,332.968099999998 2.27806348369788,44.5634599217527,334.706600000005 2.27701289588827,44.5638230259359,329.147700000001 2.2760769726348,44.5640454811626,327.076300000001 2.27503694631796,44.5642308887759,328.788400000005 2.27465221674639,44.564490560588,330.856400000004 2.27377865453993,44.5648464562978,331.655400000003 2.27290509233346,44.565061703037,333.323000000004 2.27223956916703,44.5650692468153,337.444699999993 2.27113684673157,44.5648023672201,341.295299999998 2.26905629014306,44.5641353353605,346.950100000002 2.26680960541409,44.5634535515735,351.939199999993 2.26559272058077,44.5631499588903,351.475200000001 2.26489568092091,44.5631129107756,350.761100000003 2.2647111121643,44.5631021819545,350.263600000006 2.26417819021526,44.563268646465,347.201100000006 2.26341443178094,44.5633243026432,342.798999999999 2.2622434796047,44.5637506061198,334.574699999997 2.26047523310452,44.5643064939974,315.147599999997 2.25998019760256,44.5644023831399,308.465299999996 2.25888837173153,44.5646241679774,302.731 2.25816601844526,44.5646177979256,299.197199999995 2.25756285722413,44.5647217334281,293.565900000001 2.25699087562823,44.5646627249199,285.533899999995 2.25655417851748,44.5646405964739,281.750199999995 2.2563776559709,44.5647446996187,277.231100000005 2.2563045654461,44.5648778046562,274.377399999998 2.25623231394782,44.565018955581,273.070900000006 2.2560239398362,44.5650263316827,271.260800000004 2.2553483582335,44.5650635475412,263.689199999993 2.25516110620917,44.5649597796919,261.947 2.25480772514608,44.5647155304302,258.298200000005 2.25452022652591,44.5645701885989,256.303100000005 2.25340107480224,44.5645822586178,247.944600000003 2.25302707381011,44.5644032209203,242.480599999995 2.25205846086343,44.5643222518463,230.547200000001 2.25192636270258,44.5644635705231,229.254199999996 2.25202024024302,44.5646711065266,230.137300000002 2.25175000724264,44.5649083145845,224.016900000002 2.25175302468369,44.565125237915,221.766000000003 2.25154213618756,44.5650271700941,218.985499999995 2.25140701968737,44.5648270102078,219.971300000005 2.25091835503742,44.5645160414866,214.660699999993 2.25080419353786,44.5644124409848,213.626000000004 2.25068969696671,44.5642049053385,212.528900000005 2.25055474755314,44.5640791769031,211.0723 2.25079447017324,44.5636833832049,212.762100000007 2.25046925219262,44.5635182594543,208.160099999994 2.2495147212363,44.5636937765464,206.832800000004 2.2485995849985,44.5637309926174,209.449999999997 2.24822139336558,44.5638143081954,214.137799999997 2.24811527897431,44.5639643445454,215.334600000002 2.24821301208399,44.5643854515236,218.211899999995 2.24782995876874,44.5643462243003,220.928100000005 2.24733090061095,44.564175903564,221.841499999995 2.24692538402371,44.564050175066,219.934999999998 2.24673813199938,44.5640781707929,218.981499999994 2.24641006456266,44.5641661810477,221.884900000005 2.24611418286425,44.5645544308171,231.217300000004 2.24613497077825,44.5647545903614,232.969800000006 2.24623924092825,44.5650142617559,241.970300000001 2.24666571251611,44.5652217977148,243.436400000006 2.24667929144993,44.5653344502921,246.808199999999 2.24644727996825,44.5658682097761,258.727299999999 2.24618744137401,44.5659335888898,261.126699999993 2.24574303222655,44.5660894923874,262.642200000002 2.24556634169498,44.5667553504984,276.2405 2.24563943221975,44.5670264213671,280.347299999994 2.24613731717777,44.5671043729836,284.315100000007 2.24618626727594,44.567519445247,287.468200000003 2.24633328645364,44.567979444101,290.057799999995 2.24660418959723,44.5682044138898,291.806899999996 2.24663520213579,44.5685502515093,290.873999999996 2.24703334265626,44.5696353726091,280.444900000002 2.24692672520841,44.5702031630328,277.147599999997 2.24672924766122,44.5708926583947,275.926200000002 2.24653160212903,44.5714187061735,275.004700000005 2.24609490501828,44.5717967300228,281.094200000007 2.2458452919469,44.5723526178016,282.715100000001 2.24567916200985,44.5728714577275,285.125700000004 2.24557137136227,44.5726654304872,285.9519 2.24543977535967,44.5729752255412,285.792100000006 2.24523525681725,44.5730982720417,290.366200000004 2.2447802870753,44.5733173751051,294.849100000007 2.24445171658202,44.5733976738239,302.506699999998 2.24392147700241,44.5732494817329,311.253599999996 2.24352216328223,44.5733423530016,318.7111 2.24259126969601,44.5737854204382,326.713199999998 2.24165417234443,44.5744945292846,337.723299999998 2.24133197180486,44.5747464892552,338.777799999996 2.24098144109616,44.5748641715614,343.921000000002 2.24070802356807,44.5750504175126,344.363500000007 2.24050082265622,44.5750589665557,345.626399999994 2.24040744817232,44.5749256947656,345.500499999995 2.24031139131899,44.5749763210605,345.681400000001 2.24000193158509,44.5753556860417,346.657600000006 2.23976288000652,44.5758892780595,346.884300000005 2.23967989903044,44.5762674699344,345.176600000006 2.23949331804763,44.5763693933018,345.118100000007 2.23918436137027,44.5765712296322,344.698699999994 2.23886869876931,44.5767343416597,343.591 2.23832806568188,44.5768159813261,343.021999999997 2.2375272589286,44.5768086054398,342.843500000003 2.23664749385508,44.5769683644839,341.730500000005 2.23542608330935,44.577423669369,342.030199999994 2.23443802453173,44.5778905414093,339.141900000002 2.23380368188879,44.5780536529354,335.982600000003 2.23302936196166,44.5784082076904,330.624599999996 2.23204582889642,44.5789206775723,328.660600000003 2.23109247203821,44.5795493197921,327.218699999998 2.23049601584239,44.5798321253131,324.274399999995 2.22995538275493,44.5799880286674,323.498200000002 2.22864327919644,44.5804902728016,322.991899999994 2.22849927835808,44.5807216130328,321.137600000002 2.22847849134242,44.5810402927537,318.098499999993 2.22851000693752,44.5813888123476,309.112899999993 2.22840037204866,44.5816144532705,306.255300000004 2.22800122541511,44.5818074047123,304.347500000003 2.22758447719186,44.5819594523186,300.320000000007 2.2268148509621,44.582115188094,298.150599999994 2.22642626582133,44.5822492988447,293.461899999995 2.22624270227954,44.5825471915318,287.993499999997 2.22600365070097,44.5826415719905,283.282900000006 2.22575822827039,44.5826621913031,281.574500000002 2.22504677244685,44.5826343631951,276.660900000003 2.22489103691594,44.582686498499,276.090200000006 2.22478726892419,44.5828273144511,275.867499999993 2.22454821734563,44.5826866661304,278.943199999994 2.22437169390072,44.5826129057147,282.537599999996 2.22429022209433,44.5826804637688,283.817899999995 2.22488164862291,44.5831909215448,267.677200000006 2.22495473914768,44.5833540335569,265.889200000005 2.22520468729064,44.5834950174406,262.852700000003 2.22545849190114,44.5836494119125,257.517600000006 2.22576661045031,44.5836879683993,252.281600000002 2.22605813262464,44.5838437040229,244.841499999995 2.22627690024408,44.5841255040053,234.281300000002 2.22664117787159,44.5842738635175,221.230599999995 2.22693270094422,44.5842963267851,215.779200000004 2.22730737207955,44.5845112392291,206.122700000007 2.2276092877617,44.5847261508785,198.070200000002 2.22813986241293,44.584704023028,198.883799999996 2.22867060415075,44.584719109967,198.848899999997 2.22863942362726,44.5848005823131,198.268500000006 2.22861880459652,44.5849341897525,197.706600000005 2.2286312094323,44.5850952898586,193.717699999994 2.22885735311854,44.5857054927213,180.747799999997 2.22933679835874,44.5864826624084,181.7399 2.22974130883286,44.5870264807099,184.719700000001 2.23008597264441,44.5872754229907,185.471799999999 2.23097043141531,44.5874757506503,187.832699999999 2.23090806946994,44.5877498386484,187.743600000002 2.23120998605041,44.5881354065177,188.687900000004 2.23150150822474,44.5884467102142,189.961299999995 2.23177542880938,44.5888790485301,192.456200000001 2.23216753444775,44.5891876702802,194.972099999999 2.23228219900389,44.5893286540902,196.6921 2.23236551505152,44.5898102781691,201.200100000002 2.23236568303647,44.5902696068349,205.126000000004 2.23220977952061,44.5907068069451,209.506200000003 2.23225168862357,44.5908700859473,210.160600000003 2.23214808861678,44.5910184455185,211.992899999997 2.2319918500293,44.591062702161,213.006699999998 2.23175279755244,44.5911963099207,214.232499999998</coordinates>
</LineString>
</Placemark>
</Folder>
</Document></kml>
