<?xml version="1.0" encoding="UTF-8"?>

<kml xmlns:xsd="http://www.w3.org/2001/XMLSchema" xmlns:gx="http://www.google.com/kml/ext/2.2" xmlns:atom="http://www.w3.org/2005/Atom" xmlns="http://www.opengis.net/kml/2.2">
<Document>
<name>FR03a_08a_saint_come_dolt_espalion-estaing</name>
<visibility>1</visibility>
<Schema name="FR03a_08a_saint_come_dolt_espalion-estaing" id="kml_schema_ft_FR03a_08a_saint_come_dolt_espalion-estaing">
<SimpleField type="xsd:string" name="id">
<displayName>id</displayName>
</SimpleField>
<SimpleField type="xsd:string" name="nombre">
<displayName>nombre</displayName>
</SimpleField>
<SimpleField type="xsd:double" name="longitud">
<displayName>longitud</displayName>
</SimpleField>
<SimpleField type="xsd:string" name="_formato">
<displayName>_formato</displayName>
</SimpleField>
</Schema>
<Folder id="kml_ft_FR03a_08a_saint_come_dolt_espalion-estaing">
<name>FR03a_08a_saint_come_dolt_espalion-estaing</name>
<Placemark id="kml_1">
<name>&lt;img height='20' src='https://nco.ign.es/iconos/icono_todos_caminos_azul.png' /&gt;&lt;img height='20' src='https://nco.ign.es/iconos/Camino Santiago_20.png' /&gt;&lt;img height='20' src='https://nco.ign.es/iconos/icono_todos_caminos_azul.png' /&gt;  Camino de Santiago </name>
<visibility>1</visibility>
<description><![CDATA[<!DOCTYPE html>
<html>
<head>
<style>
#nco {
  border-collapse: collapse;
  overflow:hidden;
}
#nco th, #nco td {
  padding: 4px;
  text-align: left;
}
#nco th {
  color: #364B5F;
  padding-right: 5px;
}
#nco td {
  color: rgb(51, 51, 51);
  font-size: 12px;
  padding-right: 5px;
}
</style>
</head>
<body>
<table id="nco">
<tr>
<td>Via Podiensis Le Puy en Velay</td>
</tr>
<tr>
<th><b>Camino: </b></th>
<td>FR03a Via Podiensis Le Puy en Velay</td>
</tr>
<tr>
<th><b>Etapa: </b></th>
<td>08a Saint Come d'Olt Espalion-Estaing</td>
</tr>
<tr>
<th><b>Longitud: </b></th>
<td>20.44 km</td>
</tr>
</table>
</body>
</html>]]></description>
<Style>
<IconStyle>
<scale>0.8</scale>
</IconStyle>
<LabelStyle>
<color>ffffffff</color>
<scale>0.75</scale>
</LabelStyle>
<LineStyle>
<color>ffff0000</color>
<width>3.0</width>
<gx:labelVisibility>1</gx:labelVisibility>
</LineStyle>
<PolyStyle>
<color>66ff0000</color>
</PolyStyle>
</Style>
<ExtendedData>
<SchemaData schemaUrl="#kml_schema_ft_FR03a_08a_saint_come_dolt_espalion-estaing">
<SimpleData name="id">FR03a_08a</SimpleData>
<SimpleData name="_formato">kml</SimpleData>
</SchemaData>
</ExtendedData>
<LineString>
<extrude>0</extrude>
<tessellate>1</tessellate>
<coordinates>2.81418979163109,44.5157692394356,373.170700000002 2.81414100861958,44.5151702685082,372.707500000004 2.81445348669283,44.5151773095109,373.751199999999 2.81492253752688,44.5151496489732,373.790800000002 2.81489035089024,44.5150103416918,373.413199999995 2.81497132053836,44.5149407724801,373.560100000002 2.815069053648,44.5148432068486,372.3799 2.8149617651587,44.5147391034805,370.125199999995 2.81488347787998,44.5146621578668,368.044399999999 2.81506922073466,44.5145303939842,367.689499999993 2.81563566960674,44.5143493453116,366.487099999998 2.81607538505685,44.5142172463456,364.2402 2.81652465498831,44.5140571522874,363.173299999995 2.81649565287939,44.5138206145533,359.275800000003 2.81653471252625,44.5134932173442,355.272800000006 2.81623212580257,44.5127899758852,350.078099999999 2.81607605520005,44.5122679507575,350.054099999994 2.81507995021243,44.5119893361773,349.503400000001 2.81438911341959,44.5117833092508,348.536300000007 2.81242372444376,44.5111467875996,346.243900000001 2.81106635926965,44.5106802505591,348.202799999999 2.80995827209535,44.510341453989,348.996400000004 2.80947463621436,44.5099909232463,349.555399999997 2.80884012558646,44.5093225501955,348.1489 2.80808793385974,44.5084937475124,346.809200000003 2.80772667367327,44.508270789117,348.275500000003 2.80719308158103,44.5080712995395,347.009999999995 2.80656494180511,44.5077279770661,353.879300000001 2.8060474430312,44.5074981448632,355.539199999999 2.80564729118283,44.507390353649,357.852299999999 2.80530530974068,44.5072476939078,355.463099999994 2.80421163873004,44.5072619431128,351.449099999998 2.80374309005427,44.5072969792804,350.100200000001 2.80347822269105,44.5071873439184,352.769799999995 2.80293272792129,44.5068584385172,357.392500000002 2.80242528758362,44.5066934822102,358.887499999997 2.8020442464946,44.50675416713,358.701000000001 2.80123723687426,44.5067142693842,361.915999999997 2.80081411779904,44.5066012816797,367.865999999995 2.80044330313121,44.5065875352246,370.740300000005 2.80010903282747,44.5064961724998,371.751699999993 2.79956337097106,44.5061774925521,391.9329 2.79952548452398,44.5060514286344,394.517399999997 2.79928157126308,44.5060445556627,391.682700000005 2.79933052136122,44.5058774200927,399.835300000006 2.79921351040556,44.5057592356504,408.536200000002 2.79904637525369,44.5056274721405,415.329700000002 2.79885258529071,44.5058779230101,410.171400000007 2.79854999856703,44.5060732218688,403.378400000001 2.79830591732119,44.506177995467,401.466499999995 2.79798354969495,44.5062128637937,406.062000000005 2.79772002261817,44.506282601666,403.023100000006 2.7972903665026,44.5063313843004,406.943799999994 2.7969674949215,44.5062492414831,412.290699999998 2.79678275817997,44.5061922442928,416.6878 2.79669508350655,44.5059833677283,419.233200000002 2.79647078406155,44.5058373545346,423.687399999995 2.7963537722076,44.5054266415758,428.722899999993 2.79606107593519,44.505022969234,432.945300000007 2.79590517241933,44.5048072192062,438.439799999993 2.79571942956466,44.5046469570698,441.010200000004 2.7954431625805,44.5044484737632,444.892099999997 2.79530972233663,44.5043059810862,450.341700000004 2.79518298801635,44.5042781532976,452.713600000003 2.79507586751197,44.5044384151665,449.104399999997 2.79469516149457,44.5046335458664,445.586200000005 2.79422661281876,44.5046824964556,448.016300000003 2.79366033193167,44.5047800617989,451.067200000005 2.79318205989125,44.5048360525951,453.629799999995 2.79295742537467,44.5047872699907,458.627999999997 2.79283069105439,44.5046967456469,464.357300000003 2.79298106184643,44.5045983421635,464.583899999998 2.79308482983815,44.5044878682084,464.305800000002 2.79310746109509,44.504414443025,463.788100000005 2.7929386496869,44.5043557693139,468.943599999999 2.79238225925105,44.5044464620441,474.448799999998 2.79191371057528,44.5044395888831,487.274399999995 2.79149394491102,44.5044117605176,496.493300000002 2.79115213055552,44.5045093263141,500.156300000002 2.79075818157418,44.5046374014355,501.248900000006 2.79083009800088,44.504446797117,505.106499999994 2.79096689075739,44.504244793249,504.718500000003 2.79128942636858,44.5040220024763,509.923200000005 2.79178781438317,44.5037715506805,513.709600000002 2.79220121009378,44.5035162382121,513.831099999996 2.79226658858183,44.5033886654886,515.5101 2.79204228913687,44.5033051820506,517.323699999994 2.79168086096544,44.5033400508143,518.544800000003 2.79043447186492,44.5036433077198,517.176500000001 2.78909286493755,44.5040855373543,514.438099999999 2.78839951376024,44.5043225771669,513.151400000002 2.78812525810399,44.5043554342404,508.884399999995 2.78738396204332,44.5043854415705,499.208899999998 2.78669077885097,44.5045527441494,491.887400000007 2.78611142208656,44.5047024450662,487.515499999994 2.78510710200565,44.5051435006518,475.959099999993 2.78499159932139,44.5052284934297,476.340500000006 2.78497232147538,44.505528230319,480.001600000003 2.78486318874476,44.5058013129347,482.539199999999 2.78477719032767,44.5059324052822,482.514800000004 2.78526585587594,44.5061416177332,483.209000000003 2.78579358017274,44.5063228347694,482.356400000004 2.78616489879544,44.5065042190933,481.726800000004 2.78643865139512,44.5069430956581,481.179600000003 2.7865853346029,44.507207963708,480.257100000003 2.78667334434793,44.5076329260432,472.781099999993 2.78687870101851,44.5081973635735,458.612200000003 2.78688875945474,44.5087339731796,449.547600000005 2.78680929897628,44.5092293435621,444.637300000002 2.78642993414358,44.5097302459456,443.2647 2.78601000049436,44.5102735608073,441.739100000006 2.78571730512029,44.5105315560147,439.994999999995 2.78548428752546,44.5109023714368,437.887900000002 2.78489721962267,44.5111308622498,436.897100000002 2.78458474244772,44.5113608614181,437.555200000003 2.78456529571845,44.5115975660819,434.652900000001 2.78461441380158,44.5118136516314,429.691999999995 2.78444861983441,44.5120577327869,433.461299999995 2.78413631064441,44.5121832936634,439.825200000007 2.78381411010484,44.5123504290887,447.458199999994 2.78367631123518,44.5125832778931,455.492100000003 2.78362886940841,44.5130332189159,458.492400000003 2.78360959156243,44.5134861767787,462.103400000007 2.78343927098455,44.5139522102895,468.148700000005 2.78301414058139,44.5142732376853,468.769199999995 2.78273116767364,44.5144197530888,472.830799999996 2.78234928845646,44.5147924122892,470.091 2.78203798448128,44.5147821863693,472.407300000006 2.78187219051411,44.5147057436537,473.325700000001 2.78166431945906,44.5146951827045,473.651299999998 2.7814427014852,44.5149915662697,473.664699999994 2.78132837289901,44.5154113320461,472.362500000003 2.78105445231434,44.5155824904921,470.702499999999 2.78110105511466,44.5156951437137,467.956200000001 2.78101338044125,44.5158207044399,468.979000000007 2.78096476541469,44.5159811337843,468.906700000007 2.78086736827496,44.5161972197346,466.419099999999 2.78086435083391,44.5163774305998,402.777199999997 2.78067207004062,44.5162738302381,446.775699999998 2.78049655270884,44.5162253826031,467.771999999997 2.78044776969733,44.5160931162232,472.691600000006 2.78017452015422,44.5159261484659,474.773700000005 2.77995994317554,44.5156337878367,477.944600000003 2.77951067324408,44.5154039560618,478.813099999999 2.77927648244951,44.5152788979145,479.414600000004 2.77916332706306,44.5151851883611,478.491899999994 2.77885671678524,44.515125844579,477.663499999995 2.77833938599626,44.5152443648976,469.379199999996 2.77766129000909,44.515410494201,453.649399999995 2.77674347140185,44.5152983439058,437.119300000006 2.7764155719501,44.5152443648976,434.855899999995 2.77637667938986,44.5150494016736,437.6443 2.77644524330393,44.5149312166116,438.123800000001 2.77650391676671,44.514798950497,438.833700000003 2.77609370648211,44.5148616473055,430.505999999994 2.775908466684,44.5149870400795,424.009000000005 2.77581710352804,44.5153204725368,418.5717 2.77597669552645,44.5154537444185,416.233699999997 2.77627944933679,44.5156626216351,422.568899999998 2.77647508264271,44.5157323590905,425.012300000002 2.77645563681178,44.5159554855908,416.709799999997 2.7764162420933,44.5161154123755,413.543000000005 2.77629956620926,44.5160947925344,409.096699999995 2.77608482124565,44.5159834807526,404.508499999996 2.77590930481216,44.5159417387796,405.713199999998 2.77583135260507,44.5161090421387,398.266099999993 2.77561660853976,44.5162203536806,392.621299999999 2.77531385383113,44.5165618319724,376.943299999999 2.77488419771559,44.5167638360716,364.665699999998 2.77445470958497,44.5167988722923,358.699800000002 2.77420107295947,44.5168548637137,353.389899999995 2.77392782251803,44.5170080848124,352.012799999997 2.77333237243532,44.517126605146,344.150999999998 2.77295166641789,44.5171825962525,343.417100000006 2.77259057421642,44.5173567721712,344.413100000005 2.77240499844836,44.5174960789675,343.245299999995 2.77231732377495,44.5176216402969,342.477199999994 2.77173159615856,44.5178098975542,341.736099999995 2.77200518167161,44.5179354588479,341.251499999998 2.77212722229455,44.5180653780048,340.935500000007 2.77222998417315,44.5182630232567,340.043600000005 2.77224456922009,44.5185838827875,339.282999999996 2.77223015215811,44.5189942602793,338.278399999996 2.77219763044989,44.5195875317268,337.738800000006 2.77251362812244,44.5195724445473,337.810200000007 2.77276055882434,44.5195372402594,337.9516 2.77296306603886,44.5198163574191,337.366800000003 2.77310002588203,44.5203177631943,337.888099999996 2.77319775899167,44.5208469967154,338.362899999993 2.7730710246714,44.5210142994408,337.972899999993 2.77309080557395,44.521146901156,337.979300000006 2.77306700111723,44.5212612300303,338.127900000007 2.77320798451453,44.5214531756275,338.5092 2.7730421905474,44.5219406669238,339.474400000006 2.77267103990966,44.522135630148,339.379799999995 2.77241740418245,44.5223585886616,340.2978 2.7722028272038,44.5225190185793,340.442200000005 2.77185145746861,44.5226794480552,341.316500000001 2.771529424914,44.5227632668927,340.783100000001 2.77115827427625,44.5228606649092,340.075700000001 2.770767174751,44.5228325014049,339.010800000004 2.77036735797425,44.5227144845617,337.7304 2.7699930219105,44.5226819625581,337.189700000003 2.76910185811438,44.522464703605,337.745200000005 2.76867790180929,44.5223942959412,338.516600000003 2.76777014163829,44.5219767094317,342.274000000005 2.76696933398668,44.5216843484172,340.876000000004 2.76593400136721,44.5213710329861,337.715700000001 2.76539705676233,44.5212111065352,338.708100000003 2.76503579657586,44.5212111065352,339.152100000007 2.7646683344207,44.5211935045688,341.191600000006 2.76423515780754,44.5212111065352,342.149900000004 2.76394246153514,44.521329626646,342.851299999995 2.76374699531584,44.5214758066255,343.829199999993 2.76376677711673,44.5216917248876,341.850300000006 2.76324927834278,44.5220192893149,340.113299999997 2.76338623818595,44.522172678089,339.678100000005 2.76328733187653,44.5222533119122,339.134099999996 2.76291752242352,44.5224025100662,338.715500000006 2.76257570806802,44.5226395503231,337.7215 2.76216583285504,44.5229252052881,336.886599999998 2.76136502610173,44.5233711224637,335.720199999996 2.76067184290937,44.523754175488,335.258100000006 2.76004705564612,44.524200092723,334.483399999997 2.75956878450403,44.5245553183465,334.231400000004 2.75910224805446,44.5247873293462,333.939599999998 2.75883637367982,44.5250218551047,333.565400000007 2.75840671756428,44.5253633336905,333.701400000005 2.75811368622027,44.5256139527266,333.950800000006 2.75780137613197,44.525760467794,334.100099999996 2.757577076687,44.5255866276117,334.216700000004 2.75703007364586,44.5249529555877,334.200500000006 2.75679571576466,44.5252872257196,334.489799999996 2.75644619027075,44.5254791715018,334.486900000004 2.75557514244879,44.5257680115436,333.723700000002 2.75494532641655,44.5260164513501,332.865300000005 2.75391485547941,44.5262834985758,332.486199999999 2.75226445896134,44.5266457645607,333.299400000004 2.75212783329146,44.5263534039219,334.828399999999 2.75199137650486,44.5261168667891,336.350000000006 2.75185491881994,44.5259012838662,342.309099999999 2.75179624535715,44.5257619766721,344.873900000006 2.7515816692768,44.5257901400411,344.819000000003 2.75099594166041,44.5260898768586,341.526299999998 2.75047860997313,44.5263547449909,339.611699999994 2.75028347972375,44.5263966543425,339.583299999998 2.75001006219566,44.5263896140551,339.681800000006 2.74981476396132,44.5261529086346,343.3364 2.7492263539755,44.5255024734014,350.080700000006 2.74886760817351,44.5249693837556,354.2068 2.74854239109122,44.5239702614328,358.736199999999 2.74755919309756,44.5242245684525,358.776400000002 2.74691479291672,44.5244198666773,357.095700000005 2.74665126583993,44.5244688166603,356.660799999998 2.74649519433908,44.5245175994436,356.554799999998 2.74634901418784,44.5244481972135,357.0864 2.74544091894522,44.5245181022002,356.612699999998 2.74439619893105,44.5247341878732,354.197899999999 2.74355432030464,44.5248843915851,356.260500000004 2.74292165391805,44.5252495072907,357.661600000007 2.74201355867543,44.5259530844771,354.019899999999 2.74151936130163,44.5263713411976,352.723899999997 2.74100789830812,44.5265939645657,350.598800000007 2.7405296262677,44.5267471856705,348.198799999998 2.74025637672456,44.5270537957435,344.956699999995 2.73929933048548,44.5274298080866,341.970300000001 2.7381567093767,44.5278267750418,338.225099999996 2.73694569233882,44.5280983487464,332.314899999998 2.73582285303089,44.528335388882,332.187900000004 2.73549076204004,44.5283561760217,331.763600000006 2.73486580679181,44.5279665851482,335.862399999998 2.73441687193196,44.5277161337771,338.464699999997 2.73353777789997,44.527514297655,339.2353 2.73257117717952,44.5273335839201,338.785300000003 2.73195544223939,44.5270993934454,339.304799999998 2.73095011694366,44.526498075886,342.875100000005 2.73034343522498,44.5261401684336,343.961299999995 2.73009097179921,44.5261084847529,343.234400000001 2.72957330593861,44.5261363123656,340.309899999993 2.72902663796911,44.5260529966416,340.047399999996 2.72821627583614,44.5258372463275,340.032099999997 2.72808149440753,44.525870271236,343.400500000003 2.72795928669797,44.5260484700298,346.9133 2.72825550256966,44.5264003425997,348.171700000006 2.72809926398219,44.5265198685196,353.423800000004 2.7283044535661,44.5268544742108,362.176099999997 2.72804075850436,44.5268192698401,367.750100000005 2.72810932241842,44.5269657857184,367.230100000001 2.72788502297342,44.5269869082902,375.820300000007 2.72747514776044,44.5268201081616,377.915200000003 2.72675028098799,44.5264663917594,379.455499999996 2.72632263620038,44.5265136659327,384.801300000006 2.72602960485636,44.5266737603501,390.611699999994 2.72587722183809,44.5268494449248,391.688599999994 2.72578552361051,44.5270152388589,399.857999999993 2.72562928502304,44.5273632553659,412.0101 2.72553322816971,44.5275914107381,417.910699999993 2.72537564839753,44.5277325624466,423.4948 2.72532938066882,44.5281513219235,434.449800000002 2.72550255070276,44.5282825830201,439.068700000003 2.72562744078176,44.5284872688691,442.570900000006 2.72550540015885,44.5286473629855,445.613700000002 2.72516090433222,44.5288398119422,456.662899999996 2.72468263319013,44.528993032903,465.984599999996 2.72377638129046,44.5293232799041,477.414300000004 2.7229737302959,44.5294250364045,480.3459 2.72241733986006,44.5294459909401,480.865099999995 2.72212430851607,44.5294320769653,482.805900000007 2.72179255259681,44.5293068510428,483.378899999996 2.72148979788817,44.5291330105574,484.357799999998 2.72080633806043,44.5290285721725,484.806500000006 2.72038657239617,44.5289662108106,483.650699999998 2.72009219986745,44.5288312618708,483.752500000002 2.71952742725169,44.5287715829648,486.128700000001 2.71907849239184,44.5287648772573,487.382700000002 2.71881245093055,44.5288002488792,487.258199999997 2.71831691237205,44.5290924422593,483.502600000007 2.71801315244863,44.5293283089765,483.021999999997 2.71671345462418,44.5299183948917,477.827300000004 2.71615874044469,44.5300117695182,476.587100000004 2.71554367654605,44.5300258511376,479.785799999998 2.71488955210223,44.5300957558349,482.860499999995 2.71464429765664,44.5302563533604,483.011899999998 2.71422570609042,44.5304789766091,484.007700000002 2.71352279953344,44.5306672339467,483.6008 2.71290136478283,44.5308164323247,479.553700000004 2.71274177368272,44.5309321023977,477.554799999998 2.71257597971555,44.5312943682886,475.361799999999 2.71232619865922,44.5314564744416,473.852100000004 2.71200969793013,44.5315382813929,476.708599999998 2.71185345934265,44.5317610726429,477.411399999997 2.71158993226583,44.5319841985955,478.872000000003 2.71159999070207,44.5322906415008,479.404999999999 2.71142950303756,44.5323672519752,481.591799999995 2.71077990520448,44.5324996856874,485.296700000006 2.7101355050236,44.5327645541295,486.7111 2.70963745208063,44.5327786357238,485.748900000006 2.70963745208063,44.5328483731842,486.000899999999 2.70981347157066,44.5331409016554,486.036699999997 2.71002855160588,44.5332595889621,486.525200000004 2.71034136385245,44.533586818754,487.853900000002 2.71054655343636,44.5339769124902,488.076199999996 2.71069323664418,44.5342416128462,486.646399999998 2.71079113684045,44.5343530920949,485.704299999998 2.7108432723646,44.5345002786732,484.659299999999 2.71085970075452,44.5347223990397,482.299599999998 2.71086003672443,44.5353144966668,479.939400000003 2.71094821355609,44.5360179061741,478.587400000004 2.71090932189419,44.5364497416706,480.061100000006 2.71092843265354,44.5367535018303,481.285699999993 2.71108534228255,44.5369928887205,480.997099999993 2.71119028347404,44.5372694916137,482.611199999999 2.71126136177258,44.5375568235244,482.197499999995 2.71120285629475,44.5378283973217,479.689700000003 2.71081008051318,44.538204241499,484.125799999994 2.71027531432286,44.5386707784262,480.526299999998 2.70984331180777,44.5390893702569,476.675799999997 2.70946478510326,44.5393463593975,472.621299999999 2.70903211064835,44.5395163449489,467.609500000006 2.70860563995878,44.539499748646,465.152100000007 2.7080686953539,44.5395626128809,456.655899999998 2.70795151551496,44.5396601780953,455.913799999995 2.70802343283999,44.539868384586,452.884600000005 2.70830338830672,44.5401129686518,446.769100000005 2.70853003504954,44.5402504314466,448.295700000002 2.70901668837154,44.5403498414364,443.523499999996 2.7094466795587,44.5405308899875,438.939899999998 2.70971037462047,44.5405308899875,435.980200000005 2.70994506757326,44.5405518450092,435.417000000001 2.70976938315484,44.5406286232528,432.061799999996 2.70927149819683,44.5406707003305,433.915500000003 2.70886162298384,44.5408866185134,421.7742 2.70844168933459,44.5409424414421,419.241599999994 2.70823817690529,44.5409893805277,415.963600000003 2.7079243585456,44.5408800800319,418.248600000006 2.70733829585763,44.5407060717646,413.675499999998 2.70712371887898,44.5406225880002,413.375100000005 2.7065572700069,44.5406713707002,404.218200000003 2.70597422475995,44.5406691918387,393.648100000006 2.70590314646141,44.5407481494265,392.451499999996 2.70572762912962,44.5408388412253,388.460699999996 2.70558144897838,44.5411801521683,383.222299999994 2.70526126066504,44.5412393285521,379.989499999996 2.7052788622547,44.5413474554002,380.1921 2.70502522562916,44.5413058807831,377.996599999999 2.7044296075615,44.5414104873113,374.383900000001 2.70380482119658,44.5415150930112,371.129700000005 2.70369736472228,44.5414213834003,370.371199999994 2.70374631482042,44.5409513265195,368.589200000002 2.70368797732758,44.5405129532308,365.155700000003 2.70366869858324,44.5401304029098,364.541299999997 2.70359057928951,44.5398170874502,363.415999999997 2.70328329886847,44.5395974817214,361.201700000005 2.70314164442964,44.5394690704444,361.806700000001 2.70266303821593,44.5394482834294,356.897100000002 2.70230194511612,44.5394486189414,356.334600000002 2.70197639206392,44.5391943117989,359.609599999996 2.70171621839806,44.5391074752092,360.468399999998 2.70122805590637,44.5386483148235,362.922600000005 2.70088640953583,44.5382724703112,362.892900000006 2.70050553643177,44.5382238552818,361.475999999995 2.69981218525445,44.5384396051753,358.711899999995 2.69841559244852,44.5389897935592,356.748699999996 2.69698010798071,44.539616424653,352.986399999994 2.69533960191389,44.5402638427772,351.308099999995 2.69503701519024,44.5403406207604,350.851599999995 2.69377738222748,44.5405077560907,348.705400000006 2.69247835544456,44.5406539366041,346.940900000001 2.69177829834365,44.5407734627258,346.408500000005 2.69155081347268,44.5406611448406,345.698300000004 2.69095536338997,44.5401183329409,344.123500000002 2.69073106304667,44.5397424883133,344.130300000004 2.69032085276207,44.5389906317056,343.886799999993 2.68981324533773,44.5381207579892,345.424700000003 2.6894715989672,44.5376267281466,347.055399999997 2.68934218227749,44.5375434122106,347.414499999999 2.6889834364755,44.5378357730284,345.821299999996 2.68839770885911,44.5381422152367,345.181299999997 2.68763445348133,44.538573380593,344.754199999996 2.68745055396963,44.5387061497946,344.463399999993 2.68689416353378,44.5395485310061,343.747099999993 2.68638035324242,44.5402172392546,342.833400000003 2.68541961941908,44.5408784037935,341.857600000003 2.6849022877318,44.54112919041,339.565400000007 2.68423844171999,44.5417420750424,335.126600000003 2.68355498099395,44.5423967018814,333.210800000001 2.68313521532969,44.5424666070955,332.299799999993 2.68308660030314,44.5427800901291,332.601599999995 2.68314527376592,44.5431002787336,331.474199999997 2.68290035439191,44.5431923120315,329.605899999995 2.68253020986729,44.5432675815697,328.243199999997 2.68201287818001,44.5431772245631,325.607300000003 2.68152136317567,44.5432762985472,324.604300000006 2.68134903126986,44.5434139299411,323.104800000001 2.68128331771022,44.5435891113665,327.684099999999 2.68140787271761,44.5437829009146,328.395900000003 2.68142932987651,44.5440268142106,336.207399999999 2.68173024034384,44.5441309177443,332.216700000004 2.68175974461104,44.5444931834781,337.378100000002 2.68164256567042,44.5450012945195,342.169999999998 2.68155522606863,44.5454611256958,348.351800000004 2.68172102093409,44.545829929401,347.097800000003 2.68177986148351,44.5461222902235,361.321200000006 2.68218034840346,44.546317253175,347.805500000002 2.68279625132858,44.5465593229256,343.222299999994 2.6830691658001,44.5467073467749,341.270900000003 2.68363444147241,44.5470603928688,344.781600000002 2.68451487668913,44.5472504941681,341.347099999999 2.68540402915732,44.5475016163296,339.484899999996 2.68613660706816,44.5477938093467,343.361099999995 2.68709365240895,44.5482393914469,335.459400000007 2.68749430731386,44.5485666209217,331.380999999994 2.68770921936412,44.5489215103575,329.173699999999 2.68771894272874,44.5491164735363,327.511100000003 2.68767015971726,44.5492765679179,326.735100000005 2.68747486148289,44.5494088344966,326.229300000006 2.68716221632298,44.5494366624994,326.232199999999 2.68694613107297,44.5494204012781,326.892000000007 2.68645914267934,44.5493743012255,328.6299 2.68569756265959,44.5494509116301,330.7454 2.68502399328312,44.5493954233522,331.738599999997 2.6841158980405,44.5492633244708,336.941200000001 2.68278820422025,44.5491743089916,329.979099999997 2.68212368716694,44.5488459056298,329.943100000004 2.68161440258795,44.5486921818596,330.723199999993 2.68073933211013,44.5485309136823,331.3361 2.67980927575377,44.5486579836224,335.311000000002 2.67916403744473,44.548925533926,335.9764 2.67865810537842,44.5491092650663,342.422900000005 2.6782468889807,44.5495280251147,330.641199999998 2.67789468201568,44.5500007642132,328.061799999996 2.67729973409122,44.5504748451069,329.733800000002 2.67671233021851,44.5508314110227,328.918099999995 2.67577473070869,44.5510753242323,330.461500000005 2.67542470215823,44.5511920007264,335.875799999994 2.67510635808617,44.5514427870842,331.153000000006 2.67470218268363,44.5517141930449,328.168799999999 2.67432147666623,44.5520692502131,325.122799999997 2.67385426917516,44.5523039439348,323.592799999999 2.67343299434121,44.5524244754943,319.1541 2.67291566355222,44.5524526387726,316.381899999993 2.67210530141928,44.5524249786502,312.890199999994</coordinates>
</LineString>
</Placemark>
</Folder>
</Document></kml>
