<?xml version="1.0" encoding="UTF-8"?>

<kml xmlns:xsd="http://www.w3.org/2001/XMLSchema" xmlns:gx="http://www.google.com/kml/ext/2.2" xmlns:atom="http://www.w3.org/2005/Atom" xmlns="http://www.opengis.net/kml/2.2">
<Document>
<name>FR03a_10a_golinhac-conques</name>
<visibility>1</visibility>
<Schema name="FR03a_10a_golinhac-conques" id="kml_schema_ft_FR03a_10a_golinhac-conques">
<SimpleField type="xsd:string" name="id">
<displayName>id</displayName>
</SimpleField>
<SimpleField type="xsd:string" name="nombre">
<displayName>nombre</displayName>
</SimpleField>
<SimpleField type="xsd:double" name="longitud">
<displayName>longitud</displayName>
</SimpleField>
<SimpleField type="xsd:string" name="_formato">
<displayName>_formato</displayName>
</SimpleField>
</Schema>
<Folder id="kml_ft_FR03a_10a_golinhac-conques">
<name>FR03a_10a_golinhac-conques</name>
<Placemark id="kml_1">
<name>&lt;img height='20' src='https://nco.ign.es/iconos/icono_todos_caminos_azul.png' /&gt;&lt;img height='20' src='https://nco.ign.es/iconos/Camino Santiago_20.png' /&gt;&lt;img height='20' src='https://nco.ign.es/iconos/icono_todos_caminos_azul.png' /&gt;  Camino de Santiago </name>
<visibility>1</visibility>
<description><![CDATA[<!DOCTYPE html>
<html>
<head>
<style>
#nco {
  border-collapse: collapse;
  overflow:hidden;
}
#nco th, #nco td {
  padding: 4px;
  text-align: left;
}
#nco th {
  color: #364B5F;
  padding-right: 5px;
}
#nco td {
  color: rgb(51, 51, 51);
  font-size: 12px;
  padding-right: 5px;
}
</style>
</head>
<body>
<table id="nco">
<tr>
<td>Via Podiensis Le Puy en Velay</td>
</tr>
<tr>
<th><b>Camino: </b></th>
<td>FR03a Via Podiensis Le Puy en Velay</td>
</tr>
<tr>
<th><b>Etapa: </b></th>
<td>10a Golinhac-Conques</td>
</tr>
<tr>
<th><b>Longitud: </b></th>
<td>20.71 km</td>
</tr>
</table>
</body>
</html>]]></description>
<Style>
<IconStyle>
<scale>0.8</scale>
</IconStyle>
<LabelStyle>
<color>ffffffff</color>
<scale>0.75</scale>
</LabelStyle>
<LineStyle>
<color>ffff0000</color>
<width>3.0</width>
<gx:labelVisibility>1</gx:labelVisibility>
</LineStyle>
<PolyStyle>
<color>66ff0000</color>
</PolyStyle>
</Style>
<ExtendedData>
<SchemaData schemaUrl="#kml_schema_ft_FR03a_10a_golinhac-conques">
<SimpleData name="id">FR03a_10a</SimpleData>
<SimpleData name="_formato">kml</SimpleData>
</SchemaData>
</ExtendedData>
<LineString>
<extrude>0</extrude>
<tessellate>1</tessellate>
<coordinates>2.58302176331347,44.6047490087375,644.991800000003 2.58284591180839,44.6048464064561,642.512900000002 2.58275806915002,44.6047907510024,642.525599999994 2.58298287165156,44.604624118818,645.601800000004 2.58274868175532,44.6046105400426,645.554999999993 2.58251449096075,44.6044159124991,650.859100000001 2.58240737045637,44.604346677796,651.825800000006 2.58197788142745,44.6041383035528,658.407500000001 2.5815970074251,44.6040269918748,663.259399999995 2.58101128070701,44.6037349661555,673.381599999993 2.58063023871969,44.6035721895564,676.369000000006 2.579829767038,44.6036446096702,675.711500000005 2.57883383003533,44.6037353019364,673.112399999998 2.5772323836154,44.6038050388005,672.664699999994 2.57656853670526,44.6038608627689,672.409 2.57591407718985,44.6038818173698,672.795499999993 2.57457632583169,44.6037290992625,672.729000000007 2.57410777715589,44.6036665697743,671.454700000002 2.57297504649839,44.6036737785197,667.4997 2.57247699445374,44.603715520278,663.415699999998 2.57203778295848,44.603806044863,660.694199999998 2.57185908020072,44.6039072982769,657.414600000004 2.57160829392957,44.6039731801852,655.929300000003 2.57122758791217,44.603806380004,652.054300000003 2.5710032884672,44.6036048793533,650.337599999999 2.57078837641694,44.6033822556587,649.083400000003 2.57051479090389,44.603208415109,648.338600000003 2.57021203619525,44.6032224969286,645.9568 2.56972370661693,44.6032573653591,643.507899999997 2.56871804624962,44.6035218983616,638.766099999993 2.56791740658296,44.6036890332222,638.060299999997 2.56745623397399,44.6036871893036,637.926500000001 2.56615972157556,44.6035918036926,636.838499999998 2.5653981415558,44.6035572699656,636.118900000001 2.56499413413822,44.6035763807538,635.529800000004 2.56408972647985,44.6038635445336,635.356799999994 2.56366996081556,44.6040791271781,637.688699999999 2.56307451073285,44.6044130625517,641.831999999995 2.56262557587297,44.6045035866893,645.478099999993 2.56217647302817,44.6046080252411,649.323399999994 2.56160046877639,44.6047402920156,652.5429 2.56129788205272,44.6051018868174,656.183999999994 2.56088549245525,44.6051744745095,657.269700000004 2.55996985316088,44.6052341537466,655.279800000004 2.55960876095937,44.6052829360027,655.431299999997 2.55930047442524,44.6053692696358,655.047099999996 2.55875933917954,44.6052623170398,652.994200000001 2.5580562655359,44.6050400284349,648.587599999999 2.55765577771762,44.6058953182295,645.688599999994 2.55739208355418,44.6057353911708,645.134699999995 2.55722612160208,44.6057285184507,642.3698 2.55706032763491,44.6058399976308,640.127699999997 2.55691934333928,44.6058141811628,637.935200000007 2.5567968005581,44.6057288535806,637.274699999994 2.55676779934747,44.6055414338205,632.809699999998 2.55647812051612,44.6054623089667,631.002800000002 2.55608433862143,44.6053401009981,624.668999999994 2.55456101149526,44.6050412020429,612.565900000001 2.55322124791083,44.6046224424972,606.8704 2.55303768436905,44.6044365317624,606.925300000003 2.5528034944728,44.604151714869,609.823499999999 2.55255941322695,44.604102931663,612.880799999999 2.5520710836486,44.6044019985376,608.667600000001 2.55162918978393,44.6045153215974,606.475099999996 2.55139751337384,44.604548178432,604.937399999995 2.55075277722308,44.6045133101366,602.553899999999 2.55009865367758,44.6043325962489,598.929000000004 2.54992531655699,44.6040923709384,601.120699999999 2.54974728484072,44.6038876848869,602.041700000002 2.54966933263363,44.6035958266779,603.906700000007 2.54945475565495,44.603415113134,603.170100000003 2.54874179156004,44.6033038013495,598.724799999996 2.5474333764841,44.602998029747,596.832500000004 2.54699416498887,44.6028520167231,597.880699999994 2.54647649822997,44.6026295609153,597.459199999998 2.54619352532221,44.6024974620261,596.922999999995 2.54599839417453,44.6023169158383,596.187300000005 2.54594944407636,44.6020823906315,597.266399999993 2.54614507738232,44.6018304301623,598.922300000006 2.54612579953631,44.6015873552922,596.960399999996 2.54586210447457,44.6013717723555,597.460000000006 2.54573520306763,44.6011147833762,598.123000000007 2.54548123137051,44.6009756440193,599.457800000004 2.54434850071301,44.6010592951239,604.033100000001 2.5433213822885,44.6010844408332,607.309699999998 2.54285450986904,44.6010733768248,609.722500000003 2.54124317299783,44.6008024736208,619.262400000007 2.54077462522036,44.6007401123996,620.058799999999 2.54029601810832,44.6007818543469,619.580600000001 2.53982746943255,44.6006847920086,621.081900000005 2.53920268306759,44.6003443187554,626.146399999998 2.5385485586238,44.6000175922197,631.795100000003 2.53735246170448,44.5995354655508,637.897400000002 2.53630019763852,44.6002434006893,636.858900000007 2.53604857234091,44.600247088745,636.461800000005 2.53581136500362,44.6000403909618,635.288700000005 2.53552135110068,44.599976185526,633.368199999997 2.53538925204151,44.6000631896951,633.796600000001 2.53486722665686,44.6002615058041,629.947199999995 2.53406843212981,44.6004371902388,627.122399999993 2.53307031491596,44.6004894931457,619.293799999999 2.53296520573948,44.6003793552144,614.570000000007 2.53351438809348,44.6000400557991,613.6872 2.53390062593641,44.5995661427889,606.041599999997 2.53392325719338,44.5993633008369,604.763500000001 2.53358814876149,44.5994900352441,605.2739 2.53321934452326,44.5997004211567,600.130799999999 2.53234796252799,44.5998031829286,593.688500000004 2.5310102102715,44.5999771916547,574.806500000006 2.53037570054193,44.6000886709979,566.553400000004 2.52993632106174,44.6003599094929,562.629400000005 2.52939904138525,44.6007632466564,558.436300000001 2.5286667976477,44.6014032884299,549.716899999999 2.52841282595058,44.6019318513974,547.703099999999 2.52830939392878,44.6021623534879,555.009900000005 2.52818852650561,44.6021476017499,551.452499999999 2.52799306028628,44.6015288491858,534.303499999995 2.52795416862438,44.6012022904931,529.055399999997 2.52817880403929,44.6006180716709,521.313099999999 2.52837426936026,44.600388742912,525.832500000004 2.52836437890898,44.6002009886713,521.540800000002 2.52830604051781,44.5999718271269,517.255900000004 2.52820864337808,44.5998120679733,512.563099999999 2.52807185062157,44.5997495387465,508.346900000004 2.52778887771378,44.5999445023751,504.109800000006 2.52776959896947,44.6002157402639,510.766199999998 2.52752920620617,44.6004673655398,506.863299999997 2.52691045382503,44.6008417011983,495.481 2.52663301274277,44.6011235006421,489.788 2.52675438322251,44.6013565176842,493.908800000005 2.5266812926977,44.6015343817865,500.107600000003 2.52625633027953,44.6017737689195,494.174700000003 2.52569004849408,44.6019826454166,491.006099999999 2.52553029030734,44.6021482720509,487.078399999999 2.52473937310701,44.6031933278526,492.503500000006 2.52452027041595,44.6036992595181,493.507800000007 2.52426411940593,44.603901934112,496.246299999999 2.52396136559563,44.6040551551138,492.667199999996 2.52375030911457,44.6042504535031,496.672399999996 2.52360999586044,44.6043196876814,499.805800000002 2.52327807285455,44.6041808834639,493.804300000003 2.52277985192662,44.6039860881902,489.578800000003 2.52236980962697,44.6037637998184,480.821100000001 2.52193059813174,44.6036528238438,482.602799999993 2.52158878377624,44.6034166219181,473.837599999999 2.52140220279341,44.6034332179001,471.928 2.52109089881823,44.6036184577242,474.887600000002 2.52068068853362,44.6040078812348,472.223400000003 2.52026092286933,44.6044392141401,475.345400000006 2.52000728624382,44.6046340091736,472.831699999995 2.51968525368917,44.604828804833,466.498000000007 2.51950973635739,44.6051000429436,465.428799999994 2.51935349776991,44.6054825933669,469.090800000005 2.51900212803476,44.6056844296699,466.048200000005 2.51883633406759,44.605962876084,469.843999999997 2.5186507591979,44.6059836636415,468.8655 2.51850457904665,44.6058309453038,462.610799999995 2.51830911282732,44.6055736204527,454.205499999996 2.51818237850705,44.6054415218622,450.135200000004 2.51795003195375,44.6054272723752,447.068299999999 2.51770410646663,44.6056155303299,447.294500000004 2.5174501347695,44.6058728543557,447.327300000004 2.5170694287521,44.6062138305177,451.2696 2.51675695157715,44.6062973141913,449.566900000005 2.51644447440219,44.6061999163472,445.657600000006 2.51622956235193,44.6062346173458,443.238800000006 2.51622000697227,44.606575593303,447.126300000004 2.51588406041221,44.6070803513647,449.962 2.51568306236739,44.6073059923234,445.218500000003 2.51569312080362,44.6076191400898,443.426699999996 2.51559538769398,44.6080642192105,438.310299999997 2.51559572276556,44.6083981540594,440.312399999995 2.51571943964482,44.6086177604199,441.082699999999 2.51561516859653,44.6088293194261,440.609700000001 2.5154103149825,44.6089198437165,435.261400000003 2.51526027926208,44.6090593189827,431.712100000004 2.51542037341873,44.6093717960322,436.405199999994 2.51560460800205,44.6095335670445,442.599600000001 2.5153913722081,44.610025584596,443.592300000004 2.51524519205686,44.6102901174742,437.001499999998 2.51523530070729,44.6105472743446,434.900800000003 2.51494260533318,44.6106932872116,427.338399999993 2.51431865619809,44.6108091253213,415.378299999997 2.51381306010169,44.6114468200927,395.262000000002 2.51382915341999,44.6116667615329,392.442200000005 2.51411179035783,44.6118230002883,395.060800000007 2.51461068142896,44.6120563523531,397.500899999999 2.5146790782564,44.6122509798766,397.905599999998 2.51464068875274,44.6123279256997,400.204299999998 2.51445511388302,44.6123626268743,401.080300000001 2.51420114218589,44.6122930569584,399.240000000005 2.51398639722229,44.6122166143672,399.062300000005 2.51374214888978,44.6122653971542,398.793699999995 2.51333227367679,44.6124811468583,400.491999999998 2.51295156765936,44.6126135811563,403.542499999996 2.51249274234824,44.6124679037317,398.795199999993 2.51196535312302,44.6123983339418,397.719299999997 2.51159420248528,44.6124469490307,398.669299999994 2.51126378775075,44.6124937198003,398.162200000006 2.51066649342676,44.6127225461015,398.939199999993 2.51031478861999,44.6125515549147,393.105599999995 2.50970944718768,44.6124333701655,388.508700000006 2.50944575302423,44.6124057097887,384.367199999993 2.50930443365698,44.6123502214498,383.047300000006 2.50919211639869,44.6121555936194,384.690000000002 2.50919228438365,44.6119470523431,385.122900000002 2.50935422278161,44.6117951720733,384.839200000002 2.50952487843107,44.611759632822,385.232499999998 2.50959327436018,44.6116414477403,384.266600000003 2.50967139365393,44.6115510907633,382.936600000001 2.50942731240808,44.6113772503587,382.067500000005 2.50903671593937,44.6109534613919,376.098299999998 2.50933444098073,44.6112674477027,381.133300000001 2.50849809507818,44.6104024352497,370.290800000002 2.50839231575853,44.6102376468857,368.6682 2.50834353274702,44.6100500600516,367.665099999998 2.50827748321746,44.6098824216482,367.060299999997 2.5085292756017,44.6097650749896,368.842999999993 2.50874435563692,44.6096958409062,369.523700000005 2.50895943477381,44.6095917376562,370.396299999993 2.50921357445589,44.6094390192116,372.936300000001 2.50937014811499,44.609411526242,372.751999999993 2.50952823094374,44.6092893182681,372.162100000001 2.50972202090672,44.6092241068527,372.567500000005 2.50964406869962,44.6090853028427,373.384000000005 2.50930225434412,44.6091131304375,375.921799999996 2.50870680426142,44.6089463309453,382.799100000004 2.5078831982662,44.6087123083105,391.673800000004 2.50730065607582,44.6086682192362,398.030499999993 2.50670520599312,44.6087449977731,401.412200000006 2.5061682613882,44.6086757631133,405.091499999995 2.50536745373663,44.6085087954478,411.883000000002 2.50496730188826,44.6083978189449,414.956600000005 2.50468449696543,44.6083285845108,417.157800000001 2.50427411869587,44.6081684901981,417.942299999995 2.50413229717041,44.6079483813821,417.750100000005 2.50376651037324,44.6075152045147,414.462 2.5035462344824,44.6072937546583,414.559500000003 2.50350281620979,44.6071122026619,413.393100000001 2.50355193429289,44.6069455707411,413.280700000003 2.50345403319828,44.6068195068555,412.657200000001 2.50309310898173,44.6068832090789,413.850699999995 2.50287836401813,44.6069041638685,414.161399999997 2.50268306578379,44.6069319918688,414.326100000006 2.50249765800073,44.6067930199358,412.371199999994 2.50244351114865,44.6065578240018,411.757800000007 2.50202910932495,44.6064872481517,411.591499999995 2.50166801712345,44.6063412355835,414.581000000006 2.50085530769263,44.6063343622955,414.756699999998 2.50053528736424,44.6062232179121,417.455900000001 2.50039447105357,44.6060272495031,419.393299999996 2.49996531799457,44.6053302101231,425.230599999995 2.4996370825729,44.6050412020429,428.428499999995 2.49938713353161,44.6048834548461,425.890599999999 2.49847618883293,44.6048091911145,424.0291 2.49780111028681,44.6048259549058,422.380399999995 2.49700516431753,44.6049424634738,421.671700000006 2.49662931998242,44.605146143607,421.164900000003 2.49632673325874,44.6051533521688,422.132400000002 2.49551620314081,44.6050976963696,430.039199999999 2.49481765520959,44.6051023901571,437.587400000004 2.49453971196912,44.6050629953314,441.208400000003 2.49435430418602,44.6050145480245,441.9807 2.49393453852176,44.6050145480245,445.988899999997 2.49342927749694,44.6049184911261,448.031799999997 2.49262612344582,44.6046091988578,459.193499999994 2.49226469527439,44.6044583246382,464.892900000006 2.49206135083005,44.6043513716442,469.6158 2.49164946339084,44.604152385147,472.745999999999 2.49138342192954,44.6041592580536,476.282900000006 2.49065352638814,44.6043751760175,481.363299999997 2.48910069499476,44.6048968659903,493.452499999999 2.48830005532811,44.6051960995419,496.310400000002 2.48796025319885,44.6052222514174,498.499800000005 2.48715827234749,44.6052832717747,504.003400000001 2.48654639387487,44.604908432612,504.523499999996 2.48606359612204,44.6051266975623,506.360799999995 2.48531844449216,44.6053613908368,504.0092 2.48478435024167,44.6051131189044,503.506399999998 2.48428663237032,44.6049086001793,505.154500000004 2.48418018200914,44.6048142200605,505.332999999999 2.48393023386618,44.6045382880617,505.586200000005 2.48361272702394,44.6044735797742,508.920299999998 2.48322229854022,44.6045292355318,510.917700000005 2.48266322573494,44.6045563931173,518.225699999995 2.48231403531264,44.6048212610959,524.902400000006 2.48215863485333,44.6049746497983,528.144199999995 2.48193399943845,44.6050442195264,528.724100000007 2.48142555388595,44.6052108517849,537.642699999997 2.48105473831983,44.6053986064642,541.724700000006 2.48081116013052,44.6054824258012,546.984200000006 2.48039105939464,44.6055798235693,551.217600000004 2.4800494130241,44.6055384163628,559.815499999997 2.47972721248453,44.6055523306917,562.837100000004 2.47943451621213,44.6056150269945,569.589699999997 2.47933644803086,44.6057675776956,571.725900000005 2.4791899319097,44.6060527301088,569.045199999993 2.47901391241967,44.6061818118038,571.946200000006 2.47858509443229,44.6063244715899,573.919599999994 2.47825602088246,44.606312569484,576.699399999998 2.4779505838044,44.6062552372427,577.894700000004 2.47747516301669,44.6060512213933,578.341499999995 2.47705221192643,44.6058939770743,579.6201 2.47677879439833,44.6056576071023,581.790500000003 2.47629046481997,44.6054976806684,585.721999999994 2.47553844017987,44.6053867041687,589.438200000004 2.47510895115096,44.6053659170371,591.112899999993 2.47472824513356,44.6052688546825,592.989000000001 2.47446455097012,44.6052478999425,594.301300000006 2.47402533857656,44.6053801665392,596.859800000006 2.47359920295861,44.6054063176923,597.698300000004 2.47299017394208,44.6052552760579,598.358800000002 2.47183782946865,44.6052068282719,598.195699999997 2.47128143903281,44.6051375938718,600.948099999994 2.4707344359917,44.6052557787568,602.7644 2.46998710594726,44.605478905004,603.319399999993 2.46965065633063,44.6055481396369,602.650899999993 2.46863510461371,44.6058889475822,601.035399999993 2.46816638885131,44.6058819073158,602.372300000003 2.46744370049343,44.6060004270939,605.359500000006 2.46645731887043,44.6063202805907,609.074600000007 2.46597904683004,44.6064942889842,609.443599999999 2.4654372405428,44.6066022478842,610.206200000001 2.46469007848336,44.6065849812785,611.833799999993 2.46385037916984,44.6066339312416,615.148700000005 2.46357914095464,44.6066942811466,616.639200000005 2.46216092300488,44.6069539526488,623.315199999997 2.46138945253381,44.6070932599583,624.108399999997 2.46109642118983,44.6078233237471,624.410999999993 2.46067665552556,44.6089500190881,623.338399999993 2.46028605815856,44.6098539235704,622.789699999994 2.46014960137196,44.6102921293745,622.005000000005 2.45998380740479,44.6108067783384,620.756899999993 2.45974844341048,44.610966201575,620.590500000006 2.45942741607065,44.6109947003861,620.8894 2.45841186525206,44.6114050781344,622.657600000006 2.45734032244179,44.6116271984952,616.158500000005 2.45675174536934,44.6121492236587,611.788 2.45586628138367,44.6127994919393,605.578099999999 2.45548238994026,44.6129558977494,604.925000000003 2.45512129773875,44.6129907667322,605.469400000002 2.45472080992047,44.61279613913,607.130900000004 2.45412535983776,44.6125183624006,608.817599999995 2.45367642497791,44.6123517306412,611.175499999998 2.45332472017114,44.612129274761,610.843599999993 2.45256314015135,44.6114828621804,605.468500000003 2.45205536474206,44.611128475271,605.930200000003 2.45173333218741,44.6108642781139,606.482600000003 2.45147433172133,44.6108183450624,607.122499999998 2.45067872082366,44.6104958092955,606.585399999996 2.44983902240845,44.6102803943544,607.141799999998 2.44934532809122,44.6100451984718,608.555399999997 2.44926301725838,44.6097937413038,608.929199999999 2.44903134174661,44.6095753090688,608.9185 2.44888231124098,44.6093280425675,608.915699999998 2.44843237116631,44.6091272121047,607.177500000005 2.44844309974575,44.6090152301717,605.733600000007 2.44849221782884,44.6088764256626,605.788 2.44847327505445,44.6087101287992,602.789699999994 2.44824863963957,44.6086127311636,601.675900000002 2.44794605291589,44.6086544732102,600.8364 2.44736015821284,44.6088770965255,599.274099999995 2.44661785693739,44.6092524376848,597.455400000006 2.44637360770659,44.609335921468,595.929999999993 2.44577815762388,44.6094054917286,595.629700000005 2.44536291767199,44.6095183119582,595.204899999997 2.44508497443152,44.6095934138336,597.341100000005 2.44483485830357,44.6095836905971,597.536099999998 2.44463603957164,44.6095380929197,597.681700000001 2.44430428365238,44.6091905792455,594.896200000003 2.44399197356409,44.6091074310033,596.280100000004 2.44339652348138,44.6091632543529,596.066600000006 2.44281046079337,44.6092953534332,594.323399999994 2.442410308945,44.6095112708526,592.211200000005 2.44195098057731,44.6096708626407,586.726800000004 2.44162894802266,44.6096224153398,585.8321 2.44114078553096,44.6093652582117,584.406600000002 2.44062362272697,44.6093171464046,583.131800000003 2.4401743527955,44.6094700320842,584.179099999994 2.43976414161257,44.6095464750929,584.746299999999 2.43940271433948,44.6096091715613,584.732799999998 2.43900256249111,44.6095119417083,584.819699999993 2.43862437085818,44.6095112708526,582.961599999995 2.43822522422463,44.6097412702669,581.975999999995 2.43784049555136,44.6098874507946,581.035600000003 2.43744621060014,44.6098933183446,578.358800000002 2.43715703482533,44.6100406719966,578.835800000001 2.43694731952901,44.6102983319871,580.892200000002 2.43675688297696,44.6107154153991,582.409700000004 2.43633594321462,44.6109737457931,580.756599999993 2.43592690702809,44.6110493503537,579.138099999996 2.43488872405423,44.6110555528855,571.612599999993 2.43392430264668,44.6108921061354,565.659400000004 2.4337687342024,44.610750619549,565.208799999993 2.43332700832266,44.6106468513725,564.006699999998 2.43274329203421,44.610639642853,563.648199999996 2.43209872386841,44.6107439136938,563.740000000005 2.4314642141388,44.6110988036795,562.369300000006 2.43066223328745,44.6117096767764,564.542400000006 2.43020307290471,44.6117423658309,564.443899999998 2.42984231577482,44.6115524324274,564.717199999999 2.42945222146435,44.6108067783384,568.0677 2.42891846228548,44.6098882891988,565.163700000005 2.42835855135205,44.6098197254748,566.724400000006 2.42748951575629,44.609541613471,567.898499999996 2.42669859945428,44.6094306370229,565.655599999998 2.42622988279352,44.6093957684607,561.099900000001 2.42555430119086,44.609383363042,558.640799999994 2.42510704348563,44.609444551059,557.229900000006 2.42443347321087,44.6093057469363,558.015599999999 2.4240427087572,44.6089580655954,561.672900000005 2.4234276448586,44.6084574980681,564.700899999996 2.42273446166621,44.6079430169507,571.645199999999 2.42226943348803,44.6075752190243,572.6198 2.42200205084204,44.6074563635021,573.726500000004 2.42143576995492,44.6074774862845,575.532200000001 2.42112345986662,44.6074986084196,577.385599999994 2.42094827850475,44.6073194035479,576.2163 2.42087049428261,44.6069403737785,574.244699999996 2.42074258586423,44.6066575683965,574.030299999999 2.42047738253113,44.6065083706469,573.555300000007 2.41984438107292,44.6062890997521,575.098199999993 2.41951262605196,44.6061155947145,572.650099999999 2.41862213239903,44.6058673228077,570.404999999999 2.41836028157853,44.6056783941296,567.993799999997 2.41827243981849,44.6053437887302,566.239499999996 2.41820437806267,44.6050936728487,562.0196 2.41798980198232,44.6048992125725,562.434999999998 2.41736467964745,44.6048088559793,563.652100000007 2.4167620205846,44.6045394616798,562.067200000005 2.41640780139332,44.6043919399341,557.313999999998 2.41596858989809,44.6043781935357,556.275299999994 2.41534631701932,44.6046013199558,555.058399999994 2.41476729532653,44.6049900723658,556.683399999994 2.41397637902453,44.6057134305697,556.857499999998 2.41331253211438,44.6062143332083,557.251900000003 2.4130300622632,44.6064032614224,557.199500000002 2.41245523121121,44.6063824740151,557.030700000003 2.41183798799968,44.6060894432412,552.835900000005 2.41172097614573,44.6058463676439,549.104399999997 2.41122443237244,44.6055494808,546.256699999998 2.41047106654761,44.6055196413512,545.371499999994 2.40994384530738,44.6054084973276,544.921300000002 2.40929927714155,44.6053600496693,545.712799999994 2.40839738386766,44.6051364202657,541.127999999997 2.40799522069139,44.6049593947938,538.433799999999 2.40801030789657,44.6047971211306,537.574999999997 2.4078922908278,44.6047163195845,535.872799999997 2.40751242293855,44.6046791041595,534.623099999997 2.40703331276997,44.6044703946925,530.244099999996 2.40635035599881,44.6041647904038,522.285399999993 2.40583285722487,44.6038866788258,509.337400000004 2.40562783562591,44.6037339607314,508.226699999999 2.40519147358674,44.6035713517006,501.313299999994 2.4043388663809,44.6030875480959,488.424400000004 2.4037472718674,44.6025013181525,473.339900000006 2.40346983078518,44.6022461730172,462.715100000001 2.40322574953933,44.6020237168083,458.070000000007 2.40298183627843,44.6019056999595,451.3652 2.40263046654325,44.6018850804375,450.038100000005 2.40251328760263,44.6018433386432,447.319600000003 2.40266634166243,44.6017332000805,447.103900000002 2.4031483012871,44.6014889517636,435.778699999995 2.40361433468007,44.6014234053908,430.969599999997 2.40389060256255,44.6015030333603,430.552899999995 2.40427617026228,44.6016451903934,431.618600000002 2.40499449909609,44.6017881855998,434.656600000002 2.40562951188223,44.6016979962216,425.256299999994 2.40596445232917,44.6012624727067,405.135399999999 2.40603972216683,44.6009957604887,400.335099999997 2.40590326448191,44.6006413735559,385.846900000004 2.40566890660067,44.6004814467445,381.615000000005 2.40539649518573,44.6003533712978,375.749599999996 2.40477070180936,44.6000782771248,368.265400000004 2.40419453047096,44.599876776336,356.002999999997 2.40360880285458,44.5997446775839,349.920100000003 2.40292534212854,44.5996615292528,339.744200000001 2.40276927152602,44.5995922946402,336.098700000002 2.40237867415901,44.5996201223053,336.126499999998 2.40136312334043,44.5995577610943,333.248099999997 2.40057220703839,44.5995093136739,330.8891 2.39999603480169,44.5994885263581,334.127999999997 2.39986930048142,44.5993565955859,327.538 2.39952765411088,44.5993430168586,323.126199999999 2.39924468120309,44.5993780532818,322.8122 2.39880513373795,44.5994476226762,320.359800000006 2.3984341510852,44.5995383150979,321.386599999998 2.39787776064935,44.5994759537991,313.260800000004</coordinates>
</LineString>
</Placemark>
</Folder>
</Document></kml>
