<?xml version="1.0" encoding="UTF-8"?>

<kml xmlns:xsd="http://www.w3.org/2001/XMLSchema" xmlns:gx="http://www.google.com/kml/ext/2.2" xmlns:atom="http://www.w3.org/2005/Atom" xmlns="http://www.opengis.net/kml/2.2">
<Document>
<name>FR03a_26a_nogaro-aire_sur_ladour</name>
<visibility>1</visibility>
<Schema name="FR03a_26a_nogaro-aire_sur_ladour" id="kml_schema_ft_FR03a_26a_nogaro-aire_sur_ladour">
<SimpleField type="xsd:string" name="id">
<displayName>id</displayName>
</SimpleField>
<SimpleField type="xsd:string" name="nombre">
<displayName>nombre</displayName>
</SimpleField>
<SimpleField type="xsd:double" name="longitud">
<displayName>longitud</displayName>
</SimpleField>
<SimpleField type="xsd:string" name="_formato">
<displayName>_formato</displayName>
</SimpleField>
</Schema>
<Folder id="kml_ft_FR03a_26a_nogaro-aire_sur_ladour">
<name>FR03a_26a_nogaro-aire_sur_ladour</name>
<Placemark id="kml_1">
<name>&lt;img height='20' src='https://nco.ign.es/iconos/icono_todos_caminos_azul.png' /&gt;&lt;img height='20' src='https://nco.ign.es/iconos/Camino Santiago_20.png' /&gt;&lt;img height='20' src='https://nco.ign.es/iconos/icono_todos_caminos_azul.png' /&gt;  Camino de Santiago </name>
<visibility>1</visibility>
<description><![CDATA[<!DOCTYPE html>
<html>
<head>
<style>
#nco {
  border-collapse: collapse;
  overflow:hidden;
}
#nco th, #nco td {
  padding: 4px;
  text-align: left;
}
#nco th {
  color: #364B5F;
  padding-right: 5px;
}
#nco td {
  color: rgb(51, 51, 51);
  font-size: 12px;
  padding-right: 5px;
}
</style>
</head>
<body>
<table id="nco">
<tr>
<td>Via Podiensis Le Puy en Velay</td>
</tr>
<tr>
<th><b>Camino: </b></th>
<td>FR03a Via Podiensis Le Puy en Velay</td>
</tr>
<tr>
<th><b>Etapa: </b></th>
<td>26a Nogaro-Aire sur l'Adour</td>
</tr>
<tr>
<th><b>Longitud: </b></th>
<td>28.51 km</td>
</tr>
</table>
</body>
</html>]]></description>
<Style>
<IconStyle>
<scale>0.8</scale>
</IconStyle>
<LabelStyle>
<color>ffffffff</color>
<scale>0.75</scale>
</LabelStyle>
<LineStyle>
<color>ffff0000</color>
<width>3.0</width>
<gx:labelVisibility>1</gx:labelVisibility>
</LineStyle>
<PolyStyle>
<color>66ff0000</color>
</PolyStyle>
</Style>
<ExtendedData>
<SchemaData schemaUrl="#kml_schema_ft_FR03a_26a_nogaro-aire_sur_ladour">
<SimpleData name="id">FR03a_26a</SimpleData>
<SimpleData name="_formato">kml</SimpleData>
</SchemaData>
</ExtendedData>
<LineString>
<extrude>0</extrude>
<tessellate>1</tessellate>
<coordinates>-0.0368926112645245,43.7571716307507,112.387600000002 -0.0365893543976447,43.7569526953377,111.915699999998 -0.0370443241395916,43.7573233432457,113.018899999995 -0.0395402868683181,43.7573233432457,122.632599999997 -0.0430744325708706,43.7572646700618,142.541700000002 -0.0458389520436966,43.7572480735904,144.989400000006 -0.0464687680758975,43.7571553697002,147.110400000005 -0.0481017309892632,43.7563887608084,147.813899999994 -0.0487315470214976,43.7562120706754,147.858999999997 -0.0489166188346453,43.7562611887368,147.687399999995 -0.0509126852774202,43.7566925215885,143.044599999994 -0.0513198781209724,43.7566284838367,143.565400000007 -0.052090678448839,43.7564652039993,144.229399999997 -0.0528839420486911,43.7562714144969,145.628500000006 -0.0538751853539841,43.7562295050905,145.802899999995 -0.0550067428117413,43.7565750071745,145.453500000003 -0.0560098887945757,43.7568700498968,144.727599999998 -0.0569617373814237,43.757047410928,141.937300000005 -0.0581561589427607,43.7571820244029,137.531900000002 -0.0590541957491467,43.7573337368715,136.332200000004 -0.0596139395959246,43.7574014624691,135.342900000003 -0.0606387107225858,43.7574304638805,134.338699999993 -0.0615734607763143,43.7573932482765,128.059399999998 -0.0624014253972772,43.7573429567603,121.750599999999 -0.0631246159134093,43.7572926658506,116.087499999994 -0.063623506984542,43.7574334815888,113.055399999997 -0.063871107829652,43.7577226572791,111.419699999999 -0.0643376442791923,43.7583291717083,103.458899999998 -0.0647926140211393,43.758859914073,102.617100000003 -0.0650843050787562,43.7591043297898,102.156300000002 -0.0653059221542891,43.7593571284204,101.954400000002 -0.0657374225111347,43.7596856987353,101.337100000004 -0.0659209860529224,43.7594803423377,101.631999999998 -0.0672421419345347,43.7593066692154,103.587 -0.068093575940599,43.7592815232935,106.9185 -0.0687217157164827,43.7592714654408,110.212499999994 -0.068991612746985,43.7590627558571,112.595000000001 -0.0692247974284418,43.7589534555359,114.911800000002 -0.0694113784112464,43.7587936966751,116.017900000006 -0.0696128795126428,43.75875731954,116.506800000003 -0.0703328846027338,43.7587350236354,119.937699999995 -0.0713759292589182,43.7586153299629,125.918799999999 -0.0719425452176584,43.7585078740638,129.091 -0.0729223898003151,43.7582554111785,134.948000000004 -0.0739838741743188,43.7579858487716,139.828399999999 -0.074770599835529,43.7577094140727,139.606199999995 -0.0753253140150583,43.7580703385731,139.395699999994 -0.0758418066758852,43.7583824807049,139.773000000001 -0.0765266085866212,43.7583655491037,138.086599999995 -0.0770865195200593,43.7581801413981,133.748300000007 -0.0781245345089617,43.7578178757882,122.939199999993 -0.0790227393003049,43.7576157039162,116.774799999999 -0.0803174074574684,43.7573042325689,108.771099999998 -0.0812972520401252,43.7572202458283,104.344899999996 -0.0814603645361589,43.7572626580343,103.4614 -0.0819968060844957,43.757195267726,98.7638000000006 -0.0826033207165524,43.7571615725434,94.4692000000068 -0.0832088292354934,43.7569872289326,93.9358000000066 -0.0831397622648892,43.7562011740011,93.772100000002 -0.082801468406984,43.7556705994637,95.9608000000007 -0.0827196615290103,43.755199033542,99.6823000000004 -0.0829062425118149,43.7547358497616,98.411300000007 -0.0833377428686605,43.7539269958326,93.7116999999998 -0.0839209561005732,43.7526631725315,92.4003999999986 -0.0845858082255023,43.751416448186,91.928899999999 -0.084911696349325,43.7507262824839,94.3171000000002 -0.0865454973908493,43.7507762388873,92.8764999999985 -0.088586658362586,43.750869110343,97.9995000000054 -0.0887499379452465,43.7510546854061,98.1753000000026 -0.0890531948121264,43.7510464709911,98.5427000000054 -0.0891931729946428,43.7509541027083,98.7399000000005 -0.089251343400855,43.750861734283,98.6760000000068 -0.0913743112505654,43.7508870472663,101.740399999995 -0.0939287803554185,43.7508704516217,108.188599999994 -0.0943825768976229,43.7508322300339,108.934800000003 -0.0941153613382566,43.7501123920614,109.401800000007 -0.093800369778826,43.7490088303916,107.460900000005 -0.0933802690429471,43.7479136514112,106.181599999996 -0.0931350145973557,43.7472818233442,102.685200000007 -0.0931933520901946,43.7470037116492,101.989499999996 -0.0932982932816857,43.7466332314984,101.930900000007 -0.0936597214531082,43.7463638373809,102.628599999996 -0.0939745459259121,43.746195361285,103.234500000006 -0.094149392216166,43.7460438159135,103.407200000001 -0.0941611269087167,43.7458161638981,104.076100000006 -0.0935428775841093,43.7456310911103,103.660499999998 -0.0928895921667735,43.7455132415279,101.933199999999 -0.0923529826334796,43.745302855714,101.349700000006 -0.0920104981347815,43.7450882794504,101.684899999993 -0.0918396745003633,43.744822740381,101.751900000003 -0.091967917990329,43.7446710279946,102.041100000002 -0.092376116946997,43.7446289508182,102.671300000002 -0.0928579085867131,43.744629453769,103.0334 -0.0928076173038426,43.7444438782537,102.994500000001 -0.0922009346868286,43.7439637631701,102.457399999999 -0.0917925686435004,43.7437362784685,102.105599999995 -0.0914029773896089,43.7433721686257,101.054300000003 -0.0914308054004604,43.7432729267974,101.203599999993 -0.0919670798621704,43.7431465273891,102.662400000001 -0.092725139384337,43.7428769657172,103.832599999994 -0.0934250276019944,43.742742184426,104.205600000001 -0.0939849394337295,43.7427002752801,104.715500000006 -0.0943577663277883,43.7425182204055,105.353300000002 -0.0947428309709724,43.74234655861,106.717900000003 -0.0952445714981648,43.7421695330239,107.953999999998 -0.0954194177884522,43.7419338336268,107.866299999994 -0.0957226755536291,43.7417318300518,109.105100000001 -0.0959325579366114,43.741622362435,109.720700000005 -0.0963174554931353,43.7418245338211,111.212700000004 -0.0966225566012895,43.7417702190518,112.903699999995 -0.0969471035404124,43.741622362435,115.226500000004 -0.0971705648572197,43.7416112982579,115.906300000002 -0.0978451412450954,43.741706851975,122.245800000004 -0.0985332947701687,43.741639629115,125.336500000005 -0.0990580025242518,43.7416399639997,126.324399999998 -0.0996529495504181,43.7419011442359,127.362500000003 -0.100621059440524,43.7424997799525,130.209300000002 -0.101262610165309,43.7429467033107,132.039000000004 -0.101985800681408,43.7433346171919,133.354600000006 -0.10225402235389,43.7434357033241,134.276500000007 -0.102895573078675,43.7431663090942,133.551600000006 -0.103152059160276,43.74295592282,133.456900000005 -0.103595294209672,43.742838241251,133.455400000006 -0.103886816384001,43.7426699324068,133.234200000006 -0.104796755867895,43.7434958853188,131.175600000002 -0.105823204149171,43.7442881425756,130.037299999996 -0.106429718781261,43.7448108383303,130.296700000006 -0.106639601164243,43.7446507438361,131.075400000002 -0.106791146054353,43.7444571217998,131.329400000002 -0.106896087245844,43.7442971950925,131.701499999996 -0.10702433073581,43.7441456501074,130.906600000002 -0.107934102234747,43.7442807670025,130.804399999994 -0.109045710804961,43.7444983606275,128.650699999998 -0.109578463870748,43.744727857478,127.690799999997 -0.110255051586559,43.7450229002018,126.380900000004 -0.11067498433748,43.7451747804269,125.576199999996 -0.11118812448564,43.7449305317087,124.343299999993 -0.111584588749757,43.744778987029,123.642300000007 -0.111888013601594,43.7446777337843,123.468699999998 -0.112144499683195,43.7443322318049,123.304199999999 -0.112237707080432,43.7441637551829,123.132199999993 -0.112645905138803,43.7437426481921,121.823799999998 -0.112960562524947,43.7432623652387,121.987999999998 -0.113076903337405,43.7428917178572,121.563399999999 -0.113030299638786,43.7427146919362,120.873399999997 -0.112761910879644,43.7426223231265,118.227700000003 -0.11251682441901,43.7423948385194,114.598800000007 -0.112003516285893,43.7420156410711,116.285399999993 -0.111968480193165,43.7418471650685,116.342900000003 -0.112260002367494,43.7413501180553,118.561400000006 -0.112726539715332,43.7408783847804,124.101200000005 -0.113186538226264,43.7404044716427,128.470600000001 -0.114001762041527,43.740376308296,129.868000000002 -0.11415464811637,43.7392164210836,132.137900000002 -0.114627890489509,43.7391678056596,130.773799999995 -0.114855878417057,43.739055320561,130.645300000004 -0.115175898745439,43.7386202999951,130.166100000002 -0.115829017076115,43.738258034108,130.177500000005 -0.116400495615477,43.7378620729614,130.617599999998 -0.116633512311976,43.7377019787072,130.790900000007 -0.116820093294815,43.7376094424987,130.748900000006 -0.116943978158997,43.7373712289129,129.920400000003 -0.117006674277619,43.7370195239721,126.073999999993 -0.117158219167729,43.736800588831,124.547000000006 -0.117435995321573,43.7364453632958,119.618199999997 -0.117146484475178,43.7364130097165,118.910600000003 -0.116703081440825,43.7363709325775,118.306299999997 -0.116201173826972,43.7362279370669,118.108300000007 -0.115944519760414,43.7361690958651,117.821899999995 -0.115792806885347,43.7360594610047,118.091799999995 -0.115886014282585,43.735874220453,118.199200000003 -0.116163790436428,43.735742289669,120.068700000003 -0.116527397022412,43.7357394396239,120.260999999999 -0.116775668909054,43.7355924209877,120.293999999994 -0.117110610254325,43.7352256289854,125.516199999998 -0.11760044810401,43.7345430071242,130.964500000002 -0.117728691593975,43.7342229860773,136.171100000007 -0.118005629619661,43.7340343931694,136.774799999999 -0.117993559855493,43.7335412017952,140.347899999993 -0.118055082774373,43.7332708017394,141.543000000005 -0.118263959942536,43.7328294104556,143.101800000004 -0.118334871154448,43.7325377206081,143.183799999999 -0.118661429421472,43.7324872615092,143.275299999994 -0.119314547752148,43.7324284205264,142.506299999994 -0.119780917115061,43.7323273346337,142.095700000005 -0.11997923279045,43.7322767078892,141.830300000001 -0.120340660063542,43.7322515622939,141.8413 -0.120783895112938,43.7319481370373,143.730500000005 -0.121040381194539,43.7316534297314,145.281900000002 -0.121541954635105,43.7314344944447,146.856700000004 -0.121973287006993,43.731299880831,147.925799999997 -0.122591369244974,43.7310978770809,148.027799999996 -0.123198050963691,43.7309882420238,147.244099999996 -0.12355964622174,43.730921018814,146.982799999998 -0.123676155019122,43.7310053410528,146.332899999994 -0.123827531924308,43.7313681097401,144.927200000006 -0.124025680513037,43.7316041441275,143.508600000001 -0.124293901287188,43.7316294574648,141.420700000002 -0.124620459554212,43.7315873802103,139.994699999996 -0.125192106078531,43.7312755734804,138.643400000001 -0.125996936385977,43.7309049258931,137.909100000004 -0.127245001742819,43.7303907797218,135.689799999993 -0.128702949482643,43.7298261749363,139.502099999998 -0.129734929589445,43.7294494918255,136.699500000002 -0.129120703819003,43.7286203538968,146.2261 -0.130370948488703,43.7285452519759,149.299199999994 -0.131898969312281,43.7284359523978,151.482900000003 -0.133147034669123,43.7283434161518,152.601800000004 -0.13406854086061,43.728191703553,155.105200000005 -0.135141592840538,43.7280232276025,156.218099999998 -0.135374944608621,43.727787192735,157.481299999999 -0.135666467681248,43.7276609612234,158.649900000004 -0.136483032681277,43.7276525793627,160.035999999993 -0.137136150113622,43.7276359831192,159.949600000007 -0.137171186206351,43.7272819320751,161.166700000002 -0.13732273109646,43.7269872238801,161.226599999995 -0.137614254169087,43.7265657818582,160.993100000007 -0.137975849427136,43.7260181083892,159.420199999993 -0.138291847099716,43.725343365168,150.9715 -0.138500724267879,43.7243154085356,146.5 -0.137870740250688,43.7241046872605,149.380999999994 -0.136384628530098,43.7235992585583,154.493100000007 -0.136249176958289,43.7234726923239,154.319399999993 -0.136247668686929,43.7232762199794,154.223599999998 -0.136400721848398,43.7230512502452,152.8459 -0.136330649662975,43.7227225119267,149.685599999997 -0.136167370080315,43.7225371041763,147.532500000001 -0.136120598396739,43.7223600784545,146.266900000002 -0.136330481678018,43.7220061942373,145.142399999997 -0.136528797353407,43.7216184473139,144.611300000004 -0.136692076936101,43.721374198587,143.832699999999 -0.136853847349071,43.7213131782867,144.406300000002 -0.137823466408868,43.7207926626664,145.917700000005 -0.138254966765713,43.7205147181329,145.6397 -0.13865143102983,43.7202788516953,145.752099999998 -0.138767938928915,43.7201358567163,145.868600000002 -0.139188710706326,43.719985484778,145.899600000004 -0.139129534186964,43.7196891007086,145.9421 -0.139281079077108,43.7192931401438,145.461200000005 -0.139665975735301,43.7188378350433,143.588600000003 -0.139945932100334,43.7184502558979,141.554300000003 -0.140161682278757,43.7181602418732,141.177299999996 -0.140202418181935,43.7176833116766,141.664199999999 -0.140295624680875,43.7172704193029,143.059099999999 -0.140590835337753,43.7160563840637,147.213900000002 -0.140668786646551,43.715879526186,147.638399999996 -0.140633750553823,43.7157784402839,147.766399999993 -0.140971876426771,43.7159133887467,147.713099999994 -0.141286700899541,43.7159472519375,147.595600000001 -0.14196563501487,43.716103490498,146.559899999993 -0.142558067656561,43.7160568872545,144.619300000006 -0.143296849332716,43.7160652687899,144.552800000005 -0.144097824070986,43.716040123531,143.646800000002 -0.144692603112162,43.7161497586781,142.128599999996 -0.145952403161554,43.7162845394408,138.453899999993 -0.146045610558825,43.7159304881833,138.966 -0.146325566025528,43.7155764361325,141.307100000005 -0.146976672129971,43.7150522320566,150.600900000005 -0.147480256898472,43.7142951785964,147.942899999995 -0.147935058655461,43.713603839565,138.813999999998 -0.148366559012307,43.7130895254162,138.396900000007 -0.148669816777484,43.7129716760695,140.285199999998 -0.149258728921549,43.7120313942715,141.446500000005 -0.150356758557972,43.7123443744975,137.396699999998 -0.150932762809711,43.7124913930589,132.963300000003 -0.151399299259251,43.7126347237966,128.932100000005 -0.151994247183748,43.7128454445067,123.412200000006 -0.15227420265045,43.7129299343895,122.708599999998 -0.152495652639356,43.7130229736365,121.340400000001 -0.152624063215949,43.7132167628943,121.436700000006 -0.152647364616093,43.7133600938451,122.126600000003 -0.152939054775379,43.7130311874246,120.1296 -0.153568871705911,43.712365161783,120.226200000005 -0.15424780582124,43.7115832980137,131.554000000004 -0.154595319088889,43.711210303322,134.6011 -0.154828503770346,43.7109657193174,134.558699999994 -0.155084989851947,43.7108393198969,133.4427 -0.155434850417446,43.7104854358152,132.499299999996 -0.155772976290394,43.7102748827786,132.030599999998 -0.156227946032341,43.7100388481123,134.408899999995 -0.156799424571703,43.7097607368131,129.221600000004 -0.157336034104996,43.7093981353248,129.174199999994 -0.157674159977911,43.7091114742594,130.563099999999 -0.158105660334757,43.7087322771033,127.873900000006 -0.158350579708764,43.7083782253832,122.789300000004 -0.158537160691602,43.7078806759077,117.304600000003 -0.158490221921366,43.7076194960081,116.731400000004 -0.15881678108672,43.7071304957533,122.348400000003 -0.159073267168321,43.7068019246414,127.248999999996 -0.159399826333676,43.7067769469318,134.654399999999 -0.159376356948541,43.7064061315299,129.395999999993 -0.159465875863263,43.7059362419638,124.788700000005 -0.159481130155075,43.7052509374521,120.083799999993 -0.159376021876957,43.7042727696226,114.779500000004 -0.15944592697572,43.7041126752065,115.348400000003 -0.159317515500797,43.7034887260571,116.630799999999 -0.159433856313255,43.7031683696058,118.546300000002 -0.15933595611698,43.7028802000148,116.228099999993 -0.159515496104602,43.7026118111508,116.790200000003 -0.159678775687262,43.7022493781295,117.792100000006 -0.15985362197755,43.7020217252329,119.896900000007 -0.16001690156021,43.701886944216,122.218500000003 -0.160203315456388,43.7016341464332,123.646900000007 -0.160354860346498,43.7015245107092,123.684099999999 -0.160459633553032,43.7013644167471,123.958100000003 -0.15966637085151,43.7014490741331,119.443799999994 -0.159269738602436,43.7015674260691,115.543799999999 -0.158803034167938,43.7014916537885,111.379000000001 -0.158628020791024,43.7014326453297,111.220300000001 -0.158551744840246,43.701264168817,110.316900000005 -0.158840585543439,43.7007312474067,108.475900000005 -0.15954885594098,43.7001523934162,108.2834 -0.160013717032533,43.6991462298376,105.105100000001 -0.160471201158956,43.6982701535295,111.103400000007 -0.161382816899167,43.6972274444714,103.667300000001 -0.162451509355014,43.6964802816792,102.716199999995 -0.163843743535165,43.6949634922493,100.631599999993 -0.164961889145724,43.6946015618304,99.4502000000066 -0.166829712996864,43.6939573286329,98.8361000000004 -0.168426297734505,43.6937752736887,98.8217000000004 -0.170865599226676,43.6934624615103,100.584199999998 -0.172025989910103,43.6928824337956,100.078099999999 -0.172952189798958,43.6917849072111,98.1255999999994 -0.173640344222328,43.6908233352776,97.0289000000048 -0.174410138437079,43.6897943726952,96.4082000000053 -0.174748264310027,43.6893896942464,96.1909000000014 -0.17737297358526,43.6901234462414,97.4762999999948 -0.1805924628,43.6910343918339,95.8087999999989 -0.182948615331167,43.6916672251304,94.9423999999999 -0.185794606610349,43.6924432216183,94.5233000000007 -0.188862382950022,43.6932953259553,95.6692000000039 -0.191253572472214,43.6939450910651,94.7041000000027 -0.192618314611395,43.6943160744758,94.0231000000058 -0.196304340275708,43.6953537537496,91.7676999999967 -0.199721977180879,43.6962479350735,92.7013000000006 -0.201285034097152,43.6966276353188,92.0014999999985 -0.202894694712043,43.6970158855757,91.3879000000015 -0.203724838645864,43.6972442082611,91.3619000000035 -0.205169711406735,43.6955093218002,90.3126000000047 -0.205274149541651,43.6954137684244,90.152900000001 -0.205588806029498,43.6955066400101,90.2513000000035 -0.205737836535132,43.6954234914702,90.0212000000029 -0.206339824556481,43.6947214231035,88.2283000000025 -0.206720195502298,43.6941405573492,85.9618999999948 -0.206860173684814,43.6937191148763,85.4829999999929 -0.207058321375212,43.693533707673,85.4829999999929 -0.207198299557729,43.6934581025597,85.4753999999957 -0.207758210491167,43.6924713847688,84.6309000000037 -0.208399761215952,43.6914087273676,84.911300000007 -0.209174752184611,43.6903393639477,85.9055999999982 -0.209461245589956,43.6902533657775,86.1313999999984 -0.21133694766614,43.6899434030424,85.0543000000034 -0.214639752928544,43.6890867722914,84.2541999999958 -0.220231655977742,43.6877624318922,84.2632000000012 -0.220333914799766,43.6881384442785,83.9973000000027 -0.221281740730779,43.687810544034,84.014599999995 -0.222515557010594,43.6876053548929,84.2480999999971 -0.224702898133541,43.6874182710386,82.2661999999982 -0.225520804318271,43.6867562682861,85.1236999999965 -0.226909685985788,43.6861624944413,84.2765999999974 -0.227487869550418,43.6863722090849,83.4407000000065 -0.228542648000856,43.6871264127208,82.4633000000031 -0.22958267521599,43.6878192608072,82.4612999999954 -0.230461769247949,43.6887724513814,82.4336000000039 -0.231518727011245,43.6895112320732,81.1018999999942 -0.233092848476867,43.6900783518615,81.7180999999982 -0.2334675196122,43.6905234306016,82.2543000000005 -0.233695674626375,43.690492250001,82.1775000000052 -0.234072693059557,43.6897392195768,81.5025000000023 -0.235896594683181,43.6876444145273,83.3821999999927 -0.237131920132653,43.6875609309425,82.8858999999939 -0.238720625746918,43.6875113102578,87.9128000000055 -0.240389294896214,43.6875349468008,88.4067000000068 -0.243408959265908,43.6875864116431,82.9226000000053 -0.2449319513205,43.6850634592583,100.151100000003 -0.245909281518681,43.6862166413676,95.3120000000054 -0.247713737311369,43.6883012205887,85.2489999999962 -0.251028109281367,43.6925592270306,82.2966000000015 -0.253935791464353,43.6957894451155,85.0500999999931 -0.253982898219546,43.6959793788267,84.5377000000008 -0.25394333551611,43.696264699137,83.5289000000048 -0.254271906009399,43.6964071912143,84.3117000000057 -0.254534594958025,43.6965974607034,83.2400000000052 -0.25557244196197,43.6978324505759,81.8420999999944 -0.256672985982835,43.6991324833301,80.5872999999992 -0.257607736036563,43.6998972483386,79.7195000000065 -0.258673243066436,43.7002075460506,80.3138000000035 -0.260140747084249,43.7004164231554,82.2568000000028 -0.261787120048186,43.7006066922619,86.1211999999941 -0.263402815545144,43.7007307447366,85.7584999999963</coordinates>
</LineString>
</Placemark>
</Folder>
</Document></kml>
