<?xml version="1.0" encoding="UTF-8"?>

<kml xmlns="http://www.opengis.net/kml/2.2" xmlns:atom="http://www.w3.org/2005/Atom" xmlns:gx="http://www.google.com/kml/ext/2.2" xmlns:xsd="http://www.w3.org/2001/XMLSchema">
<Document>
<name>ES04a_20a_san_pedro_de_rozados-salamanca</name>
<visibility>1</visibility>
<Schema name="ES04a_20a_san_pedro_de_rozados-salamanca" id="kml_schema_ft_ES04a_20a_san_pedro_de_rozados-salamanca">
<SimpleField type="xsd:string" name="id">
<displayName>id</displayName>
</SimpleField>
<SimpleField type="xsd:string" name="nombre">
<displayName>nombre</displayName>
</SimpleField>
<SimpleField type="xsd:double" name="longitud">
<displayName>longitud</displayName>
</SimpleField>
<SimpleField type="xsd:string" name="_formato">
<displayName>_formato</displayName>
</SimpleField>
</Schema>
<Folder id="kml_ft_ES04a_20a_san_pedro_de_rozados-salamanca">
<name>ES04a_20a_san_pedro_de_rozados-salamanca</name>
<Placemark id="kml_1">
<name>&lt;img height='20' src='https://nco.ign.es/iconos/icono_todos_caminos_azul.png' /&gt;&lt;img height='20' src='https://nco.ign.es/iconos/Camino Santiago_20.png' /&gt;&lt;img height='20' src='https://nco.ign.es/iconos/icono_todos_caminos_azul.png' /&gt;  Camino de Santiago </name>
<visibility>1</visibility>
<description><![CDATA[<!DOCTYPE html>
<html>
<head>
<style>
#nco {
  border-collapse: collapse;
  overflow:hidden;
}
#nco th, #nco td {
  padding: 4px;
  text-align: left;
}
#nco th {
  color: #364B5F;
  padding-right: 5px;
}
#nco td {
  color: rgb(51, 51, 51);
  font-size: 12px;
  padding-right: 5px;
}
</style>
</head>
<body>
<table id="nco">
<tr>
<td>Caminos Andaluces</td>
</tr>
<tr>
<th><b>Camino: </b></th>
<td>ES04a Camino Mozárabe - Vía de la Plata</td>
</tr>
<tr>
<th><b>Etapa: </b></th>
<td>20a San Pedro de Rozados-Salamanca</td>
</tr>
<tr>
<th><b>Longitud: </b></th>
<td>23.4 km</td>
</tr>
</table>
</body>
</html>]]></description>
<Style>
<IconStyle>
<scale>0.8</scale>
</IconStyle>
<LabelStyle>
<color>ffffffff</color>
<scale>0.75</scale>
</LabelStyle>
<LineStyle>
<color>ffff0000</color>
<width>3.0</width>
<gx:labelVisibility>1</gx:labelVisibility>
</LineStyle>
<PolyStyle>
<color>66ff0000</color>
</PolyStyle>
</Style>
<ExtendedData>
<SchemaData schemaUrl="#kml_schema_ft_ES04a_20a_san_pedro_de_rozados-salamanca">
<SimpleData name="id">ES04a_20a</SimpleData>
<SimpleData name="_formato">kml</SimpleData>
</SchemaData>
</ExtendedData>
<LineString>
<extrude>0</extrude>
<tessellate>1</tessellate>
<coordinates>-5.73648568233108,40.7899869613963,977.0 -5.73515161855715,40.7898028947474,978.0 -5.731506496781,40.7898714587615,980.685899999997 -5.72851952120619,40.7898164734353,985.714800000002 -5.7269983742912,40.7896907448128,986.0 -5.72527606044807,40.7892817083958,979.0 -5.72450090239278,40.7894443170831,978.0 -5.72251103791874,40.7917599015616,971.930900000007 -5.72071261700811,40.7935489348774,969.0 -5.71956010544806,40.7943324753777,965.0 -5.7183655168001,40.7946669132342,961.0 -5.7173038644411,40.7953582526564,960.802500000005 -5.71384515656114,40.7982664376093,954.0 -5.7123862018099,40.7990932287666,952.943700000003 -5.70844653952008,40.8000863167251,947.0 -5.70560205741059,40.8012155268423,950.0 -5.70200555066099,40.8030823442957,937.987999999998 -5.69942593591469,40.8049072523452,937.0 -5.699515789901,40.8053734537466,935.0 -5.70063846212226,40.8067697108294,929.609200000006 -5.70112863594186,40.8071725451399,929.0 -5.7009968719543,40.8085979715417,926.871400000004 -5.70098983095912,40.8090122053047,925.9087 -5.69986883589247,40.8094167162928,929.334000000003 -5.69813160193081,40.8109878199347,929.0 -5.69641984958053,40.8120182908443,928.481700000004 -5.69503834487811,40.8124288365932,929.984400000001 -5.69410342683942,40.8133330764074,932.0 -5.69228656621101,40.8164543296324,945.0 -5.6901302376266,40.8182151994891,948.029200000004 -5.68835662638751,40.8194810348272,944.156400000007 -5.6874369644373,40.8213570725294,938.0 -5.68678032650733,40.8227048826857,932.991999999998 -5.68628696726169,40.8234007476605,925.999500000005 -5.68634832309391,40.8243356655405,921.604000000007 -5.68551214427799,40.825345517278,925.0 -5.68366276104303,40.8265050698003,933.379100000006 -5.68248879142574,40.8279549713501,949.066099999996 -5.68152705238762,40.82938190612,958.148799999995 -5.67964179403348,40.830830299038,946.860199999996 -5.67897677392359,40.8331504099834,931.067899999995 -5.67856974906496,40.8348163974218,920.322199999995 -5.67838668857975,40.8367472522986,914.6728 -5.67805577078865,40.8385374590462,906.0 -5.67803464870136,40.8397804956029,899.0 -5.67847486541141,40.8407066956644,896.748800000001 -5.6774403709201,40.8420992651171,883.0 -5.67643504562441,40.8430410556229,882.150500000003 -5.67635541805929,40.8434212586482,884.0389 -5.67546559454957,40.8442882828742,880.0 -5.67632054905322,40.8449167584437,883.607099999994 -5.67695438863959,40.8453524493413,885.275299999994 -5.6773221867647,40.8462442836843,887.728400000007 -5.67814143413413,40.8489259900577,897.0 -5.67834041995272,40.8497497634778,901.0 -5.67881651178195,40.8503871234077,900.3462 -5.67931557083804,40.851005875288,900.0 -5.67971220218882,40.8520231029758,905.139500000005 -5.68014236136093,40.8526975114426,910.820000000007 -5.68144172411376,40.8549359819907,904.0 -5.6819275393076,40.8564011389552,890.0 -5.6821156294601,40.8581252966139,886.1296 -5.68278500819574,40.8588481519953,889.0 -5.68422300704805,40.85922902527,890.152100000007 -5.68500855950952,40.8598950512453,889.0 -5.68718148357048,40.8626169909385,882.0 -5.6891651451775,40.8653432882177,880.0 -5.68969488170054,40.8678875314583,869.0 -5.68902868749258,40.8719359907779,857.0 -5.68830030022254,40.8767959859103,853.0 -5.68745121351432,40.8816048512446,833.0 -5.68669466316181,40.8863575579797,829.0 -5.68575002265681,40.8899803839464,817.0 -5.68567793824516,40.8911345721823,816.0 -5.6841938387508,40.8949139721887,824.096699999995 -5.68294107879826,40.8962036116617,820.085300000006 -5.6835403853485,40.8969460812698,823.477199999994 -5.68288525568989,40.9012822071148,819.0 -5.68166602445702,40.9039932495588,811.915900000007 -5.68146837892487,40.9055643535912,810.187099999996 -5.68103553738329,40.9066008598137,811.0 -5.68115774509285,40.9084525901943,810.0 -5.68069858471012,40.9100117918585,806.0 -5.6804343874901,40.9122864724998,808.8171 -5.68051083052753,40.9130051372051,811.0 -5.68058358508239,40.9136337793779,812.0 -5.68018795894643,40.9144173197472,816.0 -5.6802322153472,40.9155146785541,823.0 -5.68042935782285,40.9162844727763,826.0 -5.68050865121464,40.9170750536705,832.0 -5.68086303749255,40.917625074314,838.272100000002 -5.67972829550712,40.9189118639244,835.0 -5.67905019951995,40.920926203049,830.0 -5.67768629640722,40.9241807284598,820.0 -5.67675858734871,40.9276590508762,812.209900000002 -5.67624410601582,40.929615554181,807.0 -5.67591788282038,40.9315316573307,804.0 -5.67497542162826,40.9328860052778,802.0 -5.67487198870813,40.9332667110905,801.921300000002 -5.67394696201902,40.9332885046744,801.0 -5.67389382038176,40.9355043445294,796.0 -5.67322678894397,40.9372122410729,792.0 -5.67293325454341,40.9387675865141,791.0 -5.67258708156213,40.9396039332116,792.449900000007 -5.67252472051513,40.9404158044911,796.445500000002 -5.67188534910323,40.9416370472846,802.0 -5.67136650914459,40.9423154786036,807.978400000007 -5.67015884461934,40.9441620117505,806.0 -5.66969733693875,40.9444969530779,805.0 -5.6698037872999,40.9447826080278,805.0 -5.66963430485022,40.9452907193983,805.0 -5.67015280973724,40.9481414042455,801.160300000003 -5.670205280333,40.9506247948214,798.0 -5.67008139546879,40.9522661392397,789.0 -5.66923415300185,40.9536362449889,782.0 -5.66839596285799,40.9540519872741,780.0 -5.66709257655103,40.9541183718729,779.082200000004 -5.66729676002183,40.9544739325884,779.0 -5.66707178953533,40.9547854034988,775.843900000007 -5.66647734466744,40.9553573850216,772.0 -5.66532550414889,40.9580127715875,778.0 -5.6645744856219,40.9594165728317,779.0 -5.66431012041693,40.960521140315,783.0 -5.66410157832035,40.9636046748134,795.026100000003 -5.66399395475942,40.9650656404567,797.0</coordinates>
</LineString>
</Placemark>
</Folder>
</Document></kml>
