<?xml version="1.0" encoding="UTF-8"?>

<kml xmlns="http://www.opengis.net/kml/2.2" xmlns:atom="http://www.w3.org/2005/Atom" xmlns:gx="http://www.google.com/kml/ext/2.2" xmlns:xsd="http://www.w3.org/2001/XMLSchema">
<Document>
<name>ES04a_10a_torremejia-merida</name>
<visibility>1</visibility>
<Schema name="ES04a_10a_torremejia-merida" id="kml_schema_ft_ES04a_10a_torremejia-merida">
<SimpleField type="xsd:string" name="id">
<displayName>id</displayName>
</SimpleField>
<SimpleField type="xsd:string" name="nombre">
<displayName>nombre</displayName>
</SimpleField>
<SimpleField type="xsd:double" name="longitud">
<displayName>longitud</displayName>
</SimpleField>
<SimpleField type="xsd:string" name="_formato">
<displayName>_formato</displayName>
</SimpleField>
</Schema>
<Folder id="kml_ft_ES04a_10a_torremejia-merida">
<name>ES04a_10a_torremejia-merida</name>
<Placemark id="kml_1">
<name>&lt;img height='20' src='https://nco.ign.es/iconos/icono_todos_caminos_azul.png' /&gt;&lt;img height='20' src='https://nco.ign.es/iconos/Camino Santiago_20.png' /&gt;&lt;img height='20' src='https://nco.ign.es/iconos/icono_todos_caminos_azul.png' /&gt;  Camino de Santiago </name>
<visibility>1</visibility>
<description><![CDATA[<!DOCTYPE html>
<html>
<head>
<style>
#nco {
  border-collapse: collapse;
  overflow:hidden;
}
#nco th, #nco td {
  padding: 4px;
  text-align: left;
}
#nco th {
  color: #364B5F;
  padding-right: 5px;
}
#nco td {
  color: rgb(51, 51, 51);
  font-size: 12px;
  padding-right: 5px;
}
</style>
</head>
<body>
<table id="nco">
<tr>
<td>Caminos Andaluces</td>
</tr>
<tr>
<th><b>Camino: </b></th>
<td>ES04a Camino Mozárabe - Vía de la Plata</td>
</tr>
<tr>
<th><b>Etapa: </b></th>
<td>10a Torremejía-Mérida</td>
</tr>
<tr>
<th><b>Longitud: </b></th>
<td>14.84 km</td>
</tr>
</table>
</body>
</html>]]></description>
<Style>
<IconStyle>
<scale>0.8</scale>
</IconStyle>
<LabelStyle>
<color>ffffffff</color>
<scale>0.75</scale>
</LabelStyle>
<LineStyle>
<color>ffff0000</color>
<width>3.0</width>
<gx:labelVisibility>1</gx:labelVisibility>
</LineStyle>
<PolyStyle>
<color>66ff0000</color>
</PolyStyle>
</Style>
<ExtendedData>
<SchemaData schemaUrl="#kml_schema_ft_ES04a_10a_torremejia-merida">
<SimpleData name="id">ES04a_10a</SimpleData>
<SimpleData name="_formato">kml</SimpleData>
</SchemaData>
</ExtendedData>
<LineString>
<extrude>0</extrude>
<tessellate>1</tessellate>
<coordinates>-6.37521989673782,38.7920942915108,301.0 -6.37550286964557,38.793645278207,304.0 -6.37559490294477,38.794740290471,304.0 -6.37529684193346,38.7952012952557,303.0 -6.37614894698106,38.7962103085947,303.698799999998 -6.37691488472831,38.7971482434831,308.014599999995 -6.37696685226746,38.797364328652,309.0 -6.3769068385183,38.7978342183946,309.0 -6.37665789559013,38.7986891724265,311.0 -6.37637492268238,38.7994722100379,310.0 -6.37602791157294,38.8002002617588,309.0 -6.37587888196563,38.8005523021627,309.0 -6.37569498245393,38.801017329824,310.0 -6.37548996175328,38.8012733133588,309.177100000001 -6.37535585046787,38.801705316611,308.055300000007 -6.37511696687426,38.8021002716193,307.632299999997 -6.37504287023634,38.8025052857963,306.337700000004 -6.37493692383006,38.8028881707887,305.492400000003 -6.37484287830463,38.8032941899721,304.926999999996 -6.37465797357815,38.8037432924048,304.0 -6.37451095529874,38.8041271837181,302.962199999994 -6.37435991346518,38.8046482029153,302.0 -6.37398591247304,38.8056842060757,300.0 -6.37363387259469,38.8067602748024,299.0 -6.37345785310466,38.8071761849146,298.0 -6.37299885980854,38.8077143027943,299.109299999996 -6.37302199412206,38.808432296584,297.0 -6.37268487346393,38.8093863252853,296.0 -6.37232897801633,38.810365331535,294.069799999997 -6.37205891300091,38.8111963134597,291.760800000004 -6.37195397180942,38.8113771946711,290.797600000005 -6.37155985484311,38.8115501971744,289.0 -6.37154392861144,38.8120832863109,289.151899999997 -6.37151190995976,38.8122862962403,288.0 -6.37144586043021,38.8124333143896,289.0 -6.37146798863057,38.8126742104276,290.0 -6.37130185959182,38.8128653178724,292.0 -6.3711949061741,38.8130052952947,292.0 -6.37111997230635,38.8133871754141,294.338799999998 -6.3710369913303,38.8138332597132,297.0 -6.37093389438009,38.8142723039118,299.0 -6.3706489092461,38.8145712026469,300.0 -6.37063885080987,38.8147971791106,300.760200000004 -6.37071093522152,38.8150052174006,300.0 -6.37063683948194,38.8154031903155,301.0 -6.36993091548391,38.8169342285982,303.0 -6.36962195880655,38.8175891907252,303.872799999997 -6.36922683572717,38.8186443049552,306.0 -6.36836986989558,38.8202351899723,308.0 -6.36796485636488,38.8213172937365,308.0 -6.3676609284565,38.8228463201349,306.0 -6.36721584916584,38.8247662791643,300.979900000006 -6.36679289897386,38.8263132430935,295.0 -6.36653289239467,38.8279492230211,292.0 -6.36617699604877,38.8296502467673,287.7209 -6.36582495617038,38.8310092884328,284.0 -6.3657399638664,38.8321592851187,280.772800000006 -6.36538172112099,38.8338132026748,277.930099999998 -6.36502398143215,38.8354672875238,279.772400000002 -6.36466590667169,38.8371372974869,278.0 -6.36415980751871,38.839012329117,276.276299999998 -6.36377390474737,38.8409161952136,276.0 -6.36324483926583,38.8427452939373,281.218399999998 -6.36287486182787,38.8437331848484,284.322899999999 -6.36228494357068,38.8446801722905,282.032399999996 -6.36165395344038,38.8455983260399,285.0 -6.36126184870034,38.8461221951115,287.171900000001 -6.36104995409113,38.8470892986557,289.627900000007 -6.36090293491339,38.848179281894,294.820099999997 -6.36073395641858,38.8495862676022,297.0 -6.36041896396082,38.8499983225503,295.0 -6.35980490617534,38.850491178368,292.178499999995 -6.35965889311072,38.8508003027958,292.0 -6.35955495803234,38.8510772405899,292.0 -6.35912295461896,38.8509682760012,292.0 -6.35882087095185,38.8507193333875,293.0 -6.35860998155743,38.8508593112456,293.074999999997 -6.35852683349475,38.8510802586174,291.084900000002 -6.3585809803468,38.8512363290794,280.894499999995 -6.35904483532523,38.851551321182,276.0 -6.35992795201306,38.8521932073243,282.879000000001 -6.36009089652411,38.8523583306636,283.160099999994 -6.36006893630869,38.8528801883569,281.0 -6.35994086080369,38.8534541808762,279.317599999995 -6.35975293773782,38.8547211895051,273.0 -6.3596109491257,38.8566542241559,270.0 -6.35941883541904,38.8585032720801,265.0 -6.3592919331138,38.8591133069529,263.0 -6.35910484907442,38.8594222637994,262.0 -6.35913167187049,38.8603311974512,262.0 -6.359005942765,38.8609543076365,262.0 -6.35883294071602,38.8622203103969,264.0 -6.35842893240011,38.8635173259635,265.0 -6.35788494680005,38.8648073009473,266.0 -6.35736392842681,38.865610287177,266.0 -6.35701691731741,38.8661422028121,267.0 -6.3568169253857,38.8668513120868,266.0 -6.35651987048755,38.8674543062391,265.021399999998 -6.35643588339839,38.8683062429467,267.0 -6.35637184609503,38.8702483299327,270.0 -6.35632088377066,38.8721302345154,268.0 -6.35639095685438,38.873960172004,268.0 -6.35636497308481,38.8743853022307,268.0 -6.35621594257917,38.8745232683085,268.0 -6.3561698419371,38.8748521737419,267.0 -6.35603791086291,38.8753653140073,266.0 -6.35587798469118,38.8755882727932,266.0 -6.35560289000847,38.8766762436436,263.0 -6.35496284845338,38.8778953074659,264.0 -6.35474793640311,38.8782902629171,264.775099999999 -6.35419087492574,38.879628182252,264.331200000001 -6.35395098521901,38.8801451782558,263.0 -6.35395484078822,38.8808842944897,261.203500000003 -6.35418584525849,38.8825031753823,249.0147 -6.35439187297056,38.8832493318398,244.0 -6.35479789261437,38.8839663203948,242.0 -6.35491289224209,38.8844362099055,240.941600000006 -6.35482689382499,38.8849112959781,239.0 -6.35464198909851,38.8852692030936,238.0 -6.35454995579931,38.8856353245836,237.732000000004 -6.35430285711244,38.8859823352029,237.0 -6.3540029527582,38.8865492876521,237.449500000002 -6.35396590443927,38.8870842204167,234.970199999996 -6.35371595629628,38.8876982788248,233.170400000003 -6.35333575333545,38.8885342900581,232.648100000006 -6.35283283871015,38.8893852203343,231.0 -6.35244090105674,38.8899672596749,228.311300000001 -6.35203789885398,38.8902943218437,227.542700000005 -6.35190295033875,38.8907223014732,227.0 -6.35211199549187,38.8908862515748,227.0 -6.3510888997232,38.8915832906643,226.109500000006 -6.35001886608265,38.8922452938009,224.0 -6.34915184271312,38.8929492057494,221.0 -6.34850693857741,38.8937562151787,219.799599999998 -6.34834986186177,38.8943793260059,220.555900000007 -6.34822597699756,38.8947881953808,219.587700000004 -6.34818289469486,38.8953722466576,218.755499999999 -6.34821994211549,38.8960032359781,217.492100000003 -6.3481458463759,38.8967981757234,216.0 -6.34805096272235,38.8976502801159,212.313299999994 -6.34795691809525,38.8985012109441,211.0 -6.34786186735503,38.8993533151759,210.0 -6.34776899592771,38.9000743267442,210.0 -6.34765584054126,38.9005432099578,209.002500000002 -6.34734587775078,38.9010412627193,209.0 -6.34696483576343,38.9015352922049,209.0 -6.34697288287176,38.901870232971,209.0 -6.34712090726428,38.902331237525,209.0 -6.34719785335826,38.9027872133979,208.227100000004 -6.34716784603452,38.9035011839858,208.0 -6.34709291126844,38.9042592430789,208.0 -6.34707296238093,38.9046811881421,208.0 -6.34726692032886,38.905277309041,207.719100000002 -6.3474939021433,38.9058901937412,207.613899999997 -6.34776296104561,38.9065453233379,207.0 -6.34813595592462,38.9072472236212,207.0 -6.34854683635243,38.9077072230052,207.0 -6.34854599822427,38.9080181915255,206.619999999995 -6.34896995542765,38.9085692176844,206.0 -6.34965995319403,38.9092332322265,207.0 -6.35041398916203,38.9099421736216,207.0 -6.35120490546407,38.9107932716897,206.546400000007 -6.35202499096166,38.9116083278496,206.530499999993 -6.35232590142902,38.9118042966726,207.0 -6.35260585689572,38.9118923066353,205.408100000001 -6.35266184798908,38.9121182829511,204.0 -6.35209791350147,38.9125061973799,203.0 -6.35117389292551,38.9130832074942,202.0 -6.3499519784249,38.9138251738967,202.797200000001 -6.34868798773472,38.9146522998898,203.0 -6.34785683858608,38.9152392009809,210.130099999995</coordinates>
</LineString>
</Placemark>
</Folder>
</Document></kml>
