<?xml version="1.0" encoding="UTF-8"?>

<kml xmlns:xsd="http://www.w3.org/2001/XMLSchema" xmlns:gx="http://www.google.com/kml/ext/2.2" xmlns:atom="http://www.w3.org/2005/Atom" xmlns="http://www.opengis.net/kml/2.2">
<Document>
<name>ES04a_30a_a_gudina-laza</name>
<visibility>1</visibility>
<Schema name="ES04a_30a_a_gudina-laza" id="kml_schema_ft_ES04a_30a_a_gudina-laza">
<SimpleField type="xsd:string" name="id">
<displayName>id</displayName>
</SimpleField>
<SimpleField type="xsd:string" name="nombre">
<displayName>nombre</displayName>
</SimpleField>
<SimpleField type="xsd:double" name="longitud">
<displayName>longitud</displayName>
</SimpleField>
<SimpleField type="xsd:string" name="_formato">
<displayName>_formato</displayName>
</SimpleField>
</Schema>
<Folder id="kml_ft_ES04a_30a_a_gudina-laza">
<name>ES04a_30a_a_gudina-laza</name>
<Placemark id="kml_1">
<name>&lt;img height='20' src='https://nco.ign.es/iconos/icono_todos_caminos_azul.png' /&gt;&lt;img height='20' src='https://nco.ign.es/iconos/Camino Santiago_20.png' /&gt;&lt;img height='20' src='https://nco.ign.es/iconos/icono_todos_caminos_azul.png' /&gt;  Camino de Santiago </name>
<visibility>1</visibility>
<description><![CDATA[<!DOCTYPE html>
<html>
<head>
<style>
#nco {
  border-collapse: collapse;
  overflow:hidden;
}
#nco th, #nco td {
  padding: 4px;
  text-align: left;
}
#nco th {
  color: #364B5F;
  padding-right: 5px;
}
#nco td {
  color: rgb(51, 51, 51);
  font-size: 12px;
  padding-right: 5px;
}
</style>
</head>
<body>
<table id="nco">
<tr>
<td>Caminos Andaluces</td>
</tr>
<tr>
<th><b>Camino: </b></th>
<td>ES04a Camino Mozárabe - Vía de la Plata</td>
</tr>
<tr>
<th><b>Etapa: </b></th>
<td>30a A Gudiña-Laza</td>
</tr>
<tr>
<th><b>Longitud: </b></th>
<td>34.84 km</td>
</tr>
</table>
</body>
</html>]]></description>
<Style>
<IconStyle>
<scale>0.8</scale>
</IconStyle>
<LabelStyle>
<color>ffffffff</color>
<scale>0.75</scale>
</LabelStyle>
<LineStyle>
<color>ffff0000</color>
<width>3.0</width>
<gx:labelVisibility>1</gx:labelVisibility>
</LineStyle>
<PolyStyle>
<color>66ff0000</color>
</PolyStyle>
</Style>
<ExtendedData>
<SchemaData schemaUrl="#kml_schema_ft_ES04a_30a_a_gudina-laza">
<SimpleData name="id">ES04a_30a</SimpleData>
<SimpleData name="_formato">kml</SimpleData>
</SchemaData>
</ExtendedData>
<LineString>
<extrude>0</extrude>
<tessellate>1</tessellate>
<coordinates>-7.46453169771606,42.0610175843318,464.0 -7.46365930870933,42.0609500261603,465.0 -7.46291331984963,42.0609654484455,466.392300000007 -7.46220236618433,42.0609967972098,472.224400000006 -7.46192324884575,42.0608985611593,472.481599999999 -7.4617188982883,42.060704268833,471.233699999997 -7.46152309699738,42.0605621115055,468.981 -7.46121028475084,42.060438394862,467.962199999994 -7.46120056138623,42.0604407411707,468.011599999998 -7.46092915518604,42.0605041088128,470.357399999994 -7.46067401028917,42.0605755223864,470.0 -7.4605088864652,42.0607196911779,470.680800000002 -7.46022256104481,42.0608231236339,471.0 -7.46002072487183,42.0608595011925,471.0 -7.45990823962858,42.060812395238,471.0 -7.45972601727153,42.0607644509044,471.0 -7.45959106875626,42.0607703179797,471.0 -7.45938369985946,42.0608266444094,471.0 -7.45906501981748,42.0609597487898,472.0 -7.45897667500086,42.0610256309363,472.0 -7.45858741881855,42.0611884075581,473.0 -7.45847007279131,42.0612041652541,473.602100000004 -7.45832774820928,42.0611550474083,473.160999999993 -7.45806019757833,42.0610345152136,472.0 -7.45785685223565,42.0610219427705,471.024300000005 -7.45769927246348,42.0610445739666,470.700800000006 -7.45749961560336,42.0610792747183,469.999599999996 -7.45717791812033,42.0611022413633,468.698799999998 -7.45694221905439,42.0611126349079,467.173599999995 -7.45677592203068,42.061228975931,467.559299999994 -7.45663242424891,42.0612935165921,467.361399999994 -7.45571142021563,42.0616220872439,467.0 -7.45476141587009,42.0619776474344,467.578099999999 -7.45316198077806,42.0625737680076,468.0 -7.45020166001435,42.0636593922104,469.0 -7.44976127531938,42.0632639339684,467.942599999995 -7.44956899452606,42.0631708946945,467.892600000006 -7.44912391523539,42.06322370102,468.0 -7.44892995818575,42.0631983876017,468.0 -7.44793653466927,42.0627910273169,470.0769 -7.4477591739945,42.0629690584836,471.454400000002 -7.44743227975757,42.0631548020282,475.760999999999 -7.44757728670903,42.0626165156603,488.521699999998 -7.44768809569597,42.0621630550809,493.805300000007 -7.44778079913833,42.0619414372485,497.6639 -7.44767166640772,42.0617600532108,504.624500000005 -7.44725760055394,42.062100190623,507.546000000002 -7.44712784879261,42.0621746222411,508.979200000002 -7.44703967106262,42.0623035355111,510.097099999999 -7.44672166206218,42.0626245627292,515.228900000002 -7.44652619584285,42.0628099704874,516.720600000001 -7.44601573806412,42.0631807857134,521.802200000006 -7.44523739458283,42.0636723002539,531.0092 -7.44492257011006,42.0640587060401,534.020799999998 -7.44458461222207,42.0642085742903,539.434500000003 -7.44415964890556,42.0641512425005,542.749200000006 -7.44381096243814,42.0640307106581,545.266300000003 -7.44348825884199,42.063984610084,547.183199999999 -7.44287034458897,42.0641289465311,551.611699999994 -7.44226751843946,42.0641789023762,555.132400000002 -7.44129689416485,42.0642513221762,561.063800000004 -7.44056666265353,42.0644431000992,565.090599999996 -7.44018947713372,42.0646568384511,566.544500000004 -7.43979871268009,42.0649882593518,569.0 -7.43871593823384,42.0656951886591,577.971900000004 -7.43804253594404,42.0661888831162,583.303100000005 -7.43774028519028,42.0664048009607,587.213399999993 -7.43720384274364,42.0668156818435,591.705600000001 -7.43676396110521,42.066857591044,596.482099999994 -7.43605401355302,42.0667085613106,602.147800000006 -7.43538362870424,42.0667085613106,605.102899999998 -7.43472933807212,42.0666735248613,608.380399999995 -7.43440495821965,42.0665471252645,611.641300000003 -7.43406331184911,42.066402957034,613.967499999999 -7.43388628624597,42.06646598862,615.202399999995 -7.43369786102186,42.0667553321195,616.570600000006 -7.43342528162192,42.0673745869441,616.9856 -7.4330772643994,42.0677269619714,618.364400000006 -7.43279747691765,42.0679279601451,620.002900000007 -7.43249924881973,42.0679195783152,623.020600000003 -7.43227142797884,42.0676681215691,624.627600000007 -7.43210261657065,42.0674000680824,625.065000000002 -7.43183808427905,42.0672134866949,624.104000000007 -7.43154656120639,42.0671335232658,624.937900000004 -7.43129694813505,42.0671450908542,625.8217 -7.43101414321222,42.0672849007247,627.591700000004 -7.43047518638111,42.0675598274512,632.7742 -7.42982760077426,42.0679274573287,635.974499999997 -7.42940196731455,42.0681941695287,639.573699999994 -7.42920599893701,42.0683153716646,640.470300000001 -7.42883333912958,42.0683250951668,644.498200000002 -7.42844324571745,42.0682305468653,645.543300000005 -7.42818491539457,42.068182434749,645.025800000003 -7.4279815700519,42.068070620468,646.379700000005 -7.42779750345357,42.0679093526012,648.327099999995 -7.4276855212669,42.067504339248,650.033100000001 -7.42767613387216,42.067199070238,654.578200000004 -7.42749659388454,42.0669268261242,654.562099999996 -7.4272840282338,42.0667625403987,656.012400000007 -7.427171039934,42.066397760028,659.628299999997 -7.42713315438518,42.0660896414342,662.419699999999 -7.42695277537111,42.0659795033522,665.436600000001 -7.42611508828382,42.0659607278488,668.230100000001 -7.42566313598289,42.0659258590421,668.777499999997 -7.42548342801032,42.0657870545128,671.194300000003 -7.42524051996424,42.06548245614,671.904999999999 -7.42492988703056,42.0649870856146,674.863800000006 -7.42359682936974,42.0645684935308,685.236099999995 -7.42325853551183,42.0645867659361,685.444099999993 -7.42302116018958,42.0648694036778,689.659 -7.42281261809301,42.0652325075903,692.600300000006 -7.42239804918265,42.0654179157355,694.919299999994 -7.42196939918023,42.0656807718574,697.200800000006 -7.42175130170396,42.0660877974983,696.285999999993 -7.42138601796336,42.06626515854,695.693199999994 -7.42044707726881,42.0667943917937,698.851200000005 -7.41945885140453,42.0669219645996,700.984500000006 -7.41889743130143,42.0668641291008,702.565100000007 -7.41850767296088,42.0667905359099,702.706999999995 -7.41840759255342,42.0666341296726,704.627500000002 -7.41837356257381,42.0662829282945,705.335900000005 -7.41825303022226,42.0654495990816,710.608800000002 -7.41813518113844,42.0650196074638,711.842999999993 -7.41792328652923,42.0649347829291,711.0 -7.41770049535562,42.0650318450006,712.195699999997 -7.41726916298373,42.0652626825164,715.476500000004 -7.41673909138908,42.0654239504375,717.577900000004 -7.41566268689652,42.0654045045436,722.931700000001 -7.41495626074025,42.0652762611284,727.427299999996 -7.4146055620466,42.0651119757999,730.985100000005 -7.41425486245461,42.0646970718253,732.998200000002 -7.41370350078775,42.0644843392961,738.197799999994 -7.41312548520807,42.064007241558,746.239799999996 -7.41300797119584,42.063721250759,750.534299999999 -7.41299807984627,42.0634947719099,752.340800000005 -7.41311224134583,42.0632874033433,754.885899999994 -7.41337928892024,42.0628906042796,755.881299999994 -7.41342958020308,42.0627519671804,757.458400000003 -7.4133001644117,42.0626284181991,758.799499999994 -7.41301652046242,42.0625580099846,757.828899999993 -7.41243028978945,42.0626126601897,760.584000000003 -7.41217900046176,42.0625566688051,761.172099999996 -7.41198336715584,42.0620592866756,766.969299999997 -7.41158975324611,42.0618091712556,773.751499999998 -7.41091065114582,42.0615738073879,774.108999999997 -7.41046976339428,42.0614457316386,775.311300000001 -7.41017388169587,42.0614299740025,775.0 -7.40871643611429,42.0617523414983,775.0 -7.40854259593715,42.0618485661036,773.996700000003 -7.40841200604767,42.0619756353134,773.0 -7.4079788294345,42.0619478077457,770.0 -7.40770624913627,42.0619295352478,769.0 -7.40751530952768,42.0619632304555,769.0 -7.40714583514626,42.0621177928109,770.0 -7.40685565415666,42.0622155254473,772.890199999994 -7.40658676234098,42.062251735477,775.272599999997 -7.40641878906095,42.0623647237885,776.561499999996 -7.40636698860842,42.0626969823013,779.445800000001 -7.40636128969627,42.063173242236,781.668699999995 -7.40626942348373,42.0636206680641,783.097599999994 -7.40609390705024,42.0639328100875,782.019799999995 -7.40589894388752,42.0640317163527,784.446299999996 -7.4055919985381,42.0641339756627,786.289900000003 -7.40524196998761,42.0639810894835,788.908200000005 -7.40498850134705,42.0639313015433,790.724100000007 -7.40482103112357,42.0639242603363,791.915399999998 -7.40433504794476,42.0639914832238,793.986999999994 -7.40406431278613,42.0640005358134,794.849100000007 -7.40363264444433,42.0633792693464,801.178799999994 -7.40323551003701,42.0631194301597,805.278099999996 -7.40281373304482,42.0628545620109,806.392000000007 -7.40274768351523,42.0627657137262,808.263600000006 -7.40282529975241,42.0626419967076,808.945900000006 -7.40296695419124,42.0624404956115,809.888099999996 -7.40295220205764,42.0622829162081,811.325200000007 -7.40284709288119,42.0620178805055,812.761299999998 -7.40260904651741,42.061852757086,815.512400000007 -7.40235809226134,42.0617104322625,817.320500000002 -7.40211619032838,42.0616978592862,818.151100000003 -7.40184579024134,42.0618328079006,820.917799999996 -7.40182718253853,42.0620822536331,823.1253 -7.40191837770953,42.0624073035173,826.0 -7.40184260571366,42.0627023463402,829.172099999996 -7.40189340005307,42.0629065296165,831.374100000001 -7.40221224718171,42.0633246191343,832.766600000003 -7.40228550479311,42.0636216737651,835.0 -7.40223638671001,42.063852176285,836.9715 -7.40182081258484,42.0643274298676,841.207399999999 -7.40139635322321,42.0646591859377,845.052800000005 -7.4013388529602,42.0649683104847,848.211899999995 -7.401129975792,42.0653575660166,853.009099999996 -7.40099972097414,42.0654819533042,855.054199999999 -7.40022506597539,42.0654953644798,859.348499999993 -7.40001132712491,42.0657270399227,861.085999999996 -7.39983731896278,42.0658795911217,861.002600000007 -7.39990320050741,42.0662654933152,865.429799999998 -7.39987285811205,42.0667204630823,869.253899999996 -7.39986279967581,42.067119274176,872.652900000001 -7.39993220171803,42.0675251262402,877.359299999996 -7.4000912906599,42.0679733903243,881.212799999994 -7.40005357219778,42.0682169682183,884.179799999998 -7.39983631284966,42.0683312976414,886.721900000004 -7.39931914914734,42.0683428643447,889.896099999998 -7.39873258430112,42.0683581194527,891.612899999993 -7.39814367125872,42.0684625577601,893.943400000004 -7.39751754370907,42.0685430243273,899.445300000007 -7.39719500809788,42.0685242489152,899.968200000003 -7.39660810638339,42.0681078361226,906.164499999999 -7.3965123855,42.0679450592348,909.584600000002 -7.39611692734897,42.067752946453,910.209799999997 -7.39585775889794,42.0675108765714,911.393299999996 -7.39528158666124,42.0674647765237,913.707200000004 -7.39495636868059,42.0674627645765,915.803499999995 -7.39443803177852,42.0673021673724,919.910799999998 -7.3939173484769,42.0674295724403,921.409799999994 -7.39359481286571,42.0674736612337,922.8465 -7.39337403302001,42.0674667878039,924.193899999998 -7.39285619917448,42.0672800392276,926.750100000005 -7.39145189523019,42.0670991579262,935.777000000002 -7.39083263979244,42.0667538236424,937.168999999994 -7.38995455187356,42.0667152667692,944.125599999999 -7.38958541346208,42.0666165274031,946.403099999996 -7.38942950994619,42.0666180365503,946.414099999995 -7.38878812630806,42.0668646319256,948.890299999999 -7.38850029171799,42.0669241432829,950.262400000007 -7.38834338298731,42.0669744350344,950.682000000001 -7.38812562058265,42.0674389599755,954.784400000004 -7.38763276529192,42.0678585581065,958.611799999999 -7.38727502560308,42.0680535214121,961.729099999997 -7.38704888191681,42.0682561957093,963.776700000002 -7.38699389603827,42.0684499854542,965.028399999996 -7.38705055817312,42.0687911286562,965.931899999996 -7.38702256217731,42.0691012593708,968.7834 -7.38689901328301,42.0693034308516,970.110799999995 -7.38669181237117,42.0693936196914,971.049400000004 -7.38640615709395,42.0693518782109,970.167799999996 -7.38607171880525,42.0691299253711,970.327999999994 -7.38593257964922,42.0688042043709,973.819399999993 -7.38579964246189,42.068484015966,978.375400000004 -7.38559981851514,42.0682454665688,981.256099999999 -7.38510679434112,42.0678793449827,984.9715 -7.38457621968993,42.0676062628648,988.535799999998 -7.38384230059439,42.067423872698,992.452300000004 -7.38314090320708,42.0673504468738,994.906700000007 -7.38267252251623,42.0674035884933,996.948199999999 -7.38225560630803,42.0675130559014,1000.4616 -7.38193474695316,42.0676609127258,1003.0 -7.38151598740201,42.0676397903434,1006.1033 -7.38090544921579,42.0675169117413,1008.0 -7.3799993653011,42.0673440769186,1006.9866 -7.37912898852061,42.0673851481803,1003.0 -7.37669505176734,42.0673660376564,991.267000000007 -7.37611887953061,42.0673274804882,989.0 -7.37514825525603,42.0672832242085,987.734100000001 -7.37424049508499,42.0671789533466,987.0 -7.37359592691919,42.0671851559332,988.0 -7.37336374835085,42.0672594195402,988.0 -7.37327523554928,42.0673618463711,988.0 -7.37319678028564,42.0677371883817,989.0 -7.37317029345949,42.0682385938895,990.064400000003 -7.37304523629383,42.0684246721191,991.0 -7.37281925969421,42.0685566029046,990.439700000003 -7.3725617674995,42.0686278493759,989.0 -7.37245129448248,42.068587448444,988.948699999994 -7.37236127251122,42.0685405096028,987.864199999996 -7.37227443596596,42.068476471785,987.333700000003 -7.37212708261498,42.0683492348665,986.174499999994 -7.37170530472445,42.0679385212893,982.871499999994 -7.37149123080234,42.0677138867017,981.187900000004 -7.37127531353729,42.067493945416,979.858300000007 -7.37114354954974,42.067359667036,979.0 -7.371051013194,42.0672776925048,978.0 -7.37095830975163,42.0672230423139,977.375899999999 -7.37084029268286,42.0671710742401,977.050199999998 -7.37063242162781,42.0671313439228,976.0628 -7.37045707138265,42.0671313439228,975.0 -7.3701182753665,42.0671073718122,972.161699999997 -7.36985491627467,42.0671112276768,970.971900000004 -7.36938217695807,42.0670076274086,968.2552 -7.36901337271988,42.0669720883003,965.728799999997 -7.36854935065482,42.0670047771851,961.344599999997 -7.36815959231427,42.0671476049671,958.325500000006 -7.36780889362061,42.0673574877008,955.140100000004 -7.36768634994113,42.0675402134936,952.626699999993 -7.36753966673334,42.0678741487644,949.207399999999 -7.36737169345332,42.0680895633969,948.640299999999 -7.36699149049246,42.0682734620928,948.219800000006 -7.36615145610736,42.0685458744817,945.0 -7.36544519703772,42.0688647215285,942.063299999994 -7.36461387990412,42.0692388896637,941.743100000007 -7.36423065860392,42.0693745091053,940.321500000005 -7.36376127269828,42.0695221982163,936.838600000003 -7.36291771781556,42.0699278822109,930.0 -7.36264781988676,42.0697121323911,925.627800000002 -7.36256534196725,42.0696477589974,926.160799999998 -7.36238613705125,42.0696878244974,926.462899999999 -7.36200995764456,42.0698108709435,928.998600000006 -7.36168256035104,42.0698231088904,931.993799999997 -7.36141517770505,42.06977264935,934.070699999997 -7.36055620054553,42.0695877447227,942.808699999994 -7.3602190798874,42.0695773512318,941.840500000006 -7.35982177749509,42.0700747331468,939.707999999999 -7.35948448975033,42.0701582171302,940.243199999997 -7.35888635729816,42.0702836106099,943.512499999997 -7.35831487965713,42.0703903956916,945.970100000006 -7.35774088673329,42.0704442076067,948.951300000001 -7.35662559057882,42.0709080623294,952.882400000002 -7.35637648056402,42.0710448544974,953.267200000002 -7.35590893800137,42.0712753574058,955.676500000001 -7.35577214524482,42.0713583376879,955.960099999997 -7.35553544006578,42.0714376309673,958.291700000002 -7.35511986504231,42.0716803707051,957.729500000001 -7.35470479397371,42.071940377568,960.468699999998 -7.35415779093257,42.0722171478946,960.928100000005 -7.3537098612875,42.0723463968545,963.296799999996 -7.35324047538187,42.0724774899683,963.0 -7.35239004748892,42.0725587943023,963.978300000002 -7.35152872303158,42.0725998655242,966.0 -7.35066471620477,42.0727386698271,968.912899999996 -7.35023438904771,42.0727458780938,972.308600000004 -7.34885623685795,42.0727202297303,980.644 -7.34752552559665,42.0726810023307,990.1973 -7.34705865407552,42.0725170522358,994.072100000005 -7.34679378581397,42.0722954345376,996.301099999997 -7.34648684046455,42.0722345819062,995.0 -7.34592257090536,42.0722788387349,995.481499999994 -7.34547615042999,42.0723772418859,996.0 -7.34515680024477,42.0723767391048,997.3698 -7.34480928607879,42.0722548665677,999.0 -7.34461097040344,42.0720686201907,996.981299999999 -7.34458666289014,42.0718161576381,994.925499999998 -7.34461365277287,42.0714909398733,993.0 -7.34457341992623,42.0713802983706,993.048299999995 -7.343593072287,42.0707335509787,987.590200000006 -7.34329501127573,42.0705917288533,984.848700000002 -7.34271598958294,42.0704849434435,981.9807 -7.34239228077198,42.0703840253746,979.516699999993 -7.34212540118253,42.0702289603395,977.786600000007 -7.34189137837295,42.0700008049213,973.521599999993 -7.34166992838404,42.069520857184,968.089300000007 -7.34142802645105,42.069352381016,965.815100000007 -7.34085755402484,42.0690415800068,962.0 -7.34037559440016,42.0688741095183,959.0 -7.33971493291603,42.0687178711276,954.551999999996 -7.33909785768949,42.0685743726846,950.0 -7.33865680195299,42.0683706924437,946.793399999995 -7.33807627109051,42.0680592210979,941.250199999995 -7.33751434793084,42.0677879823066,935.940900000001 -7.33653333014841,42.0676020715954,928.554399999994 -7.33554644546886,42.0674312489527,922.037500000006 -7.33510421563425,42.0674248783388,920.406400000007 -7.33415085787775,42.0674731584137,915.2696 -7.33358005037988,42.0675195938907,911.082699999999 -7.33324561298952,42.0675608330898,908.0 -7.33294621079352,42.0675541277206,906.0 -7.33296096292712,42.0673995652618,907.388000000006 -7.33299918444582,42.0671211180819,910.308799999999 -7.33311787255613,42.0668609440989,911.2356 -7.33318643647016,42.0667497997029,910.995999999999 -7.33286188953107,42.0667523144984,905.247799999997 -7.33266005335809,42.0667925478784,902.585999999996 -7.33241764836855,42.06683361883,900.236199999999 -7.3321918397539,42.066887095654,898.236099999995 -7.33210500320864,42.0671021755308,898.957899999994 -7.3320890778753,42.0672951265393,899.075299999997 -7.33151592307962,42.0672438293982,894.203699999998 -7.33142556603677,42.0671165920097,891.192999999999 -7.33143746871428,42.0670416580267,891.0 -7.3314391449706,42.0669719202478,891.373699999996 -7.33127100370561,42.0669109004619,889.925799999997 -7.33110856225111,42.0668971541467,887.657600000006 -7.33103496956806,42.0669786256785,887.9856 -7.33092315536635,42.0670128243646,887.0 -7.33085459055399,42.0669259878613,886.0 -7.33081217839446,42.0668736847724,885.309800000003 -7.33063364362162,42.066940572433,884.079700000002 -7.33055753655413,42.0669088884972,884.837799999994 -7.33033776282154,42.0666378175126,887.893700000001 -7.33003869659549,42.0664099979661,891.342300000004 -7.32983669243755,42.0661359092015,894.149900000004 -7.32977583966187,42.0659984462382,895.067999999999 -7.32943536738941,42.0661810038869,893.471699999995 -7.32916915794319,42.0662904714025,893.710500000001 -7.32901308644234,42.0663142764341,894.333199999994 -7.32855023847535,42.0663050561201,896.084900000002 -7.32821395594538,42.0664505663371,895.946299999996 -7.32788186495449,42.0667476210137,897.912899999996 -7.3276636003916,42.0670341143412,899.294299999994 -7.32738263881178,42.0672413146222,900.0 -7.32715750123865,42.0671717451146,900.416500000007 -7.32693571617813,42.0669692380753,900.0 -7.326832283258,42.0665873587745,899.861799999999 -7.32673136562067,42.0664168708433,899.572899999999 -7.326465659231,42.0663526654966,899.491899999994 -7.32617463921491,42.066626083112,902.100300000006 -7.32583332791599,42.0669712500381,905.464800000002 -7.32569837940076,42.0671685601281,905.999200000006 -7.32507510130716,42.0674431512558,909.525200000004 -7.32452139234245,42.0675376987293,912.0 -7.32490729511376,42.0673561466227,913.919899999994 -7.32525413823825,42.0671077072498,914.560800000007 -7.32545144869881,42.0666939766857,918.854000000007 -7.32535287746101,42.0661312156712,924.139500000005 -7.32510175521994,42.0658135412878,926.903699999995 -7.32493914667881,42.0658353344994,929.370200000005 -7.32486186551322,42.0659972725197,932.161900000006 -7.32477301764006,42.0662916451156,933.882800000007 -7.32451736968662,42.0664629709851,936.306899999996 -7.32414387175103,42.0664817470069,941.0677 -7.32369862537373,42.066463139039,944.0 -7.32308993142878,42.0661826804322,951.649600000004 -7.32268709721098,42.0657783376225,959.403600000005 -7.32219139156582,42.0656588112035,966.899900000004 -7.32179677154298,42.0655003935031,973.494999999995 -7.32142562090527,42.065316662167,979.189700000003 -7.32085011881174,42.0651045999427,988.476599999995 -7.32056798403215,42.0649986529272,993.013600000006 -7.31909763055824,42.0645626261395,1008.8737 -7.31847502260788,42.0644395795242,1014.04059999999 -7.31811644479085,42.064298931759,1019.81759999999 -7.31780564387221,42.0641842669569,1023.8331 -7.31746701494272,42.0641602950673,1029.41099999999 -7.31737028794619,42.0641586184685,1030.17290000001 -7.31719208914327,42.0642251708692,1033.0344 -7.31708966233629,42.0641369934082,1035.4648 -7.31687475028602,42.0639666729594,1039.99649999999 -7.31620369439574,42.0634930952935,1050.5717 -7.31557069383583,42.0638022201828,1060.3962 -7.31463510565394,42.0637829418531,1073.4038 -7.31441063822402,42.0633972066369,1083.4783 -7.31405273055019,42.0630537162478,1093.7303 -7.31300817762268,42.0632907559199,1102.9994 -7.31236193320052,42.0631710627572,1109.0 -7.31194283857776,42.0630714855673,1112.0 -7.31124278147685,42.0628320981895,1115.9755 -7.31062972890615,42.0627466031456,1117.0 -7.30940345667809,42.0625843293755,1118.0 -7.30778776118113,42.0623120854804,1123.0 -7.3074695841957,42.0622291040441,1123.72809999999 -7.30713682216332,42.0622200518689,1125.11960000001 -7.30655377691636,42.062059957604,1129.0 -7.30612495892898,42.0620537551836,1131.7827 -7.30559907887345,42.0620837622212,1133.0 -7.30532582843199,42.0621680843683,1133.1201 -7.30509834356101,42.0622277635246,1134.0 -7.30471562621571,42.0623632145401,1134.8659 -7.30441488283498,42.0624730174312,1134.49679999999 -7.30396997152926,42.0625741034691,1135.0 -7.30344928822768,42.0624721797765,1132.46219999999 -7.30289457404815,42.0622892866711,1127.0 -7.3012000882159,42.0618743822574,1117.0 -7.30031160678921,42.0615506728466,1117.0 -7.29989133806837,42.0614033193323,1117.0 -7.29928079988215,42.0612868105609,1114.0 -7.29810833943459,42.061255965476,1117.0 -7.29749562193547,42.0612199229463,1115.0914 -7.29724718296217,42.061196454141,1113.5603 -7.29700142546,42.0611003972826,1112.0 -7.29676723466543,42.0609121400377,1109.84510000001 -7.29643464061801,42.0605835690469,1104.2696 -7.29619307465497,42.0603358001291,1100.56479999999 -7.29591999219849,42.0602722649156,1097.27370000001 -7.29559192476178,42.0603366384789,1094.8759 -7.29527609417589,42.0604573374005,1092.43180000001 -7.29518540206143,42.0605185254561,1092.50599999999 -7.295123376086,42.0605676437943,1091.603 -7.29495087619524,42.0607649537776,1091.7662 -7.29444108945804,42.0608874966388,1087.4884 -7.29405786815783,42.0612943542624,1085.3045 -7.29385050015933,42.0614316500064,1084.0114 -7.29354925462038,42.0615696163871,1081.92630000001 -7.2929995692098,42.0617250166983,1075.72659999999 -7.2925806416737,42.0617608915419,1070.1461 -7.29238668462406,42.0618636533722,1068.0 -7.29228174343257,42.062078397463,1066.0145 -7.29046102633663,42.0623362247989,1064.0 -7.28983774824303,42.0623322019133,1063.6194 -7.28810571103532,42.0621955770428,1061.1442 -7.2869417998543,42.0621099137433,1060.0 -7.28591149690211,42.0619573628235,1064.0 -7.2856412639017,42.0619955844539,1066.0 -7.28535309424004,42.0621759627617,1069.0 -7.2847762518601,42.0625472812149,1072.5104 -7.28413335995062,42.0627434179371,1076.5594 -7.28339625542908,42.0635448956487,1081.1044 -7.28223402050438,42.064184769803,1087.1532 -7.28214869312878,42.064316701397,1087.47259999999 -7.28233862662425,42.0648206214494,1090.2414 -7.2824584879343,42.0653057658064,1094.1373 -7.28235606112728,42.0656246131217,1096.18799999999 -7.28205867115755,42.06592300877,1098.44259999999 -7.28110145783183,42.0663337220493,1100.5624 -7.28083474532901,42.066595908167,1099.4654 -7.28065738465428,42.0667912067883,1100.0145 -7.28026980562662,42.0669543187387,1100.338 -7.28012496576178,42.0671093837707,1101.1529 -7.28004366194038,42.0675157380509,1102.486 -7.27978633683229,42.0677739007473,1101.1694 -7.27932063851091,42.0679358391576,1103.3504 -7.27911511475368,42.068020161535,1102.55740000001 -7.27874832184339,42.0682825147387,1106.0748 -7.27828966451719,42.068182434749,1106.9574 -7.27751266222063,42.0680018887841,1108.31939999999 -7.27698661418014,42.0679544473606,1108.6587 -7.27643676078461,42.0680451395987,1108.8654 -7.27604851161375,42.0682315531602,1108.72 -7.27577375290095,42.0682739655733,1107.9295 -7.27548541525433,42.0682347380933,1109.4669 -7.27451680230765,42.0679115319175,1106.8284 -7.27391079073214,42.0677683690864,1104.1462 -7.27357467618712,42.0677633395758,1103.7559 -7.27341676134333,42.0678191629864,1103.2801 -7.27310797175263,42.0679601470553,1100.88830000001 -7.27280002118838,42.068071961531,1100.8673 -7.27254923401893,42.0680915753242,1100.1972 -7.27222183762375,42.0680516768664,1099.03969999999 -7.27196736287005,42.0679256134463,1098.7206 -7.27168422197734,42.0675003153561,1096.90519999999 -7.27137425918689,42.0671113950622,1095.5448 -7.27112883675631,42.0668860900047,1094.1011 -7.27060245364421,42.0664713530074,1091.0 -7.27011378809597,42.0662944947042,1089.2626 -7.26961657417945,42.0662809163099,1086.7779 -7.26934986167666,42.0661929064243,1085.4617 -7.2691616044375,42.0660859535624,1084.8556 -7.2685250824817,42.0655518581086,1082.0122 -7.26828988647234,42.0653278939725,1080.28230000001 -7.26803222629264,42.0652561449615,1080.0 -7.26770952359482,42.065339796003,1079.72930000001 -7.2668901082404,42.0658294672253,1079.2651 -7.26674929282806,42.0659833586184,1079.66929999999 -7.2665793073218,42.0661548527078,1079.33409999999 -7.26621218023822,42.06625442973,1079.1437 -7.26568294677173,42.0664601214041,1079.0 -7.2651994788757,42.0664834228774,1077.8962 -7.26435910941898,42.0665690862781,1077.0647 -7.26338144414918,42.0667548292938,1079.45450000001 -7.26245289696251,42.0669068765324,1081.01700000001 -7.26176859810828,42.0669474452528,1083.8633 -7.26139577121426,42.0669248141599,1085.5721 -7.26013010336943,42.0666265859387,1091.1657 -7.25897541249648,42.0664232408915,1095.9166 -7.2585935332793,42.0663871986275,1098.0 -7.25839572066049,42.0664101653532,1099.0 -7.25796354926211,42.0667275039792,1101.0224 -7.25763397265574,42.0668996682695,1101.0 -7.25711731200996,42.0670129917502,1099.0 -7.25553514433433,42.0671704040325,1092.0 -7.25510112959305,42.0671291652466,1090.0 -7.25251263050858,42.066834289708,1080.0 -7.25085938363609,42.0666146834826,1077.0 -7.24991524618766,42.0665613744827,1079.4152 -7.24900312739087,42.0664006096119,1077.0 -7.2482014816111,42.06631947278,1075.0 -7.2476025110308,42.0663751287392,1074.5359 -7.24713530353973,42.0664847639739,1074.5704 -7.24634857877685,42.0668227227298,1076.3003 -7.24518500266742,42.0670621097325,1075.26639999999 -7.24492952269893,42.067008968494,1073.887 -7.24419744694634,42.0670585893027,1068.9458 -7.24350795133824,42.0670264026023,1064.5598 -7.24283622620305,42.0668554116915,1060.209 -7.24259365322856,42.0668113231357,1058.03019999999 -7.24228369043812,42.0667687430261,1054.7104 -7.24178262095242,42.0667425914222,1048.679 -7.24149461837739,42.0666780509651,1044.2228 -7.24077461328726,42.0666388238327,1038.5447 -7.24053505775383,42.0667000112664,1037.3018 -7.24030941712413,42.066890951532,1035.492 -7.24005142187283,42.066982481551,1034.0 -7.23944591335389,42.0669677296032,1032.90609999999 -7.23913460937868,42.0670071245849,1033.535 -7.23858308062516,42.0672294122813,1033.0 -7.23787145681665,42.0675489308089,1030.46829999999 -7.2375361803998,42.0676367727644,1028.7926 -7.2372091190762,42.067762501324,1028.2099 -7.23686814284886,42.068169024141,1027.0 -7.23650369813475,42.0686384104036,1025.0 -7.23595384473922,42.0689639635403,1022.0726 -7.23558068277358,42.0690856690143,1021.0 -7.23467879039798,42.0692645387671,1021.01149999999 -7.23396616047636,42.0693654566152,1022.0 -7.23318496753897,42.0693602598517,1024.0 -7.23273905012014,42.0694326797429,1026.0 -7.23233118623506,42.0696363599106,1025.0 -7.23171109356747,42.0699917525204,1020.8297 -7.23131747875945,42.0703136177589,1015.94349999999 -7.23123131325569,42.0704190617767,1015.0 -7.23109887912493,42.0710264145753,1011.0 -7.23096996549177,42.0711759476321,1010.0 -7.23087960844892,42.0712106488479,1010.084 -7.22997654197529,42.0714342781541,1012.0 -7.22963623678945,42.0715358667151,1012.81879999999 -7.22945719985837,42.0716535482971,1013.0 -7.22931638354769,42.0718957857579,1014.0625 -7.2293564493077,42.072120252845,1015.50019999999 -7.22944529718086,42.0722272062096,1012.1734 -7.22988434158946,42.0727470516875,1020.0 -7.22991334280009,42.0729755426434,1021.875 -7.22989037647153,42.0731681583978,1023.1102 -7.22940724364711,42.0737522094333,1027.68610000001 -7.22897825767474,42.0742179083531,1032.3649 -7.22889862921133,42.0743243580845,1034.1176 -7.22881196065103,42.0744140443602,1035.50569999999 -7.22871053995717,42.0745315585744,1036.5628 -7.22844097799828,42.0748155376358,1037.80499999999 -7.22827568618936,42.0749587005763,1038.6899 -7.22760077562819,42.0757291653515,1040.8882 -7.22742022952746,42.0759264755574,1040.7751 -7.22722861887734,42.0761033336964,1040.9733 -7.22674699522261,42.0763200892958,1041.23 -7.2261329365388,42.0761806147114,1043.7614 -7.22579162523984,42.0761670357647,1044.0474 -7.22531218089797,42.0765140464531,1044.3625 -7.22469510477311,42.0766092651929,1043.97199999999 -7.22432177482251,42.0766287109883,1046.0 -7.22396135366253,42.0763913357212,1047.5251 -7.22352012994107,42.07614926611,1050.56050000001 -7.22332851929095,42.0761368606876,1053.0772 -7.22335483903047,42.0762610808295,1055.19899999999 -7.22352750600787,42.0764989593323,1055.923 -7.22350336647953,42.0765970272207,1057.0 -7.22340697455462,42.0766845346037,1058.0214 -7.22322525435578,42.0767770706627,1059.06570000001 -7.22298704090537,42.0768721216482,1060.10400000001 -7.22280263923542,42.0769328064744,1061.295 -7.22290305381621,42.0772607067643,1061.9616 -7.22291227412428,42.0775827391721,1063.4987 -7.22271898721784,42.0783163231582,1068.9286 -7.22251832514294,42.0789570358785,1070.96189999999 -7.2219718251584,42.0793384127124,1072.6376 -7.22142582733207,42.0794887842856,1071.7445 -7.22046878199132,42.0795238203289,1070.0 -7.22006795910142,42.0794857666031,1070.0 -7.21911795475584,42.0792715254479,1068.0 -7.21828764283706,42.0791362411908,1068.143 -7.21787089461382,42.0790958402799,1068.0 -7.2173884328309,42.0790076628057,1066.0445 -7.21713479620539,42.0789201559592,1065.0307 -7.21689993526762,42.0788438804063,1065.22809999999 -7.21649441868038,42.0785699600112,1064.2029 -7.215838115822,42.0780370384099,1061.43829999999 -7.21524551519538,42.0776342039836,1060.12699999999 -7.21496975036944,42.0773804000329,1058.4909 -7.2146790663233,42.0771410132699,1056.5882 -7.21373811340252,42.0770917277263,1055.0655 -7.21290411389949,42.076822668536,1055.13219999999 -7.21239834981813,42.0767743882377,1054.4109 -7.21159486069538,42.0770280252526,1055.1764 -7.21129478925451,42.0772152765644,1054.47319999999 -7.21099924262772,42.0772680825427,1055.4048 -7.21054662018362,42.0774360562957,1056.0 -7.21011696406805,42.0775322804662,1057.0 -7.20924826354391,42.0777790434725,1051.675 -7.20874886941623,42.0776838251544,1048.0629 -7.2080747969832,42.0772151092057,1044.0 -7.20768822317036,42.0770365745725,1043.0 -7.20732411352783,42.0769118518698,1042.0 -7.20663512097627,42.0766927485829,1042.0 -7.20609549400196,42.0762738216167,1043.046 -7.20577027691963,42.0761853081655,1044.08719999999 -7.20531664746409,42.0761187563013,1043.239 -7.20486938975886,42.0761117151125,1043.6489 -7.20399582755239,42.075785659208,1044.0 -7.20347430522432,42.0755811406204,1044.9314 -7.20328956848275,42.0753283426427,1045.0 -7.20308773230977,42.0745516751361,1047.93550000001 -7.20290048028544,42.0738226172358,1051.17359999999 -7.20256989846424,42.0733653011951,1054.0 -7.20203664144362,42.0729250836084,1056.3455 -7.20054667415379,42.0722054131917,1063.18060000001 -7.20008047277586,42.0720196701204,1064.9225 -7.19901462977608,42.0718421417794,1069.4485 -7.19835799184611,42.0717660337612,1072.0 -7.19789095233999,42.0716097951533,1073.7218 -7.19754226497427,42.0712235566898,1074.231 -7.19725342427108,42.0707013641411,1075.524 -7.19696760190723,42.0703516716498,1076.21279999999 -7.19643484794314,42.0702599731101,1075.8682 -7.19589086234305,42.0702812633313,1074.8985 -7.19511872172881,42.0704594628765,1073.14969999999 -7.19456953937481,42.0706649868867,1071.0 -7.19366546678803,42.0707043822412,1071.0 -7.19333807039284,42.0706991849206,1071.0 -7.19196343780235,42.0704217444702,1072.0833 -7.19171332167444,42.0703027209223,1070.4673 -7.19073800370249,42.0694781095121,1067.0294 -7.1903462331357,42.0692041887036,1065.5521 -7.1899722330419,42.0691446774832,1065.0 -7.18898082175162,42.0691706613845,1065.2018 -7.18831596872839,42.0692256466587,1068.1222 -7.18788312718682,42.0695520376794,1070.91620000001 -7.1876685511065,42.0698841285444,1071.9898 -7.18759579565331,42.0704163797498,1072.19899999999 -7.18744911244549,42.0706086605161,1071.6977 -7.18706656218682,42.0708245786653,1072.9991 -7.18676330531994,42.0709729379041,1074.6597 -7.18653531739242,42.07126529894,1075.111 -7.18622669578668,42.0718210187878,1076.0105 -7.1859630007249,42.0722686123895,1079.0 -7.18560459089283,42.0727416871636,1079.0 -7.18531021836414,42.0730026998991,1079.0 -7.18482842672443,42.0733891055742,1080.99069999999 -7.18445358760414,42.073529083064,1081.0 -7.18393106006124,42.0735921149093,1079.3419 -7.1836231085987,42.0735778659356,1079.0 -7.18298977206887,42.0734345351789,1077.0 -7.18258526159475,42.073303945482,1077.7687 -7.18200171329126,42.0731644702705,1077.33990000001 -7.18150869001556,42.0730697551394,1077.0 -7.18069815989763,42.0731104912916,1077.9323 -7.18020949524769,42.0731513947871,1078.91680000001 -7.17966835910369,42.0732536540773,1080.77069999999 -7.17915488388391,42.0733295942764,1084.0 -7.1771266308045,42.0733637922083,1087.0 -7.17643797422286,42.0733307671925,1086.0 -7.17568611756771,42.0730132608658,1087.0 -7.17498371406728,42.0727212352872,1087.0 -7.17419464110822,42.0724561998169,1085.9218 -7.17390144267758,42.0723187365363,1085.3129 -7.17216068911666,42.0709519833321,1085.4532 -7.17133792124961,42.0704120212892,1084.98420000001 -7.16964997335604,42.0695704780298,1082.98 -7.16853970686882,42.0689720104715,1087.38860000001 -7.16761903880549,42.0685322952353,1087.0471 -7.16720782240777,42.0683663338427,1086.99490000001 -7.16688126324242,42.0683478938094,1085.7862 -7.16627692792325,42.0684887093223,1083.0352 -7.16574585021548,42.0685554299002,1081.0 -7.16533077914689,42.0687259174231,1078.13039999999 -7.16497555384249,42.0688840003156,1075.9023 -7.16455327379375,42.0688861795983,1073.2605 -7.16398062205462,42.0687530751634,1071.0163 -7.16325139665645,42.0684756335426,1070.0 -7.16285828490497,42.0683887970396,1068.0 -7.16201640627856,42.0683133604112,1063.1436 -7.16163704144586,42.0682717862695,1061.0 -7.16132003855853,42.0681383457811,1059.0 -7.16088568784729,42.0679410360377,1056.0 -7.16048570308555,42.0677973704557,1053.3968 -7.16004615651874,42.0677814443449,1051.0 -7.15955631777072,42.0679470711667,1048.0 -7.15886179339363,42.0681175589897,1045.86930000001 -7.15819107347326,42.0680847019614,1044.57640000001 -7.15732170280592,42.0679289664448,1044.0 -7.1568420904791,42.0678593963571,1042.0 -7.15435769445796,42.0679604818215,1032.7282 -7.15310091184962,42.0680464806623,1027.9544 -7.15262431606552,42.0680204963009,1024.6654 -7.15223439063834,42.0679344980917,1023.44130000001 -7.15161144761636,42.0676897467604,1022.0 -7.15117558863377,42.0675499364477,1019.0471 -7.15031141382204,42.0673087053835,1016.0 -7.14989366038397,42.0671601781979,1016.0 -7.14957363915726,42.0669204554596,1015.0 -7.14928027274169,42.0665836709317,1014.74280000001 -7.14918572415972,42.0661526733313,1014.0 -7.14917398946717,42.0657117848493,1014.0 -7.14891180357509,42.0651232076418,1016.0961 -7.1483312736109,42.06443656246,1015.0995 -7.14799297975303,42.0640947482922,1013.0 -7.14783087337011,42.0640354043437,1013.00410000001 -7.14769257234221,42.0640830134216,1013.72990000001 -7.14705990595562,42.0636944283225,1008.0 -7.14686293146493,42.0636074245541,1006.9961 -7.14655548305896,42.0635343344406,1005.9206 -7.14582173194835,42.0634206759625,1004.0 -7.14532518727674,42.0633241162815,1001.4779 -7.14510206103155,42.0632092843239,999.0 -7.14480768850283,42.0631224472866,997.582500000004 -7.14389305532157,42.0626039428635,991.786099999998 -7.1435700166538,42.0624294320266,992.0 -7.14318964660632,42.0620567723611,991.0 -7.14282369272252,42.0618393458079,990.0 -7.14228356269163,42.0615344123695,986.0 -7.1418389864575,42.0614143830959,984.0 -7.14131159723232,42.061086482975,980.0 -7.14100280764161,42.0610051786198,979.0</coordinates>
</LineString>
</Placemark>
</Folder>
</Document></kml>
