<?xml version="1.0" encoding="UTF-8"?>

<kml xmlns:xsd="http://www.w3.org/2001/XMLSchema" xmlns:gx="http://www.google.com/kml/ext/2.2" xmlns:atom="http://www.w3.org/2005/Atom" xmlns="http://www.opengis.net/kml/2.2">
<Document>
<name>ES04a_37a_silleda-ponte_ulla</name>
<visibility>1</visibility>
<Schema name="ES04a_37a_silleda-ponte_ulla" id="kml_schema_ft_ES04a_37a_silleda-ponte_ulla">
<SimpleField type="xsd:string" name="id">
<displayName>id</displayName>
</SimpleField>
<SimpleField type="xsd:string" name="nombre">
<displayName>nombre</displayName>
</SimpleField>
<SimpleField type="xsd:double" name="longitud">
<displayName>longitud</displayName>
</SimpleField>
<SimpleField type="xsd:string" name="_formato">
<displayName>_formato</displayName>
</SimpleField>
</Schema>
<Folder id="kml_ft_ES04a_37a_silleda-ponte_ulla">
<name>ES04a_37a_silleda-ponte_ulla</name>
<Placemark id="kml_1">
<name>&lt;img height='20' src='https://nco.ign.es/iconos/icono_todos_caminos_azul.png' /&gt;&lt;img height='20' src='https://nco.ign.es/iconos/Camino Santiago_20.png' /&gt;&lt;img height='20' src='https://nco.ign.es/iconos/icono_todos_caminos_azul.png' /&gt;  Camino de Santiago </name>
<visibility>1</visibility>
<description><![CDATA[<!DOCTYPE html>
<html>
<head>
<style>
#nco {
  border-collapse: collapse;
  overflow:hidden;
}
#nco th, #nco td {
  padding: 4px;
  text-align: left;
}
#nco th {
  color: #364B5F;
  padding-right: 5px;
}
#nco td {
  color: rgb(51, 51, 51);
  font-size: 12px;
  padding-right: 5px;
}
</style>
</head>
<body>
<table id="nco">
<tr>
<td>Caminos Andaluces</td>
</tr>
<tr>
<th><b>Camino: </b></th>
<td>ES04a Camino Mozárabe - Vía de la Plata</td>
</tr>
<tr>
<th><b>Etapa: </b></th>
<td>37a Silleda-Ponte Ulla</td>
</tr>
<tr>
<th><b>Longitud: </b></th>
<td>19.86 km</td>
</tr>
</table>
</body>
</html>]]></description>
<Style>
<IconStyle>
<scale>0.8</scale>
</IconStyle>
<LabelStyle>
<color>ffffffff</color>
<scale>0.75</scale>
</LabelStyle>
<LineStyle>
<color>ffff0000</color>
<width>3.0</width>
<gx:labelVisibility>1</gx:labelVisibility>
</LineStyle>
<PolyStyle>
<color>66ff0000</color>
</PolyStyle>
</Style>
<ExtendedData>
<SchemaData schemaUrl="#kml_schema_ft_ES04a_37a_silleda-ponte_ulla">
<SimpleData name="id">ES04a_37a</SimpleData>
<SimpleData name="_formato">kml</SimpleData>
</SchemaData>
</ExtendedData>
<LineString>
<extrude>0</extrude>
<tessellate>1</tessellate>
<coordinates>-8.40246984723468,42.7785317969891,63.0 -8.40212132785391,42.7784166296412,61.5179000000062 -8.40175202145744,42.7782912361904,54.7559999999939 -8.40137885859347,42.7781862949621,49.0 -8.40109437741436,42.7780917469554,49.0 -8.40067109125247,42.7779505955688,56.1600999999937 -8.4005222287318,42.7778919221247,61.6359999999986 -8.4004570173304,42.7779100273842,61.982799999998 -8.40042583680688,42.7780213391081,60.5239000000001 -8.40033564685066,42.7782795017024,61.8801999999996 -8.40025652234212,42.7784660828964,61.6634999999951 -8.40015878923247,42.7785564395086,62.4235999999946 -8.40006943830274,42.7787217308637,59.524900000004 -8.39996097571533,42.7788778014877,59.0362000000023 -8.39983575056471,42.7790642153836,61.016300000003 -8.39968102024863,42.7792861678874,64.5565999999963 -8.3995432222773,42.7794175962405,66.9983000000066 -8.39944783556717,42.7795609266932,69.764599999995 -8.3988374653659,42.7797791917278,74.0915999999997 -8.39788209628146,42.7797020777056,84.4600999999966 -8.39670963583387,42.7794333544637,91.8628000000026 -8.39637972415588,42.7793795424226,94.9467000000004 -8.39612189688954,42.7793240542901,96.9535999999935 -8.39588334746922,42.779333441986,94.2626000000018 -8.39563524356753,42.7792533109205,94.0760000000009 -8.39549928893919,42.7792528078427,94.1701999999932 -8.39546810841567,42.7793538940769,94.5994999999966 -8.39545872102097,42.7794735873651,94.8475000000035 -8.39539233552146,42.7797637685354,100.2601 -8.39531186982819,42.7798757507673,102.370800000004 -8.39516267223593,42.779974154473,105.505099999995 -8.39502638163763,42.7801647590792,105.968299999993 -8.39488388996897,42.7803290446183,107.550099999993 -8.39465573405646,42.7804500790746,109.184299999994 -8.39439958304645,42.7805057349861,110.451499999996 -8.39428693071657,42.7805473089231,111.084000000003 -8.39420160244267,42.7805907276305,112.029299999995 -8.39411912452317,42.7806494004953,113.488400000002 -8.39406028397376,42.7807151149082,112.9522 -8.39386364455468,42.7808752089803,113.933099999995 -8.3936955032897,42.7809640575008,115.072100000005 -8.39360849965782,42.7809999319413,115.999400000001 -8.39351193974791,42.7810166958885,116.111999999994 -8.39336592668333,42.781021054013,116.714600000007 -8.39315738548505,42.7810265863912,119.475399999996 -8.39275639461022,42.7810388240811,123.413199999995 -8.3926157462845,42.7810410031425,124.512400000007 -8.39234534619746,42.7810403326114,126.831300000005 -8.39224124313413,42.7810830804423,127.842199999999 -8.39219799284644,42.7811202958745,128.334400000007 -8.39205516520786,42.781240660233,131.235199999996 -8.39196749053445,42.7813145884839,132.759300000005 -8.39181041381881,42.7814629484399,136.935400000002 -8.39176313907866,42.7814921173289,138.385500000004 -8.39171117153948,42.781513071766,139.1587 -8.39164629610796,42.7815134073587,140.2552 -8.39159348954232,42.7814926203884,141.576400000005 -8.39152526069984,42.7814379701653,142.9467 -8.39136047284582,42.7812966510277,146.651100000003 -8.39114841114994,42.7811533206371,150.476299999995 -8.3910324054091,42.7810711783562,151.637300000002 -8.39104028453248,42.7809751216074,151.371599999999 -8.39103257249576,42.7808757120448,152.301200000002 -8.39104682247112,42.7808073156677,153.0 -8.39112125328229,42.7807424400151,152.633600000001 -8.39117070643701,42.7806909749952,152.604699999996 -8.39130867239329,42.7805079140664,154.726999999999 -8.39141344649812,42.7804485705299,155.935500000007 -8.39168904333907,42.7803350794679,159.194099999993 -8.39195609091348,42.7802061657749,163.751600000003 -8.39209288366999,42.7801307283075,166.0 -8.39213261346009,42.7800953570936,166.028200000001 -8.3921423368247,42.7800140527409,167.824299999993 -8.39211501187039,42.7799340893677,169.629400000005 -8.39202951650987,42.7798504375695,171.823000000004 -8.39191300771245,42.7797964584196,174.309800000003 -8.39164042831255,42.7798291476271,177.955700000006 -8.39138176291806,42.779670729523,182.944300000003 -8.39067785024794,42.7797144831288,190.015899999999 -8.38829152330637,42.7799020700998,212.178799999994 -8.3878766184261,42.7799738195313,215.138099999996 -8.38781962211796,42.7792559931225,227.198999999993 -8.38758476118019,42.7792368821007,225.941699999996 -8.3872246741935,42.7792057018149,223.703599999993 -8.38708050537019,42.7791869263829,223.188500000004 -8.38693365417742,42.7791482018716,222.557000000001 -8.38679887364714,42.7790808110631,221.059699999998 -8.3866969498967,42.7790036981492,219.987699999998 -8.38660793403855,42.7788979181222,221.492899999997 -8.38651036801556,42.7787374886046,224.123300000007 -8.38640676800877,42.7784442893937,227.286200000002 -8.3864270519679,42.7781908207615,231.124299999996 -8.38649729303657,42.7779088537305,234.644700000004 -8.38646745279949,42.7777645172301,237.023400000005 -8.38634893267414,42.7776243719389,238.989300000001 -8.38624382349769,42.7773890079998,242.236000000004 -8.38620543489237,42.77706261657,245.763999999996 -8.38624482961081,42.776895481812,248.246299999999 -8.38657239488928,42.7762800824674,254.072499999995 -8.386908508536,42.7755168260473,254.0 -8.38716499551593,42.7749401513787,257.767600000006 -8.38725367540413,42.7748581762526,258.0 -8.38724931677838,42.7748005087438,258.0 -8.38714404051527,42.7746511430786,258.0 -8.3868681077044,42.774472943799,258.784400000004 -8.38643208163518,42.774224001485,259.0 -8.38611608396263,42.774012777698,260.0 -8.38571039939041,42.7736543670752,262.181700000001 -8.38554091783902,42.7735692073126,263.0 -8.38521737611472,42.7735415467013,263.010800000004 -8.38480833902989,42.773468456503,263.0 -8.38412672254513,42.7733194265593,262.641199999998 -8.38365934796739,42.7732550534414,263.0 -8.38318426135298,42.7731583264794,263.915200000003 -8.38271504253401,42.7729888442406,264.218999999997 -8.38223341887925,42.772785163855,265.853799999997 -8.38175229738277,42.7725268339431,268.342000000004 -8.3813836611295,42.7721700995316,269.563999999998 -8.38046701662034,42.7713399563728,272.165599999993 -8.38013224326003,42.7710970484255,273.410900000003 -8.37981406627459,42.7708636966604,275.0 -8.37959714199813,42.77072388657,275.073799999998 -8.37910898040472,42.7703339602475,276.736300000004 -8.37872324472004,42.7699029628001,278.211500000005 -8.37841294685798,42.7695207481394,280.0 -8.37814891672462,42.7690755009131,284.0 -8.37804162913361,42.7687717409734,285.361999999994 -8.37780140345694,42.7684720042073,287.267900000006 -8.37698902909773,42.7676395132459,290.0 -8.37634630517321,42.7669525324883,291.0 -8.37613323736422,42.7667300767842,292.0 -8.37614346288711,42.7666968847363,292.0 -8.3761228438564,42.7666522929717,292.0 -8.37608814283529,42.7665770236462,292.101999999999 -8.37583383516825,42.7663765285611,294.0 -8.375255316532,42.7659398313599,298.0 -8.37522899769081,42.7659401663775,298.0 -8.37519714612579,42.7659406695634,298.302299999996 -8.37509890995956,42.7659103267221,299.009099999996 -8.3747886120975,42.7657918068216,301.778300000005 -8.37445501193696,42.7656821712931,305.0 -8.37433699486819,42.7656399265706,305.991699999999 -8.37424999123631,42.7656307062869,306.436300000001 -8.37411118715186,42.7656429443815,307.0 -8.37400406574918,42.7656496493817,307.418799999999 -8.37392913188144,42.7656201452651,308.680500000002 -8.37378731035594,42.7655230832305,309.775599999994 -8.37365387011207,42.7653953429299,311.760800000004 -8.37357843318778,42.7653422012623,312.210900000005 -8.37347986194997,42.7653066620047,313.0 -8.37334725983422,42.7652768227036,314.053700000004 -8.37324466594058,42.7652310573417,315.285499999998 -8.37317191048739,42.7651752340404,316.0 -8.37294526374458,42.7649542868115,318.118499999997 -8.37268576022196,42.7646667876671,321.0 -8.3725325390755,42.7644874147702,321.0435 -8.37242642378594,42.7643699005231,321.443499999994 -8.37212383706226,42.7640743547052,322.0 -8.37191445773585,42.7638716804281,323.0 -8.37176559521517,42.7636763820805,323.0 -8.37167590831553,42.763603627142,323.0 -8.37070779842539,42.7627862238194,325.006899999993 -8.37049992737034,42.7626132217064,326.067599999995 -8.36997739982745,42.7621812181863,329.2111 -8.36962854447677,42.761963623861,331.0 -8.36914507658073,42.7617463651307,333.850600000005 -8.36866714051023,42.7616489672623,336.360799999995 -8.36837679153568,42.7615824148001,337.186300000001 -8.36815651474654,42.7614942375746,338.3753 -8.36758520419214,42.7612518324937,342.0 -8.36729418507438,42.7611110166825,343.789699999994 -8.36709100771671,42.7610007106962,344.452399999995 -8.36688883647211,42.7609219211511,345.0 -8.3665746821425,42.7608397784159,345.0 -8.36637837779505,42.7607963603705,345.0 -8.3659343046175,42.7606832046138,345.0 -8.36516886992686,42.7605806098736,346.0 -8.36511170473543,42.7604578989412,344.1587 -8.36521228819947,42.7602947867786,343.903099999996 -8.36523642772777,42.760229575694,343.0 -8.36519418265494,42.7601242991507,342.0 -8.36493685844514,42.7598958084681,340.0 -8.36477877561639,42.7597474489473,339.019700000004 -8.36457123963293,42.7595791402897,338.485799999995 -8.36444031467186,42.7594596143314,338.0 -8.36418416366184,42.7592847673898,336.391099999993 -8.36389213843097,42.7591097537467,335.0 -8.36363531637946,42.7589637410289,332.787700000001 -8.36358904865075,42.7589818458859,333.040299999993 -8.36346114023237,42.7589967657351,333.238299999997 -8.36337095117448,42.7589934125453,333.026100000003 -8.36311781760551,42.7589070790582,331.887499999997 -8.36287960415511,42.7588457236141,331.275899999993 -8.362657484023,42.7588021379624,331.034599999999 -8.36243167540834,42.7587612340506,330.0 -8.36212338887422,42.7587171450949,329.659700000004 -8.36184745696164,42.7586626627476,329.132100000003 -8.36155509576086,42.7586168977762,329.0 -8.36141176506571,42.7585895728002,329.029599999994 -8.3613299581877,42.7585044127718,328.017800000001 -8.36126290254503,42.7583956151843,326.419299999994 -8.36115578204065,42.7583315774447,325.055200000003 -8.36100557833524,42.7582700545608,322.650599999994 -8.36077222566886,42.7582454118842,321.0 -8.36049545562813,42.758210375102,319.673800000004 -8.36003730046018,42.7581376203404,318.589600000007 -8.35986999822165,42.7580596687625,318.0 -8.3591048977043,42.7577872569542,318.0 -8.35870273452799,42.7576306826936,318.0 -8.35829017694557,42.7574890289093,318.410600000003 -8.35811130710112,42.7573961576036,319.0 -8.35781894590033,42.7572367336457,320.0 -8.35765650534413,42.7571747077368,321.0 -8.35747914377107,42.7571577757392,321.0 -8.35729507717274,42.7571317923593,321.0 -8.35704227867536,42.7570278567522,322.1976 -8.3569165504682,42.7569359906138,323.0 -8.35664682052436,42.7567517566465,323.0 -8.35651723674799,42.7566779956289,322.496400000004 -8.35627566988662,42.7565693663263,322.0 -8.35608188082197,42.7565385209096,321.0965 -8.35594441702393,42.7565437177681,321.0 -8.35590753668992,42.7565762398426,321.0 -8.35559908306914,42.7563065099855,321.0 -8.35543110978911,42.7561209345236,321.0 -8.3552500606318,42.7559482673397,321.015499999994 -8.35503732789442,42.7557553159087,321.102899999998 -8.35501838512003,42.7557263143065,321.0 -8.35495468198996,42.7556279109892,321.070000000007 -8.35490338459397,42.7556693176002,321.588799999998 -8.3545577155676,42.756080701622,320.0 -8.35434984451256,42.7562619179975,320.0 -8.35418807320122,42.7564267062278,319.0 -8.35412805855373,42.7564521873,319.768400000001 -8.35407558795797,42.7564360940966,320.0 -8.35400870030026,42.7564010576106,320.0 -8.35355674889766,42.7561516126129,320.910199999998 -8.35320437304935,42.7559631872598,322.0 -8.35261847834634,42.755641489374,323.336899999995 -8.35244279392789,42.755556664985,324.0 -8.35233265508416,42.755512240654,324.646299999993 -8.35219703642572,42.7554694929815,325.0 -8.35201866963785,42.755455914559,325.316300000006 -8.35181398311047,42.7554740191217,326.044599999994 -8.35158750435262,42.7555231371536,327.014999999999 -8.35095550900752,42.7556480272604,328.6541 -8.35000064208133,42.7557866643239,330.0 -8.34932472540705,42.755772917775,329.604699999996 -8.34856214017244,42.7557330203799,327.124800000005 -8.3476201820369,42.7556827284395,324.774300000005 -8.34671962994771,42.7556659648899,321.245299999995 -8.34632500992486,42.7556802140722,319.699800000002 -8.34595201504585,42.7557826408154,318.0 -8.34544792811911,42.7559739161443,315.936600000001 -8.34463454764679,42.7562649356056,312.0 -8.3440870415491,42.75648537956,309.587100000004 -8.343751262974,42.7567388486397,307.974499999997 -8.34350131483104,42.7570769742121,306.3747 -8.34341498134233,42.7574628774771,304.717600000004 -8.34335664295116,42.7578087147494,302.997499999998 -8.34322756133303,42.7581161626591,302.573000000004 -8.34267033276903,42.7581466728903,303.0 -8.34230018824444,42.7581848940933,303.851899999994 -8.34212752036871,42.7580997341683,304.0 -8.34171395757148,42.7578548147194,305.0 -8.34145462113548,42.7577041081747,304.0101 -8.34123920692697,42.7575813974817,303.0 -8.34102295369201,42.7574796412001,302.129400000005 -8.34083838403711,42.7573664853223,301.0 -8.34060922290978,42.7573250785261,300.0 -8.34041928851602,42.7573074764411,299.0 -8.34019817449702,42.7572913834598,299.129400000005 -8.3400253395347,42.7572583585043,298.0 -8.33987865632688,42.7572110847042,297.0 -8.33969878036935,42.7571230747265,295.0 -8.33951454578603,42.7570261801041,293.0 -8.33933969949577,42.7569319671799,291.448099999994 -8.33908623085519,42.7567965158156,290.009699999995 -8.33887333013286,42.7566818515455,289.953899999993 -8.33862975284188,42.7565507588214,287.362599999993 -8.33841132029403,42.7564268737624,285.997399999993 -8.33826731855735,42.7563489220111,285.580900000001 -8.33817746457107,42.7562334198972,286.405199999994 -8.33811292421118,42.7559732453417,288.229300000006 -8.33813739970939,42.7555397332048,289.979900000006 -8.33808442605709,42.7553233127231,290.164600000004 -8.33793539555145,42.7552438524038,288.8367 -8.3378049727486,42.7550896251659,285.918699999995 -8.33774160558848,42.7549714400896,284.093900000007 -8.33762459463282,42.7547129422235,281.080000000002 -8.33744036004953,42.7543028999977,276.0579 -8.33715436970073,42.7536975588973,270.228600000002 -8.33710977822834,42.7535478580498,269.0 -8.33713676811103,42.7532194551331,268.298899999994 -8.33723818880494,42.7527780636584,271.0 -8.3373516801613,42.7522707912706,273.171600000001 -8.3374758991988,42.7518091158974,275.077799999999 -8.33753088507734,42.7515408949889,275.261100000003 -8.33758402581627,42.7508973322395,274.0 -8.33762694193067,42.7503751396879,272.478600000002 -8.3376376705101,42.7502054902299,273.893299999996 -8.33764689081818,42.7500638359641,274.412299999996 -8.33767438285915,42.7491944653222,281.429600000003 -8.33781000241588,42.7478860501185,286.045800000007 -8.33784336225229,42.747480366089,290.075500000006 -8.33788979796596,42.7473343530169,292.111999999994 -8.33783833348331,42.7472751769192,291.475999999995 -8.33763180271466,42.7472446666131,289.873800000001 -8.33749031626079,42.7472624364768,288.895499999999 -8.33720264965567,42.7473650308379,286.9709 -8.33697717611263,42.747417166079,285.0 -8.33682864866353,42.7474082814998,283.771800000002 -8.33655757843329,42.7473132306713,282.0 -8.33630796536191,42.747280541454,281.0 -8.33616128215413,42.747294623026,281.0 -8.33597939486866,42.747363354588,280.070300000007 -8.33575107186953,42.7474805336477,280.0 -8.33553431557799,42.7475978800443,280.0 -8.33532912689237,42.7476905839627,280.0 -8.33523122579777,42.7477024865265,280.0 -8.33520524202816,42.7477980400913,279.360000000001 -8.33511823749794,42.7479160574363,279.415200000003 -8.33494389426423,42.7482888843514,279.0 -8.33446226971118,42.7483911432205,277.833799999993 -8.33365006333693,42.7485666607773,271.039699999994 -8.33310121695284,42.7482131118159,270.923800000004 -8.33287758765108,42.7481698610559,270.116699999999 -8.33246871855121,42.7480156340253,269.512300000002 -8.33207409852836,42.74775814218,268.510399999999 -8.33190646031992,42.7477705474046,267.9954 -8.33178911339435,42.7477717209697,268.024799999999 -8.33124110513842,42.7479774124873,269.0 -8.33128066694355,42.7477264585456,272.824600000007 -8.3311851140451,42.747418172092,276.664300000004 -8.33084732324373,42.7471232967964,284.780299999999 -8.33056753486366,42.7468641282795,286.998399999997 -8.33028825043845,42.7465471250134,290.871599999999 -8.32969045305793,42.7467204622452,293.0 -8.32958366762517,42.7466708418107,293.0 -8.32947453489455,42.7465796463966,293.974700000006 -8.32936322285108,42.7464641438872,294.0 -8.32916172264801,42.7464140199031,294.0 -8.32903917896849,42.7463935681502,294.0 -8.32893541097678,42.7463763013821,294.051200000002 -8.32851933289674,42.7462472200328,294.566999999995 -8.32782262920679,42.7460229206842,295.055500000002 -8.32756480194046,42.7458839484234,295.536800000002 -8.32725064850919,42.7456894885924,296.0 -8.32679534369565,42.7453649409,296.0 -8.32634674390736,42.7451076168241,295.948600000003 -8.32613853778072,42.7449703208052,295.303700000004 -8.32589261229357,42.7448120708293,295.971000000005 -8.32552699348139,42.7445426763625,296.0 -8.32520881649595,42.744332458369,295.0 -8.32491997669105,42.7441074877585,294.0 -8.32464823541931,42.743908501308,293.0 -8.32430658904877,42.7436464832113,291.004199999996 -8.32394097023655,42.7433685395983,292.0 -8.32365212953336,42.7431651946063,292.0 -8.32341710061063,42.743018510983,292.0 -8.32280086351225,42.7427155891365,291.0 -8.32220491037297,42.7423999270071,290.0 -8.32143394295848,42.7420465454138,289.0 -8.32069532926725,42.7416821005787,289.0 -8.32032384355792,42.7414998776877,288.0 -8.3201516796371,42.7414750673653,287.0 -8.31974247456728,42.741397115941,287.0 -8.31941524525873,42.7413444775293,287.0 -8.31890579269482,42.7412601554324,288.078800000003 -8.31855274760164,42.7411919270879,289.0 -8.31836650169039,42.7411332537921,288.872000000003 -8.31808554011057,42.7409743322932,289.0 -8.31788705645023,42.7409327581845,289.0 -8.31757256794734,42.7409287350312,289.0 -8.31713117624092,42.7409324230317,287.0 -8.31686865527725,42.7408923577434,285.029599999994 -8.31633456012843,42.7407116440231,281.608099999998 -8.31597262979876,42.7405696540192,280.407300000006 -8.31566317006486,42.7404938819445,278.428700000004 -8.31547155941477,42.7404943846773,276.839300000007 -8.31534784253551,42.7405373003594,276.107900000003 -8.31516209968087,42.7406219572744,275.0 -8.31500871144778,42.7406680581531,274.0 -8.31486973937838,42.7406471030925,273.688899999994 -8.31471802650331,42.7406001643118,272.270300000004 -8.31474803382706,42.7404432550182,271.971799999999 -8.31474870486856,42.740297410103,270.367199999993 -8.31477100015562,42.7402070531015,269.689199999993 -8.31483721767013,42.7401502235569,269.858099999998 -8.31474887195522,42.7399742038441,268.0 -8.31461040294236,42.7398675859051,267.0 -8.31437369776331,42.7397390075976,266.0 -8.31410832734355,42.7395862895847,265.0 -8.31395292688423,42.7395308014322,264.728499999997 -8.31378847320349,42.7395510852299,264.0 -8.31354942162493,42.7396281990962,263.948099999994 -8.31327214852763,42.7397118504547,264.432700000005 -8.3130592478053,42.7397509097088,265.0 -8.31293636905422,42.7397182204624,266.668799999999 -8.31276454020499,42.7395758956625,268.660199999998 -8.31268742702435,42.7394647517089,269.552899999995 -8.31230051813993,42.7389993885055,269.062099999996 -8.31210488483397,42.7388448265879,267.220600000001 -8.31190187456292,42.7386900960428,263.926099999997 -8.31158185333621,42.7385563208859,262.0 -8.31124674490431,42.7384230488497,263.0 -8.31089286168297,42.73838968923,265.0 -8.31061726394369,42.7383762779479,266.0 -8.31037519492407,42.7383295070107,266.664000000004 -8.31018727275654,42.7382222185478,267.0 -8.30996012295715,42.7379575181611,268.677299999996 -8.30962099097108,42.7375471401029,273.1878 -8.30944396536793,42.7372866304498,276.539300000004 -8.3092855474676,42.737060989657,279.820999999996 -8.30906510359181,42.7367721490573,283.998699999996 -8.30890115386595,42.7365565669655,285.319300000003 -8.30882504590013,42.7363837317933,286.0 -8.30881934608964,42.7361527268364,287.0 -8.30886393756203,42.7359421729273,289.042600000001 -8.30894725360969,42.735763135859,291.517399999997 -8.30909913446972,42.7354300391946,296.379300000001 -8.30921530729722,42.7352179764846,299.105200000005 -8.3093132074935,42.7350305577082,302.179499999998 -8.30943290171692,42.7348035752204,304.103300000002 -8.30952443195951,42.73446611992,306.736000000004 -8.30964010173047,42.7339719231839,312.355200000005 -8.30966474521364,42.7337653927469,315.158500000005 -8.30970011637795,42.7335452843382,318.027600000001 -8.3097105098858,42.7333551829156,320.224499999997 -8.30956885634527,42.7331302120641,323.368799999997 -8.30940188828002,42.7329235145251,327.028699999995 -8.30922989144586,42.732659987806,331.0 -8.30904079607855,42.7324670364616,333.754300000001 -8.30887298988515,42.7323631004046,335.0 -8.30855565102791,42.7321999888627,337.803599999999 -8.3084153386721,42.7320967234191,338.013399999996 -8.3083454335733,42.7319728389718,337.999299999996 -8.30833721937835,42.7317847492217,337.0 -8.30830184731573,42.7316885249848,337.314899999998 -8.30825574667366,42.7316154349005,337.0 -8.30813840064641,42.7316130878184,337.937300000005 -8.30763498296454,42.7315755371324,340.0 -8.30679260217993,42.73145299378,343.0 -8.30649001545625,42.7313978408123,344.0 -8.30611618244907,42.7312451220522,345.0 -8.30573648254479,42.7310146198993,346.586800000005 -8.30512829165638,42.7305884839786,348.646800000002 -8.30450635384922,42.730215656857,351.0 -8.30367486962897,42.7296502138173,352.0 -8.30347286547103,42.7295181150278,352.0 -8.30319793877328,42.7293186257838,352.0 -8.30302761909373,42.7292202221156,352.0 -8.30251296977588,42.7288698589179,351.0 -8.30225178999691,42.7286398593452,350.0 -8.30206638221385,42.7283967839993,348.0 -8.30186622229719,42.7280165806846,346.031900000002 -8.30173881693538,42.7276174348425,344.068799999994 -8.30144695968947,42.7271594474783,342.452000000005 -8.30116281268364,42.7269234127296,341.4274 -8.30081630463078,42.7266793322267,340.933300000004 -8.30052025584574,42.7265636619844,340.0 -8.30052075890228,42.7265360015049,340.0 -8.30052830295404,42.7261807761322,342.0 -8.30053048226693,42.7259851425599,341.733200000002 -8.30055210741076,42.7259073584179,341.707699999999 -8.30061748589881,42.7258146549241,342.0 -8.30064179341211,42.725723627467,341.0 -8.30064347056672,42.7256837298685,341.0 -8.30064514682304,42.7256476874518,341.0 -8.30058664044691,42.7255259823565,340.0236 -8.30051992077412,42.7253320248846,338.047399999996 -8.3004909195635,42.7251767920829,336.0 -8.30050248627109,42.7249890374205,334.129799999995 -8.30052897309724,42.7246646578831,332.0 -8.30053366679461,42.7241664373386,328.166700000002 -8.30053836139027,42.7240026548707,328.0 -8.30053366679461,42.7239213508129,327.0 -8.30047147373256,42.7238311613304,326.851899999994 -8.30036904692555,42.7237397983568,326.0 -8.30035194749409,42.7236838076749,326.0 -8.30039268339731,42.723646089185,326.213600000003 -8.30055814229282,42.7236170877389,327.147200000007 -8.30068655286945,42.7235843979072,329.296300000002 -8.30079501455853,42.7235263956038,330.370899999994 -8.30089962067844,42.7234407320465,332.403600000005 -8.30101696760398,42.7233419937049,334.840700000001 -8.30115057493451,42.7231906165632,336.522500000006 -8.30126842491663,42.7230050409523,338.637700000007 -8.30110263094949,42.7229280951586,337.029500000004 -8.30088084588897,42.7228370674256,335.9954 -8.30077556872757,42.7227938167822,337.0 -8.3006815241005,42.7227758795396,337.279500000004 -8.30058798163165,42.7227386640344,337.570500000002 -8.30050516864052,42.7226942399426,337.675600000002 -8.30040207169034,42.7226048887857,337.995899999994 -8.29993637247063,42.7221425430653,338.0 -8.29983076113593,42.7220609032948,338.591499999995 -8.29972028722062,42.7219713849182,339.0 -8.29961149045992,42.7218805247293,339.528999999995 -8.29952264168843,42.7218122961812,340.0 -8.29934511302871,42.7216682949196,341.0 -8.29932264975672,42.7216022453106,341.048200000005 -8.29924352434985,42.7215273113031,342.0 -8.29810392068213,42.7215095419832,342.363800000006 -8.29729540279043,42.7214900957088,343.0 -8.29682484278672,42.7214736674102,342.9951 -8.29641094401957,42.7213328509808,343.474799999996 -8.29601716212489,42.7212595936036,343.126199999999 -8.29570384682177,42.721166219245,343.494900000005 -8.29539489014442,42.7210485370608,345.460600000006 -8.2950607869273,42.7209580127611,346.751999999993 -8.29450406141987,42.7208022766817,349.0 -8.29384507619205,42.7205826707027,350.342699999994 -8.29339580626059,42.7204363230421,351.015199999994 -8.29289708317441,42.7202852806749,351.0 -8.29201530677299,42.719997781548,352.0 -8.29082574689398,42.7196296485416,353.0 -8.28986417494251,42.7192216175366,350.112999999998 -8.28930862263482,42.7189299272047,350.0 -8.28868802601237,42.7186275080751,352.737999999998 -8.28754121426276,42.7180488215852,347.914799999999 -8.28693168218966,42.7177581375142,343.116200000004 -8.28649548813548,42.7175112060569,341.501099999994 -8.28598050374601,42.717282212453,340.806200000006 -8.28571530041291,42.7171021691365,343.0 -8.28568277870465,42.7170582485518,342.9853 -8.28400036353491,42.7147917818225,334.231100000005 -8.28387429935784,42.7146593477798,333.3505 -8.28378997719705,42.7145617821978,333.0 -8.28372543683716,42.7145681528086,333.0 -8.28369023275948,42.7146206231989,332.094400000002 -8.28361546597839,42.7147203681025,332.0 -8.28355243388985,42.7147877582934,331.295299999998 -8.28337390001534,42.7149604252752,330.714300000007 -8.28331589669576,42.7150025025736,330.580600000001 -8.28321330280212,42.7149388001821,328.335699999996 -8.28304968814784,42.7147309292173,329.0 -8.28299621143896,42.7145810603559,329.0 -8.28291876228844,42.7144161047895,330.0 -8.28282790218902,42.7142092392856,331.044200000004 -8.28272463725384,42.7140603770385,332.888300000006 -8.28262254551844,42.7138256838134,335.000400000004 -8.28250452844967,42.7136786647969,336.0 -8.2824307677817,42.7135282937432,337.0 -8.28237662092962,42.7133950213904,337.473100000003 -8.28229531620989,42.7133080171578,337.0 -8.28213991575057,42.7131864792694,337.0 -8.2818411845961,42.7130114655065,337.0 -8.28157749043266,42.7128788639727,337.0 -8.28128596736003,42.7127471004186,338.0 -8.28102914620681,42.7126111459215,339.0 -8.28085195261871,42.7125296738042,340.0 -8.28069889945724,42.7124606066081,341.0 -8.28052958499248,42.7123900311135,341.967699999994 -8.28041542349291,42.7123275022565,342.0 -8.28022398082778,42.7122158553548,343.0 -8.28005265413679,42.7121437706941,343.755399999995 -8.27991871173467,42.7120688364851,344.0 -8.27975375589566,42.7119763004305,344.0 -8.279439937536,42.7118400109151,344.227599999998 -8.27903157059435,42.711654099708,345.0 -8.27883644034497,42.7115699458227,345.0 -8.27868137495726,42.7114775773404,345.848299999998 -8.27821567663588,42.7112334961374,348.0 -8.27801031996528,42.7111203403352,349.7889 -8.27778048779649,42.7110194226458,351.131399999998 -8.27754294538758,42.7109203483647,353.167700000005 -8.27729316433124,42.7107828849057,355.068700000003 -8.27703835450596,42.7106579948489,358.069499999998 -8.27681573131732,42.7106105528389,360.254700000005 -8.27663501723162,42.7106142413221,361.305200000003 -8.27644759812062,42.7106372078681,362.176999999996 -8.27620737244398,42.7106792847972,362.853499999997 -8.27606219840585,42.7107315875171,363.0 -8.27594032486957,42.7106913548627,363.0 -8.2758813163352,42.7106242995007,363.0 -8.2756261714383,42.7103889358476,361.386199999994 -8.27557437098577,42.7103218801588,360.540900000007 -8.27552055920531,42.7102249856563,360.0 -8.27549105493811,42.7101388198983,359.6973 -8.27549591662044,42.7100239874816,359.879100000006 -8.27554101114936,42.7099998477489,359.952399999995 -8.2755946558432,42.7099524058958,360.462799999994 -8.2757798956413,42.7098694253059,362.376799999998 -8.27587494638152,42.7098171218596,363.983800000002 -8.27599849527579,42.709724753409,365.733900000007 -8.27603336428185,42.709670941553,366.229999999996 -8.27602883767115,42.7096213211757,367.166299999997 -8.27599346650683,42.7095421956913,368.605599999995 -8.27595658617283,42.7094173051184,369.796700000006 -8.27592792003382,42.7093735520371,370.372300000003 -8.27581979341632,42.7092701192186,372.102599999998 -8.27575206763042,42.7091983697614,373.112299999993 -8.2756598663463,42.7091197480451,374.513500000001 -8.27560923999184,42.7090615770993,375.262100000007 -8.27551519536474,42.7089034949059,376.854099999997 -8.27531704677598,42.7086840567262,381.142300000007 -8.27510967877751,42.7084869137958,382.320999999996 -8.27505905152472,42.7084619358048,382.959700000007 -8.2749970255493,42.7084627741255,383.0 -8.27494321376881,42.70844601035,383.273199999996 -8.27490247786563,42.7083952160033,383.607399999994 -8.27485587416701,42.7083184375795,384.138999999996 -8.2747707147764,42.7082034380907,385.187000000005 -8.27467365180995,42.7080711715165,386.004499999995 -8.27461313500419,42.7080401587287,386.755600000004 -8.27456418400772,42.7080119955763,387.0 -8.27455228222854,42.7079578482247,387.0 -8.27455479661302,42.7078974985168,388.066200000001 -8.27460693213716,42.7076748750824,388.338099999994 -8.27460341163957,42.7075464643743,388.268700000001 -8.27461447529059,42.7074671718787,388.823300000004 -8.27461682258844,42.7074093366985,389.0 -8.27458849152102,42.7073816762611,389.0 -8.27450467241678,42.7073104302632,388.927500000005 -8.27435664802426,42.7071893955149,388.985499999995 -8.27387049775882,42.7068356792925,388.527100000007 -8.27333221196922,42.7064529614879,389.0196 -8.27324923099317,42.7063909355999,389.0 -8.27320832800333,42.7063726628969,389.241800000003 -8.27314227847375,42.70634248827,389.099000000002 -8.27303934861018,42.706264200917,390.0 -8.27247373786626,42.7061041068146,391.9614 -8.27220484605058,42.7059889395134,393.0 -8.27131703476709,42.7060501274498,395.346799999999 -8.27118677994919,42.7060647114942,396.0 -8.27104579655189,42.7060030212201,397.0 -8.27083960175312,42.7059562496363,397.0 -8.27064044794958,42.7058784661298,398.245599999995 -8.27051388071596,42.7058110755068,399.0 -8.27034490222112,42.7056954053072,400.0 -8.27019737998684,42.7055515712836,401.028999999995 -8.26999235928618,42.7054476356808,403.265599999999 -8.26947368641417,42.7052969291439,408.0 -8.269344772781,42.7052744656206,408.0 -8.26933924095547,42.705146055228,408.0 -8.26928107054926,42.7050523457012,408.0 -8.26918015291194,42.7048664346276,407.0 -8.26901033539063,42.7047376887028,407.0 -8.26871914828789,42.7045983816543,407.0 -8.26843399516895,42.704513221396,407.277499999997 -8.26822226854469,42.7043990598346,407.0 -8.26777869842371,42.70420493532,407.0 -8.26738726382684,42.7040994910199,407.0 -8.26697554437258,42.7040232155924,406.0 -8.26660606999116,42.7039608539047,406.0 -8.26615311247544,42.7038731796043,406.0 -8.26572596984605,42.7037895281023,407.0 -8.26546311381076,42.7037628734332,407.0 -8.26505240046962,42.7037925456237,407.0 -8.26461469724575,42.7038661385099,407.0 -8.26420331376137,42.703907042333,407.0 -8.26385630265197,42.7039102275252,407.0 -8.26335187975531,42.7038763641381,407.200400000002 -8.26290311288038,42.7038465249712,408.015599999999 -8.26238930258902,42.7037804755371,410.526800000007 -8.26208923024982,42.7037893604255,412.456000000006 -8.26175194250503,42.7038254023364,415.463099999994 -8.26140476430897,42.7038622826092,419.877699999997 -8.26095230895153,42.7039248120724,425.272700000001 -8.26050387714819,42.7039573333625,430.140599999999 -8.26008092605792,42.7040600957477,435.934699999998 -8.25958287311495,42.7041915239081,441.0 -8.25912673017326,42.7043372015502,443.642500000002 -8.25872356088384,42.7044516985753,446.0 -8.25872171664256,42.7044268879558,446.0 -8.25892003231795,42.7042019178186,447.0 -8.25903000317673,42.7040381354653,447.927299999996 -8.25912572406014,42.7037181142656,447.554999999993 -8.25922161382681,42.7033773059651,447.871199999994 -8.25922412821129,42.7031706083159,447.864199999996 -8.2591991496565,42.7027377667241,449.121299999999 -8.25912253953243,42.7026118702447,449.875499999995 -8.25899681042698,42.7025020675138,451.0 -8.25880168017759,42.7023609162433,451.919200000004 -8.25858777424044,42.7022259675281,452.435899999997 -8.25855273724942,42.7020692258822,450.176300000006 -8.25849624309952,42.7018895180276,447.693499999994 -8.25848836487448,42.7017659686995,445.872199999998 -8.25847126544303,42.7016628717732,445.024699999994 -8.25832843780442,42.701511662242,445.445200000002 -8.25816649940649,42.7013985065419,446.351999999999 -8.25786206844154,42.7012982589645,447.573300000004 -8.25761664690929,42.7012498109611,448.0 -8.25742604237228,42.7012353941293,448.615900000004 -8.25719101344955,42.7012248333588,449.0 -8.2568470206795,42.701242434862,450.825700000001 -8.25670536624066,42.7012320417764,451.083100000003 -8.25656136540231,42.7012035434687,451.0 -8.25637159899346,42.7011480546487,451.0 -8.25623983500591,42.7011098332722,451.0 -8.25609348686974,42.7010761380222,451.0 -8.25596742359096,42.7010578657355,451.0 -8.25585862593196,42.7010315465824,451.0 -8.25577849531031,42.700948900659,451.538199999995 -8.25576324012013,42.7008632376221,452.053499999995 -8.25574060886319,42.7008169698417,452.360199999996 -8.25566114838473,42.7007029757703,452.504300000001 -8.2555657625729,42.7005693682361,453.882100000003 -8.25538773085664,42.7003271315989,455.558199999999 -8.25528949469045,42.7002181665603,456.604999999996 -8.2552328334539,42.700185309259,456.699999999997 -8.2551562224315,42.7001787714659,457.722800000003 -8.25488045850392,42.700152620287,461.342399999994 -8.25458977355945,42.7001355208746,464.868600000002 -8.25445633421388,42.7000069427288,465.243000000002 -8.25418911865451,42.6997585027557,467.0 -8.25394989909099,42.6995962290964,468.0 -8.25390161913605,42.6994881025374,466.366699999999 -8.25369944789145,42.6993674037602,464.112699999998 -8.25349459427742,42.6992525712232,462.395199999999 -8.25328504696606,42.699180822071,463.919200000004 -8.25295479931815,42.6991731110079,467.832800000004 -8.25272144755007,42.69918920389,470.1149 -8.25262220616903,42.6992121707019,470.700200000007 -8.25238700926134,42.6992071413484,471.082899999994 -8.25236672530225,42.6992061358738,471.4139 -8.25217947327791,42.6991441093474,470.643400000001 -8.25193338070413,42.6990767193365,469.894899999999 -8.25165174898108,42.6990403412703,469.798999999999 -8.25136374640604,42.6989898825294,469.767699999997 -8.2511604019617,42.698939758467,468.301099999997 -8.25099527813776,42.6988807500949,468.0 -8.2508185876062,42.6988396785711,467.4902 -8.25078640096957,42.6988294527735,467.230100000001 -8.25057903297109,42.6988053133089,467.0 -8.25033394651043,42.6987689357439,467.491999999998 -8.25017670180983,42.6987173029492,467.667499999996 -8.25001727779635,42.6985999564892,469.468299999993 -8.24991870655854,42.698488812397,470.535199999998 -8.24980773048499,42.6984230979272,471.466 -8.24952710397675,42.6983020636772,471.921499999997 -8.24932510071711,42.6982184119311,471.906400000007 -8.24908001335814,42.6985374276049,476.3459 -8.24894355567322,42.6983287180498,477.227400000003 -8.24841717256115,42.697677444395,482.0 -8.2482548990916,42.697531934005,484.0 -8.24799070097325,42.6974952216269,484.819199999998 -8.24710758428543,42.6974464385693,488.039600000004</coordinates>
</LineString>
</Placemark>
</Folder>
</Document></kml>
