<?xml version="1.0" encoding="UTF-8"?>

<kml xmlns="http://www.opengis.net/kml/2.2" xmlns:atom="http://www.w3.org/2005/Atom" xmlns:gx="http://www.google.com/kml/ext/2.2" xmlns:xsd="http://www.w3.org/2001/XMLSchema">
<Document>
<name>ES04a_31b_variante-verin</name>
<visibility>1</visibility>
<Schema name="ES04a_31b_variante-verin" id="kml_schema_ft_ES04a_31b_variante-verin">
<SimpleField type="xsd:string" name="id">
<displayName>id</displayName>
</SimpleField>
<SimpleField type="xsd:string" name="nombre">
<displayName>nombre</displayName>
</SimpleField>
<SimpleField type="xsd:double" name="longitud">
<displayName>longitud</displayName>
</SimpleField>
<SimpleField type="xsd:string" name="_formato">
<displayName>_formato</displayName>
</SimpleField>
</Schema>
<Folder id="kml_ft_ES04a_31b_variante-verin">
<name>ES04a_31b_variante-verin</name>
<Placemark id="kml_1">
<name>&lt;img height='20' src='https://nco.ign.es/iconos/icono_todos_caminos_azul.png' /&gt;&lt;img height='20' src='https://nco.ign.es/iconos/Camino Santiago_20.png' /&gt;&lt;img height='20' src='https://nco.ign.es/iconos/icono_todos_caminos_azul.png' /&gt;  Camino de Santiago </name>
<visibility>1</visibility>
<description><![CDATA[<!DOCTYPE html>
<html>
<head>
<style>
#nco {
  border-collapse: collapse;
  overflow:hidden;
}
#nco th, #nco td {
  padding: 4px;
  text-align: left;
}
#nco th {
  color: #364B5F;
  padding-right: 5px;
}
#nco td {
  color: rgb(51, 51, 51);
  font-size: 12px;
  padding-right: 5px;
}
</style>
</head>
<body>
<table id="nco">
<tr>
<td>Caminos Andaluces</td>
</tr>
<tr>
<th><b>Camino: </b></th>
<td>ES04a Camino Mozárabe - Vía de la Plata</td>
</tr>
<tr>
<th><b>Etapa: </b></th>
<td>31b Variante-Verín</td>
</tr>
<tr>
<th><b>Longitud: </b></th>
<td>22.58 km</td>
</tr>
</table>
</body>
</html>]]></description>
<Style>
<IconStyle>
<scale>0.8</scale>
</IconStyle>
<LabelStyle>
<color>ffffffff</color>
<scale>0.75</scale>
</LabelStyle>
<LineStyle>
<color>ffff0000</color>
<width>3.0</width>
<gx:labelVisibility>1</gx:labelVisibility>
</LineStyle>
<PolyStyle>
<color>66ff0000</color>
</PolyStyle>
</Style>
<ExtendedData>
<SchemaData schemaUrl="#kml_schema_ft_ES04a_31b_variante-verin">
<SimpleData name="id">ES04a_31b</SimpleData>
<SimpleData name="_formato">kml</SimpleData>
</SchemaData>
</ExtendedData>
<LineString>
<extrude>0</extrude>
<tessellate>1</tessellate>
<coordinates>-7.80256195038654,42.1878894242454,449.0 -7.80247377265655,42.1879625141368,450.0 -7.8024062139573,42.188340538152,452.0 -7.80223941387702,42.1884847067029,452.960399999996 -7.80185904382953,42.1888840205894,452.219899999996 -7.80164413177927,42.1891850989362,452.0 -7.8015594745469,42.1893477076833,452.274699999994 -7.80146308262196,42.1896221311264,451.210999999996 -7.80143793698054,42.1897076268412,451.733500000002 -7.80145034181629,42.1897859135044,451.983099999998 -7.80152678485373,42.1899131510063,452.0 -7.80157238243923,42.1899978083606,452.0 -7.8017261066422,42.1901875746569,452.077099999995 -7.80142519617487,42.1902960360553,455.849100000007 -7.80112948246142,42.1903441480285,458.760699999999 -7.80102135584396,42.1903806935624,459.767500000002 -7.80062254518028,42.1905961086484,464.498099999997 -7.80056152531798,42.1905756561872,464.969299999997 -7.80034242172862,42.190805991424,469.582500000004 -7.80034476902644,42.1910076596942,468.898100000006 -7.80034862459565,42.1910576160866,466.989700000006 -7.80082622559454,42.1912626373517,457.820300000007 -7.80111389219966,42.1913602029045,455.100900000005 -7.80169425507718,42.1914349693377,449.892699999997 -7.80220437778432,42.1915301878413,444.662599999996 -7.80244074789175,42.1915955662854,442.922300000006 -7.80271433250648,42.1915130888013,442.866099999999 -7.80291868396226,42.1913395829676,440.7981 -7.80307659880606,42.1911271854454,440.294299999994 -7.8030522912928,42.1913648964833,437.692800000004 -7.80306871968271,42.1915627093494,436.118700000006 -7.80308850148356,42.1918025997975,434.092600000004 -7.80310576800164,42.1920096326315,433.171100000007 -7.80311247302694,42.1920921101333,432.309500000003 -7.80298624176321,42.1923747479393,433.0 -7.80264744574706,42.1926734788919,430.101299999995 -7.80251350244661,42.192798034397,434.558399999994 -7.80246790486111,42.1931752201882,433.818799999994 -7.80225064641133,42.1934347234616,434.994900000005 -7.80204696599707,42.1935819099489,435.471699999995 -7.80189240366591,42.1937401600648,435.0 -7.80177472166875,42.1938833233141,434.708700000003 -7.80172392732934,42.1939874264088,434.829599999997 -7.80169174069271,42.1941585849437,434.880999999994 -7.80167899988704,42.1943295759656,435.0 -7.80166676303624,42.194490340594,435.679199999999 -7.80158612845968,42.194699385179,435.105500000005 -7.80148001406845,42.1948034882606,435.2552 -7.80127633365419,42.1950827736574,434.457899999994 -7.80072564302883,42.1957726041768,437.342099999994 -7.80052782951169,42.1961043600064,440.783500000005 -7.8004039455458,42.196599394989,441.0 -7.80037108786763,42.1967826234608,441.222500000003 -7.80036086234478,42.1970386066955,442.0 -7.80025625622487,42.1971608150099,443.0 -7.80013605984323,42.1974649105861,443.0 -7.80012080465309,42.1985864092625,443.0 -7.80003195588157,42.1991686160214,443.0 -7.79989885160761,42.1995543511571,443.0 -7.79984939845293,42.1998016173791,444.593599999993 -7.79978318183669,42.200081572782,447.066999999995 -7.79970673879928,42.2004770308667,450.680200000003 -7.79959391758612,42.2009960382719,452.593500000003 -7.79946768632238,42.2013826120464,454.0 -7.79947690663046,42.2015611464716,454.0 -7.79946265755343,42.2017255993045,455.0 -7.79945511350167,42.2018127709043,455.0 -7.799426280276,42.201951240376,456.0 -7.79938470534634,42.2021510650463,456.781400000007 -7.79931966192986,42.2024855024258,458.0 -7.79927490247252,42.2027245548736,458.921000000002 -7.79922779661566,42.2029129800157,459.0 -7.7991827020867,42.2030610041816,459.0 -7.79900299411412,42.2032908360924,460.0 -7.79877450313003,42.2035570453766,462.0 -7.7986373753019,42.2036923289051,462.0 -7.79898539162612,42.2039090853862,461.0 -7.79894297946663,42.2043803160262,461.330300000001 -7.79889553763982,42.2046839083989,462.494200000001 -7.79898924719533,42.205026224956,462.0 -7.79894515877949,42.2051497746177,462.258300000001 -7.79875656557045,42.2053688776914,463.647599999997 -7.79866637651253,42.2054991321024,463.475399999996 -7.79857300202866,42.2057955159812,464.0 -7.79853142799729,42.2060999472919,465.0 -7.79857920489569,42.2062432775062,465.582599999994 -7.79846806083718,42.206290048516,466.0 -7.79868280490245,42.2066112430269,468.0 -7.79808651669158,42.2075758328217,476.009300000005 -7.79798291668482,42.207814046244,478.104699999996 -7.7978920565854,42.2080438781644,479.163100000005 -7.79778040947031,42.20842676316,482.0 -7.79770547560256,42.2088331178919,485.0 -7.79747581141873,42.2088347946572,484.407399999996 -7.79724681737807,42.2088116606155,483.071899999995 -7.79715947777627,42.2087989198551,482.780499999993 -7.79708789642116,42.2088046195292,482.375899999999 -7.79697641729103,42.2088820681083,483.0 -7.79692964650578,42.2089300128944,483.290699999998 -7.79680257621555,42.2089700781956,483.448399999994 -7.7964297493215,42.2091378838889,483.0 -7.79623914478453,42.2092597567401,482.970499999996 -7.79613101816703,42.2093972198093,483.0 -7.79608759989442,42.2095229486783,483.0 -7.79609078532043,42.2096319131853,483.827499999999 -7.79608408029512,42.2097096974292,484.0 -7.79604753503274,42.2097385313972,484.0 -7.79562408088589,42.2099586399008,485.129799999995 -7.79546767431346,42.2100548644799,487.0 -7.79541268933325,42.2100932530012,487.882500000007 -7.79519576595506,42.2102578739207,490.0 -7.79497465103776,42.2104261825366,492.189400000003 -7.79473073777687,42.2106635581632,495.765499999994 -7.79450425901902,42.2107210575438,499.0 -7.79376245990181,42.2106085724769,501.353799999997 -7.79372205996855,42.2106105845386,501.589000000007 -7.79367981489568,42.2106357299825,502.0 -7.79358509922705,42.2109609477908,503.959199999998 -7.79356515033954,42.211074438919,505.244600000005 -7.79358442908385,42.21125012351,505.0 -7.79357990247314,42.2114001594738,505.0 -7.79352257019509,42.2114935341373,505.0 -7.79349960386653,42.2116011578836,506.0 -7.79352726389242,42.211690005854,505.936799999996 -7.79355743920115,42.2118095317432,506.0 -7.79345735879366,42.2119184962978,506.892900000006 -7.79333548615567,42.2119775048803,507.633799999996 -7.79317606214222,42.2120153912249,508.131899999993 -7.7927883151296,42.2120811057683,512.0 -7.79262436540374,42.2121171477049,513.0 -7.79243158155388,42.2120800997609,512.900800000003 -7.79206059890109,42.2121848734886,513.786699999997 -7.79198868157607,42.2122658429312,515.0 -7.7919598483504,42.2123391002434,515.0 -7.79195968036544,42.2124140348064,515.0 -7.79191508889305,42.2125144499753,516.0 -7.79188591969747,42.213054747139,519.248399999997 -7.79174443324359,42.2131687414921,520.131500000003 -7.79166011108281,42.2132445133948,519.967099999994 -7.79108511294419,42.2134378000311,518.110000000001 -7.7907116150086,42.2137192645286,519.0239 -7.79043434191133,42.2137848109665,519.815600000002 -7.78988968616803,42.2136825521863,520.545199999993 -7.78971685120568,42.2134530554852,519.791100000002 -7.78958810465917,42.2133303444177,518.961299999995 -7.78940303284603,42.2132346231657,519.599400000006 -7.78870180254534,42.2130953154809,516.888300000006 -7.78849510469003,42.213122473248,517.054600000003 -7.78774375109147,42.2131083913704,509.228400000007 -7.78695870168657,42.2131484566827,503.548500000004 -7.78681771828924,42.2130835809107,501.876699999993 -7.78575321647422,42.2132359638191,492.207699999999 -7.78546521479748,42.2132716710978,488.960999999996 -7.78522482113588,42.2133082160143,486.365900000004 -7.7850538304148,42.2133186098911,486.0 -7.78493497521787,42.2133162625864,486.0 -7.78466859868499,42.2133055340452,486.236399999994 -7.78452996168721,42.2132859199384,488.501300000004 -7.78427213442087,42.2132091420959,492.898499999996 -7.7842077611476,42.2132014308401,493.716499999995 -7.78412561829972,42.213187851975,495.038799999995 -7.78407331568891,42.2131757820919,495.339800000002 -7.78401413916958,42.2132760297158,496.550799999997 -7.78394138461473,42.2133268241264,497.714900000006 -7.78380811235581,42.213376109516,499.0 -7.78365036459864,42.2134124867077,500.381299999994 -7.78354341207925,42.2134423263019,501.988299999997 -7.78341466553271,42.2134589224036,503.007299999997 -7.78328876934059,42.2135410651918,504.316699999996 -7.78318986303117,42.2136575736231,505.095499999996 -7.78306983373619,42.2138109624573,507.269199999995 -7.78302088363802,42.2141529441316,506.504700000005 -7.7829925525706,42.2142706263995,507.119500000001 -7.78293756759036,42.2143896490771,507.176099999997 -7.78290873436469,42.2144352470769,507.709199999998 -7.78288124142542,42.214506157939,508.251799999998 -7.78285794002528,42.2145658367453,508.7111 -7.78286950673287,42.2146432855789,508.616800000003 -7.78290638706688,42.2146711133246,508.042499999996 -7.78293035950855,42.2146811716551,507.742599999998 -7.78298785887323,42.2147054791697,507.258000000002 -7.78304401795154,42.2147289483706,507.0 -7.78326949149461,42.2147827601714,507.0 -7.78329865979187,42.2148372425688,507.0 -7.78327552637668,42.2150638893429,509.252600000007 -7.7832537332479,42.2151966586173,510.963099999994 -7.78324585412452,42.2152541585284,510.186499999996 -7.78316086182054,42.215353735543,510.0 -7.78313336888127,42.215420958871,510.230800000005 -7.78315247964063,42.2155347846212,510.129199999996 -7.7832280845499,42.2157121460291,513.869900000005 -7.78326228251444,42.215845753561,515.0 -7.78327535839172,42.2161811969038,514.835699999996 -7.78327971701748,42.2163231869415,516.522899999996 -7.78326882045308,42.2163718013627,517.693499999994 -7.7832094768471,42.2164279602835,518.189599999998 -7.78311962286079,42.2164866339976,519.0 -7.7829581875194,42.2165736381981,520.563299999994 -7.7827742880077,42.2166735504395,522.819399999993 -7.78267907018086,42.2167385935059,523.518700000001 -7.78259173057903,42.2168033018598,524.901299999998 -7.78251864005426,42.2168960058986,525.669200000004 -7.78246114068954,42.2169657430743,527.018100000001 -7.78244839988388,42.2169892127658,527.289699999994 -7.78245074718173,42.2170115088649,527.528399999996 -7.78244705869914,42.2170659906701,528.0 -7.78246818078643,42.2171218143299,528.0 -7.78254110332625,42.2172993429266,527.159 -7.78259474802008,42.2174046196063,525.625199999995 -7.78261603809232,42.2174716750934,524.334700000007 -7.78263045515431,42.2175568350803,523.333400000003 -7.78263917150751,42.2176396484735,522.957399999999 -7.78264554235949,42.2177050271814,521.475600000005 -7.78263565190821,42.2177638680271,521.375700000004 -7.78261804942022,42.2178148298075,521.673899999994 -7.78258502465543,42.217895631698,521.376199999999 -7.78236692807749,42.2183108709121,523.862899999993 -7.78233340025615,42.2183635094287,524.001099999994 -7.78229249636802,42.2183958634467,524.681899999996 -7.78223868458756,42.2184334146307,525.108699999997 -7.78212351697484,42.218495273179,526.546799999996 -7.78201186985978,42.2185351707495,527.329700000002 -7.7819342536226,42.2186099376284,529.001499999998 -7.78190424629883,42.2186168106364,529.119000000006 -7.78159931317563,42.2187643323105,532.223700000002 -7.78136109972522,42.2189292878835,534.666899999997 -7.7813218720934,42.2190045572444,535.302500000005 -7.78129270289782,42.2191490616586,537.136299999998 -7.78142094638779,42.2193339664196,540.280499999993 -7.78166955334601,42.219720707395,547.533899999995 -7.78150292125071,42.2198057000278,550.896699999998 -7.78139680596115,42.2198806337149,553.745899999994 -7.78102230281077,42.2201455024339,559.993499999997 -7.78081141431468,42.2203466679335,565.722999999998 -7.78068132658344,42.2204906690007,569.087299999999 -7.78061745726504,42.2206209234968,571.674299999999 -7.78066506617848,42.2207526871935,573.340100000001 -7.780758607749,42.220828291666,573.488700000002 -7.78077973073462,42.2208634957099,573.985499999995 -7.78069674975854,42.2210601351933,577.506999999998 -7.78052827342197,42.2211617240923,579.929999999993 -7.78041377685078,42.2212547630071,580.0 -7.78035275609018,42.221330871139,581.0 -7.78033733381338,42.221376132832,581.059699999998 -7.78033129893128,42.2214740337425,582.298500000004 -7.78037857277313,42.2215543326792,583.420100000003 -7.78030866767434,42.2222781933308,589.6008 -7.78026960802747,42.222405430602,590.873500000002 -7.78021411999069,42.2224820415983,591.392300000007 -7.78006609559818,42.2225630104787,591.037700000001 -7.77996467400595,42.2226082726189,590.5236 -7.77987549106117,42.2226711369076,590.378100000002 -7.77961665768172,42.2230442993242,592.558099999995 -7.77952697168041,42.2231763985625,594.166800000006 -7.77951355983321,42.2234890435013,598.243600000002 -7.77952831196681,42.2236695896271,600.267999999996 -7.77958631528639,42.2237686637657,601.522599999997 -7.77967801351398,42.2238534886349,602.491999999998 -7.77978379283363,42.2240224674866,605.623099999997 -7.77981279404425,42.224137970057,606.944600000003 -7.77983089869049,42.2242139104039,608.380799999999 -7.77982972549071,42.2243579112993,608.939599999998 -7.77983643141431,42.224471234666,610.970400000006 -7.77983223987519,42.224649936664,611.590200000006 -7.77984112511168,42.2248445647208,613.358900000007 -7.77986057094261,42.2250142141151,613.0533 -7.77979988615192,42.2251523480187,613.389800000004 -7.77972545444242,42.2252604746697,613.787899999996 -7.77965504718541,42.2254500732024,613.249500000005 -7.77957357448073,42.225491647358,614.1253 -7.77954692056792,42.2255362395309,614.0 -7.77943544053949,42.2255808310071,614.352899999998 -7.779421694519,42.2256262612767,614.094800000006 -7.77939571074939,42.2256814141588,614.0 -7.77936100972828,42.2258109980641,614.0 -7.7794290705858,42.2259162745222,613.957999999999 -7.77943342921155,42.2260277538129,613.247000000003 -7.77939168719526,42.2261667263122,612.650500000003 -7.779413648309,42.2263016747169,612.0 -7.77948388847938,42.2263288321264,611.109899999996 -7.7797070147246,42.2263603479043,609.0 -7.78044579550246,42.2265735835445,605.0 -7.78084762360715,42.2266599172991,603.920299999998 -7.78120586635256,42.2268174972002,603.824399999998 -7.78156327096982,42.2270060899436,605.171000000002 -7.7818591517699,42.2271831158054,606.441500000001 -7.78206417336888,42.2273324813228,607.754000000001 -7.78216274460669,42.2274357463788,608.098800000007 -7.78224924608033,42.2275785738551,609.008799999996 -7.78240447855469,42.2279688350256,608.938599999994 -7.78259323885039,42.228986062887,611.286399999997 -7.7826715261291,42.229310777785,612.103099999993 -7.7829501404111,42.2296250991563,609.259300000005 -7.78306815747985,42.2297712794192,607.925399999993 -7.78311425812193,42.2298442024681,607.0 -7.78314409746071,42.2299288595356,606.058499999999 -7.78311794660447,42.2300339688231,605.021099999998 -7.78303111005922,42.2301927216224,604.213499999998 -7.78298836192981,42.2303192884289,603.235100000005 -7.78303144513083,42.2305211245817,602.0 -7.78369294474313,42.2316370910833,599.0 -7.78380040121739,42.2316917411875,599.0 -7.78417155185513,42.2317831043922,598.912200000006 -7.7844959308093,42.2318803340019,599.274000000005 -7.78513882271878,42.2321797355272,601.0 -7.78530428161434,42.2322402529956,601.008100000006 -7.78613409047657,42.2323606173021,601.0 -7.78675837468328,42.2325292614355,603.0 -7.78675518925728,42.23256798549,603.0 -7.7869273531781,42.2327228828011,604.249299999996 -7.78701955446225,42.2328831453333,606.0 -7.7870656551043,42.2330185968497,606.0 -7.78722273181993,42.2331198499058,606.657900000006 -7.78782840832383,42.2333003964238,608.9951 -7.78824012687979,42.233486139034,612.716100000005 -7.78862351526666,42.2337352491729,615.0 -7.78870666422766,42.2338794179084,614.8315 -7.78879031534691,42.2343268439836,612.209000000003 -7.78889592757993,42.2346384832572,608.327699999994 -7.78904261078772,42.2350476875877,605.112999999998 -7.78915056942026,42.2352367838353,603.186700000006 -7.78940319993265,42.2354211852201,601.508900000001 -7.78948668396527,42.23552059475,599.222899999993 -7.78957838219285,42.2357111993574,597.0 -7.78968315539939,42.23612828277,594.010599999994 -7.78973512383687,42.2363220726698,592.706399999995 -7.78978960576057,42.2364399217944,592.0 -7.78986504268486,42.2366015250217,591.0 -7.78995489667113,42.2367383173585,590.0 -7.7899884244925,42.2368155986624,590.0 -7.79005145658104,42.2370804668324,589.0 -7.79016578606556,42.237227653393,588.873000000007 -7.79015488950117,42.2374326744783,588.0 -7.79016461196749,42.2376190879639,586.976299999995 -7.79019260796333,42.2377327466668,585.425399999993 -7.79033778200142,42.2378557927313,583.371899999998 -7.7903456611248,42.2378945175082,582.689499999993 -7.79032705342199,42.2379298889458,581.952399999995 -7.79024675481537,42.2379967763173,580.5098 -7.79023652929251,42.2380494150479,579.350000000006 -7.79024608467217,42.2380772431192,578.722999999998 -7.79043115648532,42.2381900630041,576.044599999994 -7.79054380971353,42.2382665065336,574.241800000003 -7.79063718419742,42.2383260178968,571.832899999994 -7.79075788363563,42.2383830145678,570.454500000007 -7.7910418626565,42.2386403389326,566.782399999996 -7.79106633725642,42.2387156087363,565.915699999998 -7.79108544801577,42.2387744492879,565.390799999994 -7.79114043299601,42.2388205497606,564.819799999997 -7.79123900423382,42.2389030280026,564.455400000006 -7.79131175968701,42.2389635450098,564.0 -7.7913903820373,42.2390057899618,563.415399999998 -7.79148057109519,42.2390357970289,563.0 -7.79150672284972,42.239044514698,563.0 -7.79170839103775,42.2390738513618,561.4041 -7.79180310670638,42.2390072989946,560.425300000003 -7.79184283649644,42.2389793030719,559.809800000003 -7.79187401791826,42.2389610310618,559.084199999998 -7.79205825160325,42.2388627948084,556.366899999994 -7.7921848188369,42.238815688785,555.0674 -7.79234876856275,42.2387690848525,552.391300000003 -7.7925648538128,42.2386743698388,549.895799999998 -7.79287884015741,42.2385773069871,548.407300000006 -7.79318327112236,42.2384856091111,548.0 -7.79322434209716,42.2386304486908,548.0 -7.79326139041612,42.2387607030046,547.0 -7.79328502688785,42.2388322848684,547.0 -7.79331788456601,42.2389318619422,547.0 -7.79334889710457,42.2389667306738,547.0 -7.79341863511671,42.2396617575949,549.262700000007 -7.79349943588157,42.2398681201707,547.913700000005 -7.79357286147792,42.2399755765113,546.0 -7.79364192844856,42.240055204152,545.0 -7.79369372890109,42.2404077470064,542.648199999996 -7.79376396907147,42.2405473894726,541.493700000006 -7.79390813789481,42.24068233839,540.0288 -7.79403084866092,42.2407951589376,538.825800000006 -7.79421458018766,42.2410772935521,537.0 -7.79423285281886,42.2412566661186,535.385699999999 -7.79429337052292,42.2412784595222,535.572100000005 -7.79441289586305,42.2413207042545,535.474900000001 -7.79451197015743,42.2414073729699,535.0962 -7.79456192636869,42.2415156672981,535.0 -7.79461506710765,42.2417609217846,534.0 -7.79465127729842,42.2421277140667,531.520799999998 -7.79466921485803,42.2423010518215,531.599799999996 -7.7946194257334,42.2424297975878,531.637799999997 -7.79456125532716,42.2425504969206,531.337799999994 -7.79455505335846,42.242652588578,531.274999999994 -7.79458304845598,42.2427613855234,531.6008 -7.79452068740893,42.2430401676123,530.222299999994 -7.79447961643414,42.2432334541461,528.302299999996 -7.79445296162303,42.2434461872221,524.815100000007 -7.79449537378256,42.2436753481363,520.417499999996 -7.79451264030064,42.2438646120501,518.010899999994 -7.79450157664958,42.2440225267257,517.224700000006 -7.79448347200335,42.2442163163227,516.0 -7.79444055588898,42.2443499240504,514.864799999996 -7.79438925939129,42.2444677734777,513.7353 -7.79429890234844,42.2446022192456,514.397200000007 -7.7942380495728,42.2449151996268,512.791500000007 -7.7942105566335,42.2452620428838,508.789699999994 -7.79426638064022,42.2457238857988,503.0 -7.7942172625571,42.245842070476,501.373800000001 -7.79412221181688,42.2460905100743,497.284299999999 -7.79400151237868,42.2463081038903,494.827699999994 -7.79375927537413,42.2466056614574,488.816699999996 -7.79356934098033,42.2467330664773,487.386199999994 -7.79333095954497,42.2468851141511,484.387000000002 -7.79310263654583,42.2469816741319,481.521900000007 -7.79292561094269,42.2470452083868,479.028600000005 -7.79282201093593,42.2470941589054,477.151599999997 -7.7927588108624,42.2471645669368,475.517999999996 -7.79277875974994,42.2472725262089,472.118499999997 -7.79286492615197,42.2474720153063,465.977100000004 -7.79291873793246,42.2475489609515,462.830199999997 -7.79312996150014,42.2476103168437,459.123500000002 -7.79358694346832,42.2476887711453,452.216199999995 -7.79383940599579,42.2477335305039,449.873399999997 -7.79389707334543,42.2477670584412,449.067200000005 -7.79389942064328,42.2478148353886,447.035399999993 -7.79372926805036,42.2481631868119,441.111000000004 -7.7937291000654,42.2482654462684,439.160000000003 -7.79377553577909,42.2483440686568,437.370200000005 -7.79393814521855,42.2484047534899,436.0 -7.79410142480121,42.2484265464193,434.679699999993 -7.79431248128227,42.2484305694625,432.9666 -7.79445178842329,42.2484223551394,431.657699999996 -7.79464758971417,42.2484057589186,429.188200000004 -7.79491681570314,42.2483060145952,427.117899999997 -7.79502360113591,42.2482734930401,425.058799999999 -7.79515117448267,42.2482669550797,423.722200000004 -7.79522543730888,42.2482743308991,422.400599999994 -7.79526818543833,42.2483259636055,421.421400000007 -7.79533004432712,42.2485829528416,414.979900000006 -7.79531512420856,42.2487933385177,410.9571 -7.79529148683847,42.2489649995485,408.643899999995 -7.79526868849487,42.2491141978149,405.786699999997 -7.79515720936476,42.2494159459943,399.603600000002 -7.79506970177798,42.2495723526233,396.0 -7.79497113054017,42.2497111569145,394.888699999996 -7.79459780058958,42.2498558284261,393.044800000003 -7.79424643175271,42.2500621909077,389.554099999994 -7.79412003250402,42.2501406454847,388.320099999997 -7.79399212408564,42.2502346903082,386.660900000003 -7.79393831230518,42.2502973874443,385.910300000003 -7.79390059384305,42.2503511988513,385.723800000007 -7.79388047786888,42.2504259652852,384.620899999994 -7.79390260606928,42.2505659433177,383.0 -7.7939049524688,42.2506740696537,383.0 -7.79386052898137,42.2507852139715,382.3753 -7.79355542697489,42.2509084280796,381.609800000006 -7.79352206713851,42.251145970684,380.364100000006 -7.79352894014874,42.2512948333188,380.0 -7.79355475683168,42.2514732007135,379.064499999993 -7.79362734429992,42.2516592788179,378.0 -7.79364477880295,42.2517541618497,377.110700000005 -7.79366305053585,42.2520103126083,374.032200000001 -7.79369221973143,42.2524374549665,372.0 -7.79372055079886,42.2525487663972,371.017300000007 -7.79375910738918,42.2526205154716,371.0 -7.79385399104273,42.2526956169954,371.0 -7.79404962434869,42.252840288976,369.235100000005 -7.79407745235954,42.2529103614591,369.0 -7.79416529501791,42.2529961924151,368.0766 -7.79426470438391,42.2530614035172,368.0 -7.7940554912458,42.2532754771664,367.155899999998 -7.79388416545313,42.2534367453781,367.0 -7.79365366314111,42.2535514095254,366.0 -7.79347546433819,42.2536107535421,366.0 -7.79337655713047,42.2536695941658,365.0245 -7.793194669845,42.2544682218415,361.284499999994 -7.79300792177554,42.2551543645504,356.799100000004 -7.7929427103741,42.2553903991453,356.179199999999 -7.79291840286084,42.2555142837759,354.904399999999 -7.7929214203019,42.2556118491591,353.739799999996 -7.79292779025558,42.2557293630549,353.0 -7.79295193068218,42.2558557622892,351.075299999997 -7.79295830063586,42.2560004343348,350.050499999998 -7.79292108523028,42.2560983347328,348.910399999993 -7.79289292214781,42.256189529624,348.0 -7.79290214155759,42.2562555791665,348.0 -7.792944889687,42.2563378896718,348.0 -7.79302837371962,42.2568372835554,350.0 -7.79303725805778,42.2568860662398,350.0 -7.79296265926165,42.2569395422471,350.0 -7.79288822755214,42.2570163207623,350.451400000005 -7.79275294396529,42.2571564663443,352.438800000004 -7.79275411716507,42.2572022315867,353.306899999996 -7.79277658133535,42.2572282154959,353.370500000005 -7.79286593226512,42.2572883971165,354.0 -7.79302334405234,42.2574313923954,354.411900000006 -7.79314655787502,42.2575784111396,355.059299999994 -7.79323372949189,42.2577710274889,355.0 -7.79335912352576,42.2579249188233,354.667000000001 -7.79342047845965,42.257982419043,354.653200000001 -7.79349658642547,42.2580519884944,354.496799999994 -7.7940937127645,42.2583560840911,354.335000000006 -7.79422413556736,42.2584338681451,354.0 -7.79471145903257,42.2588444140811,353.0 -7.79476091308558,42.2588859881788,353.0 -7.7949127930473,42.2589527077302,353.0 -7.7953868735486,42.2590884948837,352.808699999994 -7.79566431373253,42.2591952802287,352.520799999998 -7.7964290791783,42.2596443823788,351.011299999998 -7.79675278798926,42.2598613064794,351.0 -7.79696200022904,42.2599478074465,351.0 -7.79702788177367,42.2600735360419,351.7454 -7.79714087007346,42.2602299421711,352.0 -7.79723843519815,42.2602959914708,351.710300000006 -7.79740674444809,42.2604259111841,351.0 -7.79755476884061,42.26045608624,351.0 -7.79767362403755,42.2605565014512,351.0 -7.79784411170205,42.2607006700688,351.0 -7.79803756659344,42.2608331040194,351.0 -7.79819598449378,42.2609293281815,351.0 -7.79845196751884,42.2610703120637,351.0 -7.79875807474011,42.2612391234581,351.0 -7.79896359849734,42.2613214341069,350.530799999993 -7.79889168207064,42.2614352601956,350.0 -7.79886620135761,42.2615202525038,349.931299999997 -7.79880534858193,42.2617110245526,348.750100000005 -7.7988065217817,42.2618013816256,348.0 -7.7988286499821,42.2619644935289,346.637600000002 -7.7988703919984,42.2621566065073,345.036500000002 -7.79889939320903,42.2623716864005,342.9899 -7.79892973560439,42.2626296814484,341.097999999998 -7.79898472148292,42.2628427493307,341.0 -7.79898740385236,42.2629897680899,341.7696 -7.79898924719534,42.2630895124604,341.844200000007 -7.79901422575013,42.26323619558,343.0 -7.7990665283609,42.2633699711066,343.760599999994 -7.79914313938329,42.263494526142,344.868499999997 -7.7992908287042,42.2637320692073,346.0 -7.79936693577168,42.2638534391201,346.0 -7.79941521572665,42.263977658805,346.0 -7.7994291297321,42.2640289562275,346.295499999993 -7.79944304373751,42.2641199834215,347.0 -7.7993370964329,42.264512424506,347.773300000001 -7.79930608389437,42.2646292683218,348.0 -7.79920935599951,42.2649923723318,350.0 -7.79929401323187,42.2650158414508,350.0 -7.79931463316091,42.2650235530252,350.0 -7.79964102434131,42.2651254766832,351.0 -7.80015315837635,42.265354637948,352.0 -7.80046077476731,42.2655006510118,352.114700000006 -7.80099252261825,42.2657915027834,352.0337 -7.80152644978211,42.2661363339661,351.0 -7.80203439317636,42.2665121790203,351.0 -7.80214637536304,42.2666028709066,351.0 -7.80243571822451,42.2668786359284,351.0 -7.80299277970185,42.2675119723288,350.0 -7.80313342802757,42.2676571467832,349.695999999996 -7.80329737775343,42.2677758348028,349.0 -7.80340298998645,42.2678452365652,349.0 -7.80348848534698,42.2678933486319,349.0 -7.80406683689657,42.2681897327772,349.0 -7.80443027639592,42.2683580418323,349.0 -7.80480427648972,42.2685766417111,349.0 -7.80504902787877,42.268750146761,349.0 -7.80534021587982,42.2689783023794,348.816099999996 -7.80584011216573,42.2694300868888,347.657900000006 -7.80604831919073,42.2696165002183,347.544899999994 -7.8062918964817,42.2697792768156,347.0 -7.80692975962224,42.2701200851325,347.626600000003 -7.8072393873411,42.2702578836565,348.0 -7.80787792062483,42.2704964329039,347.0 -7.80812183388573,42.2705805867347,346.0 -7.80831880837638,42.2706717819521,346.0 -7.80851427459568,42.2708104188238,345.0 -7.80865760529086,42.2709388292084,344.0 -7.80914124117182,42.2713840760672,343.0 -7.8092686456353,42.2715424941702,342.0 -7.80951406806588,42.2719359406327,340.855800000005 -7.8096733240944,42.2720993879214,340.0 -7.81044127406785,42.272678745288,338.0 -7.81084746079829,42.2729360693431,336.0 -7.81243482612615,42.273880542378,331.0 -7.81294545188983,42.2741869844428,330.0 -7.81355028936727,42.274560482333,328.0 -7.81381582867032,42.2746987836244,328.0 -7.81420441381107,42.2748127776552,327.0 -7.81467882938398,42.2749525878952,325.375400000004 -7.81501360274429,42.2750791546462,324.0 -7.81529909003652,42.2752167854633,322.304099999994 -7.81546454893208,42.2753304435573,321.0 -7.81556379031308,42.2754407494602,320.0 -7.81561374652434,42.2755614494325,319.0 -7.81565817091009,42.2757922869622,317.298200000005 -7.81573209956303,42.2768988659052,313.407800000001 -7.81576328008654,42.2772554320814,311.484100000001 -7.81580066347709,42.2774210582886,310.920199999993 -7.81584072833877,42.2775067209554,310.0 -7.81589537824739,42.2775987542553,309.461899999995 -7.81652385399322,42.2784518645845,306.0 -7.81662108404629,42.27860458285,305.0 -7.81730907048474,42.2795519053109,301.665599999993 -7.81734712401849,42.2796043764368,301.042700000005 -7.81889827915555,42.2811981114856,297.0 -7.82124252990754,42.2837488924115,290.760599999994 -7.82141134131572,42.2839047958544,290.0 -7.82178299501001,42.2841639641627,289.0 -7.8224069441451,42.2845233801746,289.0 -7.82290868467232,42.2847894217082,289.0 -7.82309962428091,42.2850829557698,289.0 -7.82318746693928,42.285408341593,289.0 -7.82378543140647,42.2886216274971,289.0 -7.82454483211337,42.2884900321011,288.426900000006 -7.82458188043233,42.2886038583069,288.0 -7.82737271874631,42.2880754626746,282.0 -7.82746491913214,42.288098261974,282.176500000001 -7.82761361456616,42.2881783923946,282.0 -7.82769626047062,42.2882028676427,282.0 -7.82779633997978,42.2882078969296,282.0 -7.82793916761839,42.2881666578289,281.270600000003 -7.82800940778877,42.2880930652124,281.0 -7.82806573395371,42.2879701862645,281.0 -7.82847108345432,42.2878763087027,280.766799999998 -7.82874852453655,42.2879205650477,280.0 -7.82962694752701,42.2882610380191,279.0 -7.83425057270111,42.290142943058,275.0 -7.83446045598242,42.2902259236838,275.0 -7.83478684716278,42.2903038757456,275.0 -7.83577792338149,42.2904436861701,276.0 -7.83751482137323,42.2906678179963,281.0 -7.83787088480575,42.2907209590043,283.0 -7.83813223256967,42.2908096397763,285.0 -7.83834161279441,42.2909777807716,286.938699999999 -7.83845728256534,42.2911206085947,288.0 -7.83886984014779,42.2917611531923,291.277600000001 -7.83947568373831,42.2926957354212,297.0 -7.83993182668004,42.2931361206167,300.819600000003 -7.84034438426246,42.2934046767604,303.0 -7.84074772153683,42.2942311326482,307.0 -7.84100186121892,42.2942465552918,307.0 -7.84113831800551,42.2942700248137,307.122600000002 -7.84181574384948,42.2946755411545,307.0 -7.84200953291416,42.2947655625894,306.417000000001 -7.84352866939954,42.2952818877891,302.0 -7.84381046910755,42.2953779444092,300.472699999998 -7.84392194823769,42.2954341034532,300.0 -7.8440433178191,42.2955605021499,299.0625 -7.84434238404515,42.2959450642642,297.0 -7.84472526937544,42.2964912292897,291.825100000002 -7.84527679902729,42.2970984142576,283.541200000007 -7.84560503444893,42.2973641202918,279.363200000007 -7.84655470372292,42.2980314874064,265.664000000004 -7.8471372459133,42.2984376745296,253.811199999996 -7.84720681594048,42.298486122037,253.0 -7.84747302538673,42.2987588692141,250.355299999996 -7.84752918446501,42.2988031252214,249.560299999997 -7.84777477398225,42.2990679935231,248.006999999998 -7.84781986851118,42.2991300195254,248.041299999997 -7.84790452574354,42.2991548300421,247.015199999994 -7.8480538913208,42.2991680734761,247.0 -7.84823946619052,42.2992564187772,246.733800000002 -7.84856049353031,42.299350798961,246.0 -7.8487346696774,42.2994069577843,246.402900000001 -7.84918695704991,42.2994562437182,246.847200000004 -7.8493115120573,42.2994845742425,246.655899999998 -7.84939700741785,42.2995221250078,246.831600000005 -7.84965114709994,42.2995945448471,244.713699999993 -7.84991014756601,42.2997087064525,243.368700000006 -7.85009471722091,42.2998250471609,242.472500000003 -7.85019999348402,42.2999247917061,241.862899999993 -7.85032069292223,42.3000532025593,241.0 -7.85045681553554,42.3002300606451,240.0 -7.85052772584912,42.3003289673814,238.983399999997 -7.85068262325186,42.3005512554888,237.041500000007 -7.85068094699555,42.3005460584258,237.179499999998 -7.85084322136342,42.300514542502,235.010800000004 -7.8511089268548,42.3004501698133,233.100900000005 -7.8511773236822,42.300440111201,232.607199999999 -7.85126851885321,42.3004377644792,231.926200000002 -7.85131093101274,42.3004439668143,231.308399999994 -7.85147001995461,42.3005039816011,230.0 -7.85163631697832,42.3006503291532,229.097099999999 -7.85178065288829,42.3007877924916,228.843299999993 -7.85181753322226,42.3008236668295,228.328699999998 -7.85196153406064,42.3009182147538,228.0867 -7.85206614018052,42.3009871142642,227.079199999993 -7.85215901250617,42.3010459551836,227.037500000006 -7.85231323886742,42.3011465382733,226.981100000005 -7.85245891686041,42.3012300219761,225.267500000002 -7.85247350100902,42.3012308597958,225.028000000006 -7.85250568764566,42.3012308597958,225.0 -7.85262085525834,42.301223986485,224.589300000007 -7.85276435304015,42.3012134257031,223.468900000007 -7.85288605859148,42.3012035346438,223.0 -7.85301614542439,42.3012010205193,222.041500000007 -7.85314690329883,42.3012070553482,221.488500000007 -7.85327833131647,42.3012276746193,220.751699999993 -7.85344529938171,42.3012697522892,219.051699999996 -7.85355493427057,42.3013041174817,218.350000000006 -7.85373749169924,42.3013953127503,217.280499999993 -7.85384528324513,42.3014497954455,216.557199999996 -7.85400420420204,42.3015440075691,214.869500000001 -7.85414150001512,42.30163084466,213.901700000002 -7.85425532644307,42.301699408531,212.641799999998 -7.85431835763331,42.3017408148382,212.252500000002 -7.85437736616768,42.3017807129229,212.0 -7.85443235204621,42.301819102124,212.0 -7.85448700195487,42.3018541380629,213.5236 -7.85466000400385,42.3019734965036,212.000700000004 -7.85474717651902,42.3020388755304,212.0 -7.85481574043308,42.3021357702818,211.248999999996 -7.85485161465393,42.3022159014468,211.0 -7.85488748887482,42.3023768338475,209.232399999994 -7.85485412903844,42.3025992894609,207.973499999993 -7.854715324954,42.3028559432002,207.425499999998 -7.85465598134801,42.3029124370724,207.293799999999 -7.85439530372729,42.303104215289,207.094299999997 -7.85434970614178,42.303152327676,206.633900000001 -7.85438239583496,42.3032267584285,205.505099999995 -7.8544823082575,42.3033169476882,204.550199999998 -7.85468649083,42.3033985874995,203.286900000006 -7.85528244486758,42.3036359635524,202.0 -7.85545377066024,42.303802762801,201.852299999999 -7.85553373419527,42.3039452552596,201.371599999999 -7.85556508270375,42.3040248838441,201.234100000001 -7.85574026406562,42.304310203608,202.0 -7.85620780662827,42.3046429649671,200.2405 -7.85634510244136,42.3047614849988,199.478199999998 -7.85641903019599,42.3048818490996,197.894199999995 -7.85653537100841,42.3050010396945,196.977199999994 -7.85644987564789,42.3050959228311,195.981799999994 -7.85627016767531,42.3053146909081,194.0 -7.8559501473469,42.3055964903472,192.469700000001 -7.85587688883717,42.3056590194842,193.0 -7.85580949902118,42.3057559139792,194.081900000005 -7.85567974636156,42.3059595941641,196.5098 -7.85569835496266,42.3060335226647,197.169599999994 -7.85576457157888,42.3060829761446,198.0 -7.85590371073494,42.3061491933087,198.0 -7.85597646618809,42.3062460877136,196.943400000004 -7.85616220904277,42.3067159776547,191.166200000007 -7.85622725245924,42.3068626608801,190.255600000004 -7.85622490605969,42.3070158816115,189.262499999997 -7.85617746423291,42.3071930755648,188.322799999994 -7.8560964945848,42.3073035489018,188.238299999997 -7.85595785848531,42.3074272657347,187.624500000005 -7.85583028603685,42.3075124258825,186.904299999995 -7.85573305598377,42.307574787031,186.186600000001 -7.85554898938541,42.3076894516886,185.581099999996 -7.85544203596769,42.3078684892793,185.0 -7.85540280833587,42.3079677308009,185.0 -7.85587102194006,42.3086228601631,178.0 -7.85617880541765,42.3089678595524,175.753400000001 -7.85627653852729,42.3091007966156,175.0 -7.85679236014659,42.3098025294301,167.050399999993 -7.85731874415699,42.3104464274453,160.8361 -7.85767732197402,42.3108514410282,157.0 -7.8578798282902,42.3110821107221,156.0 -7.85826003214936,42.311406155194,154.034400000004 -7.85917751478668,42.3120725165352,153.705400000006 -7.85963768128257,42.3122919545526,153.0 -7.86039289045034,42.312594541579,154.0 -7.86073051416505,42.312779781617,153.429099999994 -7.86093721202036,42.312992513871,153.411600000007 -7.8612808697188,42.3134377611437,153.229500000001 -7.86131439754016,42.3135297944279,152.876000000004 -7.86128975495529,42.3138483061668,153.062399999995 -7.86129947742161,42.3140142679427,153.476500000004 -7.86139084057757,42.3143176929699,153.0 -7.86140810709565,42.3145139973116,153.0 -7.86149879921011,42.3149225312285,152.0 -7.8613787699151,42.314937450606,152.0 -7.86163056229934,42.3159865297123,149.816300000006 -7.86202602045034,42.3175943466733,147.0 -7.86203105011762,42.3176655926113,147.0 -7.86199735520963,42.3177576263553,146.442200000005 -7.86197673528062,42.3178027205557,146.0 -7.86191252999231,42.3178362484238,146.606400000004 -7.86185670688391,42.3179266053948,147.527900000001 -7.86186944679128,42.3180238350418,147.637400000007 -7.86192325857174,42.3180900522651,147.953899999993 -7.86195879772101,42.3181245856253,148.0 -7.86204898767723,42.3181770565025,146.676500000001 -7.86211822173449,42.3182342207816,145.157500000001 -7.86224394994165,42.3202626419598,142.115699999995 -7.86225300316307,42.3206579321935,143.241399999999 -7.86207094789264,42.3214749999658,139.0 -7.86206206265618,42.3217199195021,138.0 -7.86208201244202,42.321971040956,137.732000000004 -7.86221779908541,42.3228042020588,134.780599999998 -7.86238376013921,42.3238236097162,130.0 -7.86246305353101,42.3242529307039,128.0 -7.86246506485894,42.3244279448284,127.229500000001 -7.8623939865604,42.3246289424803,127.801999999996 -7.86238593945207,42.3247699259772,127.490000000005 -7.86239801011457,42.3249010191657,127.522200000007 -7.86235006523122,42.3251620318231,129.600300000006 -7.86251904462436,42.3251670608147,129.0 -7.86257905927188,42.3249890294834,128.0 -7.86271199556088,42.3249370617415,128.0 -7.86282598997379,42.3249650566895,127.727199999994 -7.86291601104672,42.3250319447133,128.0 -7.86326704571029,42.3257040056413,130.049100000004 -7.8632730805924,42.3260749884603,130.0 -7.86321608338593,42.3262729689543,129.771599999993 -7.86344407131344,42.3262900680193,129.0 -7.86358203726973,42.3268340537577,128.0 -7.86362796992685,42.3271527339261,127.068499999994 -7.86381404875144,42.3280569735811,127.0 -7.86390792539358,42.3288649889811,127.0 -7.8639860446873,42.329048049315,127.0 -7.86407506054545,42.3292193755598,127.045199999993 -7.86416994419901,42.3294019334582,128.0 -7.86436323110544,42.3297675523873,128.701400000005 -7.86468593380326,42.3303948541259,130.0 -7.86467369605413,42.3303978711372,130.0 -7.86465777072079,42.3304781702026,130.0 -7.86468610178822,42.3306089274158,130.0 -7.86474192489661,42.3306174770237,129.117400000003 -7.86494996393662,42.3310949104139,128.0 -7.86511156726296,42.3314340422345,127.020199999999 -7.86521768165423,42.3316546539168,126.0 -7.86535698879521,42.3319439969699,125.0 -7.86544349026888,42.332145665902,124.499500000005 -7.86549897830566,42.3322720646037,124.0 -7.86564549442682,42.3325547029388,123.492899999997 -7.86572143440768,42.3327496653994,123.0 -7.86576183523928,42.3329127775858,123.0 -7.86578916019359,42.3332443657196,122.201199999996 -7.86581564701974,42.3335794743193,121.483200000002 -7.86583207540966,42.3338768642825,120.921900000001 -7.86584280398909,42.3342030876982,119.183300000004 -7.86579318374772,42.3343601644656,116.354300000006</coordinates>
</LineString>
</Placemark>
</Folder>
</Document></kml>
