<?xml version="1.0" encoding="UTF-8"?>

<kml xmlns="http://www.opengis.net/kml/2.2" xmlns:atom="http://www.w3.org/2005/Atom" xmlns:gx="http://www.google.com/kml/ext/2.2" xmlns:xsd="http://www.w3.org/2001/XMLSchema">
<Document>
<name>ES04a_09a_villafranca_de_los_barros-torremejia</name>
<visibility>1</visibility>
<Schema name="ES04a_09a_villafranca_de_los_barros-torremejia" id="kml_schema_ft_ES04a_09a_villafranca_de_los_barros-torremejia">
<SimpleField type="xsd:string" name="id">
<displayName>id</displayName>
</SimpleField>
<SimpleField type="xsd:string" name="nombre">
<displayName>nombre</displayName>
</SimpleField>
<SimpleField type="xsd:double" name="longitud">
<displayName>longitud</displayName>
</SimpleField>
<SimpleField type="xsd:string" name="_formato">
<displayName>_formato</displayName>
</SimpleField>
</Schema>
<Folder id="kml_ft_ES04a_09a_villafranca_de_los_barros-torremejia">
<name>ES04a_09a_villafranca_de_los_barros-torremejia</name>
<Placemark id="kml_1">
<name>&lt;img height='20' src='https://nco.ign.es/iconos/icono_todos_caminos_azul.png' /&gt;&lt;img height='20' src='https://nco.ign.es/iconos/Camino Santiago_20.png' /&gt;&lt;img height='20' src='https://nco.ign.es/iconos/icono_todos_caminos_azul.png' /&gt;  Camino de Santiago </name>
<visibility>1</visibility>
<description><![CDATA[<!DOCTYPE html>
<html>
<head>
<style>
#nco {
  border-collapse: collapse;
  overflow:hidden;
}
#nco th, #nco td {
  padding: 4px;
  text-align: left;
}
#nco th {
  color: #364B5F;
  padding-right: 5px;
}
#nco td {
  color: rgb(51, 51, 51);
  font-size: 12px;
  padding-right: 5px;
}
</style>
</head>
<body>
<table id="nco">
<tr>
<td>Caminos Andaluces</td>
</tr>
<tr>
<th><b>Camino: </b></th>
<td>ES04a Camino Mozárabe - Vía de la Plata</td>
</tr>
<tr>
<th><b>Etapa: </b></th>
<td>09a Villafranca de los Barros-Torremejía</td>
</tr>
<tr>
<th><b>Longitud: </b></th>
<td>26.87 km</td>
</tr>
</table>
</body>
</html>]]></description>
<Style>
<IconStyle>
<scale>0.8</scale>
</IconStyle>
<LabelStyle>
<color>ffffffff</color>
<scale>0.75</scale>
</LabelStyle>
<LineStyle>
<color>ffff0000</color>
<width>3.0</width>
<gx:labelVisibility>1</gx:labelVisibility>
</LineStyle>
<PolyStyle>
<color>66ff0000</color>
</PolyStyle>
</Style>
<ExtendedData>
<SchemaData schemaUrl="#kml_schema_ft_ES04a_09a_villafranca_de_los_barros-torremejia">
<SimpleData name="id">ES04a_09a</SimpleData>
<SimpleData name="_formato">kml</SimpleData>
</SchemaData>
</ExtendedData>
<LineString>
<extrude>0</extrude>
<tessellate>1</tessellate>
<coordinates>-6.33944492802731,38.5614072171349,412.0 -6.33751189367307,38.5621443214034,420.0 -6.33792294208583,38.5625322356707,420.334900000002 -6.33757794320262,38.5628762293746,422.0 -6.33725691586283,38.5633742818622,425.0 -6.33681787145423,38.563799244213,426.759699999995 -6.33661385596835,38.563998230568,427.048200000005 -6.33669281339027,38.5643041703203,428.0 -6.33698383340632,38.5645661885236,428.0 -6.33734492560783,38.5652773091466,427.0 -6.33772496148203,38.5660512938305,423.297099999996 -6.33865199949904,38.5676721868578,421.0 -6.33937099937438,38.568321281425,419.127900000007 -6.34009083737785,38.5690082621816,418.785099999994 -6.3405288756733,38.5696261758516,418.0 -6.34074194348229,38.5699683249519,418.0 -6.34067690006582,38.5703433314906,417.688299999994 -6.34062593774145,38.5706532939146,416.0 -6.34086499021835,38.5712262813537,414.0 -6.34098183318901,38.571622242347,413.0 -6.34096590785567,38.5719823284742,413.0 -6.34080497557083,38.5724123205137,412.0 -6.34091595164438,38.5744553251992,401.066200000001 -6.34102994605732,38.5758552711033,399.612699999998 -6.34127989420028,38.576993198129,399.089600000007 -6.34148390968615,38.5778622336889,401.323199999999 -6.34157594298532,38.5787862547839,405.0 -6.34135197861194,38.5792563118727,405.800099999993 -6.34101385273902,38.5797422950213,407.0 -6.34078385348354,38.5808042821267,408.0 -6.34090187055231,38.582989276252,407.0 -6.34104084262172,38.5849281783054,404.755900000004 -6.34133588529363,38.5870432680094,403.0 -6.34145490847553,38.5889062294422,402.0 -6.34169999493616,38.5906493303218,400.0 -6.34168691905891,38.5914352173953,399.758799999996 -6.34146496691176,38.5926641715884,398.0 -6.34105492371379,38.5940792047772,396.0 -6.34055385332979,38.5956503089831,394.0 -6.33997583775012,38.597340268055,393.0 -6.33950293044856,38.5987951986232,392.0 -6.33934484761981,38.5996493149535,391.0 -6.33950594788961,38.6013562057145,389.778000000006 -6.3394989068944,38.6018971734975,390.0 -6.33955288665982,38.6023591842896,390.0 -6.33953796743959,38.6027583300261,390.0 -6.34002193839216,38.6036322276457,389.0 -6.34064991018312,38.6044513067551,388.0 -6.34131995996029,38.6061692618222,386.0 -6.34172983427495,38.6075732309599,385.0 -6.34208790993373,38.6085802326673,384.639599999995 -6.34246291614065,38.6092382121945,385.0 -6.34286390611718,38.6101022183024,384.0 -6.34298292929907,38.6108973258407,382.0 -6.34294789320638,38.6115672079511,381.075899999996 -6.34291687976948,38.6123012944182,381.210200000001 -6.34309994025473,38.6130682388641,381.8459 -6.34367091573752,38.6144162163755,380.0 -6.34388381645985,38.6154792095144,379.381800000003 -6.34397299940462,38.6159782680514,379.0 -6.34398071054304,38.6165182299898,378.0 -6.34386185534611,38.6174871779289,375.0 -6.34382698723834,38.6185052444496,375.0 -6.34378893280629,38.619445190603,374.0 -6.34418288268593,38.6208753111784,373.099600000001 -6.3441808704597,38.6218792956621,373.0 -6.34418590012698,38.6227032364822,372.0 -6.34439192694076,38.6232512454436,372.0 -6.3448879685558,38.6240471911882,371.0 -6.3451598769142,38.6246062637567,370.0 -6.34532399462505,38.6253091703813,369.0 -6.34495586142836,38.6272633272464,367.0 -6.34472586217288,38.6283253145245,367.0 -6.34408498159133,38.6293603116544,366.0 -6.34395288343048,38.6297121839345,366.0 -6.34399797795941,38.6303151780108,365.964200000002 -6.34410392526402,38.6308402201748,365.0 -6.34438287461764,38.6315531848244,364.736000000004 -6.34478285937935,38.6323782993673,365.0 -6.34550990546466,38.6328461775224,365.0 -6.34620392678517,38.6333152287163,365.0 -6.3467559594936,38.6338922393736,364.0 -6.34854784246554,38.6353723153793,364.0 -6.34953489513008,38.6361292012772,363.5236 -6.352490857268,38.6379492479941,363.0 -6.35410588262179,38.6391642885774,365.0 -6.35513199493315,38.6400482437427,366.0 -6.35681591927259,38.6409652245444,357.354600000006 -6.35967884199823,38.6425432011087,359.0 -6.35973399496342,38.6430311960267,360.0 -6.35978596250261,38.6434412383452,360.0 -6.35994488345952,38.6440293127382,360.0 -6.35991487613578,38.6444411995093,360.0 -6.35961597789465,38.6461232795535,361.0 -6.35961798922258,38.6465222582446,361.0 -6.36103486598761,38.6480512851943,364.0 -6.36173291176059,38.6496272507832,362.985400000005 -6.36182896771562,38.6509893101615,362.283500000005 -6.36175587808915,38.652587235885,362.0 -6.36178487929978,38.6542723334493,362.0 -6.36182997382874,38.6559312799842,357.0 -6.36199090611358,38.6576252624957,358.0 -6.36219492159942,38.6595242664213,360.0 -6.36219190415841,38.6619052299529,358.0 -6.36218586927631,38.6642342258756,357.0 -6.36240094931153,38.666725327135,357.857300000003 -6.36253388560053,38.6688702561953,360.0 -6.36263295989491,38.6709912131504,360.581300000005 -6.3626599497776,38.6729592838761,364.687699999995 -6.3627519830768,38.6749392572708,371.0 -6.3628929664741,38.6775862622026,376.0 -6.36299891377871,38.6801962188128,375.0 -6.36310284975541,38.6827672840721,373.0 -6.36320594670563,38.6853381812292,369.306700000001 -6.36329194512273,38.6878582842769,372.0 -6.36331290012335,38.6886683116211,373.0 -6.36340090986835,38.6912392092094,368.0 -6.36350484584506,38.6938102738302,364.0 -6.36360894890839,38.6963942466889,363.0 -6.36371590232611,38.6990162741978,360.945000000007 -6.36379167432202,38.7016912748386,361.0 -6.36386895548758,38.7043922593325,359.685599999997 -6.3640028978897,38.7072452915463,358.0 -6.36413684119015,38.7100983234764,353.0 -6.36426994546411,38.7129382796665,350.0 -6.36429190657785,38.7158462970761,349.305300000007 -6.36439483644144,38.7187523030772,344.887300000002 -6.36449793339166,38.7216583086662,340.0 -6.36460186936833,38.7245633088333,339.0 -6.36476397485292,38.7273132438429,333.0 -6.36492591325088,38.7300621725145,329.885899999994 -6.36503487799654,38.7327363352825,327.175199999998 -6.36509690397196,38.7354633033862,325.372199999998 -6.36520989227175,38.7382142440624,327.0 -6.36532288057157,38.7409651845827,327.690300000002 -6.36543486275824,38.7437152869623,326.525399999999 -6.36554785105807,38.7464662278599,326.472500000003 -6.36567894400409,38.7492423141238,324.0 -6.36584188761684,38.7520303028818,325.0 -6.36594196802434,38.7548462868077,325.0 -6.36601287833792,38.756363244014,324.0 -6.36702591567036,38.7583282973128,318.0 -6.36822586905719,38.7604432189239,316.0 -6.36908786365777,38.7619881710186,315.0 -6.36995388181248,38.7636233130842,311.0 -6.37076592110006,38.7651702773155,310.0 -6.3708209060803,38.7656322878965,310.0 -6.37206897143714,38.7673592951689,315.0 -6.37262787625746,38.7684112239322,318.0 -6.37265989580744,38.7690802673589,319.0 -6.37281093764101,38.7695132760659,317.164300000004 -6.37290984395039,38.770205286653,315.0 -6.3728969360581,38.7709782652718,312.0 -6.37309290443564,38.7716541818642,311.0 -6.37334687613277,38.7725222118585,310.778000000006 -6.37348098651984,38.7732651839328,310.0 -6.37352591396215,38.7742161942921,308.0 -6.37377083333615,38.7759333110393,305.0 -6.37370293956529,38.7769393070059,303.0 -6.37346087054567,38.777718321457,302.0 -6.37322097994065,38.7785622110876,300.999599999996 -6.37319399005792,38.7793863200441,303.504700000005 -6.3735839163834,38.779632245251,299.079299999998 -6.37406889344912,38.7801722076841,299.0 -6.37428497869913,38.7812722482963,303.0 -6.37449586719523,38.7825922302349,301.508700000006 -6.37461690260335,38.7841202510883,305.0 -6.37473994844108,38.7856742563183,306.0 -6.37486986818736,38.7873942229471,304.0 -6.37489786328487,38.7886932500371,307.0 -6.3749919088103,38.7893852600849,309.0 -6.37503197457028,38.7902422255766,305.0 -6.37520983830158,38.7921162516038,301.0</coordinates>
</LineString>
</Placemark>
</Folder>
</Document></kml>
