<?xml version="1.0" encoding="UTF-8"?>

<kml xmlns="http://www.opengis.net/kml/2.2" xmlns:atom="http://www.w3.org/2005/Atom" xmlns:gx="http://www.google.com/kml/ext/2.2" xmlns:xsd="http://www.w3.org/2001/XMLSchema">
<Document>
<name>ES04a_07a_fuente_de_cantos-zafra</name>
<visibility>1</visibility>
<Schema name="ES04a_07a_fuente_de_cantos-zafra" id="kml_schema_ft_ES04a_07a_fuente_de_cantos-zafra">
<SimpleField type="xsd:string" name="id">
<displayName>id</displayName>
</SimpleField>
<SimpleField type="xsd:string" name="nombre">
<displayName>nombre</displayName>
</SimpleField>
<SimpleField type="xsd:double" name="longitud">
<displayName>longitud</displayName>
</SimpleField>
<SimpleField type="xsd:string" name="_formato">
<displayName>_formato</displayName>
</SimpleField>
</Schema>
<Folder id="kml_ft_ES04a_07a_fuente_de_cantos-zafra">
<name>ES04a_07a_fuente_de_cantos-zafra</name>
<Placemark id="kml_1">
<name>&lt;img height='20' src='https://nco.ign.es/iconos/icono_todos_caminos_azul.png' /&gt;&lt;img height='20' src='https://nco.ign.es/iconos/Camino Santiago_20.png' /&gt;&lt;img height='20' src='https://nco.ign.es/iconos/icono_todos_caminos_azul.png' /&gt;  Camino de Santiago </name>
<visibility>1</visibility>
<description><![CDATA[<!DOCTYPE html>
<html>
<head>
<style>
#nco {
  border-collapse: collapse;
  overflow:hidden;
}
#nco th, #nco td {
  padding: 4px;
  text-align: left;
}
#nco th {
  color: #364B5F;
  padding-right: 5px;
}
#nco td {
  color: rgb(51, 51, 51);
  font-size: 12px;
  padding-right: 5px;
}
</style>
</head>
<body>
<table id="nco">
<tr>
<td>Caminos Andaluces</td>
</tr>
<tr>
<th><b>Camino: </b></th>
<td>ES04a Camino Mozárabe - Vía de la Plata</td>
</tr>
<tr>
<th><b>Etapa: </b></th>
<td>07a Fuente de Cantos-Zafra</td>
</tr>
<tr>
<th><b>Longitud: </b></th>
<td>24.51 km</td>
</tr>
</table>
</body>
</html>]]></description>
<Style>
<IconStyle>
<scale>0.8</scale>
</IconStyle>
<LabelStyle>
<color>ffffffff</color>
<scale>0.75</scale>
</LabelStyle>
<LineStyle>
<color>ffff0000</color>
<width>3.0</width>
<gx:labelVisibility>1</gx:labelVisibility>
</LineStyle>
<PolyStyle>
<color>66ff0000</color>
</PolyStyle>
</Style>
<ExtendedData>
<SchemaData schemaUrl="#kml_schema_ft_ES04a_07a_fuente_de_cantos-zafra">
<SimpleData name="id">ES04a_07a</SimpleData>
<SimpleData name="_formato">kml</SimpleData>
</SchemaData>
</ExtendedData>
<LineString>
<extrude>0</extrude>
<tessellate>1</tessellate>
<coordinates>-6.30862299311232,38.2468462931814,581.0 -6.30889892592318,38.2472112408751,580.128599999996 -6.30921190615471,38.247655314678,579.0 -6.30946688396496,38.2480752477435,576.788 -6.30940686931743,38.2484852904193,574.0 -6.3092799670122,38.2486842769625,575.002800000002 -6.30946688396496,38.2493271685236,578.0 -6.30969990066142,38.2497372111912,581.0 -6.30998186745609,38.250493259478,582.152600000001 -6.30985094249499,38.2505951831882,583.0 -6.31021086149672,38.2508241768047,580.406799999997 -6.31029685991382,38.2514972433094,581.0 -6.31032183757032,38.2520692243773,583.0 -6.31040984731531,38.2528961833641,586.0 -6.3106148689143,38.2536302698892,588.0 -6.31069198209491,38.2542211944832,589.335600000006 -6.31068594721284,38.2555151928468,592.0 -6.31075987586577,38.2566762537852,594.0 -6.31087588160661,38.2578022786796,596.0 -6.31098283412603,38.2584312570743,596.0 -6.31099892744434,38.2591033177973,596.0 -6.31098886990643,38.2598261728396,595.0 -6.31108291453353,38.2604843201232,594.0 -6.31121987437667,38.2611362642039,594.0 -6.31127687158314,38.2614391863525,594.0 -6.3112969884556,38.2625112317857,592.0 -6.31133990367167,38.2626683088837,592.0 -6.31137695199063,38.2628652837632,591.0 -6.31166495366734,38.2636872129095,590.0 -6.31187098137944,38.2644382317039,591.0 -6.31207985764931,38.2650982225146,591.0 -6.3122069279395,38.2656822736987,591.0 -6.31232393889516,38.2663622132939,589.0 -6.31246190485144,38.2670532175667,587.0 -6.31265586279938,38.2676852128018,584.019799999995 -6.31290799025523,38.2683502331132,583.0 -6.31315492095717,38.2690492840242,581.289300000004 -6.31328886335929,38.2699493328347,578.743100000007 -6.31330596279071,38.2703442877747,578.0 -6.3132979165807,38.2711011738913,575.069199999998 -6.31333999366861,38.2714102988076,574.0 -6.31337888533052,38.2716292341066,574.0 -6.31350494950763,38.2718912524603,573.0 -6.31398489690603,38.2726632252171,572.0 -6.31440499764191,38.273402174199,570.958400000003 -6.31452988861924,38.2736361968853,570.0 -6.314687971448,38.2739702994112,570.0 -6.31488896949282,38.274597265452,569.0 -6.31506297765491,38.2749652310402,569.688099999999 -6.31520496716536,38.2752663092042,569.767000000007 -6.31554393116647,38.2756342749282,570.177800000005 -6.31578885054048,38.2759722328121,570.0 -6.31584685296173,38.276146241768,570.0 -6.31588088383964,38.2764102712905,570.0 -6.31580393774566,38.277101275165,571.791400000002 -6.31577393042192,38.2777072868624,573.0 -6.31582187530527,38.2781173301509,574.189700000003 -6.31611993541821,38.2791541708848,578.0 -6.31622387139492,38.2794052931993,579.0 -6.3163417204787,38.2796332806952,579.211299999995 -6.31667196722831,38.2802682938768,582.0 -6.31726490292654,38.2808783288879,585.0 -6.31759699391738,38.2812472999341,586.0 -6.3178209591891,38.2816082246939,585.0 -6.31803587123933,38.2822402201916,584.461299999995 -6.31816092840499,38.2827733095818,585.698099999994 -6.31826084082753,38.2833972584802,587.0 -6.31836997355814,38.2842181817413,588.0 -6.31855789572568,38.2845853095352,589.0 -6.31955098327228,38.285772186873,592.0 -6.31975097610228,38.2862402321345,593.0 -6.31983797973417,38.2867402967484,593.0 -6.31984787018548,38.2872603094404,594.0 -6.3198299335242,38.2878141862431,594.0 -6.31967889169063,38.2884393080907,593.0 -6.31946884132269,38.2893262812793,590.960699999996 -6.3192718659337,38.2902072194954,587.811400000006 -6.31915183753703,38.2910351833568,583.995999999999 -6.31904790156032,38.2918913110861,578.0 -6.3189139591582,38.2927362071856,575.0 -6.31882594941321,38.2934612416581,574.0 -6.3187778365449,38.2942982583727,573.0 -6.31868898867171,38.2951882493676,572.0 -6.31858689693631,38.2960832688915,573.820699999997 -6.31847692697587,38.2969782886557,574.0 -6.31841087744628,38.2978842043915,572.0 -6.3183419775623,38.2985752083046,569.0 -6.31830593535646,38.298897240884,567.0 -6.31821272885755,38.2993632747826,565.0 -6.31809085621957,38.3000053286777,561.0 -6.31808783877851,38.3004172157015,559.0 -6.31777988731597,38.3005612167773,558.0 -6.31760286171283,38.3006121784192,558.0 -6.3175408357374,38.3008342988246,558.0 -6.31754385317845,38.3012352894396,557.781499999997 -6.31777888120286,38.3012552385252,559.877200000003 -6.31777988731597,38.3015361994321,560.228499999997 -6.3176429274728,38.3021812710448,560.0 -6.31765197979592,38.3026291997405,558.769499999995 -6.31755793427052,38.3027633102109,557.450299999997 -6.31756397005092,38.3034041905969,557.000799999994 -6.31752390429094,38.3044772420585,554.0 -6.31755592294259,38.3054332815364,551.182799999995 -6.31773194333095,38.3061041692259,548.188099999999 -6.31787493805619,38.3070493126439,546.986600000004 -6.31758090149738,38.3079352794409,549.0 -6.31740085755489,38.3088712029984,546.952600000004 -6.31716197396128,38.3092562673871,547.339900000006 -6.31690699615104,38.3095263329275,550.0 -6.31676198919957,38.3097682346251,551.135599999994 -6.31664397213079,38.3101311709489,552.944600000003 -6.31661798836118,38.3105361843445,554.0 -6.31672393566579,38.31090230566,554.0 -6.31702283390692,38.3113421880216,550.439599999998 -6.31716096784816,38.3119441766546,544.0 -6.31738493222154,38.3127012302681,540.855200000005 -6.31746673999782,38.3135072338469,538.061700000006 -6.31756598137886,38.3139702502036,538.0 -6.31795590770433,38.3151883085475,535.142099999997 -6.31784895428661,38.3160172785637,537.325700000001 -6.31779983620348,38.3169052572897,543.0 -6.3179269064937,38.3174903139852,544.513699999996 -6.31847089119547,38.3189152378287,538.470300000001 -6.31884589830072,38.3198183036142,529.032900000006 -6.3192718659337,38.3205963118922,523.5579 -6.31939692399766,38.3208911876337,523.0 -6.31949298085099,38.3212842986862,522.0 -6.31997594569045,38.3223503093396,518.0 -6.32054088629117,38.3234942713626,513.0 -6.32110498876373,38.3246281749421,508.919399999999 -6.32123088495585,38.3249322705311,507.0 -6.32123893116585,38.3251252222886,506.0 -6.32108889544543,38.325243239498,505.0 -6.32107196399894,38.3253582388608,505.0 -6.3213998634507,38.3257183254626,504.0 -6.32138796167149,38.3264292783853,503.0 -6.32125183905818,38.3273692253302,503.0 -6.32116198507187,38.3281162203274,504.567999999999 -6.32097288970456,38.3290692428396,512.590599999996 -6.32096685482249,38.3295113045219,515.449099999998 -6.32126592104858,38.3294331846886,514.945800000001 -6.32176296787844,38.3293771941875,514.0 -6.32253594662083,38.3293413190619,511.211500000005 -6.32288195161715,38.3293032657164,510.0 -6.32326785438846,38.3291731780897,508.612500000003 -6.32368594379644,38.3291612758234,507.0 -6.32410386611776,38.3291282510761,506.968599999993 -6.32451189708947,38.3291022676138,505.330400000006 -6.32483392964408,38.3291222160809,504.197899999999 -6.32590899205361,38.3294492784086,503.0 -6.32701992958233,38.3297832134832,501.071100000001 -6.32818384076335,38.3300941820734,501.0 -6.32880896309822,38.3303221695641,504.0 -6.3290859011239,38.3305173006417,502.632100000003 -6.32942888867917,38.3306131891997,502.0 -6.33001294003925,38.3307302010585,502.0 -6.33023791052574,38.3307803247798,501.888399999996 -6.33056396573619,38.330890295243,500.246199999994 -6.33082497842853,38.3309392455683,499.7739 -6.33126083741113,38.3311301849928,499.166700000002 -6.33167590937802,38.3312451848804,498.656400000007 -6.3321069066783,38.3313172693575,498.516499999998 -6.33253689876378,38.3313543174882,498.610499999995 -6.33299287372054,38.331404273066,498.007500000007 -6.33346091933974,38.3315102203244,497.666599999997 -6.33392997107209,38.3316302495375,497.0 -6.33427496995526,38.3317752562085,497.000499999995 -6.33464394128015,38.3320382807134,496.0 -6.3349269141879,38.332381267924,496.073099999994 -6.33516093699752,38.3326271930792,496.904899999994 -6.33536897603752,38.3328952464467,499.135200000004 -6.33572889503925,38.3331592759514,502.0 -6.33604589882491,38.3334662212935,505.0 -6.33682893600358,38.3340331737512,510.0 -6.3372218797701,38.33424020684,512.0 -6.33807297780625,38.3345322317659,514.0 -6.33891183899161,38.3351402554109,514.0 -6.33960586031212,38.3357031840192,516.0 -6.34025495508866,38.3362463308632,519.0 -6.34029988163267,38.3364552079664,518.554099999994 -6.34116791201361,38.3373083186616,511.0 -6.34137695626843,38.3373933105525,510.0 -6.34192597153577,38.3375042870305,509.0 -6.34207986282544,38.3375632961493,509.0 -6.34228991319338,38.3376692428579,509.0 -6.34251488367984,38.3377332806425,510.155400000003 -6.34292291465158,38.3378833165732,515.0 -6.34385095878171,38.3384883224691,520.183499999999 -6.34541099915527,38.3392653249944,515.571800000005 -6.34656585711484,38.3397732684898,519.0 -6.34797586086964,38.3405893305446,513.0 -6.3483788630724,38.3408163126944,510.0 -6.34874967863852,38.3411363335452,507.434099999999 -6.34897196675559,38.3413121858108,506.0 -6.34914195136355,38.3415393354976,503.9764 -6.34931093075669,38.3419133358527,501.0 -6.34949197991401,38.342554216151,495.597999999998 -6.34954897712044,38.3428192517984,495.740999999995 -6.34979993137655,38.343619220676,495.927800000005 -6.34990688389594,38.3438343005214,494.794599999994 -6.35005591440158,38.3439561735563,494.0 -6.35025372702042,38.3440131701605,494.607199999999 -6.3504019193979,38.344129176127,495.0 -6.35059084767855,38.3445442478749,495.0 -6.35075898804524,38.3449192542984,496.0 -6.35135695341072,38.3457162057223,497.0 -6.35195190043689,38.3464432517737,497.274999999994 -6.35249286859593,38.3469471714449,498.326400000005 -6.35272990884657,38.3472562966248,499.0 -6.35314699303972,38.3476033071335,499.0 -6.35365393032086,38.3479742904651,499.030799999993 -6.35400597019925,38.3482663156879,500.0 -6.35432096175868,38.3485243107488,500.005799999999 -6.35472295784832,38.3491303218617,500.863500000007 -6.35524297100674,38.349768185072,502.0 -6.35499486710502,38.3499892996415,502.0 -6.35560389612159,38.3508293342707,503.0 -6.35614084072647,38.3519572025303,503.0 -6.35683787948803,38.3532171704363,505.0 -6.35780783361941,38.354374208626,506.922200000001 -6.35883796948497,38.3557062601985,508.178799999994 -6.35947398838423,38.3563682633137,509.0 -6.36054787759399,38.3568012721187,511.0 -6.36172285332436,38.3575293247951,512.0 -6.36289699002827,38.3582443005232,513.0 -6.36367298621171,38.3585762242213,514.0 -6.3649329542461,38.3590922139234,515.0 -6.36542497230697,38.3593741812766,515.356400000004 -6.36656893460048,38.3597052664938,517.0 -6.36695299313055,38.3598692166032,517.830600000001 -6.3671689103956,38.3601052510535,517.335300000006 -6.36743495275519,38.3603002138627,518.0 -6.36773183966838,38.3604532678443,518.0 -6.36951886095804,38.3616201960808,520.095600000001 -6.37005496743476,38.3618791966044,521.0 -6.37057598670629,38.3621951946964,521.5916 -6.37116992851764,38.3627691871358,522.0 -6.37152984751937,38.3629933196488,523.028699999995 -6.37178197497522,38.3631512343772,523.0 -6.37234590946283,38.3632652283184,524.116699999999 -6.3730359081275,38.3636382233535,524.995699999999 -6.37404592712056,38.3643032432235,525.547300000006 -6.37507790722737,38.3650782340082,527.301800000001 -6.37582188475916,38.3656761989752,529.0 -6.37633988658965,38.365923297916,530.0 -6.37681195486472,38.3661152431853,531.0 -6.37718193230268,38.3663661975452,531.0 -6.37754587485858,38.3666791777239,531.0 -6.37870592957209,38.3679592617649,533.0 -6.37971796079139,38.3692373342124,537.0 -6.38054391408445,38.3702862455122,538.0 -6.38123994673286,38.3711613166378,537.858900000007 -6.38199985049634,38.3722813063727,538.401199999993 -6.38250192609515,38.3729402915431,539.1152 -6.38274097857204,38.3731882284068,539.441600000006 -6.38304792302314,38.3733992850049,540.0 -6.38371495535929,38.3738482194499,538.0 -6.38443093779355,38.3742133349692,536.0 -6.3848798717551,38.374468312812,534.0 -6.38519184677181,38.3745901856976,533.0 -6.38548890166996,38.3749661978171,531.664900000003 -6.38589391520066,38.3752231864434,532.0 -6.38644695312383,38.375654184532,531.0 -6.38695690784602,38.3759222378194,531.701300000001 -6.38750089344611,38.3765322724634,531.0 -6.38851895954747,38.3775692815961,532.0 -6.38940492658972,38.3783823262086,533.0 -6.39045685558403,38.3793982129751,535.0 -6.39157483320964,38.3803222338066,536.0 -6.39232886917767,38.380926233768,537.246400000004 -6.39285592333127,38.3813713125716,538.0 -6.39299288407274,38.3814982150823,538.0 -6.3938619196685,38.3830832327113,535.1198 -6.39416383535064,38.3835422259054,535.0288 -6.39497486852515,38.3844402625842,533.985000000001 -6.3964428755995,38.3859322417592,533.0 -6.39661788897642,38.3861261984884,533.0 -6.39769194617116,38.3870441848876,532.0 -6.39796284931475,38.387236298044,531.038 -6.39848990346835,38.3874892640693,529.391300000003 -6.39860792053712,38.3875891759069,528.8554 -6.39874991004757,38.3881832856894,526.157999999996 -6.3988729567836,38.3885852815287,524.066699999996 -6.39918291957408,38.3890301928013,523.184500000003 -6.39953797689348,38.3897082889968,522.166800000006 -6.39996495063962,38.3902532803589,522.349199999997 -6.40052989124034,38.3913031972899,524.0 -6.40068696795598,38.3914912872467,524.448999999993 -6.40069987584827,38.3917732543967,523.243700000006 -6.40093691609894,38.3921722330113,522.0 -6.40127688621316,38.3926982816808,520.0 -6.40160696587611,38.3934042055703,522.0 -6.40187988034762,38.3941942831746,521.0 -6.40212798514764,38.3953841783183,521.0 -6.40218196401473,38.395795226866,521.0 -6.40215983581433,38.3963013262608,519.0 -6.4023698870806,38.3965962014775,516.733300000007 -6.40215899768617,38.3967482493633,517.0 -6.40192195743554,38.3968153044873,518.0 -6.40175096671446,38.3969063319085,517.549100000004 -6.40170369287264,38.3975182108471,514.358699999997 -6.40181299268988,38.3982192735817,512.0 -6.40190284667618,38.3985173336985,512.0 -6.40153689279235,38.3988462397164,511.728400000007 -6.40110287805103,38.3993831843664,513.0 -6.40066986942286,38.3999192907828,514.0 -6.4003837110891,38.4005722415373,515.881800000003 -6.4003728145247,38.4015091705282,520.5383 -6.40038790172989,38.4020762899653,521.0 -6.40001390163609,38.4029463317121,517.714300000007 -6.4001748339209,38.4038172112663,521.402100000007 -6.40037884940677,38.4042073048765,523.0 -6.4004938490345,38.4050282285867,522.0 -6.40070691684349,38.4056072502416,522.9038 -6.40075385561369,38.4063792235617,525.896200000003 -6.40072485440306,38.4066891867216,526.0 -6.3996779541777,38.4076641696849,523.0 -6.39985196323813,38.4078742197308,522.279899999994 -6.40002898884127,38.4081702690491,522.0 -6.40035688919133,38.4086413315007,522.0 -6.40083884791767,38.4091432399526,522.061700000006 -6.40120195234541,38.4094332543629,522.0 -6.40193084267199,38.4103141919626,521.902700000006 -6.40234189108476,38.4106891983162,521.0 -6.40271387985065,38.4111683081702,521.0 -6.40367092608974,38.4117852160368,521.0 -6.4046058432301,38.4126252506153,520.0 -6.40518385880977,38.4133132366624,521.0 -6.40563899653667,38.4137041687088,521.0 -6.40623394356284,38.4140473243882,520.0 -6.406730991291,38.4144022139552,519.0 -6.40717087292946,38.4147073149237,518.0 -6.40757085769117,38.4150823217053,517.0 -6.40799883755039,38.4153713296991,516.0 -6.40855690424255,38.4158532886595,514.169299999994 -6.40912787972537,38.4163862104853,514.0 -6.40965493387898,38.416912258911,513.0 -6.4101829941457,38.4174731756549,513.0 -6.41080995982351,38.4180302366961,512.0 -6.41159383602865,38.4186692732625,512.0 -6.41234787199666,38.4193772084072,512.0 -6.4131439850526,38.42005027558,511.897200000007 -6.41404285998715,38.420823254471,512.0 -6.41482992071994,38.4215301846027,511.0 -6.41533384056006,38.4218562404057,510.0 -6.41554187960006,38.4219462622446,509.0 -6.41600992521929,38.4220612614442,508.0 -6.41625886814747,38.4224282216803,507.0 -6.4165488820504,38.4231152022812,509.0 -6.41671383788941,38.4234432700612,510.0 -6.41724089204302,38.4233742029135,509.0 -6.41754884260723,38.4232692613728,509.0 -6.41799693933895,38.4232662442801,508.0 -6.41814999250042,38.4236263309715,507.0 -6.41846397884507,38.4242162492395,504.081099999996 -6.41880596028719,38.4248371802963,504.0 -6.41915883829374,38.4254042996405,506.0</coordinates>
</LineString>
</Placemark>
</Folder>
</Document></kml>
