<?xml version="1.0" encoding="UTF-8"?>

<kml xmlns:xsd="http://www.w3.org/2001/XMLSchema" xmlns:gx="http://www.google.com/kml/ext/2.2" xmlns:atom="http://www.w3.org/2005/Atom" xmlns="http://www.opengis.net/kml/2.2">
<Document>
<name>ES04a_27a_mombuey-puebla_de_sanabria</name>
<visibility>1</visibility>
<Schema name="ES04a_27a_mombuey-puebla_de_sanabria" id="kml_schema_ft_ES04a_27a_mombuey-puebla_de_sanabria">
<SimpleField type="xsd:string" name="id">
<displayName>id</displayName>
</SimpleField>
<SimpleField type="xsd:string" name="nombre">
<displayName>nombre</displayName>
</SimpleField>
<SimpleField type="xsd:double" name="longitud">
<displayName>longitud</displayName>
</SimpleField>
<SimpleField type="xsd:string" name="_formato">
<displayName>_formato</displayName>
</SimpleField>
</Schema>
<Folder id="kml_ft_ES04a_27a_mombuey-puebla_de_sanabria">
<name>ES04a_27a_mombuey-puebla_de_sanabria</name>
<Placemark id="kml_1">
<name>&lt;img height='20' src='https://nco.ign.es/iconos/icono_todos_caminos_azul.png' /&gt;&lt;img height='20' src='https://nco.ign.es/iconos/Camino Santiago_20.png' /&gt;&lt;img height='20' src='https://nco.ign.es/iconos/icono_todos_caminos_azul.png' /&gt;  Camino de Santiago </name>
<visibility>1</visibility>
<description><![CDATA[<!DOCTYPE html>
<html>
<head>
<style>
#nco {
  border-collapse: collapse;
  overflow:hidden;
}
#nco th, #nco td {
  padding: 4px;
  text-align: left;
}
#nco th {
  color: #364B5F;
  padding-right: 5px;
}
#nco td {
  color: rgb(51, 51, 51);
  font-size: 12px;
  padding-right: 5px;
}
</style>
</head>
<body>
<table id="nco">
<tr>
<td>Caminos Andaluces</td>
</tr>
<tr>
<th><b>Camino: </b></th>
<td>ES04a Camino Mozárabe - Vía de la Plata</td>
</tr>
<tr>
<th><b>Etapa: </b></th>
<td>27a Mombuey-Puebla de Sanabria</td>
</tr>
<tr>
<th><b>Longitud: </b></th>
<td>30.55 km</td>
</tr>
</table>
</body>
</html>]]></description>
<Style>
<IconStyle>
<scale>0.8</scale>
</IconStyle>
<LabelStyle>
<color>ffffffff</color>
<scale>0.75</scale>
</LabelStyle>
<LineStyle>
<color>ffff0000</color>
<width>3.0</width>
<gx:labelVisibility>1</gx:labelVisibility>
</LineStyle>
<PolyStyle>
<color>66ff0000</color>
</PolyStyle>
</Style>
<ExtendedData>
<SchemaData schemaUrl="#kml_schema_ft_ES04a_27a_mombuey-puebla_de_sanabria">
<SimpleData name="id">ES04a_27a</SimpleData>
<SimpleData name="_formato">kml</SimpleData>
</SchemaData>
</ExtendedData>
<LineString>
<extrude>0</extrude>
<tessellate>1</tessellate>
<coordinates>-6.33040118921007,42.0233903823425,889.074999999997 -6.33132738999726,42.0233459586424,890.0 -6.33214579923853,42.0223671198571,885.392300000007 -6.33432408803839,42.0225371047372,886.748600000006 -6.33612452117521,42.0235035385468,888.0 -6.33942414101164,42.0234929773541,896.867100000003 -6.34022092421075,42.0231974314139,899.0 -6.34094109728584,42.0234829186606,901.0 -6.34347176193397,42.0235625466597,912.284899999999 -6.34637424736305,42.0235848428553,915.914600000004 -6.35240452377932,42.0235583558203,913.093699999998 -6.35724121676237,42.0235169492438,924.0 -6.35995008021343,42.0234177076173,928.962799999994 -6.36040873843796,42.0236508918939,930.0 -6.36188881437815,42.02327487959,930.804499999998 -6.3625667432787,42.0215057955957,939.0 -6.36284653076044,42.0202971249666,941.0 -6.36269347759897,42.0199356975381,941.0 -6.36594465039377,42.0179364456422,932.0 -6.36749798394543,42.0168672502692,923.0 -6.36995555806879,42.0162427984492,916.0 -6.37019058699152,42.0156108027182,916.0 -6.37563178327874,42.0160367712913,904.0 -6.37683760356271,42.0158007366041,900.0 -6.37713532860406,42.0151863436636,900.0 -6.37743925651247,42.0148581081489,900.0 -6.37879779578463,42.0150579327835,892.621799999994 -6.37932820245087,42.0149627138518,895.0 -6.37964202081055,42.0141479933882,890.758100000006 -6.38117054469064,42.0131778719464,894.977199999994 -6.38601947542286,42.0140536127223,906.009900000005 -6.39378631475925,42.0154103077321,898.252999999997 -6.39652317420611,42.0155092141325,897.593999999997 -6.39730101463087,42.0153665545504,892.464200000002 -6.4036415889092,42.0175885969398,906.0 -6.40528829784302,42.0178326777347,908.0 -6.40924120309675,42.0191332137497,907.122099999993 -6.41200991321037,42.0195819808841,909.0 -6.41351681194666,42.0200500264497,909.309999999998 -6.41448978351909,42.0202141440342,908.9902 -6.41563810443835,42.0208193175428,910.0 -6.41667477824252,42.0210084130207,906.0 -6.41681659976801,42.0211576113843,903.971699999995 -6.41781304072554,42.0212612116989,898.0 -6.41875181343514,42.0212866926522,902.1829 -6.41890218512548,42.0205968620756,900.363100000002 -6.41974959557741,42.0204184952548,904.619000000006 -6.42112355712637,42.0205707101465,901.910099999994 -6.42183450989337,42.0210090837154,904.054000000004 -6.42275501087004,42.0210285298543,906.962899999999 -6.42440792177262,42.0213854310832,912.673699999999 -6.42720663920995,42.0216152633654,920.0 -6.43119206617193,42.0220154154336,927.0 -6.43496492838147,42.0222821275803,923.0 -6.4353007078549,42.0223426443566,923.0 -6.43569415467797,42.0221912672212,922.579899999997 -6.43805818633251,42.0219939575436,917.0 -6.43882663936253,42.0217641259628,913.178899999999 -6.43940666716843,42.0219267349202,914.393899999995 -6.44006581948288,42.0219005828707,912.035300000003 -6.44051810685539,42.0216808092653,910.0 -6.44081784412298,42.0217785427228,909.0 -6.44178209844391,42.0216166040746,901.917300000001 -6.44281240139609,42.021352909582,892.050700000007 -6.44389634994041,42.0212674140984,885.151500000007 -6.44496571253946,42.0217279155426,873.0 -6.44701844111709,42.0223786869235,854.178199999995 -6.44934408326794,42.0219634470728,853.623200000002 -6.45184172315131,42.022603657372,865.066000000006 -6.45293254380756,42.0230261049503,871.624100000001 -6.45411137510714,42.0234621319346,879.096900000004 -6.45612588126773,42.0240354537591,896.178899999999 -6.45684773059913,42.0244852266501,902.1823 -6.45774744456016,42.0254010332853,909.0 -6.46010074763524,42.0261914471958,909.0 -6.46102795363721,42.026407532384,911.0 -6.46067742292851,42.029587458906,913.0 -6.46300004763831,42.0298099142791,910.0 -6.46531563225126,42.0299027862293,908.0 -6.46797923408672,42.0307813774046,911.0 -6.47157272339526,42.0307216980597,916.0 -6.47313091862921,42.0311558806957,906.0628 -6.47384555987877,42.032109573298,908.9326 -6.47453304415897,42.0322450251573,909.0 -6.47499941262355,42.0328032596826,912.0 -6.47484820370336,42.0335492490581,919.009699999995 -6.47407472100606,42.0347171838934,920.0 -6.47428510734391,42.035699207247,923.956600000005 -6.47461066039615,42.0368728410874,919.819000000003 -6.47554272808045,42.0370138251423,916.390599999999 -6.47641109263467,42.037585805807,915.421100000007 -6.47697200968123,42.0385961603885,924.912800000006 -6.47777415851753,42.0392351971032,931.0 -6.47960593926453,42.0398819444293,934.0 -6.48020423970167,42.0399810189155,933.0 -6.48192085283595,42.0417102054895,934.0 -6.48274026819037,42.0420236887453,936.1155 -6.48389579719147,42.0427428560214,944.880300000004 -6.48375850137839,42.0440604910026,947.5815 -6.48421430924849,42.0444237626008,946.401299999998 -6.48680046193341,42.044826429524,941.491999999998 -6.48735769049741,42.0454468575001,942.858200000002 -6.48847751326262,42.0464662649244,942.868199999997 -6.48894874340953,42.0474273338313,945.798699999999 -6.48930413669885,42.0475468598805,948.693599999999 -6.4897658114661,42.0480138997346,953.378800000006 -6.49060701994927,42.0484046640494,955.626600000003 -6.49058187340952,42.0501737485501,962.0 -6.49086752868674,42.0502952859254,962.0 -6.49092502894975,42.0513467114927,968.381899999993 -6.49616874768973,42.0524871538732,977.064299999998 -6.49863855956222,42.0541189421511,982.992100000003 -6.50119453693843,42.0561864229694,974.0 -6.50353962581858,42.0575127752764,961.0 -6.50596484532035,42.057516965878,954.244300000006 -6.50682700790585,42.0573347434848,956.013800000001 -6.50701828258606,42.0576411857754,961.099600000001 -6.50684209511107,42.0582448504385,967.5389 -6.50807071463695,42.0590136385944,972.0 -6.50983560862449,42.060013096636,976.0 -6.51209419603097,42.0607892610862,977.299199999994 -6.51320513355969,42.0610024968622,978.0 -6.51437977332014,42.0614217593819,977.036999999997 -6.51546774452033,42.0612195881445,979.0 -6.51631364580254,42.0604268273855,982.0 -6.51756472860043,42.0603366384789,982.939799999993 -6.51829127252749,42.0602236498933,982.936900000001 -6.5194923991141,42.0601740290781,983.3554 -6.52024844641007,42.0602809825618,981.285499999998 -6.52038658035128,42.0596268589785,979.0 -6.52174260434066,42.0589093674901,977.0 -6.52282873129954,42.0593053290597,981.9326 -6.52463318799053,42.0600690875957,983.630000000005 -6.52667602521858,42.060097586269,988.866800000003 -6.52910728050075,42.0598930678214,989.0 -6.53292305792639,42.0598017049907,984.378800000006 -6.53392452765287,42.0599270982514,984.958499999993 -6.53728432922345,42.0607337729679,974.251199999999 -6.53764441621014,42.060306798686,980.0 -6.5392331218244,42.0600109177156,988.0 -6.54022084553043,42.0595775731743,990.0 -6.54199110335855,42.0584699880727,999.189400000003 -6.54352013029521,42.0580458638681,1004.94560000001 -6.54480541105764,42.057317141305,1012.0 -6.54567830222261,42.0573297144816,1012.3953 -6.54684942238377,42.0576835979266,1011.05160000001 -6.54773186892839,42.05755250561,1007.1011 -6.54892846980262,42.0577367396338,1007.6695 -6.54946625253566,42.0573692768518,1003.87790000001 -6.55033126457725,42.056926712617,998.985199999996 -6.55251407998782,42.0563393085742,988.226299999995 -6.55337255409077,42.0560918745995,984.533100000001 -6.55434116703745,42.0565691405316,982.0 -6.55688390144976,42.0558662342934,989.601599999995 -6.55823640494151,42.0557203890002,986.0 -6.56164046381119,42.0560699139639,992.268899999995 -6.56273011126766,42.0553079989346,989.810299999997 -6.56459139628186,42.0548992973809,989.656099999993 -6.56672978730667,42.0550800113378,993.570600000006 -6.57035663734992,42.0556694266762,986.0 -6.57288461962866,42.0553307982495,983.475999999995 -6.57509660333648,42.0549879779162,982.960999999996 -6.57926827710798,42.0547150631297,976.0 -6.58046906772468,42.0524933558939,966.438999999998 -6.58233119176533,42.0533456283853,964.633400000006 -6.58471165180979,42.0528681948189,958.732000000004 -6.58618871120726,42.0540052841621,945.291899999997 -6.5870676372543,42.0544330958861,937.900399999999 -6.58687502138939,42.0556615481424,930.574200000003 -6.58620916315135,42.056540809689,930.514200000005 -6.58693050942617,42.0569605752235,924.771900000007 -6.58808570335569,42.0570286365402,938.288199999995 -6.5893317573846,42.0574708652433,942.4997 -6.59301091003865,42.060216274135,955.0 -6.59362915936326,42.0600099119574,953.0 -6.59485576666294,42.0604137519461,951.0 -6.59585019539424,42.0597976819445,945.924499999994 -6.59711385101284,42.0602394084956,946.723700000002 -6.59818572889469,42.0603750271542,947.0 -6.59904521000906,42.0607641154333,950.0 -6.5998567453418,42.0612329988866,952.0 -6.6017106551875,42.0610060169608,954.0 -6.6031059068087,42.0606893486912,956.3747 -6.60435112181112,42.0595713705114,956.977299999999 -6.60699561198894,42.0579021985715,965.185800000007 -6.60864165077956,42.0573955957256,964.094400000002 -6.60929108062768,42.0565433242219,959.255699999994 -6.60999063377372,42.0565733311955,955.7641 -6.61090895543753,42.057077754243,952.0 -6.61277577317556,42.0567721502985,937.0 -6.6169466079206,42.0574078333979,923.623600000006 -6.61961356137037,42.0576748812577,915.674299999999 -6.62290479992518,42.0566480981151,899.892800000001 -6.62384759618891,42.05635640745,900.846000000005 -6.62410626158341,42.0552047342501,905.473299999998 -6.62729809077225,42.0536607878021,913.180600000007 -6.6280558143245,42.0536889505077,911.212799999994 -6.63126390391831,42.0551866292296,896.221300000005 -6.63305176423442,42.0553696901989,899.786600000007</coordinates>
</LineString>
</Placemark>
</Folder>
</Document></kml>
