<?xml version="1.0" encoding="UTF-8"?>

<kml xmlns:xsd="http://www.w3.org/2001/XMLSchema" xmlns:gx="http://www.google.com/kml/ext/2.2" xmlns:atom="http://www.w3.org/2005/Atom" xmlns="http://www.opengis.net/kml/2.2">
<Document>
<name>FR01c_38a_bergouey_viellenave-saint_palais</name>
<visibility>1</visibility>
<Schema name="FR01c_38a_bergouey_viellenave-saint_palais" id="kml_schema_ft_FR01c_38a_bergouey_viellenave-saint_palais">
<SimpleField type="xsd:string" name="id">
<displayName>id</displayName>
</SimpleField>
<SimpleField type="xsd:string" name="nombre">
<displayName>nombre</displayName>
</SimpleField>
<SimpleField type="xsd:double" name="longitud">
<displayName>longitud</displayName>
</SimpleField>
<SimpleField type="xsd:string" name="_formato">
<displayName>_formato</displayName>
</SimpleField>
</Schema>
<Folder id="kml_ft_FR01c_38a_bergouey_viellenave-saint_palais">
<name>FR01c_38a_bergouey_viellenave-saint_palais</name>
<Placemark id="kml_1">
<name>&lt;img height='20' src='https://nco.ign.es/iconos/icono_todos_caminos_azul.png' /&gt;&lt;img height='20' src='https://nco.ign.es/iconos/Camino Santiago_20.png' /&gt;&lt;img height='20' src='https://nco.ign.es/iconos/icono_todos_caminos_azul.png' /&gt;  Camino de Santiago </name>
<visibility>1</visibility>
<description><![CDATA[<!DOCTYPE html>
<html>
<head>
<style>
#nco {
  border-collapse: collapse;
  overflow:hidden;
}
#nco th, #nco td {
  padding: 4px;
  text-align: left;
}
#nco th {
  color: #364B5F;
  padding-right: 5px;
}
#nco td {
  color: rgb(51, 51, 51);
  font-size: 12px;
  padding-right: 5px;
}
</style>
</head>
<body>
<table id="nco">
<tr>
<td>Voie Turonensis - Paris</td>
</tr>
<tr>
<th><b>Camino: </b></th>
<td>FR01c Voie Turonensis París</td>
</tr>
<tr>
<th><b>Etapa: </b></th>
<td>38a Bergouey Viellenave-Saint Palais</td>
</tr>
<tr>
<th><b>Longitud: </b></th>
<td>13.76 km</td>
</tr>
</table>
</body>
</html>]]></description>
<Style>
<IconStyle>
<scale>0.8</scale>
</IconStyle>
<LabelStyle>
<color>ffffffff</color>
<scale>0.75</scale>
</LabelStyle>
<LineStyle>
<color>ffff0000</color>
<width>3.0</width>
<gx:labelVisibility>1</gx:labelVisibility>
</LineStyle>
<PolyStyle>
<color>66ff0000</color>
</PolyStyle>
</Style>
<ExtendedData>
<SchemaData schemaUrl="#kml_schema_ft_FR01c_38a_bergouey_viellenave-saint_palais">
<SimpleData name="id">FR01c_38a</SimpleData>
<SimpleData name="_formato">kml</SimpleData>
</SchemaData>
</ExtendedData>
<LineString>
<extrude>0</extrude>
<tessellate>1</tessellate>
<coordinates>-1.05626095090893,43.4212910011619,68.9809999999998 -1.05750801015263,43.4210972112948,67.6931999999942 -1.05761395745727,43.420386425868,64.5063999999984 -1.05778997784559,43.4200950709655,62.8040000000037 -1.0585869290297,43.4197809176664,56.6447999999946 -1.05930441973531,43.4193247743559,49.9052999999985 -1.05944842057366,43.4188877416431,46.6784999999945 -1.05952302026813,43.4188290684423,47.2777999999962 -1.06001805487175,43.4188739956425,42.6288000000059 -1.06052029845552,43.418743070165,40.8926000000065 -1.06112631003103,43.4186322614004,35.5139000000054 -1.06123644887476,43.4184322695455,32.7508999999991 -1.06092715622749,43.4178752082555,33.4327000000048 -1.06077024749681,43.4171796778365,28.5310999999929 -1.06041435115091,43.416742645301,28.1203999999998 -1.06037193899142,43.4165825510879,26.8886000000057 -1.06087300937541,43.4159939736517,21.8662999999942 -1.06130836530146,43.4152744712204,23.2290999999968 -1.06155294960385,43.4150570443973,24.3766000000032 -1.06170197921119,43.4150779991187,24.3267000000051 -1.06188470462482,43.4151145440885,23.9940000000061 -1.06191437687698,43.4149666877228,23.9677999999985 -1.06139319051878,43.4143511206024,28.5853000000061 -1.06124097458718,43.4133610504072,39.9440999999933 -1.06179401251035,43.412739950911,43.6447000000044 -1.06269791711218,43.4122519565688,44.8831000000064 -1.0633319246835,43.4113069812939,54.9150999999983 -1.06407606930193,43.4105329960987,62.0458999999973 -1.06401806688068,43.4094420075231,63.2602999999945 -1.06407523117377,43.409229442466,63.1057000000001 -1.06440581389329,43.4089431169565,60.8850999999995 -1.06438402076448,43.4088019653284,60.9640999999974 -1.06398403600277,43.4080360273911,70.1508000000031 -1.06400297967549,43.4077599272005,69.1113000000041 -1.06526194159673,43.4069400091399,65.2069000000047 -1.06631672004713,43.4065422043088,65.1824000000051 -1.06688451010391,43.4061328323149,67.2978000000003 -1.06785898994773,43.4058312512936,69.318299999999 -1.06817683186156,43.4056188536917,70.1091000000015 -1.06826148909392,43.4054525568033,70.4685000000027 -1.0675770231531,43.4046899715596,72.5335999999952 -1.06757802926621,43.4045389296402,73.233699999997 -1.06808781600341,43.4042366782464,77.9271000000008 -1.06816006840002,43.403681963846,81.3132000000041 -1.06815990041506,43.4018478356048,90.5810999999958 -1.06809636616828,43.4015553074114,92.2608999999939 -1.06682198107195,43.3999149684922,93.9459000000061 -1.06682097495883,43.3998036572944,93.9939000000013 -1.0667785627993,43.3995666168451,93.7339000000065 -1.06642199720854,43.3988940530649,92.3380000000034 -1.06621932200907,43.3986523187001,90.1585999999952 -1.06582302572991,43.3983200602235,91.8396999999968 -1.06538096477858,43.3975319937531,89.2951999999932 -1.0653739237834,43.3972750044008,87.6423000000068 -1.06612293008415,43.3954920059943,93.263300000006 -1.06674604109108,43.3948289976172,90.864499999996 -1.06781724882974,43.3941934819364,82.3546999999962 -1.06828294715112,43.3936127831324,75.2893999999942 -1.06924401604604,43.3930550516304,63.968200000003 -1.06951592530274,43.3926860799557,55.6875 -1.06955297272341,43.3922689964324,52.962400000004 -1.06937594712023,43.3918200621557,52.9216000000015 -1.0687964223709,43.3912437221189,57.6012000000046 -1.06848947702147,43.3904593439609,54.4176000000007 -1.06728801536324,43.3899785578736,57.2660000000033 -1.06629794435936,43.3894340697156,54.4386999999988 -1.06566594901427,43.3877999335143,56.7624999999971 -1.06560291692573,43.3867969549657,58.0638000000035 -1.06345195308021,43.3842029235037,53.6368999999977 -1.06200205155039,43.3830839394604,52.3044999999984 -1.06145504850925,43.3822789414424,52.1367000000027 -1.06138480833887,43.3822013252368,52.1986000000034 -1.06055851997422,43.382230158583,51.9909000000043 -1.06092799435565,43.3814050440319,52.9367999999959 -1.06190297725601,43.3796200339343,47.3396999999968 -1.06147080675596,43.3795109021008,46.7718000000023 -1.06143007085279,43.3793890290866,46.1187000000064 -1.06116805204733,43.3789409324353,44.6520000000019 -1.06102807476314,43.3774570002598,48.2148000000016 -1.0612639409157,43.3770529928503,50.741399999999 -1.06123091615091,43.3767369950504,51.1882999999943 -1.06086496226711,43.3754599282359,55.4005999999936 -1.05929704366851,43.3719319847671,63.4245999999985 -1.05911901195225,43.3714250472869,67.8580999999976 -1.05910895351602,43.3707739411898,70.4026000000013 -1.05908464600276,43.3705504795205,70.0892000000022 -1.05876714005885,43.3703583662004,68.9511999999959 -1.0583706757947,43.3705360630106,68.0194999999949 -1.058324408066,43.3702862820821,68.7390000000014 -1.05855574850618,43.3700316397281,69.4541000000027 -1.05856228644482,43.3695895783654,70.0966999999946 -1.05851601781779,43.3690033478046,70.1619000000064 -1.05853579961867,43.3687054551166,70.9943999999959 -1.05841023849814,43.3678741381125,70.3209999999963 -1.05837721373334,43.3674897437096,72.3540999999968 -1.0582053848841,43.3671581561773,69.489499999996 -1.05762200456557,43.3663900383034,57.3277999999991 -1.0575509253687,43.3658175544539,55.1301999999996 -1.056845002269,43.3657270296484,47.088699999993 -1.05625508311349,43.3655060826228,45.2878999999957 -1.05526300168001,43.3646720833535,64.4162000000069 -1.05553306669543,43.3638900520899,83.8717999999935 -1.05644200006621,43.3623819794988,72.6508000000031 -1.05859296391176,43.3614599702057,77.0724999999948 -1.06030203389262,43.3611870559389,69.3255000000063 -1.06111105573919,43.3602880124638,82.347299999994 -1.06147365621206,43.3599656449087,89.6830999999947 -1.06194857484151,43.3598275109332,89.181700000001 -1.06233799811045,43.3594610540411,89.8203999999969 -1.06295658250667,43.3592672642786,71.8294000000024 -1.0634420626289,43.3589296412438,67.1432999999961 -1.06417044989895,43.3589718860265,64.8337999999931 -1.06442894820678,43.3588721417887,65.5299999999988 -1.06460848819443,43.3585229514104,67.0274999999965 -1.06497259783696,43.3582582509173,70.1965000000055 -1.06527669373029,43.3577576836116,70.7048000000068 -1.06553384995513,43.3575900457582,68.3481999999931 -1.06486145377844,43.3567944354854,73.8711999999941 -1.06420397772031,43.3556259983541,81.479600000006 -1.06323905325618,43.353381995227,96.8417000000045 -1.06051392850183,43.3480599892875,114.593500000003 -1.06035970124229,43.3477500267697,116.238100000002 -1.06039255892046,43.3471124994005,116.232300000003 -1.06046196096265,43.3470759539207,115.462700000004 -1.06077393508106,43.3467130175621,115.565600000002 -1.06131540629665,43.3462689447067,120.168000000005 -1.0616647638056,43.345803916717,127.058999999994 -1.06186911436306,43.3452143336194,125.215700000001 -1.06188889616394,43.3449699170868,124.755799999999 -1.06196802067248,43.3445337225742,123.940900000001 -1.06188219024034,43.3442700278891,123.889599999995 -1.06172293421182,43.343481961748,122.736799999999 -1.0611249688463,43.3425549228848,123.769799999995 -1.06101885445507,43.3423668335209,124.333700000003 -1.06119403581694,43.3418699537854,124.278099999996 -1.0611450857188,43.3417583073448,124.507100000003 -1.05890192058913,43.340569920633,132.746499999994 -1.05885397660407,43.3401910588345,135.762100000007 -1.058647948892,43.3400849437348,135.887199999997 -1.05718530745481,43.3394410461119,127.556700000001 -1.05665842038784,43.3392435683017,124.845300000001 -1.0564589315127,43.3390360328413,123.106899999999 -1.05418039521872,43.3380040526572,113.7405 -1.0498747790451,43.3363813164841,94.1233999999968 -1.04817107290478,43.3351089434599,90.0908999999956 -1.04728007709361,43.3343419991361,84.0467000000062 -1.0464160702668,43.3338060604438,85.8521000000037 -1.04362104131202,43.3326540513609,74.4446999999927 -1.04196293275724,43.3325950430978,60.7513999999937 -1.04114905012667,43.3323980683734,58.3310000000056 -1.04085668892586,43.3321925436224,60.1068999999989 -1.0405730458749,43.33217091858,58.0246999999945 -1.03982470971735,43.3315184711909,54.557799999995 -1.03922003842827,43.3311216716792,53.1132000000071 -1.0385910605242,43.3308519424028,51.4682999999932 -1.03835234401725,43.3306722343935,48.9704999999958 -1.03799745468276,43.3305669573591,48.0280999999959 -1.03711668439445,43.3303756825722,46.6367000000027 -1.03620305642801,43.3302274907396,43.2397999999957 -1.0357822846506,43.3301414921846,46.2531000000017 -1.03547349595823,43.3298306912884,47.6983999999939 -1.0348555817052,43.3289509268849,51.9517999999953 -1.03341003880113,43.32783797772,50.8003000000026 -1.03379292413142,43.3274990133992,51.1297999999952 -1.03342093536552,43.3272770606756,50.6417999999976</coordinates>
</LineString>
</Placemark>
</Folder>
</Document></kml>
