<?xml version="1.0" encoding="UTF-8"?>

<kml xmlns:xsd="http://www.w3.org/2001/XMLSchema" xmlns:gx="http://www.google.com/kml/ext/2.2" xmlns:atom="http://www.w3.org/2005/Atom" xmlns="http://www.opengis.net/kml/2.2">
<Document>
<name>FR01c_23a_saint_jean_dangely-saintes</name>
<visibility>1</visibility>
<Schema name="FR01c_23a_saint_jean_dangely-saintes" id="kml_schema_ft_FR01c_23a_saint_jean_dangely-saintes">
<SimpleField type="xsd:string" name="id">
<displayName>id</displayName>
</SimpleField>
<SimpleField type="xsd:string" name="nombre">
<displayName>nombre</displayName>
</SimpleField>
<SimpleField type="xsd:double" name="longitud">
<displayName>longitud</displayName>
</SimpleField>
<SimpleField type="xsd:string" name="_formato">
<displayName>_formato</displayName>
</SimpleField>
</Schema>
<Folder id="kml_ft_FR01c_23a_saint_jean_dangely-saintes">
<name>FR01c_23a_saint_jean_dangely-saintes</name>
<Placemark id="kml_1">
<name>&lt;img height='20' src='https://nco.ign.es/iconos/icono_todos_caminos_azul.png' /&gt;&lt;img height='20' src='https://nco.ign.es/iconos/Camino Santiago_20.png' /&gt;&lt;img height='20' src='https://nco.ign.es/iconos/icono_todos_caminos_azul.png' /&gt;  Camino de Santiago </name>
<visibility>1</visibility>
<description><![CDATA[<!DOCTYPE html>
<html>
<head>
<style>
#nco {
  border-collapse: collapse;
  overflow:hidden;
}
#nco th, #nco td {
  padding: 4px;
  text-align: left;
}
#nco th {
  color: #364B5F;
  padding-right: 5px;
}
#nco td {
  color: rgb(51, 51, 51);
  font-size: 12px;
  padding-right: 5px;
}
</style>
</head>
<body>
<table id="nco">
<tr>
<td>Voie Turonensis - Paris</td>
</tr>
<tr>
<th><b>Camino: </b></th>
<td>FR01c Voie Turonensis París</td>
</tr>
<tr>
<th><b>Etapa: </b></th>
<td>23a Saint Jean d'Angely-Saintes</td>
</tr>
<tr>
<th><b>Longitud: </b></th>
<td>33.65 km</td>
</tr>
</table>
</body>
</html>]]></description>
<Style>
<IconStyle>
<scale>0.8</scale>
</IconStyle>
<LabelStyle>
<color>ffffffff</color>
<scale>0.75</scale>
</LabelStyle>
<LineStyle>
<color>ffff0000</color>
<width>3.0</width>
<gx:labelVisibility>1</gx:labelVisibility>
</LineStyle>
<PolyStyle>
<color>66ff0000</color>
</PolyStyle>
</Style>
<ExtendedData>
<SchemaData schemaUrl="#kml_schema_ft_FR01c_23a_saint_jean_dangely-saintes">
<SimpleData name="id">FR01c_23a</SimpleData>
<SimpleData name="_formato">kml</SimpleData>
</SchemaData>
</ExtendedData>
<LineString>
<extrude>0</extrude>
<tessellate>1</tessellate>
<coordinates>-0.523087922744246,45.9443529882256,24.0528000000049 -0.523462928951163,45.9441449495567,22.6263000000035 -0.523641295739042,45.944029949777,22.0950000000012 -0.523625705477282,45.9438943305355,22.2679999999964 -0.523844976153297,45.9435419554507,21.9302000000025 -0.525133945398274,45.9422799756504,14.9980999999971 -0.525272078441219,45.9421988393276,14.1523000000016 -0.523150954832783,45.9405400606825,14.771900000007 -0.524620972336775,45.9392140431716,12.6361999999936 -0.525588076113765,45.9378159421709,13.6472000000067 -0.528607908468416,45.9346274657598,14.8347000000067 -0.529073104631554,45.9344454106562,14.4489000000031 -0.529506951387918,45.9344930199353,13.9900999999954 -0.53026299958215,45.9346499295938,14.8341999999975 -0.530789047622635,45.9343079480361,16.1046999999962 -0.532920062580678,45.9336439331326,22.6303999999946 -0.53526096082,45.9325599856197,28.2973999999958 -0.536572057367049,45.9323589877586,33.4162999999971 -0.538209043834581,45.9309479779875,36.7596999999951 -0.538421943658613,45.9301560557417,33.8307999999961 -0.538683962464037,45.929941981854,34.3736000000063 -0.542536955295263,45.9293319471556,41.3317999999999 -0.54506594278875,45.9282600695784,46.2167999999947 -0.546034052678889,45.9281160683767,50.5160999999935 -0.551423951570116,45.9257000685567,62.7692999999999 -0.552241019626687,45.9254720805368,66.2786999999953 -0.552872009756961,45.9254990702052,67.4441999999981 -0.558867082095545,45.9222990274202,67.9565000000002 -0.55912792680293,45.9220490789112,67.1199999999953 -0.559086017699976,45.9215290658979,67.9955000000045 -0.559402015372522,45.9211119822548,67.0892000000022 -0.560063011928242,45.9191529636804,66.1235000000015 -0.560012049603873,45.9172529541983,68.5798000000068 -0.559832006559677,45.916347037921,66.5050999999949 -0.560036022045549,45.9148019178867,65.0887999999977 -0.560322012394352,45.9146409853044,65.0 -0.562635920750948,45.9144129974618,61.8197999999975 -0.566128995478739,45.9130710551975,69.0800000000017 -0.568552035667618,45.9127570689719,69.6328999999969 -0.569221079331671,45.9125440010793,69.0816999999952 -0.57007603383536,45.9115229176097,73.7773000000016 -0.569907054442183,45.9113839456332,74.5755000000063 -0.570285078090184,45.910359006247,79.1117999999988 -0.571188982691977,45.9088799359844,83.8554000000004 -0.571079011833237,45.9082690627488,83.1518999999971 -0.571181941696794,45.9077039548754,82.1953000000067 -0.571683012080818,45.9072719513482,80.8657999999996 -0.571839082683305,45.9066570549414,78.7706000000035 -0.573611017666071,45.9063140675728,78.2262999999948 -0.574362036193055,45.9063019973152,80.7412999999942 -0.57471893685544,45.9054869413154,79.0571000000054 -0.575530976143059,45.9042910113724,79.5742000000027 -0.575913023345193,45.9040829724401,79.7654999999941 -0.578489955722031,45.9035349637007,83.6888000000035 -0.579361002645691,45.9030840173971,82.292100000006 -0.579633918015541,45.9030779825427,81.5396000000037 -0.580171029707079,45.9033490533833,81.6555999999982 -0.581231005809722,45.9030459635464,81.6410999999935 -0.582295004568202,45.9029869551779,85.1873999999953 -0.58353301148881,45.9024000542902,88.9268000000011 -0.584086049412022,45.9014510552286,89.1201000000001 -0.584594998919389,45.9010690077765,90.8463000000047 -0.585555061701196,45.9008450432192,90.7265000000043 -0.585952029021854,45.9006150438865,90.770199999999 -0.586211029487964,45.9005890598458,91.0062999999936 -0.587004963231018,45.9011560117845,91.247000000003 -0.587162039946654,45.9009959173278,90.9600000000064 -0.587182994947279,45.9006500805939,90.9709000000003 -0.587513074610226,45.9002980402603,90.1478999999963 -0.588551927727286,45.9000489303744,86.7651000000042 -0.589440074082396,45.9002660215363,82.2495000000054 -0.589671079450961,45.8998839740567,80.8411999999953 -0.589516014063226,45.8990759587746,79.4400000000023 -0.589908957829752,45.8980550432865,81.9079000000056 -0.589871071382667,45.8976530468757,85.3448999999964 -0.59139406343726,45.8969580198898,84.7602000000043 -0.592202916400541,45.89716002314,81.436400000006 -0.593398008105079,45.8967479691399,72.1892999999982 -0.594151038858295,45.8966810817302,67.8794000000053 -0.59470005322734,45.8949689940712,68.4103000000032 -0.594624951374635,45.8946119247934,69.6119999999937 -0.594750009438594,45.8941019701079,71.2765999999974 -0.595349986132042,45.8930840717988,76.1845999999932 -0.59528192527452,45.8926130088003,75.0528999999951 -0.595481917206226,45.8923940732865,73.6554999999935 -0.596630070140528,45.8919310569014,69.8307000000059 -0.597839075850509,45.8906960673555,63.7428999999975 -0.598462018872484,45.8903369866613,62.2326999999932 -0.598003026474701,45.8900020456289,57.7593999999954 -0.597370025016493,45.8897569587739,54.3920999999973 -0.596698970024506,45.8896979500382,51.5528000000049 -0.595442019431206,45.8891299925973,38.8432999999932 -0.594084989328707,45.8892419748545,37.8845000000001 -0.593263059589845,45.8890069465374,44.1600000000035 -0.592343062568015,45.8893620034715,45.8871000000072 -0.591943077806306,45.8893640155867,47.1183000000019 -0.589879955720828,45.8889610133487,56.1281000000017 -0.589318033459455,45.8886470270566,56.7140999999974 -0.590390078427936,45.8876500834755,57.6432000000059 -0.592458062195739,45.8850449882231,67.9085999999952 -0.593046974339805,45.8838289419323,61.9321000000054 -0.596470982096991,45.878183059148,45.008799999996 -0.597440935330074,45.8762729914894,33.679999999993 -0.594005025793711,45.8745469898533,24.8570000000036 -0.592551938837881,45.8735760300972,31.0546000000031 -0.592499971298693,45.8732489681244,33.1291000000056 -0.592894926393154,45.871771070879,31.320000000007 -0.59212094153761,45.8706440400982,30.0718000000052 -0.590183045501047,45.8695999904712,34.3987000000052 -0.590045917672921,45.8693609384438,31.2773000000016 -0.590112973315624,45.8687319606535,23.102899999998 -0.588855016609209,45.8682600593827,21.693299999999 -0.588698946006689,45.867846999086,19.001099999994 -0.588112045190525,45.8674079549204,21.0341999999946 -0.588085055307798,45.8671849968154,21.8923000000068 -0.588311031907412,45.8667719366616,23.5685999999987 -0.588006936014076,45.8656660283124,31.2743999999948 -0.586380008881108,45.8656479234337,33.611699999994 -0.583199076256655,45.86505498743,31.0356999999931 -0.581617075667692,45.8640429562707,43.2596000000049 -0.581186916495579,45.8632200209859,44.5185000000056 -0.580534972262977,45.8624510653912,45.7301000000007 -0.57949494594614,45.8619620650736,48.3043000000034 -0.57811897217095,45.861655958027,53.8997999999992 -0.579407941415927,45.860961936361,48.329899999997 -0.579289924347152,45.8607009239637,48.1971999999951 -0.579639952897608,45.8598630686788,46.5176999999967 -0.579668954108235,45.8593209272143,47.2274999999936 -0.579961985452255,45.858939047909,46.4737000000023 -0.579718072191363,45.8580450341071,45.017399999997 -0.578394066853658,45.8567850666815,45.7347000000009 -0.577034019310142,45.8563240615069,46.0 -0.576699077964871,45.8562690764233,46.2492000000057 -0.576441921740069,45.8564370495956,46.7369999999937 -0.57494508144001,45.8553750628637,46.7891999999993 -0.575537011025126,45.8545890077186,47.2970000000059 -0.57549007225489,45.8541320261365,47.097099999999 -0.576836038706337,45.8530140479198,47.4664000000048 -0.57772703451754,45.8518479578882,52.319399999993 -0.577801969283585,45.8513829298541,56.0571000000054 -0.579582955691172,45.850566029828,61.559500000003 -0.578006989984242,45.8500959722499,63.7465999999986 -0.574680045193536,45.8476370573864,64.8659000000043 -0.5745229684779,45.8464189991927,62.1117999999988 -0.574721955194787,45.845631938269,60.9839000000065 -0.573357045968946,45.8451290244273,62.473800000007 -0.570781956935085,45.844554025787,64.3466999999946 -0.570050049167453,45.8440900037225,61.7063999999955 -0.568750016271423,45.8435979858576,62.9110999999975 -0.567710996067702,45.8428729511059,60.7802999999985 -0.566633921431939,45.8424649200873,59.6983999999939 -0.562824010903443,45.8421980403585,64.4309000000067 -0.561753977262896,45.8417789451776,59.4024999999965 -0.560935064965051,45.8419809488068,62.3068999999959 -0.561229940550312,45.840419065201,48.9340999999986 -0.561277046407175,45.8402430450255,46.7367999999988 -0.561539065212632,45.8399220182829,43.6177000000025 -0.561581980428702,45.8391510507581,37.6888999999937 -0.561943072630177,45.8378510178076,32.0777999999991 -0.561745930154564,45.8373040147851,36.8803000000044 -0.561732352119036,45.8368632943434,42.207699999999 -0.561686251476992,45.8366961589148,43.8656000000046 -0.561723298897621,45.8363960869466,47.4948000000004 -0.561618525691087,45.8361067438698,50.3687999999966 -0.561557169858868,45.8360016348562,50.9804000000004 -0.561241004201364,45.8355399592142,54.0534999999945 -0.561209488606227,45.8353309148699,55.1493000000046 -0.56133806716781,45.8351550626065,54.9630999999936 -0.562466941357804,45.8340959253974,55.5173000000068 -0.562959965531827,45.8338774928649,55.9811000000045 -0.563747529321196,45.8340317196133,55.0243999999948 -0.563871078215463,45.8339309691517,55.0316000000021 -0.565367918515522,45.8329890110142,52.8773999999976 -0.565857924350163,45.8323680796915,54.9253000000026 -0.567083023378445,45.8313759976344,59.320000000007 -0.567748043488331,45.830532945983,60.4814999999944 -0.567698925405237,45.8291380292319,62.3714999999938 -0.568062029832977,45.8281920476956,63.9523000000045 -0.568032860637392,45.827198121589,61.8456000000006 -0.568097568982246,45.8264777807925,58.7021999999997 -0.568198989676146,45.8262826504652,56.7382000000071 -0.56823100922612,45.8254920689579,52.6834999999992 -0.567928422502442,45.8252107726392,52.0963999999949 -0.567943844779244,45.8249450658982,51.5004000000044 -0.567577723808785,45.8245977203594,51.5090999999957 -0.567326936639337,45.8240039460172,52.3271999999997 -0.566868949456373,45.8236440268661,52.2125999999989 -0.567239933007454,45.8226070182619,48.8117999999959 -0.568685978968067,45.821080002663,45.1999999999971 -0.569019075173733,45.8201839773736,44.9667999999947 -0.56902896652334,45.8189379236167,49.8200999999972 -0.569438840838028,45.8167785779954,54.5627999999997 -0.569521989799032,45.8164912459815,56.3055000000022 -0.569564905015102,45.8164205029247,57.1293000000005 -0.56935804007317,45.8150869420488,62.5430999999953 -0.568706933070396,45.814006011659,66.8089000000036 -0.568650941977042,45.8136509548191,69.0482999999949 -0.568952020429361,45.8124729615472,67.8699999999953 -0.570235624935472,45.812548063748,62.7526999999973 -0.570868961465264,45.8116540500851,60.1741000000038 -0.571841429981154,45.8107831703209,59.2887000000046 -0.573301054875626,45.8097729831282,63.7687000000005 -0.576049983188328,45.8086759595564,66.3595999999961 -0.578031968539034,45.8075040021006,59.9003999999986 -0.578502025486199,45.807590000425,57.4119999999966 -0.579551942254279,45.8068909496021,51.1411999999982 -0.579929966800577,45.8064059726207,50.2373999999982 -0.579998027658066,45.8055069295738,51.7485000000015 -0.580154936388744,45.8051419819474,51.0620000000054 -0.581779014065653,45.8032530361808,53.364499999996 -0.582637992123475,45.8027330224145,50.2456999999995 -0.584227032809324,45.8021670765385,39.8935999999958 -0.586336925680081,45.8009109645303,45.7124999999942 -0.587600078242108,45.7988600805875,63.2826000000059 -0.587468985296082,45.7974909806065,63.1212999999989 -0.587894953827402,45.7969550417835,63.3840000000055 -0.588577073368705,45.7964610119968,63.9545000000071 -0.589098259726866,45.7961424998069,64.5966999999946 -0.589551050155955,45.7960100660827,64.9704000000056 -0.589662697271045,45.7959446871183,64.9600000000064 -0.589619949141602,45.7957767135724,65.4309999999969 -0.589622966582652,45.7953319696435,65.9915000000037 -0.590294189559563,45.7940409892269,65.6892999999982 -0.590257477210551,45.7938027755602,65.6248000000051 -0.589854810079376,45.7933581993979,66.1448999999993 -0.58967191757912,45.7930639944859,65.9334999999992 -0.589366648486008,45.7919243910717,61.9170000000013 -0.588698610935071,45.7914181237594,63.257500000007 -0.588232073587201,45.790909007474,63.9400000000023 -0.586105920311516,45.7894369775557,67.6258999999991 -0.585144348360018,45.7890016215938,69.1977999999945 -0.583897959259494,45.7886809294891,71.8703999999998 -0.583758987190093,45.7885129565999,72.3448999999964 -0.584463066946874,45.7872940597955,73.2587000000058 -0.586012042771044,45.785779952703,71.2103999999963 -0.588576067255589,45.7839139735151,70.2988000000041 -0.589768979647236,45.7816109620188,69.4910999999993 -0.590578000595508,45.7809749432506,67.5831999999937 -0.591563377902021,45.7805063947576,66.7927999999956 -0.591532867521703,45.7803850247356,66.6579000000056 -0.591432955099164,45.7800799235826,66.3986000000004 -0.592067297742105,45.7788999191536,65.911500000002 -0.5924810285243,45.7775869780699,61.4015000000072 -0.593024008011278,45.7771189324047,60.5593999999983 -0.593067929340464,45.7768019286433,60.2295000000013 -0.593573022380291,45.7761840147054,59.8141000000032 -0.592687558394647,45.775519665393,60.5458000000071 -0.592669285763455,45.775452107061,60.5197000000044 -0.592544898740995,45.7754732293084,60.3424999999988 -0.592299979366988,45.7753280550491,59.6282000000065 -0.591556001835221,45.7743619571677,46.1505999999936 -0.591285936819761,45.7743114975863,43.6046999999962 -0.591216031720998,45.774281826073,43.184500000003 -0.591216198807625,45.774222649665,42.3793000000005 -0.591307226892004,45.7741126788475,42.3347000000067 -0.591392219195985,45.7738268560882,40.7945999999938 -0.591334551846314,45.7736047359689,40.7706000000035 -0.591243523761935,45.7734523525164,40.8513999999996 -0.591325331538239,45.773314889255,41.164300000004 -0.592335686501214,45.7730206844432,38.6116000000038 -0.592420510820238,45.7729043439646,38.2744999999995 -0.592399388732952,45.7728260566786,38.047900000005 -0.592232420667743,45.7725720852843,38.5841999999975 -0.591979958140275,45.7724039441799,38.6428000000014 -0.592101998763216,45.772093813599,37.690300000002 -0.592079032434656,45.7716200687064,36.9352000000072 -0.591464806664181,45.7705572434646,47.329700000002 -0.591304041465996,45.7703245620129,51.3108000000066 -0.590845886298042,45.7700409179899,53.5859000000055 -0.590789057076563,45.7699329591235,53.7140999999974 -0.590504072840876,45.7688619199039,58.4704000000056 -0.590627454648517,45.7687120513007,59.1190999999963 -0.591105054749109,45.7685559799371,59.7163 -0.592532996063487,45.7683080435995,58.2890000000043 -0.593941993705174,45.7677260038807,56.4835000000021 -0.595508068960794,45.7673630678642,55.672900000005 -0.596679691280197,45.7672894744924,53.5194999999949 -0.597995985479518,45.7670090159368,50.4366000000009 -0.599524006303062,45.7669919173046,48.3110000000015 -0.599885936632729,45.7667770052353,46.7526000000071 -0.600028932256262,45.7664859856671,43.8479999999981 -0.599547978744738,45.7659160157789,37.7099000000017 -0.599689968255156,45.7655420155623,38.2477000000072 -0.602512490149237,45.7639571654544,55.8589999999967 -0.604558009746724,45.7647130449603,57.0305999999982 -0.607555377931059,45.7651051507365,52.2510000000038 -0.607980508334219,45.7654385825178,51.7559999999939 -0.608387701177772,45.7658462788305,52.3141000000032 -0.608665142259998,45.7659451847776,52.7360000000044 -0.609125643827471,45.7659740185,52.9668999999994 -0.609869454272611,45.7659409943239,52.3585000000021 -0.610264912423613,45.765834040828,52.0020999999979 -0.610430203334208,45.7656033706798,51.4937999999966 -0.61134198705941,45.7648469881155,49.3430999999982 -0.611714981938392,45.7642830532857,44.9527999999991 -0.613104365764153,45.7631696016553,38.2354999999952 -0.613868963224995,45.7621619291474,22.0985999999975 -0.614326279366461,45.7621111345245,23.5380000000005 -0.615441910592544,45.7623376139742,17.9627999999939 -0.616149008688639,45.7622799465158,13.2722000000067 -0.616551842906441,45.7623047568538,11.5648999999976 -0.61691494643585,45.7622239554163,9.54219999999623 -0.617384165254857,45.7620658723661,8.95750000000407 -0.617352984731338,45.7619850712093,8.88430000000517 -0.61747267805643,45.7612875289608,9.52030000000377 -0.616699364242418,45.7589853553624,15.9946000000054 -0.616811513515719,45.7588534243728,15.1000000000058 -0.617608465598153,45.7587134463831,11.7875000000058 -0.618003923749155,45.7585116100684,11.2348999999958 -0.618192851131511,45.7583015595625,10.6781000000046 -0.618139710392548,45.7575314304932,9.79880000000412 -0.617937036091409,45.756673961763,10.1027000000031 -0.617884062439105,45.7558840513174,9.33269999999902 -0.618088077924978,45.7546599584495,8.13940000000002 -0.620390418675649,45.751625877171,6.04799999999523 -0.620492342426123,45.7513467596213,6.107600000003 -0.620488486856914,45.7512388003056,6.09170000000449 -0.620597954659113,45.7510887646353,6.05049999999756 -0.620857123110147,45.7504683361947,6.08809999999357 -0.621043369021401,45.7502245900859,5.84759999999369 -0.621424075038802,45.7491860724528,6.80569999999716 -0.621369425130181,45.748603697836,6.62440000000061 -0.621430948049027,45.7485180347495,6.40519999999378 -0.621529016230293,45.7483319564154,6.06369999999879 -0.621695481238961,45.7481933198333,5.82450000000244 -0.6219283308488,45.747864413724,5.96279999999388 -0.622255057100781,45.7474780084721,6.98470000000088 -0.622912031000699,45.7466790449521,9.00310000000172 -0.627955924895637,45.7469209472465,8.06960000000254 -0.628055837318143,45.7468347813341,8.10580000000482 -0.628234036121065,45.7468201965427,8.10199999999895 -0.628346018307739,45.7468116472679,8.09960000000137 -0.628370828877574,45.7467682288674,8.06209999999555 -0.628557409860412,45.746771078628,7.93640000000596 -0.628616921451357,45.7467010055673,7.80650000000605 -0.628690011976128,45.7466756924345,7.71600000000035 -0.628822613193546,45.7466756924345,7.57429999999295 -0.62881842255272,45.7463228143829,7.21799999999348 -0.628981031093882,45.7461000236866,6.86419999999634 -0.629199798713355,45.7458946669444,6.41569999999774 -0.629154202026149,45.7454433853502,5.81570000000647 -0.629154202026149,45.7453189976649,5.75419999999576 -0.629141796292067,45.7449949530935,5.88999999999942 -0.629145986932893,45.7448127309517,6.0286000000051 -0.629121009276399,45.7447114774342,6.04929999999877 -0.629241373643023,45.7446999105892,5.92489999999816 -0.629413034507269,45.7447139919109,5.75269999999728 -0.630421880300587,45.7447875849703,5.80220000000554 -0.630473848738105,45.7447178473162,6.28729999999632 -0.632074624116505,45.7450100405022,11.4826999999932 -0.632571335874779,45.74499696479,12.3616000000038</coordinates>
</LineString>
</Placemark>
</Folder>
</Document></kml>
