<?xml version="1.0" encoding="UTF-8"?>

<kml xmlns:xsd="http://www.w3.org/2001/XMLSchema" xmlns:gx="http://www.google.com/kml/ext/2.2" xmlns:atom="http://www.w3.org/2005/Atom" xmlns="http://www.opengis.net/kml/2.2">
<Document>
<name>FR01c_34a_onesse_et_laharie-taller</name>
<visibility>1</visibility>
<Schema name="FR01c_34a_onesse_et_laharie-taller" id="kml_schema_ft_FR01c_34a_onesse_et_laharie-taller">
<SimpleField type="xsd:string" name="id">
<displayName>id</displayName>
</SimpleField>
<SimpleField type="xsd:string" name="nombre">
<displayName>nombre</displayName>
</SimpleField>
<SimpleField type="xsd:double" name="longitud">
<displayName>longitud</displayName>
</SimpleField>
<SimpleField type="xsd:string" name="_formato">
<displayName>_formato</displayName>
</SimpleField>
</Schema>
<Folder id="kml_ft_FR01c_34a_onesse_et_laharie-taller">
<name>FR01c_34a_onesse_et_laharie-taller</name>
<Placemark id="kml_1">
<name>&lt;img height='20' src='https://nco.ign.es/iconos/icono_todos_caminos_azul.png' /&gt;&lt;img height='20' src='https://nco.ign.es/iconos/Camino Santiago_20.png' /&gt;&lt;img height='20' src='https://nco.ign.es/iconos/icono_todos_caminos_azul.png' /&gt;  Camino de Santiago </name>
<visibility>1</visibility>
<description><![CDATA[<!DOCTYPE html>
<html>
<head>
<style>
#nco {
  border-collapse: collapse;
  overflow:hidden;
}
#nco th, #nco td {
  padding: 4px;
  text-align: left;
}
#nco th {
  color: #364B5F;
  padding-right: 5px;
}
#nco td {
  color: rgb(51, 51, 51);
  font-size: 12px;
  padding-right: 5px;
}
</style>
</head>
<body>
<table id="nco">
<tr>
<td>Voie Turonensis - Paris</td>
</tr>
<tr>
<th><b>Camino: </b></th>
<td>FR01c Voie Turonensis París</td>
</tr>
<tr>
<th><b>Etapa: </b></th>
<td>34a Onesse et Laharie-Taller</td>
</tr>
<tr>
<th><b>Longitud: </b></th>
<td>23.75 km</td>
</tr>
</table>
</body>
</html>]]></description>
<Style>
<IconStyle>
<scale>0.8</scale>
</IconStyle>
<LabelStyle>
<color>ffffffff</color>
<scale>0.75</scale>
</LabelStyle>
<LineStyle>
<color>ffff0000</color>
<width>3.0</width>
<gx:labelVisibility>1</gx:labelVisibility>
</LineStyle>
<PolyStyle>
<color>66ff0000</color>
</PolyStyle>
</Style>
<ExtendedData>
<SchemaData schemaUrl="#kml_schema_ft_FR01c_34a_onesse_et_laharie-taller">
<SimpleData name="id">FR01c_34a</SimpleData>
<SimpleData name="_formato">kml</SimpleData>
</SchemaData>
</ExtendedData>
<LineString>
<extrude>0</extrude>
<tessellate>1</tessellate>
<coordinates>-1.06860397359262,44.0639630333572,49.7963000000018 -1.06864403935263,44.063721969468,49.5035000000062 -1.06948977354821,44.0625915863713,45.8804999999993 -1.06943747003911,44.0623661131709,45.7660999999935 -1.06940997799814,44.0616559979851,43.5118999999977 -1.07003593846116,44.0604780053481,37.1833000000042 -1.07061395404083,44.059171937639,47.1465000000026 -1.07134502368031,44.0566640720276,45.6119999999937 -1.07168599990765,44.0556156633296,45.2265999999945 -1.07177602098058,44.0546980130463,39.6254000000044 -1.07251614294317,44.0537035837749,37.1570000000065 -1.07256844645227,44.0534075352669,38.976800000004 -1.07232000658067,44.0529659763442,45.8730000000069 -1.07174601365684,44.0521410292184,48.2743999999948 -1.07174299621579,44.0496930109717,62.8718999999983 -1.0733119209275,44.0396080726031,65.0510999999969 -1.07352767110592,44.038839787303,64.8914999999979 -1.07373587813088,44.0374078230303,66.9766999999993 -1.07341803621706,44.0354290230221,69.7465999999986 -1.07316305840682,44.0324658529153,64.2434000000067 -1.07296105514721,44.0313339605855,67.5176000000065 -1.07173595611893,44.0212899257866,74.7351999999955 -1.07160905381367,44.0187830666669,77.3125 -1.07015697297099,44.013516046202,84.0225000000064 -1.07049392564416,44.0130699608981,85.1178999999975 -1.07393603804755,44.0118549205516,61.537599999996 -1.07395900437611,44.0116289447409,61.1830999999947 -1.07277095276845,44.0106640199179,64.0335999999952 -1.0726879726907,44.010398984006,66.0022000000026 -1.07289601083241,44.010192956922,71.9352999999974 -1.07390301328275,44.0098870171373,75.6693999999989 -1.07410401132757,44.0097049626755,75.7655999999988 -1.07524294395384,44.0081390554381,72.4615999999951 -1.07593495394641,44.0068980305583,72.8748999999953 -1.07614198687334,44.0061639433054,76.1088000000018 -1.07620099540771,44.0038740076348,78.8613000000041 -1.07720196207765,44.0010239925779,77.0669000000053 -1.08075404533981,43.998685944761,76.4073000000062 -1.08444007100413,43.9937490036855,78.644100000005 -1.08502294826612,43.9933129775039,79.4697000000015 -1.08669295949842,43.9925019440121,76.019100000005 -1.0869169238718,43.9915650153761,76.7189000000071 -1.08700593972994,43.9894350059427,79.4651000000013 -1.08753198777043,43.9852519331784,82.2326999999932 -1.08899898783337,43.9803649484945,80.1661000000022 -1.09106194193389,43.9766909925466,81.5905000000057 -1.09162906184747,43.9731209725764,83.7063000000053 -1.09172495071585,43.970531969999,76.9431999999942 -1.09180692557878,43.9703641642607,76.7479000000021 -1.09252206988491,43.9700250329986,75.920299999998 -1.09360501141778,43.9695970524653,77.0371000000014 -1.09398555034855,43.9694369584429,74.5598999999929 -1.09435703605788,43.9689630453586,67.8769000000029 -1.09463363901198,43.9687343872839,63.9324000000051 -1.09485005933357,43.9676090331361,63.5515000000014 -1.09585974325505,43.9665592836694,67.8882000000012 -1.09609393404962,43.965978920641,72.4685000000027 -1.09617205334338,43.9655489285727,74.5314000000071 -1.09549999223827,43.9638470672507,79.561400000006 -1.09509799614863,43.9617539385136,81.2385000000068 -1.0948549210159,43.9612059291965,81.377999999997 -1.09241796682157,43.9592340031949,78.1319999999978 -1.08790498264945,43.9517419226409,88.6491999999998 -1.08404193048369,43.9445420353215,81.4805999999953 -1.08366893560467,43.944043982882,81.2504999999946 -1.08236605325255,43.9430559241388,81.2682999999961 -1.08196003360874,43.9425469745737,81.5589000000036 -1.08195198739877,43.9419749940013,82.1505999999936 -1.08282404043555,43.9410179483594,86.9489999999932 -1.08293300518121,43.9407349750551,86.6008000000002 -1.08283996576889,43.9399180744524,84.4548000000068 -1.07917305086396,43.93412098312,85.0285000000003 -1.07918897619731,43.9335210063548,86.054999999993 -1.08009003134304,43.9305469394932,82.7118000000046 -1.07845405098866,43.9275519176009,78.1024999999936 -1.0780099778111,43.9260599391986,78.142399999997 -1.07756406039227,43.9239520577349,79.7943999999989 -1.07748795332478,43.9210200684623,80.7437000000064 -1.07555206861612,43.9137980529302,79.4184999999998 -1.07475293811916,43.9125769772887,83.9281999999948 -1.07273004977862,43.9075810276328,81.757500000007 -1.07266601157696,43.9074819535802,81.8873000000021 -1.07158793172641,43.9077069240123,81.0561000000016 -1.07069995245793,43.90771698212,81.4838000000018 -1.06910102042248,43.9070590025168,81.4900000000052 -1.06660505769375,43.9050309170608,80.4277000000002 -1.06604095522122,43.9042599496992,79.8709999999992 -1.06550602284257,43.9040220713113,80.0130999999965 -1.06496002501625,43.9035590552603,80.6604999999981 -1.0648770440402,43.9030070233503,81.2338000000018 -1.06001704965697,43.9030930213721,81.0782999999938 -1.05939092120898,43.9012290538741,82.6601999999984 -1.05973893753321,43.8987949488216,88.388300000006 -1.06024201924513,43.8972250185344,87.5479999999952 -1.06083596105648,43.894520010765,91.0997000000061 -1.06137592310241,43.8934370688989,86.1110000000044 -1.06133904276841,43.8931569454675,85.7430000000022 -1.06249105217025,43.8896539804261,80.1402999999991 -1.06333695345246,43.8878510331386,80.3335999999981 -1.06565002368093,43.885483983687,91.6275000000023 -1.06665702523294,43.8836860658968,89.8723999999929 -1.06782697129606,43.8808120790061,86.4573999999993 -1.0678980495946,43.8800300469779,83.9271000000008 -1.06775505486936,43.8782500659702,84.1425000000017 -1.06789302082564,43.8777500015336,86.8231999999989 -1.06969194479281,43.87360900629,83.4131000000052 -1.0701050054318,43.8728410564846,83.2127000000037 -1.0705239329679,43.8727460056656,82.7793999999994 -1.0711780565134,43.8715100100182,78.915399999998</coordinates>
</LineString>
</Placemark>
</Folder>
</Document></kml>
