<?xml version="1.0" encoding="UTF-8"?>

<kml xmlns:xsd="http://www.w3.org/2001/XMLSchema" xmlns:gx="http://www.google.com/kml/ext/2.2" xmlns:atom="http://www.w3.org/2005/Atom" xmlns="http://www.opengis.net/kml/2.2">
<Document>
<name>FR01c_24a_saintes-pons</name>
<visibility>1</visibility>
<Schema name="FR01c_24a_saintes-pons" id="kml_schema_ft_FR01c_24a_saintes-pons">
<SimpleField type="xsd:string" name="id">
<displayName>id</displayName>
</SimpleField>
<SimpleField type="xsd:string" name="nombre">
<displayName>nombre</displayName>
</SimpleField>
<SimpleField type="xsd:double" name="longitud">
<displayName>longitud</displayName>
</SimpleField>
<SimpleField type="xsd:string" name="_formato">
<displayName>_formato</displayName>
</SimpleField>
</Schema>
<Folder id="kml_ft_FR01c_24a_saintes-pons">
<name>FR01c_24a_saintes-pons</name>
<Placemark id="kml_1">
<name>&lt;img height='20' src='https://nco.ign.es/iconos/icono_todos_caminos_azul.png' /&gt;&lt;img height='20' src='https://nco.ign.es/iconos/Camino Santiago_20.png' /&gt;&lt;img height='20' src='https://nco.ign.es/iconos/icono_todos_caminos_azul.png' /&gt;  Camino de Santiago </name>
<visibility>1</visibility>
<description><![CDATA[<!DOCTYPE html>
<html>
<head>
<style>
#nco {
  border-collapse: collapse;
  overflow:hidden;
}
#nco th, #nco td {
  padding: 4px;
  text-align: left;
}
#nco th {
  color: #364B5F;
  padding-right: 5px;
}
#nco td {
  color: rgb(51, 51, 51);
  font-size: 12px;
  padding-right: 5px;
}
</style>
</head>
<body>
<table id="nco">
<tr>
<td>Voie Turonensis - Paris</td>
</tr>
<tr>
<th><b>Camino: </b></th>
<td>FR01c Voie Turonensis París</td>
</tr>
<tr>
<th><b>Etapa: </b></th>
<td>24a Saintes-Pons</td>
</tr>
<tr>
<th><b>Longitud: </b></th>
<td>23.54 km</td>
</tr>
</table>
</body>
</html>]]></description>
<Style>
<IconStyle>
<scale>0.8</scale>
</IconStyle>
<LabelStyle>
<color>ffffffff</color>
<scale>0.75</scale>
</LabelStyle>
<LineStyle>
<color>ffff0000</color>
<width>3.0</width>
<gx:labelVisibility>1</gx:labelVisibility>
</LineStyle>
<PolyStyle>
<color>66ff0000</color>
</PolyStyle>
</Style>
<ExtendedData>
<SchemaData schemaUrl="#kml_schema_ft_FR01c_24a_saintes-pons">
<SimpleData name="id">FR01c_24a</SimpleData>
<SimpleData name="_formato">kml</SimpleData>
</SchemaData>
</ExtendedData>
<LineString>
<extrude>0</extrude>
<tessellate>1</tessellate>
<coordinates>-0.632575024357328,45.7449942829459,12.3701000000001 -0.632612071777957,45.744991767855,12.4940000000061 -0.632704608133696,45.7447124829742,11.5929999999935 -0.633390248172625,45.7448521255892,11.7553000000044 -0.633853432109531,45.744774509206,11.278999999995 -0.634157192032952,45.7448546400596,11.4826999999932 -0.634501855844542,45.7448477667975,12.648199999996 -0.634797736644621,45.7445854136772,12.4493999999977 -0.635024216300776,45.7446450923248,13.5629000000044 -0.635160170929126,45.7447919437667,15.550900000002 -0.635205432544714,45.7449909297002,18.3120999999956 -0.635317414731422,45.7450653611751,20.2945000000036 -0.635823849854312,45.7449946177063,24.9426999999996 -0.636032055980977,45.745021943297,28.883600000001 -0.635946560620421,45.7454770805166,29.3101000000024 -0.636271945687703,45.7455069196853,31.7023000000045 -0.637601315764274,45.7456946743219,34.3203999999969 -0.6381043974762,45.7450447420911,32.8699000000051 -0.638661458953578,45.7452130502897,31.8362999999954 -0.639006625821709,45.7446762734948,26.1033000000025 -0.639113076182857,45.7446680592809,25.2630999999965 -0.63917292284542,45.7446762734948,24.9640999999974 -0.639642644720968,45.7440612090211,18.320000000007 -0.639861077268824,45.7441079803184,18.8044999999984 -0.641081314614781,45.7444209602659,16.1502000000037 -0.641347356076074,45.7440612090211,20.7939999999944 -0.641397312287327,45.7436955907467,24.6901999999973 -0.640756934762318,45.7435331495981,23.3016999999963 -0.640099960862434,45.7431792655481,21.3206000000064 -0.63924299592914,45.7428679612817,15.5616000000009 -0.638432800882829,45.7426626051883,11.7829999999958 -0.638270694499911,45.742694623774,11.1288000000059 -0.637476593670231,45.742340572036,7.51529999999912 -0.636607055017931,45.7419419285626,5.26510000000417 -0.63716897727927,45.7412879728668,5.02680000000692 -0.637708939325198,45.7399319484015,6.26579999999376 -0.638628937245326,45.7382170111968,5.98780000000261 -0.639775078851727,45.7351309617192,5.05869999999413 -0.639583971258181,45.7325429658715,4.33440000000701 -0.638684760353722,45.7278088665813,11.5296999999991 -0.638287961916318,45.7277139835224,12.4250999999931 -0.637547000927238,45.727725047828,5.58359999999811 -0.63714902839176,45.727454982578,6.39329999999609 -0.634513422552135,45.7245533351511,10.3965999999928 -0.634118970514249,45.7240559534254,14.4685000000027 -0.634727161402623,45.7233190164825,21.1803000000073 -0.634727161402623,45.7230973989316,21.7072999999946 -0.634584668835631,45.7228080555704,22.2243000000017 -0.633769948076909,45.7222119346623,19.8672999999981 -0.633597113114556,45.7215841298094,18.147100000002 -0.631395019857975,45.7201600448609,9.81230000000505 -0.630689933988111,45.7193079401866,7.02139999999781 -0.629043560125878,45.7187837359299,8.06710000000021 -0.629062838870186,45.718549210403,9.54349999999977 -0.629319660023405,45.7183326221955,9.22030000000086 -0.62955502401772,45.718024167995,9.47509999999602 -0.630383994751799,45.7173450661414,8.68679999999586 -0.630886070350608,45.7166639527254,9.57610000000568 -0.631643961887851,45.7148859838526,11.6870999999956 -0.632020980321,45.7144249791411,11.084600000002 -0.632153078481844,45.7138280198643,12.0111999999936 -0.632374026312506,45.7137460449275,11.6897000000026 -0.627043974083808,45.7063530384555,17.0856000000058 -0.626833922817539,45.7060849852479,16.9055999999982 -0.626801904165894,45.7060090451579,16.7642000000051 -0.62684716667978,45.7058653795727,16.526199999993 -0.628405362812058,45.7053485515412,16.3130999999994 -0.628880951584716,45.7050989379406,15.7307000000001 -0.629153698969608,45.7049093398154,15.6260000000038 -0.628948174314046,45.7045762427866,15.3534000000072 -0.627638082981783,45.7028019615884,9.91400000000431 -0.622209962571853,45.696952063423,11.6736999999994 -0.621148813269433,45.6930668837329,8.89489999999932 -0.620983019302297,45.6927929632791,9.00770000000193 -0.620013066069214,45.6917110270254,8.98970000000554 -0.618791989696768,45.6899729558959,7.21709999999439 -0.617279727119907,45.688690189139,8.48960000000079 -0.619417950159793,45.6856160427042,10.5001000000047 -0.620692167271169,45.6844766063766,11.0883000000031 -0.62173102038823,45.6837480516105,12.2363999999943 -0.620785038698492,45.6796270047199,20.5051999999996 -0.619985070073371,45.6784359367254,28.9094000000041 -0.61870297383862,45.6760090405026,50.2632000000012 -0.617950950096851,45.6750989333241,55.4992000000057 -0.616690982062502,45.6741499343001,55.6983000000037 -0.615973994413428,45.6733680704558,52.7544000000053 -0.615623965862972,45.6722259523108,52.2551999999996 -0.615011919405389,45.6715019232985,54.2176000000036 -0.612955000186935,45.6698429768463,55.8518999999942 -0.612444039351634,45.6690929641991,56.085500000001 -0.612345971170403,45.6684879583626,54.4775999999983 -0.612502041772889,45.6682589651368,53.8267999999953 -0.612783003352741,45.6662219951305,49.9275999999954 -0.612798258542883,45.6659386866198,52.0316000000021 -0.612194929336834,45.6646289304936,50.7930000000051 -0.612432304659084,45.6642980130699,54.5436999999947 -0.612185709028759,45.6641860308135,52.4342999999935 -0.611766278436082,45.6634819505782,54.519100000005 -0.610318053162577,45.6625810638462,56.1140000000014 -0.608794055893165,45.6610659510978,55.9017000000022 -0.608203969651027,45.65938806131,53.7599000000046 -0.607665013718214,45.658579040295,53.199099999998 -0.607331916614251,45.6573879720088,51.8390000000072 -0.607325881732151,45.6567521205378,51.7321999999986 -0.606733784162077,45.6562089734014,52.0342999999993 -0.606331956057391,45.6556180495137,52.7151000000013 -0.605619997177302,45.6536910494595,53.6652000000031 -0.60378704233223,45.6517789700953,53.4168000000063 -0.602323058812009,45.6508090160197,52.4385000000038 -0.601352937593968,45.6497369708249,52.4116000000067 -0.598553046956863,45.6477700729942,56.7624999999971 -0.597571023061315,45.646657962573,57.2734000000055 -0.594980008694043,45.6444369254977,53.2045000000071 -0.591567065486239,45.6429459527953,56.7060999999958 -0.589857995505383,45.6418219392697,53.6940000000031 -0.588283035911603,45.6416700597084,52.0896999999968 -0.587441995413356,45.641153063688,52.3742000000057 -0.586440022630298,45.6408600321964,51.9747999999963 -0.585816074393504,45.6408139319158,49.848800000007 -0.584775041963585,45.6410519778037,46.914300000004 -0.584746040752924,45.640934966661,47.1009999999951 -0.585699062539548,45.6400050784504,50.8977000000014 -0.587521958948386,45.6387729385579,60.3859999999986 -0.586195942282746,45.6372229570472,62.3806999999942 -0.581228993583491,45.6328249720647,65.4904999999999 -0.576733946970939,45.6296510809807,55.9238000000041 -0.573429968508793,45.6255040504062,60.0896000000066 -0.570218023345778,45.6223829646955,55.8859999999986 -0.569648053077809,45.6214939805063,52.9348000000027 -0.569643024308824,45.6213940679667,52.3178999999946 -0.57398401164679,45.6196020173136,50.7145000000019 -0.575336012980305,45.6187450516093,49.2314000000042 -0.575716048854504,45.6179070285258,49.877999999997 -0.576212927699405,45.6173439324479,50.0141000000003 -0.575409941633234,45.6167530082442,51.0141000000003 -0.57436706496204,45.6162340010132,48.8948999999993 -0.57347606825254,45.6144669278603,44.9891000000061 -0.57281406558367,45.61370501315,45.7498999999953 -0.571898929345868,45.6132500431917,43.3654999999999 -0.570965018318628,45.6124829315973,41.0632000000041 -0.569226947127112,45.610367003912,46.7599999999948 -0.567819960813359,45.609035957623,41.2449999999953 -0.567586943218563,45.6086109952708,42.4318000000058 -0.565634966089931,45.6073190086292,39.8135000000038 -0.564994923636506,45.6065559202861,42.2737000000052 -0.56440299405139,45.6053239481336,45.9818999999989 -0.563018974066198,45.6046079657841,41.954700000002 -0.561603940644113,45.6032920071684,38.983699999997 -0.560799948464826,45.601848978359,43.2351000000053 -0.560042056927617,45.6014900655089,40.4934000000067 -0.559308975960242,45.6007859853377,39.9119999999966 -0.557350963051212,45.5983129886876,43.2608999999939 -0.555951017732643,45.5968959444304,44.5307999999932 -0.554673951165174,45.5951000378236,41.431700000001 -0.553187001316392,45.5943480135143,39.4536999999982 -0.550612081165785,45.5926369317898,36.4953999999998 -0.549644976490464,45.5908180586254,32.704899999997 -0.549133010440378,45.5904819445929,32.5105999999942 -0.546192973635799,45.5857530423149,28.7415000000037 -0.545619986825078,45.584873948284,29.6965000000055 -0.545094944897708,45.5839060060832,32.6735000000044 -0.54506594278875,45.5831509642476,35.5120000000024 -0.545459054540233,45.582183021889,37.1407999999938 -0.546630006716468,45.5807165240654,37.5081000000064 -0.547246913958045,45.580051672014,38.6820000000007 -0.547209866537416,45.5799522622056,38.7051000000065 -0.547986030705818,45.5792699752884,41.5556999999972 -0.548240002402943,45.5787434245,41.783500000005</coordinates>
</LineString>
</Placemark>
</Folder>
</Document></kml>
