<?xml version="1.0" encoding="UTF-8"?>

<kml xmlns:xsd="http://www.w3.org/2001/XMLSchema" xmlns:gx="http://www.google.com/kml/ext/2.2" xmlns:atom="http://www.w3.org/2005/Atom" xmlns="http://www.opengis.net/kml/2.2">
<Document>
<name>FR01c_31a_le_barp-le_muret</name>
<visibility>1</visibility>
<Schema name="FR01c_31a_le_barp-le_muret" id="kml_schema_ft_FR01c_31a_le_barp-le_muret">
<SimpleField type="xsd:string" name="id">
<displayName>id</displayName>
</SimpleField>
<SimpleField type="xsd:string" name="nombre">
<displayName>nombre</displayName>
</SimpleField>
<SimpleField type="xsd:double" name="longitud">
<displayName>longitud</displayName>
</SimpleField>
<SimpleField type="xsd:string" name="_formato">
<displayName>_formato</displayName>
</SimpleField>
</Schema>
<Folder id="kml_ft_FR01c_31a_le_barp-le_muret">
<name>FR01c_31a_le_barp-le_muret</name>
<Placemark id="kml_1">
<name>&lt;img height='20' src='https://nco.ign.es/iconos/icono_todos_caminos_azul.png' /&gt;&lt;img height='20' src='https://nco.ign.es/iconos/Camino Santiago_20.png' /&gt;&lt;img height='20' src='https://nco.ign.es/iconos/icono_todos_caminos_azul.png' /&gt;  Camino de Santiago </name>
<visibility>1</visibility>
<description><![CDATA[<!DOCTYPE html>
<html>
<head>
<style>
#nco {
  border-collapse: collapse;
  overflow:hidden;
}
#nco th, #nco td {
  padding: 4px;
  text-align: left;
}
#nco th {
  color: #364B5F;
  padding-right: 5px;
}
#nco td {
  color: rgb(51, 51, 51);
  font-size: 12px;
  padding-right: 5px;
}
</style>
</head>
<body>
<table id="nco">
<tr>
<td>Voie Turonensis - Paris</td>
</tr>
<tr>
<th><b>Camino: </b></th>
<td>FR01c Voie Turonensis París</td>
</tr>
<tr>
<th><b>Etapa: </b></th>
<td>31a Le Barp-Le Muret</td>
</tr>
<tr>
<th><b>Longitud: </b></th>
<td>31.18 km</td>
</tr>
</table>
</body>
</html>]]></description>
<Style>
<IconStyle>
<scale>0.8</scale>
</IconStyle>
<LabelStyle>
<color>ffffffff</color>
<scale>0.75</scale>
</LabelStyle>
<LineStyle>
<color>ffff0000</color>
<width>3.0</width>
<gx:labelVisibility>1</gx:labelVisibility>
</LineStyle>
<PolyStyle>
<color>66ff0000</color>
</PolyStyle>
</Style>
<ExtendedData>
<SchemaData schemaUrl="#kml_schema_ft_FR01c_31a_le_barp-le_muret">
<SimpleData name="id">FR01c_31a</SimpleData>
<SimpleData name="_formato">kml</SimpleData>
</SchemaData>
</ExtendedData>
<LineString>
<extrude>0</extrude>
<tessellate>1</tessellate>
<coordinates>-0.769235081743421,44.6061920376609,72.9861999999994 -0.76923893731263,44.6061799673248,72.9876999999979 -0.769269950749489,44.6060699968727,73.0393999999942 -0.769298951960116,44.6059799753104,73.1013999999996 -0.769319068832583,44.6058500559836,73.1111999999994 -0.769319068832583,44.6056400050855,73.0087000000058 -0.769298951960116,44.6052899769813,72.6631000000052 -0.769279003072606,44.6050899851006,72.6315999999933 -0.769260060298212,44.6049600650624,72.5319000000018 -0.769229046861353,44.6048100289524,72.4318000000058 -0.769229046861353,44.6047699636575,72.4446000000025 -0.769179928778225,44.6044100450354,72.5939999999973 -0.769129972566972,44.6040900236841,72.9758000000002 -0.769109018464644,44.6037399951945,73.3861000000034 -0.76900005371902,44.6030399389239,73.9686999999976 -0.768939032958384,44.6026200053663,74.3824000000022 -0.768939032958384,44.6025599914934,74.4455000000016 -0.768899973311523,44.6022000719712,74.5822000000044 -0.768879018310897,44.6019900219466,74.7201000000059 -0.768868960772961,44.6018800512379,74.8273000000045 -0.768820009776493,44.6015199644036,75.1223000000027 -0.76877005356524,44.6010500751131,74.8390000000072 -0.768719930267327,44.6007300538017,74.6744000000035 -0.768688916830468,44.6005600692467,74.6894999999931 -0.768680032492307,44.6005000545252,74.6107999999949 -0.768599062844162,44.600120018908,74.4734000000026 -0.768489931011878,44.5994999258342,73.3012000000017 -0.768400077025572,44.5990499851163,72.8510999999999 -0.768370069701828,44.5988800001234,72.6110000000044 -0.768298991403289,44.5984999647834,72.6815000000061 -0.76819907898075,44.5979600028007,73.3978999999963 -0.768100004686402,44.597459938575,74.1823000000004 -0.768080055798859,44.5973199608352,74.4777999999933 -0.76806899124951,44.5973000119617,74.4936000000016 -0.768058933711607,44.5972399970711,74.5081000000064 -0.768039990038882,44.5970800704921,74.9588999999978 -0.768019035038257,44.5968500708395,75.8399999999965 -0.768009982715139,44.5966299626343,76.2541000000056 -0.767999924278906,44.5963900720013,76.2577000000019 -0.768009982715139,44.5962599853844,76.3261000000057 -0.768019035038257,44.5961800220807,76.3350000000064 -0.768028926387863,44.5961399559515,76.3350000000064 -0.768039990038882,44.5960400438163,76.3113000000012 -0.768050048475116,44.5959899200912,76.2807999999932 -0.768100004686402,44.5956199432438,76.1309999999939 -0.768208969432026,44.5950000177163,75.3898999999947 -0.768319945505618,44.5943899827924,74.5100999999995 -0.768459923688134,44.5936099628042,74.3742000000057 -0.768558997982482,44.5929900369447,76.1070000000036 -0.768668967942958,44.5923699439055,76.7946999999986 -0.768788997237965,44.5915200186141,73.0047999999952 -0.768838953449218,44.5911599321866,71.8493000000017 -0.768890082860247,44.5909599402849,71.7888999999996 -0.768949929522776,44.590649977482,71.6230999999971 -0.769018996493414,44.5902999492678,72.5146999999997 -0.76909896002841,44.5899299720202,74.8712999999989 -0.769170038326949,44.5895900019172,75.944399999993 -0.769260060298212,44.5889300106977,77.7317000000039 -0.769340023833242,44.5882500708796,77.2887999999948 -0.769400037582432,44.5877900717811,76.4281000000046 -0.769478995004312,44.5872700585698,75.7186999999976 -0.769520066877405,44.5869200304734,75.8179999999993 -0.769529957328681,44.5868300086685,75.7908000000025 -0.769609920863711,44.586260039646,75.3772999999928 -0.769689046270582,44.5857200771723,74.8239000000031 -0.769759956584164,44.5853299834348,74.7540000000008 -0.769810080780374,44.5847700719431,75.9100999999937 -0.769839081991002,44.584579970378,76.5875999999989 -0.769868921329788,44.5844800582024,77.5148000000045 -0.76989993476668,44.5843900364576,78.2727000000014 -0.769949052849775,44.5842200514481,78.9811999999947 -0.77003002159959,44.5839499871468,79.3935000000056 -0.77037904403693,44.5829699746381,80.1852999999974 -0.770419947925065,44.5828499459086,79.9570999999996 -0.770569983645518,44.5824400708818,79.1429999999964 -0.770690012940525,44.5821299404388,78.2163 -0.770750027588011,44.5819299481784,77.1852999999974 -0.770828985009925,44.5816600511101,76.3194999999978 -0.770858992333669,44.5814399423187,75.7563999999984 -0.770858992333669,44.5813799276852,75.6750999999931 -0.770870055984721,44.5812200009695,75.6319999999978 -0.770899057195348,44.5807799513373,75.4088000000047 -0.770919006082858,44.5804699879943,74.9685000000027 -0.770949013406601,44.5802099818606,74.0975000000035 -0.770998969617855,44.5797300339769,74.1435999999958 -0.771019924618514,44.579410012986,74.4814999999944 -0.771039035377865,44.5792299696516,74.9584999999934 -0.771039035377865,44.5790400355283,75.2219000000041 -0.771009028054122,44.5780499653908,76.9683999999979 -0.770980026843461,44.5780700814781,76.7718000000023 -0.771009028054122,44.5780499653908,76.9683999999979 -0.771009028054122,44.5780100672053,76.9562000000005 -0.770989079166578,44.5779299361017,76.7501999999949 -0.770980026843461,44.5777800682272,76.5463000000018 -0.770998969617855,44.5776499809071,76.4964999999938 -0.771028976941631,44.5775400102066,76.4983999999968 -0.771229974986453,44.5768200048854,77.2551999999996 -0.771308932408334,44.576540049466,76.9563999999955 -0.771368947055854,44.5763600062033,76.8347999999969 -0.771470032678136,44.576140064834,76.4489000000031 -0.771680083046075,44.575790036271,75.790399999998 -0.771909077086739,44.5754800738419,75.3745000000054 -0.772050060484041,44.5752800817438,75.6867000000057 -0.772268996088471,44.5749699508626,76.0001999999949 -0.772420037922006,44.5747300610533,76.2918999999965 -0.77251894423143,44.5745300689353,76.2090999999928 -0.772569067529344,44.574360083893,76.1667000000016 -0.772569067529344,44.5742400546661,76.1554000000033 -0.772569067529344,44.5740400627827,76.1408999999985 -0.7725390602056,44.5736100713773,75.6992000000027 -0.772529002667664,44.5733200569995,75.2842999999993 -0.7725390602056,44.5731500722598,75.0939000000071 -0.772639978741222,44.5727499203274,75.5788999999932 -0.772730000712486,44.5725599861549,75.5957999999955 -0.772820021785418,44.5723599942532,75.7477000000072 -0.772850029109162,44.5722699722999,75.7314000000042 -0.772859919560438,44.5722500237873,75.7335000000021 -0.772949941531701,44.572020023784,75.9179000000004 -0.773050021040868,44.5717600176212,76.228099999993 -0.773119926139664,44.5715199597058,76.2399000000005 -0.773209948110894,44.5712599532272,75.6704000000027 -0.773299970082157,44.5710299537881,75.1033000000025 -0.77338999115509,44.570810012738,74.6098000000056 -0.77354002777384,44.5705000500029,75.1168999999936 -0.773599036308244,44.5703600719677,76.4189999999944 -0.773660056170549,44.5701699706423,78.2059000000008 -0.773729961269312,44.5699800363636,78.751099999994 -0.773759968593056,44.5697399787806,79.2295000000013 -0.773669946621826,44.5690000245302,78.4807000000001 -0.773618985195754,44.5686399374767,76.5473000000056 -0.77360892675952,44.5683899893596,75.3141000000032 -0.773589983985126,44.5680999758299,74.8263000000006 -0.773589983985126,44.5678899247892,75.4042999999947 -0.77360892675952,44.5676399766491,76.3830000000016 -0.77377907935244,44.5669499787369,78.0298999999941 -0.774030033608515,44.5664400234919,77.6885000000038 -0.774660017625673,44.5658900030355,76.6472999999969 -0.775730051266253,44.5644600504406,74.1601999999984 -0.775809008688167,44.5642900654065,73.6153999999951 -0.775849074448144,44.5641799273579,73.2920000000013 -0.775849074448144,44.5640999634429,73.0264000000025 -0.775849074448144,44.5639599860059,73.0114000000031 -0.775840021226696,44.5638500156581,73.1067999999941 -0.775820072339186,44.5636800301214,73.1634000000049 -0.775809008688167,44.5635700598844,73.1325999999972 -0.775779001364391,44.5635799501868,73.1508000000031 -0.77573994171753,44.563590008814,73.1609000000026 -0.77562008040748,44.563590008814,73.1916000000056 -0.775319002853492,44.5635600012539,73.0868000000046 -0.774810053346126,44.5635100453681,72.3693000000058 -0.774239077863339,44.56345003079,72.4236999999994 -0.773519072773214,44.5633900167899,72.9337999999989 -0.772838965458143,44.5633300020878,72.6285000000062 -0.772288944975981,44.5632800460047,71.9291999999987 -0.771919972752801,44.5632399802387,71.3323999999993 -0.771708917170076,44.5632200318292,71.3187000000034 -0.77128998963394,44.5631499588903,71.0342999999993 -0.770719014151152,44.5630599374027,71.3450000000012 -0.770128927909014,44.5629700834639,72.573000000004 -0.769609920863711,44.5628800616979,73.8953000000038 -0.768879018310897,44.56276992354,74.5529999999999 -0.767879057754037,44.5625999380476,75.0847000000067 -0.767258964188155,44.5625099169889,75.3187000000034 -0.76676895835348,44.5624400115245,75.9812999999995 -0.766380038141121,44.5623699389262,76.7026999999944 -0.766159929336948,44.5623399320168,76.6794999999984 -0.765920039630222,44.5622799175116,76.7345000000059 -0.765639078050371,44.5622100124109,76.3506000000052 -0.765629019614137,44.5622100124109,76.343200000003 -0.76552994531979,44.562180004779,76.1698999999935 -0.765268932627448,44.5621000419553,75.627999999997 -0.765120070106771,44.5620499177651,75.1970000000001 -0.76485905831276,44.561980013028,74.9428000000044 -0.764660071595873,44.5619199981516,74.6301999999996 -0.764318928281874,44.561849925567,74.042100000006 -0.764058921702682,44.5618100277878,74.1622000000061 -0.763518959656753,44.5617200061469,75.3696000000054 -0.762999951713154,44.5616199260407,76.1386999999959 -0.762500055427202,44.5615300724381,76.5301000000036 -0.761920027621297,44.5614199342846,76.7661999999982 -0.761230028956619,44.5612900145444,77.0267000000022 -0.760679003259672,44.5611800442699,77.1895999999979 -0.759958997271217,44.5610700731475,76.116399999999 -0.759080071224216,44.5609099792052,73.2578999999969 -0.758398957795995,44.5607800596063,71.9217000000062 -0.758240036839085,44.5607399940389,71.9122000000061 -0.758198964965992,44.5607200454122,71.9162000000069 -0.758100058656568,44.5607099869289,71.9052999999985 -0.758198964965992,44.5607200454122,71.9162000000069 -0.758180022191598,44.5606900376518,71.9615000000049 -0.758180022191598,44.560640081862,72.0464999999967 -0.758198964965992,44.5605599505067,72.1833999999944 -0.758288986937222,44.5604000241364,72.4752000000008 -0.758518986192671,44.5600399376112,73.3166000000056 -0.758779998885013,44.5595899967389,74.1545000000042 -0.758999939704229,44.5591900126654,74.027900000001 -0.759329013254059,44.558629933947,73.7737000000052 -0.759620033270111,44.5581000298518,74.1144000000058 -0.759949944948099,44.5575300601939,74.5255000000034 -0.760430060331498,44.5567200331673,72.8445000000065 -0.760769024332605,44.556129947446,72.5626999999949 -0.761089045559317,44.5555799268095,72.5660000000062 -0.76136900102602,44.5550999792119,72.327099999995 -0.761780049438781,44.5543999227787,72.357799999998 -0.762410033455972,44.5533500054175,72.0446999999986 -0.76317999475735,44.5520600301129,71.1407000000036 -0.763959009280142,44.5507100413871,70.2157000000007 -0.76472897058152,44.5493699422333,67.7841000000044 -0.765200033641801,44.5485399666117,67.3522999999986 -0.765340011824317,44.548309966969,66.9386999999988 -0.76538996803557,44.5481999964902,66.8117999999959 -0.765418969246198,44.5481500402204,66.7516000000032 -0.765448976569941,44.5481200330198,66.6652000000031 -0.765498932781228,44.5480700766813,66.428700000004 -0.765570011079766,44.5480799676979,66.0007999999943 -0.765709988363952,44.5478199608028,65.3757000000041 -0.765988938615869,44.5473299549929,63.9581999999937 -0.766369979704887,44.5466800219531,62.9655000000057 -0.766780022902863,44.5459600168254,64.6940000000031 -0.767069030692683,44.5454500613437,66.3166000000056 -0.767658948949864,44.544440042058,64.0448999999935 -0.768159013220773,44.5435700007028,62.1128000000026 -0.768608954193769,44.542789980764,63.1129999999976 -0.76900005371902,44.5420899241588,62.4581000000035 -0.769319068832583,44.5415400711174,60.5578999999998 -0.769630036837881,44.5410099998813,58.1704000000027 -0.769919045526032,44.5405099355986,57.1423000000068 -0.770278964527764,44.5398700608535,57.710699999996 -0.770610049405495,44.5393200402201,58.9570999999996 -0.770879946435997,44.5388600414416,58.5237999999954 -0.771028976941631,44.5385500788001,57.1505999999936 -0.771189071098284,44.5383200793848,56.3589999999967 -0.771299041957057,44.5381299777361,55.9516000000003 -0.771410018030649,44.5379100365262,55.8892999999953 -0.771628953635046,44.5375400595418,56.1600999999937 -0.771919972752801,44.5370399949112,56.3920999999973 -0.772208981440951,44.5365199818701,56.1236999999965 -0.772608965304363,44.5358499325705,56.9997000000003 -0.772969052291053,44.5352000000705,56.3790000000008 -0.77338999115509,44.5344999431327,55.5197999999946 -0.773689057381177,44.5339700396102,55.2804000000033 -0.773989967848538,44.5334500260488,55.7600999999995 -0.77447997368318,44.5325999337007,55.460699999996 -0.77495908385176,44.5317600666142,55.1438000000053 -0.775459986250827,44.5309000832006,55.1186000000016 -0.775969940972979,44.5300199838499,54.7790999999997 -0.776369925734721,44.5293100364005,52.9012999999977 -0.776719954285177,44.5287000013702,54.6070999999938 -0.777219012442936,44.5278599672522,56.1036000000022 -0.777600053531954,44.5271999760897,55.1217999999935 -0.77795008208241,44.5265899413752,56.7415000000037 -0.778340008407919,44.5258999427868,58.5282000000007 -0.778648965085249,44.5253499227709,57.5547999999981 -0.778939985101334,44.5248699744076,56.7970999999961 -0.779418926386626,44.5240399985522,55.3464999999997 -0.77950894835789,44.5238800717423,54.9860999999946 -0.779760069700625,44.52345008045,55.4465000000055 -0.779809020697092,44.5233500005021,55.4836000000068 -0.779998954192531,44.5230100305922,55.7514999999985 -0.78053891623846,44.5220799742893,54.2333000000071 -0.781038980509368,44.5212199914208,52.5807000000059 -0.781510043569616,44.5204300806067,51.4133000000002 -0.782149918038084,44.5193499884208,48.4358000000066 -0.782060064051778,44.519390054298,48.449099999998 -0.782018993076982,44.5193999444222,48.4829999999929 -0.781595036771928,44.5193850250081,48.8027000000002 -0.781379956736707,44.5192019641957,48.9391000000032 -0.781252049216655,44.5190950112821,49.2315999999992 -0.781166050799558,44.5187890715744,49.5987000000023 -0.781016014180808,44.5185129714684,50.0270000000019 -0.780994053965364,44.5182529651223,50.1483000000007 -0.780972931878112,44.5180700717735,49.9183000000048 -0.78086497234724,44.5178249851901,48.9223000000056 -0.78067202141075,44.5175490528185,48.4348000000027 -0.780586022993653,44.5173349793125,47.9830999999976 -0.780501030689672,44.5171519184646,48.0665000000008 -0.780415032272575,44.51680004576,48.5004000000044 -0.780415032272575,44.5165090263271,48.946299999996 -0.780393071158833,44.5162639395832,49.1540999999997 -0.780264995653825,44.5160349455676,48.5047999999952 -0.780219062996704,44.5158699902498,48.1328000000067 -0.780168939698825,44.5157499614257,48.3245000000024 -0.780088976163795,44.5155400782134,47.6708999999973 -0.780020077178148,44.5152800714128,47.271900000007 -0.779889989446908,44.5148899780057,47.0737999999983 -0.779840033235621,44.5146899858225,46.7810999999929 -0.779799968373975,44.5145000517369,46.4274000000005 -0.779738947613339,44.5142799431393,46.2174999999988 -0.779688991402086,44.5141000672107,46.0697999999975 -0.779670048627692,44.5139599221165,46.0289000000048 -0.779678932965852,44.5137800464813,45.2084999999934 -0.779709946402711,44.5136199518626,44.3745999999956 -0.779760069700625,44.5134499669528,43.7856999999931 -0.779809020697092,44.5133399966121,43.4183000000048 -0.779840033235621,44.5132699238338,43.3130999999994 -0.779879931010674,44.513230026064,43.1885000000038 -0.779969952981904,44.5131599531534,42.9471000000049 -0.779908933119599,44.5131400042343,43.0096999999951 -0.779969952981904,44.5131599531534,42.9471000000049 -0.780020077178148,44.5126699471229,43.2102000000014 -0.780029967629424,44.5125200783356,42.875 -0.780029967629424,44.5120200141207,43.9042000000045 -0.779918990657535,44.5118899271023,44.0151000000042 -0.779908933119599,44.5118800363439,44.0310000000027 -0.779709946402711,44.5116699860913,43.9082000000053 -0.77940903593535,44.5114200373539,41.898199999996 -0.779138970919924,44.5112599432987,40.2581000000064 -0.778878964340698,44.5111499726691,40.1012000000046 -0.778759941158841,44.5111300237025,39.7841000000044 -0.778350065945822,44.5111100747291,38.4930000000022 -0.778140015577883,44.5111000166413,38.9524999999994 -0.777928959995124,44.5110599508294,40.4149000000034 -0.777349937404038,44.5107199809546,46.6272000000026 -0.777140055021056,44.5106100105874,50.0669000000053 -0.777089930824812,44.5105199885543,51.4842000000062 -0.777099989261079,44.5103900692305,52.7737000000052 -0.777149945472332,44.5102599824177,53.2911000000022 -0.777479019022162,44.5100199244745,52.0629000000044 -0.777748916052631,44.5099000629732,51.5935000000027 -0.778269935324166,44.5097000709626,50.3751000000047 -0.7784189658298,44.5096400566336,50.1557999999932 -0.778439920830425,44.5096199399489,50.1925000000047 -0.778459030691479,44.5096100494459,50.210500000001 -0.778499934579615,44.5095599255374,50.2195000000065 -0.778508986902733,44.5095399766672,50.2130999999936 -0.778609067310229,44.5095200277902,49.7912999999971 -0.778759941158841,44.5094900205407,49.3525999999983 -0.778928920551985,44.5094499549033,49.3021000000008 -0.77912002814553,44.5093899409573,49.6025999999983 -0.779300071189693,44.509329926309,49.6950999999972 -0.779499057906613,44.5092799700025,49.8138000000035 -0.779619924431448,44.5092499626294,49.9124000000011 -0.779709946402711,44.5092199558815,50.0467999999964 -0.779799968373975,44.5092000068949,50.1812000000064 -0.779930055206884,44.5091800579016,50.4599000000017 -0.78007003249107,44.5091599410581,50.7139000000025 -0.780228953448014,44.5091299342639,50.661300000007 -0.780398938954274,44.5091099852465,50.9137000000046 -0.78049901846344,44.5090900362224,51.1206999999995 -0.780599936999096,44.5090799777859,51.0696999999927 -0.780700016508262,44.5090499709505,50.9995999999956 -0.780888944788916,44.5090000144041,50.8830000000016 -0.781110059706204,44.5089200509125,50.2761000000028 -0.781289934765443,44.508860036421,49.6030000000028 -0.781438965271077,44.5088100803523,48.8652000000002 -0.781528987242341,44.508780073378,48.5102000000043 -0.781619008315273,44.5087500663882,48.1784999999945 -0.781729985287162,44.5087200587423,48.1474000000017 -0.781869962571348,44.5086900517216,48.0627999999997 -0.782068949288269,44.5086499861749,47.664300000004 -0.782310013093067,44.5086000299262,47.2597999999998 -0.782528947799167,44.5085599643176,46.8764999999985 -0.78282902013837,44.5084999500959,46.6343000000052 -0.782869924026506,44.5084900594029,46.5363999999972 -0.783098917168839,44.5084499937186,46.1540999999997 -0.783129930605732,44.5084499937186,46.1120999999985 -0.783379040620532,44.5084000379392,46.1180000000022 -0.783558916578068,44.5083700307538,46.1496000000043 -0.783670060636584,44.5083500814763,46.2069000000047 -0.783729069170988,44.5083400235529,46.3178000000044 -0.78376008170955,44.5083299649871,46.3803999999946 -0.783849935695822,44.5083100163365,46.5565000000061 -0.783939957667086,44.5082999577656,46.6705999999976 -0.783950016103319,44.5082999577656,46.6805000000022 -0.78400902463769,44.5082999577656,46.7387000000017 -0.784130059147515,44.5082900670385,46.8475000000035 -0.784138944383973,44.5082800091048,46.8665999999939 -0.784138944383973,44.5082699505286,46.883600000001 -0.784149001921909,44.5082699505286,46.886599999998 -0.784160066471259,44.5082699505286,46.8898000000045 -0.784160066471259,44.5082600597965,46.9070999999967 -0.784169956922535,44.5082600597965,46.9101999999984 -0.784179009245653,44.5082600597965,46.9131000000052 -0.784189067681886,44.5082500018575,46.934699999998 -0.784199964246278,44.5082500018575,46.9383999999991 -0.784210022682512,44.5082500018575,46.9419000000053 -0.784249082329406,44.5081899873167,47.0097999999998 -0.784259978893798,44.5081700386183,47.0144 -0.784289986217542,44.5081400313144,47.0270000000019 -0.784309935105051,44.5081200825989,47.0353999999934 -0.784329045864403,44.5080999660303,47.0359999999928 -0.784359053188146,44.5080500093102,47.0761000000057 -0.784409008501102,44.5080099439641,47.1953000000067 -0.784518979359875,44.5079400390304,47.4032000000007 -0.784609001331138,44.5078900828139,47.5598999999929 -0.784670021193444,44.5078600753659,47.6079000000027 -0.784739926292207,44.5078399593481,47.5825000000041 -0.784808993262844,44.5078200098893,47.5247999999992 -0.784869007910331,44.5078099518744,47.4744000000064 -0.784939918223912,44.5078000610642,47.4147999999986 -0.785009991307666,44.5078000610642,47.3341999999975 -0.78507905827827,44.5078000610642,47.1873000000051 -0.785250048999349,44.5078000610642,46.8687999999966 -0.785589013000455,44.5078200098893,46.453800000003 -0.785758998506715,44.5078300685431,46.3353999999963 -0.785948932002187,44.5078399593481,46.3650000000052 -0.786139033482617,44.5078399593481,46.4293000000034 -0.786189995806986,44.5078399593481,46.4686999999976 -0.78633902631262,44.5078600753659,46.5789999999979 -0.786469951273722,44.5078699661658,46.7403999999951 -0.786569025568069,44.5078800248111,46.868100000007 -0.786690060077895,44.5078999736087,47.0647000000026 -0.786709002852289,44.5079100316081,47.0820999999996 -0.786838922598571,44.5079299810362,47.1695000000036 -0.78700002286834,44.5079700464372,47.2121999999945 -0.787239074446941,44.5080200025851,47.5642999999982 -0.787819940381004,44.5081599800231,47.684500000003 -0.788009036646615,44.5082000459066,47.6919000000053 -0.788149013930834,44.5082300531796,47.6812000000064 -0.788329056974997,44.5082600597965,47.6670000000013 -0.788368955648347,44.5082699505286,47.6604999999981 -0.788399968186909,44.5082699505286,47.647100000002 -0.78849904248129,44.5082900670385,47.6138999999966 -0.788580011231105,44.5082999577656,47.6009000000049 -0.788688975976763,44.5083299649871,47.6010999999999 -0.788719989413622,44.5083299649871,47.591499999995 -0.788998938767208,44.508419986559,47.5973999999987 -0.789149980600777,44.5084800015036,47.5924999999988 -0.78924000257204,44.5084999500959,47.5724999999948 -0.78933002454327,44.5084999500959,47.5283999999956 -0.789399929642066,44.5084999500959,47.4940000000061 -0.789468996612671,44.5084900594029,47.4590999999928 -0.789530016474976,44.5084600522638,47.4523000000045 -0.78954895924937,44.5084399358125,47.4523000000045 -0.789579972686263,44.508419986559,47.4523000000045 -0.789620038446239,44.5083599721931,47.4164000000019 -0.789638981220633,44.5082999577656,47.3156000000017 -0.789638981220633,44.5082600597965,47.2497000000003 -0.789638981220633,44.5082099360083,47.1858999999968 -0.789659936221259,44.5081599800231,47.1676000000007 -0.78967904698061,44.5081100239951,47.1521000000066 -0.789700001082939,44.5080600679243,47.1377000000066 -0.7897390607298,44.5080099439641,47.1334999999963 -0.789800081490436,44.5079299810362,47.1334999999963 -0.789918936687336,44.5077799443851,46.5932999999932 -0.790008958658599,44.5076800322756,46.252800000002 -0.790020022309651,44.5076699742365,46.2292000000016 -0.790098979731532,44.5075700619384,46.0218000000023 -0.790169052815285,44.5074800403352,46.0022000000026 -0.790239964027164,44.5074099675583,45.8515999999945 -0.790299977776354,44.5073700696207,45.7109000000055 -0.790340043536364,44.5073400625456,45.6462000000029 -0.790379941311383,44.5073100554552,45.6092999999964 -0.790449008281988,44.5072800477086,45.4749000000011 -0.790528971817018,44.5072500405872,45.3389000000025 -0.790618993788281,44.5072299243589,45.1869000000006 -0.790950078666012,44.5071700772574,44.7805999999982 -0.791478976162591,44.5070699975345,44.3165000000008 -0.791749041178017,44.507020041213,44.2415000000037 -0.791999995434125,44.5069799757996,44.3821999999927 -0.792598966912721,44.506870005423,43.6738999999943 -0.792798958844428,44.5068299399065,43.8208000000013 -0.792840029819223,44.5068299399065,43.8208000000013 -0.792950000677996,44.5068099907426,43.6012000000046 -0.793009009212367,44.5067999325534,43.4480999999942 -0.793148987394883,44.5067799833793,43.2559999999939 -0.793239008467816,44.5067799833793,43.2032000000036 -0.793360042977642,44.5067799833793,43.1665999999968 -0.793638993229558,44.5067999325534,43.2945999999938 -0.794279034784653,44.5068399980905,43.678899999999 -0.795139018057294,44.5069000127401,43.0212999999931 -0.79517891673061,44.5069000127401,42.963699999993 -0.795169025381037,44.5068599472441,43.0589000000036 -0.795139018057294,44.5067900422126,43.2446999999956 -0.79506006063538,44.5066400058306,43.5820999999996 -0.795029048096818,44.5065300354532,43.4829999999929 -0.795029048096818,44.5065199772157,43.4680999999982 -0.795009937337467,44.5063900573043,43.526199999993 -0.794999040773074,44.5062599705331,43.7655999999988 -0.794999040773074,44.5060899852984,44.0385999999999 -0.794999040773074,44.506079926985,44.0501999999979 -0.795009937337467,44.5058799346799,44.2344000000012 -0.795009937337467,44.505750015264,44.5004000000044 -0.795009937337467,44.5056100378046,44.9793999999965 -0.794999040773074,44.5054299941711,45.364499999996 -0.794988982336841,44.5052600090788,45.631899999993 -0.794988982336841,44.5052499512629,45.6900000000023 -0.794958975013098,44.5050700756535,46.7404999999999 -0.794958975013098,44.5050199516849,47.0353000000032 -0.794939026125588,44.5049099808139,46.9738999999972 -0.79492997380247,44.5048000103762,47.2372000000032 -0.794939026125588,44.504690039731,47.7330999999976 -0.794948916576864,44.504570010945,48.1168999999936 -0.794979930013723,44.5044099166541,48.4628999999986 -0.794999040773074,44.5042499897809,48.5383000000002 -0.795009937337467,44.504110011923,48.6057000000001 -0.795009937337467,44.5039299687821,48.4392999999982 -0.7950199957737,44.5032899266396,47.3460999999952 -0.795038938548094,44.5032000726937,47.321299999996 -0.79506006063538,44.503089934373,47.0633999999991 -0.795089062744338,44.5029799637053,46.7318999999989 -0.795110016846633,44.5028699934709,46.3990000000049 -0.795119069169751,44.5027700812746,46.192200000005 -0.795119069169751,44.502620044797,46.1518000000069 -0.795119069169751,44.5024800675103,45.932799999995 -0.795119069169751,44.5023100821453,46.008799999996 -0.795119069169751,44.5022299512236,46.0194000000047 -0.795119069169751,44.5021199808558,46.097099999999 -0.795128960519357,44.5020200686556,46.6346999999951 -0.795150082606643,44.5019399373352,47.204700000002 -0.795200038817896,44.501799959697,48.2648999999947 -0.79529006078916,44.5015500115612,49.2369999999937 -0.795430038073346,44.501249938988,49.6067000000039 -0.795528944382769,44.5010100489655,49.5455999999976 -0.795569010142746,44.5009000788595,49.1778999999951 -0.795600022681308,44.5007999986235,48.9017000000022 -0.795659032114009,44.5006700794191,48.8243999999977 -0.795719045863199,44.5005299334268,48.7966000000015 -0.795740000863825,44.5004300217053,48.3861999999936 -0.795749053186942,44.5003500579903,47.9817000000039 -0.795758943638219,44.5001899636437,47.0534000000043 -0.795769002074452,44.5000099205702,46.9726999999984 -0.795758943638219,44.4997799208219,45.4790999999968 -0.795749053186942,44.4997599718082,45.4127000000008 -0.795719045863199,44.4996999574967,45.3233999999939 -0.795690044652572,44.4996500012666,45.309699999998 -0.795618966354033,44.4995499214477,45.307799999995 -0.795569010142746,44.4994800166204,45.4061999999976 -0.795438923309836,44.4992500173446,45.9998999999953 -0.795229040028524,44.4988300839098,46.6931999999942 -0.795110016846633,44.498620033403,46.9907999999996 -0.795029048096818,44.4984800554829,46.8757999999943 -0.794909018801811,44.498280063376,46.7771999999968 -0.794740039408667,44.4982299393361,46.9624999999942 -0.794529989040728,44.4981999320413,47.0464000000065 -0.794578940037196,44.4981799831279,47.0390000000043 -0.794620011011991,44.4981600342077,47.0323000000062 -0.794638953786385,44.4981499764482,47.0292000000045 -0.794689077982595,44.498089961761,47.0485000000044 -0.794718917321415,44.4980200564648,47.1126999999979 -0.794718917321415,44.4979099186103,47.4030000000057 -0.794660076771968,44.4977900571967,47.8365999999951 -0.794539042262176,44.4973000513849,48.6710000000021 -0.794318933458003,44.4968199360523,49.3138000000035 -0.794259924025302,44.4964600169209,48.5951999999961 -0.794309042108396,44.4962100683196,46.0142000000051 -0.794268977246717,44.4960199670044,44.5978999999934 -0.794259924025302,44.4959200546031,44.309500000003 -0.794229079471697,44.4958199747897,43.7360999999946 -0.794219021035463,44.4957299529832,43.1373000000021 -0.794209968712346,44.4956199825299,42.5041000000056 -0.794200077362739,44.4955200700841,42.2065000000002 -0.794170070038996,44.495439939442,42.2065000000002 -0.794110056289806,44.4953799245286,42.0399000000034 -0.794029924769853,44.4953200780774,41.7219999999943 -0.793948956020037,44.495269954056,41.3522999999986 -0.793829932838147,44.4952099396085,40.6368999999977 -0.793719961979374,44.4951400347042,40.292100000006 -0.793659948230184,44.4950800201229,40.2293000000063 -0.793620049556834,44.49503006442,39.8589999999967 -0.793579984695154,44.4949299843608,39.1171000000031 -0.793548971258295,44.4948099553449,37.8515999999945 -0.793518963934552,44.4946800356091,37.2609999999986 -0.793470013836415,44.4946200211952,37.5013999999937 -0.793390050301385,44.4945900139651,37.7354999999952 -0.793309919679728,44.4945400578424,37.7317999999941 -0.793210007257189,44.4944800439253,37.6821999999956 -0.79315904493282,44.4944399782238,37.6174000000028 -0.793148987394883,44.4944000803805,37.1171000000031 -0.793148987394883,44.4943799635629,36.8413 -0.793256946027425,44.4943859984807,36.5988999999972 -0.793369934327215,44.4944049420185,36.1729999999952 -0.793466996395364,44.4944429956797,35.888300000006 -0.793638993229558,44.4945499489799,35.9833999999973 -0.79379992551437,44.4945300000993,35.1676000000007 -0.794430077516519,44.4941600224836,31.4003999999986 -0.794488918065932,44.4941000081754,30.3888000000006 -0.794509034938433,44.4940700006777,29.8892000000051 -0.794509034938433,44.4940200447503,29.2531000000017 -0.794488918065932,44.4939499718141,28.7072999999946 -0.794430077516519,44.4938200527255,29.0985999999975 -0.794289931349045,44.49350992218,26.0552000000025 -0.7941289990642,44.493190069071,24.8895000000048 -0.794009975882343,44.4929099458485,26.3521999999939 -0.793909058244984,44.4927300699737,26.6321000000025 -0.793819036273755,44.4925999828396,25.6674999999959 -0.793789028949978,44.4925699758517,25.5271000000066 -0.793740078851841,44.4925999828396,25.5359000000026 -0.793679058989535,44.4926299898121,25.9475999999995 -0.793620049556834,44.4926499387018,26.3457999999955 -0.793598927469548,44.4926499387018,26.488400000002 -0.793458950185362,44.4926599974099,27.107799999998 -0.793289970792219,44.4926700554755,27.4186000000045 -0.793220065693422,44.4926799462894,27.420100000003 -0.793199948820955,44.4927000624119,27.5362000000023 -0.793148987394883,44.4927200119185,27.7522999999928 -0.79309903118363,44.4927500188292,28.1454999999987 -0.793079920424279,44.4927800263653,28.5409000000072 -0.793058965423653,44.4929200038709,29.7933000000048 -0.793040022649259,44.493089989058,30.3366999999998 -0.793020073761716,44.4931600617459,30.4147999999986 -0.792999956889249,44.4931999591559,30.8092999999935 -0.792950000677996,44.4932599737496,31.7301000000007 -0.79288897991736,44.493300039621,32.7155999999959 -0.792798958844428,44.4933099296873,33.1941999999981 -0.792708936873198,44.4933099296873,33.2611000000034 -0.792248938362266,44.4932299664605,36.1106 -0.791708976316337,44.4931399451413,37.7716999999975 -0.791719034752571,44.4930499230423,37.2109000000055 -0.791719034752571,44.4930100255296,36.9612000000052 -0.791729930418666,44.4929200038709,36.1478000000061 -0.791719034752571,44.4927999752037,35.1220999999932 -0.791708976316337,44.4927099532207,34.3772000000026 -0.791769996178643,44.4926900043515,34.1511000000028 -0.792010053870359,44.492589924762,32.9380999999994 -0.792418922970228,44.4924400562519,30.229800000001 -0.79281002249548,44.4922900201057,29.1803999999975 -0.793279074227826,44.4920999181868,27.0571000000054 -0.793688949440811,44.4919399915095,25.4040999999997 -0.794289931349045,44.4916999337389,24.3136999999988 -0.794839951831207,44.4914699345343,25.8898999999947 -0.795920043908021,44.4910099359675,27.8338999999978 -0.79666905110707,44.4906999731135,30.2335000000021 -0.796749014642099,44.4906600752749,30.039300000004 -0.796870049151891,44.4906000605691,29.7826999999961 -0.797270033913634,44.4906099510932,28.761599999998 -0.797719973988299,44.4906300679297,26.5359000000026 -0.798310060230437,44.4907499293216,23.0712000000058 -0.798909030810736,44.4909200816805,20.5954999999958 -0.799159985066845,44.4909799288023,20.0182999999961 -0.79985903605464,44.4911700298861,19.2927000000054 -0.800019968339452,44.4912199863324,19.3077000000048 -0.801568944163655,44.4916499777037,17.383600000001 -0.803349930571209,44.4921399842144,16.1371000000072 -0.803759973769185,44.4922600129583,17.3738000000012 -0.803999025347751,44.4923200272377,18.3163000000059 -0.80418996495634,44.4923599252224,18.8070000000007 -0.804299935815113,44.4923899323184,19.4716999999946 -0.804418958997004,44.4923999904305,19.9979000000021 -0.804640073015962,44.4924100485409,20.5198999999993 -0.804789941649754,44.4924100485409,20.5975999999937 -0.804929919832271,44.4923999904305,20.626099999994 -0.805070065101448,44.4923899323184,20.4334999999992 -0.805290005920663,44.4923500343542,19.8482999999978 -0.805509947638176,44.4923099691118,19.3705999999947 -0.805909931501588,44.4922300057955,18.827099999995 -0.806378983233934,44.4921399842144,18.7804999999935 -0.8068490401811,44.4920499624943,19.6818999999959 -0.806879047504843,44.4920400715736,19.835699999996 -0.807728972341217,44.4918699192781,21.1477000000014 -0.808588955613858,44.4916900433996,19.9967000000033 -0.809729062338158,44.4914499858818,17.6572000000015 -0.810718964458751,44.491249993374,19.3418999999994 -0.811208971191757,44.491150081131,21.7360999999946 -0.811569057280116,44.4910800085913,23.1347999999998 -0.811599064603859,44.4910699502515,23.1622999999963 -0.811838954310618,44.490770045469,24.8607999999949 -0.811899975071221,44.4906800241977,25.3794999999955 -0.811940040831197,44.4905900021465,25.5014999999985 -0.811949931282474,44.4905100390354,25.5372000000061 -0.811940040831197,44.4904099589091,25.402900000001 -0.811899975071221,44.4902500320834,25.1879000000044 -0.811860077296201,44.490119945185,25.1941999999981 -0.811820011536191,44.490009974406,24.9802000000054 -0.811788998099332,44.4899199532432,24.6404999999941 -0.811680034252005,44.4895100778749,23.8880000000063 -0.811438970447206,44.4887300581123,25.0268999999971 -0.811339058024667,44.4885099496115,25.1177000000025 -0.81123897761717,44.4883500227029,25.1347999999998 -0.811118949220494,44.4882199354119,25.247000000003 -0.81102892724923,44.4881500304599,25.0901000000013 -0.810919962503573,44.4880799575201,24.971000000005 -0.810769926783154,44.4880199433637,24.8405999999959 -0.810628943385819,44.4879899359419,24.8043999999936 -0.810549985963938,44.4879599285047,24.8301000000065 -0.810410007781422,44.4878900238819,24.9079000000056 -0.810249075496577,44.4877699951164,24.7976999999955 -0.810179002412857,44.4876700826797,24.5602999999974 -0.81012904620157,44.4875500534617,24.2281999999977 -0.810059979230966,44.4872000252571,24.1641999999993 -0.80999895936866,44.4866800120858,24.3782999999967 -0.809949003157374,44.4862999767779,25.104600000006 -0.809920001946746,44.4861700573104,25.6649000000034 -0.809858981186144,44.485940058089,26.5090000000055 -0.809719003901925,44.48550000762,27.2379999999976 -0.8095899222838,44.4851100815008,27.0011999999988 -0.809470060973784,44.4847399370978,26.8462 -0.809410047224595,44.4845199955541,26.7431999999972 -0.809368975351469,44.4842899962357,26.7357000000047 -0.809308960703982,44.4840299897562,26.744200000001 -0.809269062928963,44.4836400634246,27.1756000000023 -0.809249952169578,44.4834100638415,27.3683000000019 -0.809240061718302,44.4832400792831,27.5602999999974 -0.809249952169578,44.4829700141557,27.5927999999985 -0.809278953380239,44.4824099354559,31.4520000000048 -0.809278953380239,44.4820699651429,31.6095999999961 -0.809278953380239,44.4819199292395,31.3454000000056 -0.809278953380239,44.48174005344,31.2733000000007 -0.809278953380239,44.4816300828851,31.1156999999948 -0.809290017929588,44.4815100540574,31.1609000000026 -0.809290017929588,44.4813900256236,31.4088000000047 -0.809269062928963,44.4812399892535,31.7198999999964 -0.809240061718302,44.4810899531384,32.1775000000052 -0.809159931096645,44.4809100779847,33.4447999999975 -0.8089889403756,44.4806200638155,33.9554000000062 -0.808738991334311,44.4801699559396,34.148199999996 -0.808509998191977,44.4797899198823,31.1263999999937 -0.808358956358409,44.479569978905,28.3904999999941 -0.808319058583389,44.4794799576538,27.8102999999974 -0.808229036612126,44.4793399792998,26.0553000000073 -0.808098949779216,44.4790700819951,22.9588999999978 -0.807919073821647,44.4787599518575,23.1199999999953 -0.807728972341217,44.4784099234681,24.0032999999967 -0.807548929297054,44.4780800122208,24.7007000000012 -0.807419009550771,44.4777899980855,25.7811999999976 -0.807340052128857,44.4776099550796,25.332699999999 -0.807288922717828,44.4774899256731,25.0806000000011 -0.807269979045137,44.4773499483137,25.1350999999995 -0.807259920608904,44.4772299190132,25.2510000000038 -0.807230081270084,44.4770299271047,25.3494999999966 -0.807208959182832,44.4768299351518,24.7624999999971 -0.807189010295322,44.4766400007793,24.2872999999963 -0.807140060197151,44.4764800740185,23.9315999999963 -0.807050038225922,44.4762500750531,23.5733000000037 -0.806949957818425,44.4760200751811,23.1224999999977 -0.806879047504843,44.4758899879567,23.0158999999985 -0.806828923308599,44.4757900756846,22.9869999999937 -0.806739069322327,44.4755699670738,23.008600000001 -0.806649048249394,44.4753500262143,23.2954000000027 -0.806518960518154,44.4750600119716,23.4524999999994 -0.80644000309624,44.4749399830887,23.3908999999985 -0.806330032237467,44.4748300125369,23.2136000000028 -0.806190054953281,44.4747099838221,22.7930999999953 -0.805990063021575,44.4746000134778,22.8502000000008 -0.805719998006115,44.4744699262928,21.6033000000025 -0.805419925666946,44.4743599554961,21.2724000000017 -0.80524004970941,44.4742900506016,20.699099999998 -0.805129073635818,44.4742000288966,20.5176000000065 -0.805048943014162,44.4741299565075,20.4973999999929 -0.804988928366675,44.4740399345555,20.5895000000019 -0.804920028482698,44.4739100153487,20.847099999999 -0.804768986649129,44.4736500081218,21.4128000000055 -0.804618950928676,44.473370052593,23.5602999999974 -0.804430022648022,44.4730800387665,25.0926000000036 -0.804319046574464,44.4728999959718,25.2848999999987 -0.804299935815113,44.4728399815835,25.4569000000047 -0.804299935815113,44.4726200400502,25.8558000000048 -0.80432893702574,44.4723000191837,25.9974999999977 -0.804370008000536,44.4719399327133,25.6713000000018 -0.80439901010946,44.4715500063511,25.4820999999938 -0.804430022648022,44.4712599924547,25.6901999999973 -0.804418958997004,44.4710600005994,26.1472999999969 -0.804409067647397,44.47092002256,26.5786999999982 -0.80439901010946,44.4708900153171,26.623900000006 -0.804358944349484,44.470539987157,27.311400000006 -0.804319046574464,44.4703200459306,28.0605000000069 -0.804299935815113,44.4701500610574,28.4017000000022 -0.804299935815113,44.4700399224983,28.6959999999963 -0.80430898813823,44.4698699374503,29.1962000000058 -0.80542998410318,44.4696999525483,28.4716000000044 -0.8062299527283,44.4695700332958,29.0673999999999 -0.807170066622598,44.4694199973029,31.7808999999979 -0.808319058583389,44.4692399541151,37.3880999999965 -0.809520017185038,44.4690600783307,38.690499999997 -0.810849052189991,44.4688899256752,40.6824999999953 -0.811089948009866,44.4688599186707,40.6910000000062 -0.813030023359287,44.4686299191613,44.0068000000028 -0.81488896197397,44.468409977789,42.1824000000051 -0.81596905405075,44.4682800582293,40.3132000000041 -0.816388986801671,44.468229934691,40.3197999999975 -0.816648993380897,44.4681999273472,39.6052000000054 -0.817580055850374,44.4680800664202,39.5331000000006 -0.818819067985768,44.4679300298027,40.341499999995 -0.819519963214872,44.4678500664021,39.4643999999971 -0.819808971004692,44.4678100010002,38.6460999999981 -0.819819029440925,44.4678100010002,38.6402999999991 -0.820079036020118,44.4677799940816,38.507500000007 -0.820239968304962,44.4677600450207,38.5525000000052 -0.820400063359946,44.4677399286315,38.4572999999946 -0.820420012247489,44.4677399286315,38.4437999999936 -0.820719078473543,44.4677000304755,38.5709999999963 -0.821869075649119,44.467560052712,40.3598000000056 -0.822900049642839,44.4674400237898,41.2722000000067 -0.823999922622205,44.4673099366719,43.8494999999966 -0.824228916662835,44.4672700388631,44.2370999999985 -0.825668926843084,44.4670899954544,45.0385999999999 -0.827399957937682,44.4668700546903,44.7203000000009 -0.828488934352656,44.4667399675843,44.4501000000018 -0.830370001167706,44.4665000772921,45.7361999999994 -0.831500049455773,44.4663599318899,45.6587 -0.831749997598765,44.4663399829848,45.7207999999955 -0.83298901063249,44.4661899470233,42.9241000000038 -0.833038966843743,44.4661800562054,42.7810000000027 -0.833049025279976,44.4658499770872,43.0342999999993 -0.83307903260372,44.464100003319,41.5678000000044 -0.833110046040612,44.4633600488903,42.1723999999958 -0.833119936491888,44.4628799337204,42.2185999999929 -0.833099987604345,44.4626199267224,42.1812000000064 -0.833069980280602,44.4623999857856,42.1288999999961 -0.833020024069349,44.4621800446614,42.2304000000004 -0.83286898223578,44.4618199579476,43.8711999999941 -0.83271006127887,44.4615500603969,44.7100000000064 -0.832659937082659,44.4614399222802,44.806700000001 -0.832449048586561,44.4610600546853,43.9201999999932 -0.832300018080927,44.460789989486,43.2259999999951 -0.831900034217515,44.4600299189387,43.1223000000027 -0.831670034962066,44.4596099852454,42.6355999999942 -0.831379014945981,44.4590700229171,41.9089999999997 -0.831108949930555,44.4585800169089,42.6897999999928 -0.830919016435083,44.4582199304331,43.8320999999996 -0.830298922869167,44.4570699334976,43.9958999999944 -0.829559974106352,44.4556500391029,43.8809000000037 -0.829550083655076,44.4556000829769,43.8776999999973 -0.829419996822133,44.4552099891105,43.6876999999949 -0.829409938385899,44.4550599527581,43.3068999999959 -0.8294300552584,44.4548500703709,42.8509000000049 -0.829510017895099,44.4543500059585,42.4391999999934 -0.829510017895099,44.4540799411429,42.1132000000071 -0.829609930317605,44.4534499573277,41.1977999999945 -0.829740018048845,44.452529959156,41.5308999999979 -0.829928945431202,44.4512399846044,45.6661000000022 -0.830068923613718,44.4502700306917,45.8046999999933 -0.830219965447287,44.4492700698893,44.6331999999966 -0.830410066927716,44.448030050751,42.9964999999938 -0.830419957378993,44.4479799271415,43.0255999999936 -0.83061894409588,44.4468299299183,45.3102999999974 -0.830769985929449,44.445879924727,47.3258999999962 -0.830979030184272,44.4447299278463,46.9211000000068 -0.831058993719269,44.4441899658134,46.0121999999974 -0.831099059479245,44.4438499960419,45.0583000000042 -0.831120014479904,44.4437500834411,44.9198999999935 -0.831219926902411,44.4430399683726,43.949099999998 -0.831309947975377,44.4425100644869,45.6959000000061 -0.83139007949533,44.4418500735198,44.9265000000014 -0.831738933947713,44.4396600502814,42.9850000000006 -0.831789058143923,44.4393499198367,42.944399999993 -0.832040011501701,44.4378599526978,40.9207000000024 -0.832058955174426,44.4377699306164,40.7520999999979 -0.832189042007335,44.436879940473,45.4631999999983 -0.832379981615924,44.4356100819457,43.8142999999982 -0.832449048586561,44.4351500830451,44.809500000003 -0.832458939037838,44.4350600612788,45.1012000000046 -0.832749959053889,44.4333999416308,44.0757000000012 -0.832800083250133,44.4330100157311,43.6116000000038 -0.832850038563089,44.4324599949678,42.9223000000056 -0.832850038563089,44.4323600827745,43.0296999999991 -0.832829922588919,44.4316999239117,43.3954999999987 -0.832819026024527,44.4304699636852,43.851999999999 -0.832789018700784,44.4289600477265,43.9149000000034 -0.832760017490156,44.4274700806132,48.0994000000064 -0.832749959053889,44.4263799304848,49.6070000000036 -0.832740068602613,44.4257799535869,49.6106 -0.832740068602613,44.4255300050202,49.4021999999968 -0.832740068602613,44.4247000290518,46.8411999999953 -0.832729004053264,44.4240400383669,45.850099999996 -0.832749959053889,44.4237999803584,45.692200000005 -0.832598917220354,44.4238599951133,45.7522000000026 -0.832368917964905,44.4239000605176,45.9112000000023 -0.832159034683592,44.4239099507979,45.9587999999931 -0.831949990428768,44.4239000605176,45.973800000007 -0.831458978481011,44.4238299874228,46.3472000000038 -0.831099059479245,44.4237699732786,46.2664999999979 -0.831040050944875,44.423760082333,46.2550999999949 -0.831018928857589,44.423760082333,46.2431999999972 -0.830679963958185,44.423670060986,46.2262999999948 -0.83015006034849,44.4235200250995,45.7838000000047 -0.829469953033419,44.4233500399928,45.2655999999988 -0.829110034031687,44.4233000838297,45.107600000003 -0.828839969016227,44.4232700764933,44.5883999999933 -0.828488934352656,44.4232700764933,44.420100000003 -0.827749986488137,44.4232400691416,45.3864999999932 -0.827009026397421,44.423219952813,47.1114999999991 -0.826309975409592,44.4232000039266,47.5041999999958 -0.825499948348237,44.4231800550333,47.3025999999954 -0.824528988103741,44.4231500476353,48.5570000000007 -0.823700018267959,44.4231200402219,49.6747000000032 -0.822819079994693,44.4230999238521,49.3934000000008 -0.822169985218184,44.4230799749247,48.7718000000023 -0.821328945618267,44.4230499674753,48.9207000000024 -0.820669960390448,44.4230400770495,49.1429000000062 -0.820088926471427,44.4230199606521,48.6606999999931 -0.819790028230298,44.4230100695796,48.9579999999987 -0.819740072019045,44.4230100695796,48.7927000000054 -0.819578971749242,44.4230100695796,48.2595000000001 -0.819569081297966,44.4228900408294,47.7813000000024 -0.819578971749242,44.4227899608658,47.7593000000052 -0.819609985186101,44.422660041815,47.2406999999948 -0.819799080553415,44.4222600574693,46.3554000000004 -0.820019021372631,44.4218200074342,45.4665999999997 -0.820220019417453,44.4214300812695,44.5877000000037 -0.820388998810597,44.4210200386267,44.8923000000068 -0.820650011502938,44.4204100035676,44.5534000000043 -0.820928960856525,44.4197399541279,45.9517000000051 -0.821000039155064,44.4195699689376,45.9000999999989 -0.821090061126327,44.4193599186145,45.8846999999951 -0.82112006845007,44.419279955432,45.8806000000041 -0.821158960111974,44.419150035639,45.9204999999929 -0.821169018548208,44.4190700721695,45.9300999999978 -0.821149069660698,44.4189899417712,45.9342000000033 -0.82114001733758,44.4189200366685,46.0314000000071 -0.82114001733758,44.4188300149265,46.2333999999973 -0.821149069660698,44.4187800587509,46.3472000000038 -0.821209922436376,44.4186199645116,47.2222000000038 -0.821238923647004,44.4185599501521,47.5096999999951 -0.82141008235304,44.4181599653454,47.9701999999961 -0.821878966100396,44.4169300050918,49.5678000000044 -0.822109971468994,44.4163999330878,49.1725000000006 -0.822248943538395,44.4160800801925,47.2911000000022 -0.822580028416126,44.4153399581773,45.4404000000068 -0.822619926191146,44.4152499360568,45.0898000000016 -0.822959058177209,44.414449967189,45.543399999995 -0.82368895371861,44.4127100523008,46.1205000000045 -0.824020039494672,44.4119300322282,46.3855999999942 -0.824129004240329,44.4116700255784,46.8212000000058 -0.824208967775325,44.4114899820919,47.1777000000002 -0.824668966286257,44.4103999992147,48.4519 -0.825038943724223,44.409520067047,47.4070000000065 -0.825158972120899,44.4092600605925,47.4219000000012 -0.825298950303416,44.4089400396589,47.0139000000054 -0.825550071646151,44.4084000774107,46.1839000000036 -0.82558996942117,44.4082999976726,46.1392999999953 -0.825618971530128,44.4082500414854,46.1355999999942 -0.825478993347612,44.4081999177634,46.1319999999978 -0.825429037136359,44.4081700778702,46.1600000000035 -0.825349073601329,44.4080699977387,46.3868999999977 -0.82484900933042,44.4073199852256,47.3426000000036 -0.824659075834981,44.407040029993,47.0359999999928 -0.824619010074971,44.4070499205583,47.0694999999978 -0.824370067146797,44.4071099345375,47.5945000000065 -0.823959018734036,44.40715000051,48.2741999999998 -0.823718961042353,44.4071600585517,48.3510999999999 -0.823070034250801,44.4071099345375,48.4928000000073 -0.822739955486152,44.4070599786173,48.1769000000058 -0.822619926191146,44.4070599786173,47.9783000000025 -0.822519007655524,44.4070700366744,47.8089000000036 -0.822458993906334,44.4071000439823,47.783500000005 -0.822409037695047,44.40715000051,47.744200000001 -0.822149031115855,44.4076299480795,47.9158000000025 -0.822079964145217,44.4078299402589,47.9407999999967 -0.822019949497731,44.4080299323963,48.4437000000034 -0.822040066370198,44.4080699977387,48.5473000000056 -0.822009052933339,44.4081000051752,48.5929000000033 -0.821979045609595,44.4081799688862,48.6949000000022 -0.821919031860406,44.4082599318461,48.6058000000048 -0.821840073540195,44.4083499538173,48.4514000000054 -0.821468922902453,44.4085299967023,48.6561999999976 -0.821289047843214,44.4086500254122,48.5415999999968 -0.821078997475275,44.4088399595614,48.4774999999936 -0.820838939783592,44.4090600681691,48.171199999997 -0.820409953811222,44.4094300455933,48.1119999999937 -0.820259079064314,44.4096300380351,47.7421000000031 -0.820169057991381,44.4097400081747,47.361699999994 -0.81996001283826,44.4100600292234,46.7399000000005 -0.819838978328435,44.4102700802265,46.493100000007 -0.819770079342788,44.410339984761,46.5142000000051 -0.819680057371524,44.4104199486182,46.6201000000001 -0.818480942112853,44.4105500354004,45.507500000007</coordinates>
</LineString>
</Placemark>
</Folder>
</Document></kml>
