<?xml version="1.0" encoding="UTF-8"?>

<kml xmlns:xsd="http://www.w3.org/2001/XMLSchema" xmlns:gx="http://www.google.com/kml/ext/2.2" xmlns:atom="http://www.w3.org/2005/Atom" xmlns="http://www.opengis.net/kml/2.2">
<Document>
<name>ES32a_10a_pancorbo-briviesca</name>
<visibility>1</visibility>
<Schema name="ES32a_10a_pancorbo-briviesca" id="kml_schema_ft_ES32a_10a_pancorbo-briviesca">
<SimpleField type="xsd:string" name="id">
<displayName>id</displayName>
</SimpleField>
<SimpleField type="xsd:string" name="nombre">
<displayName>nombre</displayName>
</SimpleField>
<SimpleField type="xsd:double" name="longitud">
<displayName>longitud</displayName>
</SimpleField>
<SimpleField type="xsd:string" name="_formato">
<displayName>_formato</displayName>
</SimpleField>
</Schema>
<Folder id="kml_ft_ES32a_10a_pancorbo-briviesca">
<name>ES32a_10a_pancorbo-briviesca</name>
<Placemark id="kml_1">
<name>&lt;img height='20' src='https://nco.ign.es/iconos/icono_todos_caminos_azul.png' /&gt;&lt;img height='20' src='https://nco.ign.es/iconos/Camino Santiago_20.png' /&gt;&lt;img height='20' src='https://nco.ign.es/iconos/icono_todos_caminos_azul.png' /&gt;  Camino de Santiago </name>
<visibility>1</visibility>
<description><![CDATA[<!DOCTYPE html>
<html>
<head>
<style>
#nco {
  border-collapse: collapse;
  overflow:hidden;
}
#nco th, #nco td {
  padding: 4px;
  text-align: left;
}
#nco th {
  color: #364B5F;
  padding-right: 5px;
}
#nco td {
  color: rgb(51, 51, 51);
  font-size: 12px;
  padding-right: 5px;
}
</style>
</head>
<body>
<table id="nco">
<tr>
<td>Caminos del Norte</td>
</tr>
<tr>
<th><b>Camino: </b></th>
<td>ES32a Camino Vía de Bayona</td>
</tr>
<tr>
<th><b>Etapa: </b></th>
<td>10a Pancorbo-Briviesca</td>
</tr>
<tr>
<th><b>Longitud: </b></th>
<td>22.95 km</td>
</tr>
</table>
</body>
</html>]]></description>
<Style>
<IconStyle>
<scale>0.8</scale>
</IconStyle>
<LabelStyle>
<color>ffffffff</color>
<scale>0.75</scale>
</LabelStyle>
<LineStyle>
<color>ffff0000</color>
<width>3.0</width>
<gx:labelVisibility>1</gx:labelVisibility>
</LineStyle>
<PolyStyle>
<color>66ff0000</color>
</PolyStyle>
</Style>
<ExtendedData>
<SchemaData schemaUrl="#kml_schema_ft_ES32a_10a_pancorbo-briviesca">
<SimpleData name="id">ES32a_10a</SimpleData>
<SimpleData name="_formato">kml</SimpleData>
</SchemaData>
</ExtendedData>
<LineString>
<extrude>0</extrude>
<tessellate>1</tessellate>
<coordinates>-3.11100186797591,42.6348839142073,628.9954 -3.11150176426183,42.6338678598302,631.452399999995 -3.11180770439648,42.6330313461411,629.604399999997 -3.11256609899026,42.6319437103203,630.1921 -3.11288913675969,42.631596866734,630.647100000002 -3.11410099282403,42.630783487127,631.045599999998 -3.11427852148375,42.6306522261984,631.395300000004 -3.1141646950558,42.6303057184354,632.300099999993 -3.11394056269746,42.6299481467698,632.429399999994 -3.11457339706901,42.6296095180349,630.945200000002 -3.11517085847965,42.6290891692995,631.080600000001 -3.11583772283081,42.6284563353413,631.374100000001 -3.11704907583864,42.6279329696399,634.549700000003 -3.11566740315127,42.6273375189066,638.071100000001 -3.11549825577316,42.6269150713879,636.664699999994 -3.11489157405445,42.6265923679689,634.106299999999 -3.11386244340371,42.6257781496252,635.503700000001 -3.11440190329139,42.6256780702058,634.729399999997 -3.11538526747334,42.6256948338436,634.354600000006 -3.11654984969589,42.6257297022223,634.455499999996 -3.11724487712952,42.6253587194649,634.800000000003 -3.11808792895567,42.6249434797518,635.624100000001 -3.11963858103619,42.6245267315408,635.614300000001 -3.12262756793894,42.6238095757761,644.020399999994 -3.12442548579299,42.6234758083379,644.032800000001 -3.12620094037501,42.6230587250888,640.416800000006 -3.12793180348469,42.622924279679,639.734599999996 -3.12995569793831,42.6229801027577,641.116599999994 -3.13186475985091,42.6230495047642,644.613500000007 -3.13265399989659,42.6232178136455,643.751799999998 -3.13354818113377,42.6235136947529,643.107300000003 -3.13411463090415,42.6236685920933,644.090400000001 -3.13458418479474,42.6238710991335,645.024600000004 -3.1373036097386,42.6246685533927,645.7788 -3.1393623723,42.6253696156876,646.086500000005 -3.14120722892428,42.625758703778,645.915200000003 -3.14210208120296,42.625414710232,645.866099999999 -3.14304672170796,42.6255298775208,647.929499999998 -3.14466593770255,42.6257104242475,653.139200000005 -3.14698169030045,42.6256410219024,653.685400000002 -3.15078103933614,42.625453434908,659.786900000006 -3.15468013280941,42.625447400187,650.576000000001 -3.15777255263225,42.6250125470958,654.969299999997 -3.15825367323044,42.6248097046838,655.262700000007 -3.15841477350024,42.6246303318997,656.506599999993 -3.15898055222912,42.6244506241389,660.332800000004 -3.1595302376397,42.6243183577111,664.872099999993 -3.15970759831443,42.6241388169415,667.0769 -3.15957684043999,42.6235540955784,665.896299999993 -3.15952772235689,42.6233633235502,672.176699999996 -3.16001588484859,42.6230833679182,676.747900000002 -3.16061083187472,42.6230991262096,672.868700000006 -3.16119253593698,42.6228595713267,677.691800000001 -3.16185554471893,42.6227633468275,678.850200000001 -3.16331952823915,42.6224808766648,678.430600000007 -3.16455569091849,42.6223462634325,685.611999999994 -3.16531995330768,42.6223288292896,669.821299999996 -3.16612947731249,42.6223943756925,669.372099999993 -3.16653348473007,42.6221445948841,678.101999999999 -3.16732071344782,42.6222431662683,681.785000000003 -3.17026527596481,42.6220228898587,684.387100000007 -3.17154686914302,42.6219878534894,683.502900000007 -3.17334495498199,42.6218356376733,678.657800000001 -3.17379455998507,42.6217851790356,670.373099999997 -3.17548016058082,42.6215501503792,669.604000000007 -3.17683115580122,42.6213563606009,661.360100000005 -3.17747689806513,42.6208894886117,661.015499999994 -3.17828323664394,42.6200279965007,661.245200000005 -3.17900910952947,42.6193222401494,662.527100000007 -3.18025181104577,42.6184126361742,664.967199999999 -3.18131782113219,42.6178257350702,664.038799999995 -3.18212583686561,42.6175377332235,663.672900000005 -3.18252967629823,42.6173699272608,663.754100000006 -3.18304667291389,42.6171421073824,664.194499999998 -3.18320877839851,42.6173213126765,664.501999999993 -3.18319318813676,42.6174886150412,664.380999999994 -3.18428015322379,42.6186340861592,668.373500000002 -3.18449087463327,42.6187774167248,670.704100000003 -3.18512102573708,42.6185014841205,677.823900000003 -3.18604219685695,42.6182252171224,685.134600000005 -3.18718934457647,42.6177814792007,693.207399999999 -3.1890642085245,42.6173127631428,709.732300000003 -3.18946804885541,42.6171208171092,711.841499999995 -3.19029115179405,42.6165104470156,719.986999999994 -3.19067923387825,42.6164861393926,722.475399999996 -3.1907769660896,42.6167248561013,721.143299999996 -3.19113504174836,42.6174530756964,722.846000000005 -3.19137778091118,42.6175843366926,725.866699999999 -3.19204078969316,42.6174638047319,731.4856 -3.19724477864308,42.616045083628,752.597399999999 -3.19858537945733,42.6153617913941,750.721999999994 -3.19960260743057,42.6148583737303,748.636199999994 -3.20053886665395,42.6142117937147,744.056299999997 -3.20103893092486,42.6138168389158,739.292199999996 -3.20249369323868,42.6135395654289,733.827499999999 -3.20419119651194,42.613285929227,729.742100000003 -3.20734245688424,42.612396106252,724.551999999996 -3.20939451442036,42.6118071935063,720.587 -3.21002433045257,42.6115673036237,719.471699999995 -3.21165645523777,42.6111225596225,715.211599999995 -3.21210823955375,42.6108471305996,713.327099999995 -3.21262473221454,42.6105235888806,712.417300000001 -3.21433732269302,42.6099589838157,717.865099999995 -3.21592150259488,42.6097050123772,718.738400000002 -3.21758598110334,42.6093316822676,718.292700000005 -3.21878056975131,42.6087082362075,718.491500000004 -3.22029886810857,42.6082276177592,716.706999999995 -3.22170434525263,42.6076393763532,715.875700000004 -3.22356160761096,42.6069790496546,715.642200000002 -3.22462694755417,42.6063317993887,714.426300000006 -3.22514243410188,42.6058054158475,715.678499999995 -3.22554459817648,42.6051833110965,717.981299999999 -3.22581784771959,42.6047529838722,719.156400000007 -3.22649611169172,42.6045727730956,719.258799999996 -3.22710966731899,42.6042130217603,720.509300000005 -3.22740035136516,42.6041052304435,721.701000000001 -3.22786890004093,42.6040324755136,721.061199999996 -3.22848228768321,42.6036847940592,721.938399999999 -3.22884857663863,42.6037733072877,721.449500000002 -3.22921067495325,42.603898700482,721.570800000001 -3.23045756711032,42.6043261772175,724.171000000002 -3.23084061952727,42.6043149453891,724.606199999995 -3.2322199458151,42.6042272706737,725.764800000004 -3.23414191561999,42.603554371936,726.991800000003 -3.2379675843952,42.6017663444299,732.404299999995 -3.24097786137016,42.6001543363923,737.927100000001 -3.24347013651463,42.5986006668629,746.992599999998 -3.24440505365502,42.5978701001967,751.806400000001 -3.2456006484161,42.5976166316348,753.956999999995 -3.24650421704801,42.5971251170466,756.959700000007 -3.24816668422858,42.5963449293724,764.871400000004 -3.25162120146772,42.5948440657339,780.864100000006 -3.25444590267466,42.5936191339609,778.838199999998 -3.25649745805254,42.5931128675149,763.1875 -3.2584013232112,42.592128831601,750.904599999994 -3.26088622228887,42.5909049065947,743.196299999996 -3.26167562942122,42.5908187407158,741.428199999995 -3.26415399056025,42.5913154522483,739.314299999998 -3.26465489385765,42.5907416272158,741.472299999994 -3.26497659044235,42.5908477419965,742.440700000006 -3.2653279601775,42.5897954779861,745.428 -3.26543508068188,42.5883495991033,748.233099999998 -3.26561009495713,42.5876802207093,751.1008 -3.26604142822731,42.5864725559467,757.1302 -3.2667642827735,42.5853839143728,761.928899999999 -3.26705379451822,42.5850248333704,763.980599999995 -3.26716527364836,42.5846664236151,766.266799999998 -3.26707927523126,42.5834839046381,774.398700000005 -3.26772317325386,42.5828135202148,777.3269 -3.26836640023496,42.5820594838986,780.5098 -3.26962133860203,42.5805869509207,785.859200000006 -3.27000707428671,42.5800962743733,785.741699999999 -3.27191211264514,42.5795185935735,794.931700000001 -3.2743819245176,42.5787722692056,798.710200000001 -3.27683581015841,42.5780495811793,799.748699999996 -3.27932188243586,42.5772791167382,799.147599999997 -3.28182404892994,42.5765326246675,797.411600000007 -3.283954895903,42.5759063287756,792.9804 -3.28443886685557,42.5756781733626,792.3891 -3.28572817117217,42.5748627820236,790.456900000005 -3.28695310311382,42.5740475579728,787.998600000006 -3.28804945559556,42.5734832885371,783.412500000006 -3.29071121318976,42.572329938481,772.969299999997 -3.29234048762057,42.5716211648969,762.935800000007 -3.29295219810824,42.5710580682753,755.907900000006 -3.29335302099811,42.5703881866775,746.421900000001 -3.29360917200813,42.5698738734708,739.609800000006 -3.29396255307122,42.569407001327,733.220000000001 -3.29460695415039,42.5689394588194,726.753800000006 -3.29523660219767,42.5688184238889,726.148499999996 -3.29559484494308,42.5689278918096,724.808300000004 -3.29586809538452,42.5690680367985,723.868900000001 -3.2962397481805,42.569079100985,724.791800000006 -3.29648181809842,42.56900684898,724.732399999994 -3.29688599350095,42.5690179131774,726.568299999999 -3.29709788811017,42.5693996248006,728.468200000003 -3.29739041639758,42.5697095876732,731.641900000002 -3.29782862177969,42.5701149367309,735.552500000005 -3.29811997686739,42.5701858477862,734.688500000004 -3.29852314705511,42.5699816644548,736.824099999998 -3.2984891161772,42.5696234216079,739.182199999996 -3.29829364995791,42.5693493334065,737.589900000006 -3.29811511518507,42.5691947713673,736.540500000003 -3.29829230877317,42.5690750779454,735.153099999996 -3.29825878185013,42.5688242914246,737.379000000001 -3.29856405004495,42.5684886799329,738.578599999993 -3.29852867888064,42.567843943523,741.259900000005 -3.29828359152164,42.5672952646675,742.465200000006 -3.29800564828117,42.56661532469,743.917799999996 -3.29789115081169,42.5663410684555,744.071899999995 -3.29850336525423,42.5659573453514,746.809099999999 -3.29913184010173,42.5655734538221,751.320500000002 -3.30085800951403,42.5648879818003,744.863100000002 -3.30229332689521,42.5642509571452,740.114799999996 -3.30472307300769,42.5620461814591,736.158599999995 -3.30586418494681,42.560729048887,733.481599999999 -3.30670371627537,42.5597624477516,732.062900000004 -3.30831270674706,42.5586391055472,731.5092 -3.3104026507303,42.5569177975694,733.909299999999 -3.31116355970856,42.5556925308772,737.667100000006 -3.31272577849668,42.5544469805904,740.861399999994 -3.31453811341271,42.5535883383539,735.8217 -3.31735191895355,42.5524597987808,724.853000000003 -3.31766640745644,42.552460301712,722.835200000001 -3.31798793785281,42.5524405206316,722.473800000007 -3.31829421216074,42.5518970380901,720.786200000002 -3.31853577902211,42.5513446706139,718.711500000005 -3.31877952429805,42.5511728415312,718.577399999995 -3.31979557907151,42.5511512157025,716.882299999997 -3.32031022749103,42.5511880965407,716.392200000002 -3.3208875729275,42.5509012677233,716.6976 -3.3214441313483,42.5506942345601,716.281400000007 -3.32411913190641,42.5507961583492,716.819699999993</coordinates>
</LineString>
</Placemark>
</Folder>
</Document></kml>
