<?xml version="1.0" encoding="UTF-8"?>

<kml xmlns:xsd="http://www.w3.org/2001/XMLSchema" xmlns:gx="http://www.google.com/kml/ext/2.2" xmlns:atom="http://www.w3.org/2005/Atom" xmlns="http://www.opengis.net/kml/2.2">
<Document>
<name>ES24c_19a_lleida-alcarras</name>
<visibility>1</visibility>
<Schema name="ES24c_19a_lleida-alcarras" id="kml_schema_ft_ES24c_19a_lleida-alcarras">
<SimpleField type="xsd:string" name="id">
<displayName>id</displayName>
</SimpleField>
<SimpleField type="xsd:string" name="nombre">
<displayName>nombre</displayName>
</SimpleField>
<SimpleField type="xsd:double" name="longitud">
<displayName>longitud</displayName>
</SimpleField>
<SimpleField type="xsd:string" name="_formato">
<displayName>_formato</displayName>
</SimpleField>
</Schema>
<Folder id="kml_ft_ES24c_19a_lleida-alcarras">
<name>ES24c_19a_lleida-alcarras</name>
<Placemark id="kml_1">
<name>&lt;img height='20' src='https://nco.ign.es/iconos/icono_todos_caminos_azul.png' /&gt;&lt;img height='20' src='https://nco.ign.es/iconos/Camino Santiago_20.png' /&gt;&lt;img height='20' src='https://nco.ign.es/iconos/icono_todos_caminos_azul.png' /&gt;  Camino de Santiago </name>
<visibility>1</visibility>
<description><![CDATA[<!DOCTYPE html>
<html>
<head>
<style>
#nco {
  border-collapse: collapse;
  overflow:hidden;
}
#nco th, #nco td {
  padding: 4px;
  text-align: left;
}
#nco th {
  color: #364B5F;
  padding-right: 5px;
}
#nco td {
  color: rgb(51, 51, 51);
  font-size: 12px;
  padding-right: 5px;
}
</style>
</head>
<body>
<table id="nco">
<tr>
<td>Caminos del Nordeste</td>
</tr>
<tr>
<th><b>Camino: </b></th>
<td>ES24c Camí Català de Sant Jaume</td>
</tr>
<tr>
<th><b>Etapa: </b></th>
<td>19a Lleida-Alcarras</td>
</tr>
<tr>
<th><b>Longitud: </b></th>
<td>14.6 km</td>
</tr>
</table>
</body>
</html>]]></description>
<Style>
<IconStyle>
<scale>0.8</scale>
</IconStyle>
<LabelStyle>
<color>ffffffff</color>
<scale>0.75</scale>
</LabelStyle>
<LineStyle>
<color>ffff0000</color>
<width>3.0</width>
<gx:labelVisibility>1</gx:labelVisibility>
</LineStyle>
<PolyStyle>
<color>66ff0000</color>
</PolyStyle>
</Style>
<ExtendedData>
<SchemaData schemaUrl="#kml_schema_ft_ES24c_19a_lleida-alcarras">
<SimpleData name="id">ES24c_19a</SimpleData>
<SimpleData name="_formato">kml</SimpleData>
</SchemaData>
</ExtendedData>
<LineString>
<extrude>0</extrude>
<tessellate>1</tessellate>
<coordinates>0.627040955744461,41.6152649553273,151.0 0.627012960646949,41.6152429946905,151.0 0.626996029200456,41.6152190226042,151.0 0.626977924554221,41.615195050509,151.0 0.626953952112545,41.6151700723473,150.703800000003 0.62693299711192,41.6151439208894,150.669800000003 0.626915059552344,41.615118942708,150.3361 0.626897961019225,41.6150919530708,150.209400000007 0.626880023459616,41.6150679809284,150.087400000004 0.626862924926496,41.6150440081055,150.0 0.626844987366921,41.6150200359452,150.116399999999 0.626828055920428,41.6149950583874,150.185899999997 0.626803077365637,41.6149739358187,150.006699999998 0.626778937837334,41.6149519750828,150.077399999995 0.626750942739822,41.6149330318517,150.0383 0.62672596418503,41.6149120771635,150.0 0.626705009184405,41.6148899491773,150.024399999995 0.626681037641026,41.6148689944751,150.0 0.626656059086234,41.6148470337035,150.103499999997 0.626631919557932,41.61482306147,150.259999999995 0.626610964557306,41.6148009334533,150.025599999994 0.626585986900811,41.6147799787222,150.114499999996 0.626557990905002,41.6147560064638,150.0 0.62652999490916,41.6147370631752,150.056599999996 0.626501999811649,41.6147179526513,150.061799999996 0.626478027369973,41.6146959918282,150.0 0.626446008718295,41.6146770485219,150.073300000004 0.626422036276619,41.6146559265207,150.0 0.626397058620158,41.6146339656765,150.0383 0.626369062624315,41.6146150223521,150.0 0.626341067526804,41.6145910500324,150.020600000003 0.626310054089945,41.614569928003,150.0 0.626278035438267,41.6145449495992,150.027400000006 0.626247022001408,41.6145260069203,150.0 0.626219026903896,41.614508069632,150.035699999993 0.626183990811168,41.6144669981392,149.578200000004 0.626150966046374,41.6144299502253,149.062000000005 0.626080054834495,41.614377982503,149.070500000002 0.626003946868674,41.614333055219,149.1054 0.625974945658047,41.6142919842864,149.0 0.625922978118859,41.6142700233183,149.0 0.625870004466556,41.6142430339976,149.154999999999 0.625818036927368,41.6142110149747,149.177899999995 0.625776965054242,41.6141749729869,149.069199999998 0.625730026284039,41.6141439593321,149.0 0.625694990191311,41.6141079173069,149.0 0.625659954098616,41.6140680195371,149.0 0.625619050210448,41.6140319774694,149.161200000002 0.625572949568403,41.6139959353814,149.0 0.625532045680235,41.6139600605051,149.008499999996 0.625478066813146,41.6139290474187,149.767300000007 0.625422075719792,41.6138960228341,150.741200000004 0.625386033513981,41.6138519340605,149.532099999997 0.625338926758788,41.6138209209221,149.373699999996 0.625292994101668,41.6137939314135,148.958100000003 0.625240020449364,41.6137530273698,149.0 0.625182018028109,41.6137179912063,149.0 0.625153015919151,41.6136859725944,149.191000000006 0.625111944944356,41.6136499303132,149.6008 0.62507104105622,41.613614055916,149.436300000001 0.625029970081425,41.6135780135946,149.029999999999 0.624966937992888,41.6135419712531,148.951000000001 0.624930057658885,41.6135210167845,148.695399999997 0.62487892824789,41.6134960386463,148.680999999997 0.624828972036603,41.6134690490017,148.670299999998 0.624773987056399,41.6134479266048,149.0 0.624681953757201,41.6134040054296,149.0 0.624643061197,41.6133820448308,149.0 0.624617077427389,41.6133629339055,149.0 0.624602995436989,41.6133470084659,149.0 0.624587070103646,41.613331920532,148.986000000004 0.624567959344295,41.6133200187589,148.708199999994 0.624544993015735,41.613306942992,148.401700000002 0.624524038015109,41.6132980581316,148.189700000003 0.624504927255758,41.6132869938625,148.0 0.624483973153429,41.6132769356787,148.0 0.624465029480705,41.6132660393112,148.063099999999 0.624444074480079,41.6132549750367,148.085399999996 0.624420941064892,41.6132440786654,148.0 0.624401997392168,41.6132330143871,148.108200000002 0.62438406073089,41.6132209446906,148.171100000007 0.624364949971539,41.6132100483136,148.093900000007 0.624346006298848,41.6131959664361,148.0 0.624325052196519,41.6131850700549,148.0 0.624303929210936,41.6131740057665,148.0 0.624282975108608,41.6131619360589,147.997499999998 0.624265037548999,41.6131510396719,147.742899999997 0.624247938117582,41.6131349462746,147.373500000002 0.62423704155319,41.613118014689,147.0 0.624222960461121,41.6131019212834,147.0 0.624202005460462,41.6130910248863,147.0 0.624178033018786,41.6130839842707,147.0 0.624153055362325,41.6130789551632,147.0 0.624129921048807,41.6130739260553,147.0 0.624105948607131,41.6130700702713,147.0 0.624079964837554,41.6130680587622,147.0 0.624056998508994,41.6130610174725,147.0 0.624034032180434,41.6130539768537,147.0 0.624010059738758,41.6130469362341,147.0 0.623986926323571,41.6130390574285,147.0 0.623963959096714,41.6130320161357,146.968999999997 0.623939987553335,41.6130269870241,146.838600000003 0.623920038665825,41.613017934891,146.546600000001 0.623896066224149,41.6130110615016,146.375400000004 0.623874944136897,41.6130020093661,146.159499999994 0.623853989136238,41.6129929565578,146.0 0.623831022807711,41.6129850777457,146.0 0.6238050390381,41.612976024935,146.0 0.623782071811243,41.6129689843069,146.0 0.623758938396023,41.6129659667027,146.0 0.62373496595438,41.6129589260736,146.0 0.62371199962582,41.6129510472573,146.0 0.62368903329726,41.6129440066265,146.0 0.623665060855584,41.6129369653232,146.0 0.623641926542067,41.6129299246908,146.0 0.623618960213506,41.6129210397784,146.0 0.623594987771864,41.6129139991443,146.0 0.623577051110586,41.6129029348094,146.0 0.62355307866891,41.6128960620793,146.0 0.623529944355392,41.6128849977414,146.0 0.623508990253064,41.6128759455883,146.0 0.623488035252438,41.6128670606684,146.0 0.623465068923878,41.6128580078411,146.0 0.623443945938295,41.6128489556842,146.0 0.623422991835967,41.6128400707606,146.0 0.623402036835341,41.6128310186012,146.0 0.623378064393665,41.6128199542521,146.0 0.623356942306379,41.6128110693245,146.0 0.623335987305754,41.612802017161,146.0 0.623315032305128,41.6127909528069,146.0 0.623201038790519,41.6127319444535,146.0 0.623150076466151,41.6127049544892,146.0 0.623117051701357,41.6126779645136,146.595499999996 0.623061060608003,41.612640078725,147.0 0.623005069514649,41.6126060480546,147.0 0.622941032211327,41.612557936021,147.0 0.62287498268174,41.6125259168333,147.0 0.622829050024619,41.6125039566072,147.255499999999 0.622790995592577,41.6124660700448,147.1486 0.622738021940274,41.6124429364626,147.0 0.622691922196493,41.6124119233184,147.0 0.62264498342629,41.6123800719656,147.0 0.622593014988772,41.6123450357279,147.325500000006 0.622546077116866,41.6123130164345,147.0 0.622498970361673,41.6122820038995,147.0 0.622453037704586,41.6122550137469,147.0 0.622400064052283,41.6122320473252,147.0 0.622344072958929,41.6122139428345,147.0 0.622291937434784,41.6122000286473,147.368700000006 0.622229073331204,41.6121869526534,147.903900000005 0.622173082237851,41.6121599631327,147.4948 0.62211994060059,41.612138002782,147.786399999997 0.622074007943503,41.6121110125692,147.926900000006 0.622021034291199,41.6120890522019,148.0 0.621973928434303,41.612057033453,148.0 0.621921959996818,41.6120260201232,148.0 0.621868986344515,41.6119990305352,148.0 0.621823053687395,41.6119670117417,148.0 0.621775947830532,41.611940022129,148.0 0.621723979393047,41.611913032505,148.0 0.621676035407992,41.6118739729211,148.0 0.621624067868805,41.6118510063637,148.003299999997 0.62157193234466,41.6118189874967,148.003800000006 0.621508062127964,41.6117909917118,148.031600000002 0.621473025136939,41.6117720488956,148.098599999998 0.621414016602568,41.6117360062167,148.180500000002 0.621365066504431,41.6116999641891,148.169299999994 0.621320978088585,41.6116729744647,148.051500000001 0.621274039318349,41.6116510139482,148.272899999996 0.621221065666045,41.6116189949819,148.675300000003 0.621178988578134,41.6115869759997,148.842999999993 0.621110927720645,41.6115430549008,148.440199999997 0.621076058714578,41.6115180773398,148.998099999997 0.621023923190433,41.6114909196295,148.936900000001 0.620970949538129,41.6114600739374,148.963199999998 0.620918981998941,41.6114329168743,149.0 0.620866008346638,41.6113970425874,149.0 0.620808005027052,41.6113700527363,149.0 0.620761066256816,41.6113430628738,149.0 0.620704069948677,41.6113130559902,149.0 0.620652940537648,41.6112889158764,149.0 0.620608013095347,41.611260920533,149.0 0.620568953448486,41.6112429830084,149.0 0.620509944914115,41.6112039230189,149.0 0.620457977374927,41.6111720717412,149.0 0.620399974055342,41.6111499438153,149.0 0.620353035285105,41.6111179252719,149.675900000002 0.620276928217615,41.6110679691394,150.0 0.620204005677802,41.6110230415648,150.0 0.620137956148215,41.6109819705395,150.0 0.620064027495285,41.6109420728512,150.0 0.620036032397774,41.6109229618746,150.0 0.620000995406715,41.6109120651094,150.0 0.619969982868186,41.6108959724967,150.0 0.619941986872344,41.6108770287461,150.0 0.619909968220666,41.6108579184219,150.0 0.619881972224858,41.6108419930354,150.0 0.619853977127346,41.6108230499406,150.0 0.619825981131504,41.610806956634,150.0 0.619797986033992,41.6107910305633,150.0 0.61976999003815,41.6107749372488,150.0 0.619738977499588,41.6107590118418,150.0 0.619710981503779,41.6107400687226,150.0 0.619682986406268,41.6107179406485,150.0 0.619654990410425,41.6106989975173,150.0 0.619622971758747,41.6106830720916,150.0 0.619591959220219,41.6106669787501,150.0 0.619559939670211,41.6106510526448,150.0 0.619531944572699,41.610634959967,150.0 0.61950394857689,41.6106180283969,150.0 0.619472936038328,41.6105999234532,150.0 0.61944091648832,41.6105829918739,150.0 0.619410071934748,41.6105699162239,150.0 0.619382075938906,41.6105509730492,150.0 0.619350057287228,41.6105320298689,150.0 0.619319043850369,41.6105159364898,149.9139 0.619287025198692,41.6105000110189,149.459499999997 0.619256011761832,41.6104839176317,149.369600000005 0.619223993110154,41.6104669866936,149.887499999997 0.619192980571592,41.6104510605391,150.0 0.61910899348243,41.6103999311889,149.029699999999 0.619034059614682,41.610357016086,149.0 0.618984941531588,41.6103300257996,149.0 0.618926938212002,41.6102889550048,149.0 0.618860051452587,41.6102569360341,149.0 0.618829038015694,41.6102379927675,149.0 0.618801042019885,41.6102170378974,149.0 0.618773046922374,41.6101950775569,149.0 0.618742033485481,41.6101789840937,149.0 0.618714038387969,41.6101600408042,149.058199999999 0.618686042392161,41.6101409302676,149.558399999994 0.618658047294649,41.6101219869669,149.999400000001 0.618626028642971,41.6101060613987,150.0 0.618598032647129,41.610089968585,150.0 0.618570037549617,41.610074043009,150.0 0.618542041553809,41.6100549317751,150.0 0.618443973372543,41.6099930737759,150.0 0.61837105083273,41.6099449611367,150.0 0.618326962416884,41.6099169658818,150.326400000005 0.618302989975208,41.6098950054392,150.705499999996 0.6182749939794,41.6098760620662,151.0 0.618239957886671,41.6098599691951,151.0 0.618207939234993,41.6098470606409,151.0 0.618173070228925,41.6098359964516,151.0 0.618142056792066,41.6098229206502,151.0 0.618114061694555,41.6098039779277,151.0 0.618082043042877,41.6097850345281,151.0 0.618054047047068,41.6097659238804,151.0 0.618026051949556,41.6097499982244,151.030400000003 0.617998055953714,41.6097340725644,151.342300000004 0.617970060856203,41.6097149619016,151.9804 0.61794206486036,41.6096990362329,151.836800000005 0.617911052321798,41.6096849549323,152.0 0.617879032771823,41.6096690292562,152.0 0.617848020233261,41.6096529356618,152.0 0.617812984140567,41.6096339928895,152.0 0.617780964590558,41.6096150494399,152.0 0.617749952052029,41.6095959387418,152.0 0.617721956056187,41.6095769959528,152.0 0.617693960958676,41.6095580524865,152.0 0.617665964962834,41.6095399479169,152.0 0.617637969865322,41.6095210044398,152.441399999996 0.617602932874297,41.6095020616287,153.0 0.617571082207576,41.6094859686643,152.835500000001 0.617540068770717,41.6094700429392,153.0 0.617508050119039,41.6094559609168,153.0 0.61747703668218,41.6094400358559,153.0 0.617445018030502,41.6094239422043,153.0 0.61741400549194,41.6094100280871,153.071100000001 0.617381985941965,41.6093939350997,153.589800000002 0.617353990844453,41.6093749922513,154.0 0.617333035843828,41.6093540371008,153.720799999996 0.617312080843202,41.6093290593639,153.694499999998 0.617294982310083,41.6093049191794,153.956999999995 0.617253072308798,41.6092489281019,154.0 0.617206971666754,41.6091870700014,154.0 0.617183000123375,41.6091270555578,154.0 0.617166068676916,41.6090769313109,154.0 0.617184005338194,41.6090459185634,154.0 0.617166068676916,41.6090009915955,153.600000000006 0.617148969245465,41.6089560645964,153.0 0.617148969245465,41.6089059408883,153.0 0.617148969245465,41.6088620193073,153.0 0.617166068676916,41.6088169249663,153.0 0.617190040220261,41.608771997839,152.629199999996 0.617213007447118,41.6087270706803,152.0 0.617242008657779,41.608681976245,152.0 0.617283079632541,41.6086459338545,152.0 0.617306045961102,41.6086010072798,151.8361 0.617330018402777,41.6085560800021,151.0 0.617388020824032,41.6085379751513,151.0 0.617486928031787,41.6085430046128,151.0 0.617521964124481,41.6085069621447,151.0 0.617550965335109,41.6084350450657,151.0 0.617527999006549,41.608399003209,151.0 0.617516934457199,41.6083790545766,151.0 0.617521964124482,41.6083269187634,151.0 0.617527999006549,41.6082819919665,151.0 0.61755700021721,41.6082419260334,151.0 0.617600921546395,41.6081939820216,151.0 0.617640987306372,41.608153078457,151.0 0.617668982403884,41.6081130124439,151.0 0.61768993740451,41.6080830054011,151.0 0.617715083045962,41.6080350612712,150.531300000002 0.617744922384748,41.6080040480229,150.0 0.617781970703707,41.6079520798255,150.0 0.617824047791585,41.6079089971902,150.0 0.617836955683912,41.6078729550395,150.0 0.617884062439105,41.6078330574434,150.0 0.617918930546843,41.6077919857306,150.0 0.617947932655801,41.6077519201649,150.0 0.617982968748529,41.6077120224939,150.0 0.618011969959157,41.6076669280208,149.269400000005 0.618047006051851,41.6076260241221,149.0 0.618076008160809,41.6075859584534,149.0 0.618111044253504,41.6075410318122,149.0 0.618151948141673,41.6074999605851,149.0 0.618186984234368,41.6074600620866,149.0 0.618210956676044,41.607404071423,149.0 0.618208944449812,41.6073730585431,149.0 0.61817206411581,41.6073460683517,149.0 0.618150942028557,41.6073329927173,149.0 0.618129987027898,41.6073229342768,149.0 0.618106014586256,41.6073140499354,149.0 0.618085060483927,41.6073029853117,149.0 0.61806192617041,41.6072959447362,149.0 0.618050023492902,41.6072800191421,149.0 0.618046000837066,41.6072620818539,149.0 0.61803895984185,41.60724397664,149.0 0.618035942400832,41.6072260400135,149.0 0.618031918846667,41.6072079347895,149.0 0.61802202839539,41.6071899974814,149.0 0.618012976072273,41.6071700484752,149.0 0.618001073394765,41.6071539556007,149.0 0.617994032399548,41.6071340065834,149.0 0.61798498007643,41.6071140575599,149.0 0.617973078297219,41.6070979639998,149.0 0.617958996306853,41.6070840500526,149.0 0.617945082301411,41.6070679571566,149.0 0.617926977655175,41.6070510253221,149.0 0.617908034880781,41.6070369441151,149.0 0.617891941562447,41.6070230301547,149.0 0.617870986561821,41.6070099544548,148.873300000007 0.617858916797653,41.6069940287901,148.511199999994 0.617845002792245,41.6069779352001,148.144 0.617822036463684,41.6069400494224,148.689799999993 0.61776302792928,41.606930996435,148.997399999993 0.617669988517,41.6069320026211,149.493700000006 0.617571920335768,41.6069160769371,150.065700000006 0.617550965335109,41.6068939488947,150.032200000001 0.61751995279658,41.6068729936101,150.0 0.617506038791138,41.6068460038812,149.996599999999 0.617502015236972,41.606819014141,149.882199999993 0.617494974241789,41.6067920250612,149.554099999994 0.617491956800738,41.6067650352985,149.116999999998 0.617491956800738,41.6067350276288,148.502099999998 0.617506038791138,41.6067080378421,148.0 0.61753403388865,41.6066889276263,148.0 0.617562029884458,41.6066730018824,148.0 0.617590024982003,41.6066570761345,148.0 0.617618020977812,41.6066409831321,148.0 0.617669988517,41.6066089636942,148.0 0.617753974707865,41.6065600136204,148.0 0.617809965801219,41.6065030166547,148.462599999999 0.617746934610979,41.6064289203896,148.681100000002 0.617706030722844,41.6063839936144,148.587700000004 0.617663953634932,41.6063219675306,147.488100000002 0.617584996213018,41.606285925165,148.535600000003 0.617512073673205,41.6061910424113,147.926000000007 0.61745407035362,41.6061350513181,148.0 0.617372933618847,41.6060530763152,147.456000000006 0.617307052074217,41.6059459555807,146.491399999999 0.617200936784653,41.6058579451359,147.625499999995 0.617103036588379,41.6057699352428,147.608099999998 0.617037993171907,41.6056879604476,147.517099999997 0.616918969990016,41.6055620644075,147.245899999994 0.616841017782921,41.6054970209233,147.939299999998 0.616802964249176,41.605444047184,147.712499999994 0.616770945597498,41.6053939234341,148.0 0.616743955714805,41.605364922009,147.042700000005 0.616690982062502,41.6053040690827,146.8171 0.616681929739384,41.6052450605979,143.722500000003 0.616621076963705,41.6051659358506,142.137600000002 0.616499036340797,41.6050849665029,145.503899999996 0.616400968159532,41.6050029915092,146.749100000001 0.616303067963224,41.6049020729213,146.6875 0.616246070756788,41.6048080284398,145.828999999998 0.616123024020731,41.6046690565235,145.703999999998 0.615978017069263,41.6045010831661,145.039000000004 0.615826975235695,41.6043639551127,145.142099999997 0.615727063711485,41.6042640424247,144.782099999997 0.615602005647527,41.6041119950647,145.0 0.615466051019177,41.603890042368,145.0 0.615312996959377,41.6036630604096,145.0 0.615209061881002,41.6034679293912,145.0 0.615097079694294,41.6032979444519,144.997799999997 0.614918041864916,41.6031180692437,144.0 0.614773034913449,41.6029849645851,144.033200000005 0.614648982962606,41.6027859778043,143.997799999997 0.614535994662783,41.6025779388271,144.0 0.614418983707157,41.6023479395261,144.0 0.614303984079432,41.6021489534679,144.0 0.614189989666493,41.6019100688959,143.829899999997 0.614052023710208,41.6016919718068,143.928199999995 0.613947920646876,41.6014790712568,143.6158 0.613933000528318,41.6014390058014,143.669500000004 0.613899975763524,41.6013989403212,143.573300000004 0.61383392623397,41.6012410252304,143.136700000003 0.613753963597271,41.6010599761197,143.194600000003 0.613623037737872,41.6008440586722,144.0 0.613534021879725,41.6006410488857,144.0 0.613475013345354,41.6004920185657,143.444799999997 0.613454058344695,41.6002449203468,142.787299999996 0.613458081898861,41.6000600152386,143.302500000005 0.613458920027019,41.5998789661733,143.119900000005 0.613465961022236,41.5996539961399,143.793099999995 0.613519940787655,41.5995110006797,143.9323 0.613582972876192,41.5993420216977,143.551800000001 0.613650027620565,41.5991909797949,143.105800000005 0.613665952953942,41.5990310527285,143.878899999996 0.613672993949125,41.5988810170813,144.0 0.613737032150778,41.5986790128084,143.394199999995 0.613772068243506,41.5985090280176,143.623699999996 0.613814983459576,41.5983620094442,143.778300000005 0.613859072773719,41.5981579935882,144.0 0.613897964435623,41.597885079319,144.0 0.613914057753924,41.597681063299,144.0 0.613898970548739,41.597456931381,144.0 0.61390098187664,41.5972589506856,144.0 0.613917075194974,41.5971640680937,144.0 0.613975077616229,41.596962063821,144.0 0.614015981504398,41.5966869699011,144.0 0.614050012382307,41.5964710519301,144.0 0.614073983925653,41.5963270511275,143.024900000004 0.614135004686255,41.5962940262658,143.0 0.614398028706498,41.5964029909802,142.0 0.61450900478009,41.5964400391697,141.231100000005 0.614632051516113,41.5964529470473,140.910999999993 0.614873953449104,41.5963760015745,140.0 0.61507394538081,41.5962380353181,139.671700000006 0.615233034322678,41.5960569862794,139.974400000006 0.615301933308325,41.5959359514095,139.964500000002 0.615458003910845,41.5957969791963,139.839999999997 0.615653973186715,41.5956000044744,140.0 0.615840051112979,41.5954270025548,139.854800000001 0.61608094693282,41.5953339633955,138.7497 0.616243053315738,41.5952600350211,139.0 0.616457965366002,41.5951549259038,138.835300000006 0.616709924836896,41.5950229945963,139.065000000002 0.616956018308976,41.5949090003873,139.0 0.617193058559608,41.5947869603483,140.0 0.617364049280687,41.5947359979592,140.0 0.617402940942591,41.594718060543,139.758000000002 0.617560017658227,41.5946149632994,140.631099999999 0.617760010488263,41.5945579665315,140.624899999995 0.617937036091409,41.5944800151066,140.481700000004 0.618140045464165,41.5944270410567,140.398799999995 0.618339032181052,41.5943740676351,140.436100000006 0.618599038760245,41.5942949423224,141.0 0.618766005927157,41.5942550443923,140.313800000004 0.619103964713478,41.5941720633639,139.0 0.619425997268092,41.5941269688337,138.0 0.619726069607295,41.5940409704949,138.0 0.620014071283999,41.593962013401,137.133000000002 0.620185062005077,41.5938709855813,137.121899999998 0.620434004933251,41.5936899366211,138.0 0.620599966885345,41.593506037939,138.0 0.620733071159305,41.5932969928791,137.485400000005 0.620756037487865,41.5930839248936,137.1829 0.620850082114964,41.5929070666313,137.554099999994 0.620884951121032,41.5928730363017,137.775500000003 0.620948989322685,41.5926329786332,137.0 0.620986036743314,41.5924299692194,137.446299999996 0.621009003071874,41.5922299763977,138.0 0.621085949165854,41.5920579799255,137.313999999998 0.621133055921047,41.591872069127,136.748500000002 0.621159039690624,41.5917029223388,137.812699999995 0.62120597846086,41.5915059478881,137.264999999999 0.621257946000048,41.5913419975613,137.137400000007 0.621276050646283,41.5911170273316,137.894 0.621310919652351,41.5910189591949,137.899399999995 0.621328018185471,41.590983922779,137.270000000004 0.621322989416519,41.5909379902366,137.351999999999 0.621355008068164,41.5907289455943,136.894199999995 0.621349979299212,41.5905110163077,136.779500000004 0.621342938304029,41.5903170588993,137.528000000006 0.621314943206517,41.5901150546973,137.096999999994 0.621224921235254,41.589900981179,137.500799999994 0.621108077366255,41.5897799461874,137.564400000003 0.620884951121032,41.5895739191809,136.9231 0.620586052879902,41.589404940385,137.586800000005 0.620432998820135,41.589236966937,137.928199999995 0.62025496710384,41.5889290157122,137.989600000001 0.620066038823187,41.5886800732667,138.164600000004 0.619903933338599,41.5883379240703,137.875599999999 0.61976999003815,41.5881109418345,137.397599999997 0.619701929180662,41.5878599879709,136.370500000005 0.619572010332676,41.5875250471495,136.375100000005 0.619449969709768,41.5872199453133,135.6921 0.619261041429114,41.5869440130066,135.459000000003 0.619067922507634,41.5866409234452,135.506099999999 0.618923920770952,41.5864969228851,136.0 0.618826020574677,41.5863400134504,136.0 0.618754942276138,41.5862270251982,135.922099999996 0.618665926417991,41.5860389354211,135.083799999993 0.618530977902756,41.5859009692431,135.772899999996 0.618508010675899,41.5858719677926,135.742499999993 0.618424024485034,41.5857350077744,135.0 0.618392005833356,41.5857090237846,135.0 0.618238951773555,41.5855380325841,135.0 0.618110038140388,41.5853849796015,135.0 0.618043988610801,41.5852540536635,135.0 0.617979951307479,41.5849819771369,133.863200000007 0.617893952890382,41.584799922248,133.792100000006 0.617835950469127,41.584744937269,135.0 0.617715083045962,41.5845910451956,134.694799999997 0.617594048536136,41.5844659875422,134.806299999997 0.617362037054455,41.5842849384096,134.906300000002 0.617162045122749,41.5841830144789,135.0 0.616995077955837,41.5840609736476,134.427500000005 0.616785026689567,41.5839479861107,133.985700000005 0.61660297231747,41.5837550343463,134.842300000004 0.616454947924952,41.5836160627859,134.670700000002 0.616260990875346,41.5835300638831,134.046900000001 0.615966953418211,41.5834219375101,134.0 0.615765955373389,41.5833069377619,134.0 0.615474935357338,41.5831689717937,134.0 0.615449957700843,41.5831570691603,134.0 0.615267064302257,41.5830910200547,134.0 0.615071934052876,41.5829939577084,134.0 0.614861044658447,41.582864038187,133.948799999998 0.614653006516772,41.5827740167355,134.0 0.614373051050037,41.5826640459681,134.0 0.614084042361886,41.5826139219959,134.0 0.613838955901219,41.5825730183438,134.0 0.61352094600244,41.5824739440999,133.898499999996 0.613301005183225,41.5824380698394,133.974799999996 0.613078046922959,41.5823859345702,134.0 0.612886939329413,41.5823369842653,134.0 0.612852070323345,41.5823309488794,134.0 0.612557027651458,41.5822580262951,134.0 0.612448062905801,41.5822260075263,134.0 0.612380002048279,41.5822050529667,134.0 0.612144973125581,41.5821200601016,133.960999999996 0.611947998634892,41.5820940766729,134.274600000004 0.611735936040721,41.5820149510912,134.100399999996 0.611531920554849,41.5819309645517,133.449500000002 0.611349027156262,41.5818479838082,133.247099999993 0.611130930578355,41.5817549445641,133.757199999993 0.610840078547227,41.5816489977105,133.128100000002 0.610645953512631,41.5815889831901,134.0 0.610527936443889,41.5815779188593,133.0 0.610318053162577,41.5814919206018,133.0 0.610057041368565,41.5814220154776,133.0 0.609793011235206,41.5813549600283,133.0 0.60969594826876,41.581339034752,133.0 0.609429068679308,41.5812629266602,133.0 0.609235949757862,41.5811960397061,132.5239 0.608944929741777,41.5811710611495,133.0 0.608694981598818,41.5811440714228,133.0 0.608521979549805,41.5811380365973,132.737299999993 0.608388036249389,41.5811110468568,133.0 0.608083941254351,41.5811030001948,133.0 0.608068015022676,41.581059079177,132.666800000006 0.607996936724138,41.5810659519383,132.928 0.607988052385977,41.5810880807734,133.0 0.607768948796589,41.5810429858389,133.0 0.607643052604473,41.5810159960586,132.775899999993 0.607521011981532,41.5810190138131,132.833899999998 0.607294030167133,41.5809610105452,132.346399999995 0.607038047142073,41.5809499467789,132.270799999998 0.606873929431254,41.5809279858857,132.022200000007 0.606821961892066,41.5808999908094,132.642800000001 0.606618951621013,41.5809120605042,132.390599999999 0.606239922758227,41.5809090427447,132.0 0.606006067035271,41.580906025657,132.829100000003 0.605990979830053,41.5809040138173,132.7739 0.605923924187383,41.5809110545843,132.896500000003 0.605880003756495,41.5809130664239,132.984299999996 0.605618991064186,41.5808820535805,133.0 0.605528969092923,41.5808679713672,132.880799999999 0.605187993763915,41.5807739268051,133.0 0.604984983492828,41.5807050274986,132.506599999993 0.604787002889057,41.5806790435005,132.9378 0.604639984609655,41.5806419956728,133.0 0.604404955686923,41.580615005725,132.249200000006 0.60413606476957,41.5805729289074,132.127299999993 0.603879075631395,41.5805199548686,132.771599999993 0.603673047919291,41.5804810630871,132.822700000004 0.603384040129471,41.5804339565462,132.0 0.603069048570041,41.5803950647128,132.0 0.602879952304396,41.580377965953,132.0 0.602614078828093,41.5803509758949,132.0 0.602426994788714,41.5803169456662,132.0 0.602222979302842,41.5802629661596,132.0 0.602104962234067,41.5802299411431,132.757100000003 0.601977053815719,41.5801789793573,132.655100000004 0.601724926359868,41.5800470483536,132.0 0.601520072745837,41.5799209840282,132.0 0.601235925740012,41.5797429527336,132.0 0.601046998357655,41.5796219181861,131.888999999996 0.600802917111806,41.5794899867163,131.800300000003 0.60059705738466,41.5793840395065,131.512300000002 0.600360017134027,41.5792499290097,131.386899999998 0.600177962761896,41.5791550461539,131.0 0.600002948486685,41.5790529541957,131.064100000003 0.599788036436421,41.5789089535126,131.060299999997 0.599512941753713,41.5787609286953,131.654500000004 0.599364079233036,41.5786690629853,131.299199999994 0.599142965214044,41.5785500403544,131.278000000006 0.598908942404429,41.5784159294696,131.455199999997 0.598721020236891,41.5782779638034,131.867800000007 0.598549023402697,41.5781679927712,131.920700000002 0.598386917019779,41.5780539990386,132.0 0.598176028523681,41.5779319587195,132.0 0.597971006924726,41.577775049303,131.946899999995 0.597794987434696,41.5776040585962,131.603199999998 0.59773094923301,41.5775150425047,131.898100000006 0.597657021478412,41.5774149625905,131.728799999997 0.597574040502332,41.5772910784542,131.997900000002 0.597537998296521,41.5772270406791,131.641699999993 0.597462058315657,41.5770169900145,131.4185 0.59739600878607,41.5768020780919,131.360400000005 0.597341023805866,41.5765869987975,131.231400000004 0.597335994138583,41.5763519696627,131.0 0.59728302048628,41.5761169410167,131.6103 0.597243960839385,41.5760399954969,131.548200000005 0.597145054529995,41.5758669929039,131.956900000005 0.59700407113266,41.5756879558568,131.982300000003 0.596939027716222,41.5755979338099,131.0 0.596926957053723,41.5755789911215,131.0 0.596797038205771,41.575438007428,131.0 0.596788991097439,41.5754229200384,131.0 0.596664939146596,41.575298029434,130.0 0.596454050650498,41.5751610691647,130.0 0.596251040379445,41.5750990433145,130.0 0.596128999756537,41.5750899905649,130.0 0.596023053350227,41.5750869732054,130.0 0.595709067005615,41.5751059160382,129.840599999996 0.595547966735813,41.5751520164238,129.800700000007 0.595274046151178,41.5752279569932,130.0 0.595029964905329,41.5753129488489,129.966400000005 0.594992078458211,41.5753169722047,129.748900000006 0.594765934771971,41.5753759811717,129.0 0.594606008600241,41.5754009592817,129.0 0.594392940791252,41.5753989472705,129.0 0.594376009344792,41.5754019652874,129.0 0.594298057137697,41.5754059886377,129.0 0.59419496018748,41.5754229200384,129.0 0.594133939426878,41.5754349894127,129.053899999999 0.593949034700357,41.575429960731,129.0 0.593917016048679,41.5754279487206,129.0 0.593682993239064,41.5754279487206,129.584099999993 0.593555923847171,41.575445048119,130.0 0.593332964688608,41.5754170526819,130.0 0.593021996683344,41.5753850338813,130.0 0.593001041682718,41.5753860392151,130.0 0.592759977877886,41.5753729638256,130.0 0.592515058503878,41.5753489910391,130.0 0.592346918137224,41.5753449683572,130.444699999993 0.59211792409656,41.5753230075741,129.834099999993 0.591968055462767,41.5752889767122,130.0 0.591840986070875,41.5752499171366,129.098899999997 0.59155298439417,41.5752319796823,129.751699999993 0.591278057696419,41.5752289623294,130.451199999996 0.590999945572661,41.5751409523342,129.0 0.590968933034099,41.5751489990672,129.0 0.59093791959724,41.5751540284428,129.0 0.590726024988026,41.5751580518086,129.0 0.590710937782808,41.5751580518086,129.0 0.59065897024362,41.5751550344522,129.144499999995 0.590419918665053,41.5751580518086,130.0 0.590248927045677,41.5751570457991,129.8505 0.589995961461668,41.5751439696912,129.437099999996 0.589893031598078,41.5751310615849,129.0 0.589604023808258,41.5751230155218,129.0 0.589570999043464,41.5751220095118,129.0 0.589260030139869,41.5751449757008,129.0 0.589009076782092,41.5751240208597,128.0 0.588797014187921,41.5751069220484,128.0 0.588618982471659,41.5751250268697,128.0 0.588498954074983,41.5751129567653,128.0 0.588223021264083,41.5750489195187,127.918099999995 0.588061082866156,41.5750489195187,128.112500000003 0.587873998826743,41.5750170678682,128.0 0.587756987871117,41.5749840435292,128.0 0.587604939924433,41.5749530305266,128.0 0.587323978344581,41.5748759169593,127.907900000006 0.587082076411624,41.5748170755406,127.682700000005 0.587023067877253,41.5748130521536,128.0 0.5867340600874,41.5747500206255,128.0 0.5865010433909,41.5746759248666,128.0 0.58642795286613,41.5746559758905,128.0 0.586336925680081,41.5746340148731,127.991099999999 0.586158055835661,41.5745889201361,128.0 0.585955046462905,41.5745490227961,128.0 0.585809033398321,41.574509962773,128.0 0.585532933500794,41.5744449195801,128.0 0.585488006058492,41.5744289939439,127.708499999993 0.585388932662442,41.5744150796737,128.0 0.585260019029275,41.5743760202417,128.0 0.585169997058012,41.5743649560192,128.0 0.585011076101101,41.5743250578688,128.0 0.584841929621297,41.5742759401676,127.936499999996 0.584807060615229,41.5742690666836,128.0 0.584630035012083,41.5742239723638,128.0 0.584426019526245,41.5741530614116,128.0 0.58418093216728,41.5740819830466,128.0 0.583951939024947,41.5739760357016,127.628800000006 0.583694949886771,41.5739079745565,128.0 0.583653039885486,41.5738890313724,128.0 0.583414994420035,41.573794986728,128.0 0.583181976825239,41.5737079821549,127.730899999995 0.582935046123297,41.5736459562535,127.547999999995 0.582651067102428,41.5735919765473,128.0 0.58240698675491,41.5735480557977,128.0 0.582332051988831,41.5735470497632,127.187099999996 0.582246053571734,41.5735629756168,128.0 0.581998955783166,41.5735609635483,128.0 0.581868029923767,41.5735690104781,128.0 0.581812038830446,41.5735669990817,128.0 0.581532921491869,41.5736219841701,128.0 0.581251959912051,41.5736640614842,127.816500000001 0.581185072254305,41.5736699283279,127.868000000002 0.580871924936149,41.5737279314238,127.924299999999 0.580793972729054,41.5737450306002,127.5867 0.580596998238398,41.5737690026378,127.661099999998 0.58046892273339,41.5737879458571,127.993100000007 0.580255016796241,41.5738690828253,127.765199999994 0.580242947032073,41.5738690828253,127.686900000001 0.579943042677861,41.5739669834666,127.0 0.57992393191851,41.5739780470852,127.0 0.57982100205492,41.5739840825797,126.900500000003 0.579553954480511,41.5740709187737,127.0 0.579346083425463,41.5741180252518,127.453500000003 0.579082053292104,41.5741959770696,127.0 0.578799080384352,41.5742439214733,127.0 0.578765049506442,41.5742630318878,127.0 0.578679051089345,41.5743389721583,127.0 0.578619036441825,41.5744070328493,127.0 0.578473024275572,41.5745880821235,127.0 0.578400939863884,41.5747300716722,127.0 0.578295998672393,41.5748130521536,127.0 0.578183010372603,41.5749349256571,127.0 0.57813305416135,41.5750190798915,127.0 0.578102040724457,41.575060988963,127.0 0.577949993676103,41.5752380150596,127.0 0.57794295268092,41.5752529344885,127.0 0.577821918171095,41.5754150406711,127.0 0.577711947312355,41.5755759731128,127.0 0.577588062448139,41.5757360678279,127.0 0.577438026727686,41.5759139314137,126.529699999999 0.577323027099962,41.5760520654279,126.957399999999 0.577243063564965,41.576187013837,126.032699999996 0.57710794706474,41.5763559929539,127.0 0.576994959663281,41.5764919473887,127.0 0.576866046030114,41.5766460072762,127.0 0.57675993074055,41.5767849790528,127.0 0.576615929902164,41.5769519466583,127.0 0.576500930274439,41.5771299782548,127.0 0.576356928537757,41.5772870552213,127.0 0.576319042988969,41.5773470697076,127.0 0.57617202381127,41.5775120252585,127.0 0.576064065178728,41.577671951881,127.0 0.57594202455582,41.577796003956,127.0 0.575808082153702,41.5779849321932,127.594700000001 0.575799028932253,41.5779939845371,127.817599999995 0.575675983094527,41.5781220605188,129.934099999999 0.575599037000547,41.5782239839364,132.326000000001 0.575568024461985,41.5782829929353,132.941900000005 0.575462077157379,41.5784429196646,133.983500000002 0.575449001280128,41.5784670592983,134.0 0.575315057979679,41.578643079512,135.0 0.57524397968114,41.5787570728768,135.0 0.575119927730298,41.5789010745706,135.0 0.575033929313201,41.5790070212287,136.0 0.574983973101914,41.5790849731939,136.0 0.57495195445027,41.5791419701834,136.0 0.574869979587305,41.579218078087,136.0 0.574824046031888,41.5792769188562,136.993600000002 0.574753973846465,41.5793620787528,137.0 0.574707035076262,41.5794200814409,137.0 0.574630927110441,41.5795240173807,137.564700000003 0.574567056893746,41.5795910727153,138.0 0.57450301959039,41.5796670127691,139.932199999996 0.574490949826222,41.5797709483115,140.964500000002 0.574456080820154,41.5799010353282,142.558600000004 0.574479047148714,41.579991056753,144.473499999993 0.574485082030781,41.5800579442832,145.471000000005 0.574474018379762,41.5801119239613,146.0 0.574438981388738,41.5801699266477,146.763999999996 0.574374944085382,41.5801749556324,147.0 0.574281066544943,41.5801070622911,147.0 0.574194062913027,41.5800760497325,147.0 0.574146956157867,41.5800539212226,147.0 0.574035980084275,41.5799860277541,147.002800000002 0.573990046528858,41.5799459623964,147.0 0.573919974343435,41.5799139431531,147.0 0.573854930926963,41.579886953573,147.0 0.573808998269876,41.5798430324001,147.0 0.573714952744447,41.5797979379401,147.155299999999 0.573622081317124,41.5797350738933,147.685299999997 0.573545973351303,41.5796720417929,147.0 0.573441032159812,41.5796219181861,147.420100000003 0.573312956654803,41.579536925281,147.0 0.573195945699178,41.5794430481175,147.266199999998 0.573091003609356,41.5793749873575,147.0 0.572965946443695,41.5793030700679,147.0 0.572768971054742,41.5792559640116,147.0 0.572460014377379,41.5791469992481,147.0 0.572276953892166,41.5790829612973,147.964000000007 0.572180058910677,41.5790509429701,148.0 0.572176035356511,41.5790410521476,147.937000000005 0.572158936823391,41.5789830491192,147.2454 0.571969002429588,41.578826978198,147.011499999993 0.571814943155002,41.57868498892,147.0 0.571624003546414,41.5785019277915,147.0 0.571522079795973,41.5784219645495,147.0 0.571464076476388,41.5783720086404,147.0 0.571412947065359,41.5783379780409,147.0 0.571303982319701,41.5782350481698,146.443700000003 0.57118596525096,41.5781410031334,146.0 0.5710099448626,41.5780419294816,146.569000000003 0.57077994560715,41.5778989338549,145.986799999999 0.570833925372569,41.5779259235939,145.748099999997 0.570662934651491,41.5778109241379,144.706200000001 0.570442992933978,41.5777539273177,144.141699999993 0.570135042369731,41.5777130232751,143.020600000003 0.569905042215951,41.5776650787584,141.797000000006 0.56968694563801,41.5775919889552,140.023199999996 0.569509081906705,41.5775480675656,139.869500000001 0.569314956872143,41.577502972847,138.361999999994 0.569215044449604,41.5775069960665,138.748000000007 0.569127034704572,41.5774850353466,139.373500000002 0.569086968944595,41.5774689424617,139.713699999993 0.569044053728525,41.5774250209884,139.468500000003 0.568908937228333,41.577338017273,138.781099999993 0.568844060898522,41.5772870552213,138.488299999997 0.568818077128912,41.577274984849,138.631399999998 0.568647924535992,41.5771420479822,137.735799999995 0.568606015433071,41.5770449854301,136.970799999996 0.568593945668903,41.5769189219645,135.302899999995 0.568570979340343,41.5768510285603,134.584400000007 0.568620934653299,41.5767589948215,134.0 0.568609032874088,41.5766879166361,133.585600000006 0.568649936762257,41.5766109704525,133.0 0.568644068966816,41.5765040179073,132.373600000006 0.568649936762257,41.5764359567379,132.273300000001 0.568673070177444,41.5763330265234,131.944099999993 0.568649936762257,41.5762520572916,130.420800000007 0.568539965903484,41.576203945705,129.628899999996 0.568300076196758,41.5761149296997,132.079400000002 0.568239055436122,41.5760820725799,133.048500000004 0.568151045691124,41.5760550827424,134.0 0.567954071200435,41.5759850104509,134.0 0.567810069463752,41.5759169494066,134.5723 0.567703955072519,41.5757989317352,135.590500000006 0.567650981420215,41.5757149451758,136.090299999996 0.567623991537489,41.5756589538514,135.643500000006 0.567502957027697,41.575564071096,136.798899999994 0.567429028374768,41.5754760608854,136.115900000004 0.567354932635179,41.5754190640206,136.308900000004 0.5671839419141,41.5752869653694,136.098599999998 0.567086040819495,41.5751630805114,136.0 0.567071959727426,41.575060988963,136.0 0.566907003888415,41.5749929282891,136.0 0.566776078029016,41.5749270462303,135.902100000007 0.56671606338153,41.5749010625956,136.0 0.566592011430687,41.5748400425101,135.768500000006 0.566508025239822,41.5748050060508,134.9182 0.566444993151285,41.5747780163516,135.106 0.566343069400844,41.5747560553757,134.5962 0.56628406086644,41.574737950451,134.422500000001 0.566226057546855,41.5747339270591,134.677800000005 0.5661680551256,41.5747250422637,134.874100000001 0.566109046591229,41.5747200135267,134.7696 0.566051043271643,41.5747159901336,134.969700000001 0.565993040850388,41.5747020759253,135.208499999993 0.565929002648702,41.574693023792,135.0 0.565869994114332,41.5746839709854,134.484700000001 0.565811991693076,41.5746749188496,133.563200000004 0.565753989271788,41.5746710627872,133.437600000005 0.565694980737417,41.574666034046,133.285199999998 0.565630942535765,41.574666034046,133.310800000007 0.565567072319069,41.574666034046,133.393899999995 0.565503035015713,41.574666034046,133.6639 0.565444026481343,41.574666034046,134.112099999998 0.565386023161757,41.5746569812357,133.871100000004 0.565328020740469,41.5746479290961,133.630000000005 0.565263982538816,41.5746350208907,133.299199999994 0.565198939122378,41.5746209393314,133.426500000001 0.565140936701089,41.5746120545204,133.704299999998 0.565077066484394,41.5746080311205,133.570900000006 0.565019064063139,41.5746040077205,133.441500000001 0.564960054630438,41.5745989789741,133.585399999996 0.564902052209183,41.5745899261544,134.0 0.564838014905827,41.5745810413391,133.806599999996 0.564780011586241,41.5745770179374,133.677299999996 0.564709939400818,41.5745770179374,133.839699999997 0.564645063071007,41.5745770179373,134.0 0.564574989987253,41.5745770179373,134.0 0.564510952683931,41.5745719891888,134.0 0.564452950262643,41.5745629363653,134.0 0.564389080045947,41.5745590809683,134.0 0.564330071511576,41.5745590809683,133.968699999998 0.564272068191991,41.5745590809683,133.928700000004 0.564214065770736,41.5745540515464,133.959099999993 0.564143992686982,41.5745540515464,134.0 0.56407995538366,41.5745500281429,134.0 0.564015079053815,41.5745409759884,134.043000000005 0.563957076632561,41.5745319231605,134.099499999997 0.563899073312975,41.5745230383373,133.871100000004 0.563835036009653,41.5745089567535,133.514299999995 0.563776027475248,41.5745000719271,133.276299999998 0.563718025053993,41.5744869963581,133.0 0.563660021734408,41.5744819676026,133.0 0.563601013200037,41.5744779441947,133.644799999995 0.563543010778749,41.5744730827725,133.516300000003 0.563478972577096,41.5744690593641,133.382800000007 0.563414935273774,41.574469059364,133.338600000003 0.563355926739369,41.5744690593641,133.297999999995 0.563292056522674,41.5744640299352,133.237099999998 0.56322198343892,41.5744640299352,134.0 0.563163981017666,41.5744640299352,134.0 0.563094075918903,41.5744549777685,133.804799999998 0.563030037717216,41.5744549777685,133.760599999994 0.562966000413894,41.5744549777685,133.716499999995 0.56290699187949,41.5744549777685,133.675799999997 0.562842953677837,41.5744509543589,133.542400000006 0.562778916374515,41.5744459249286,133.386499999993 0.562715046157786,41.5744420695245,133.256899999993 0.562651007956133,41.5744420695245,133.212799999994 0.562591999421762,41.5744370400935,133.060400000002 0.562533997000508,41.5744330166828,132.931100000002 0.562475994579219,41.5744330166828,132.891099999993 0.562416986044848,41.5744279879231,132.914099999995 0.562358982725263,41.5744279879231,133.446299999996 0.562294945421907,41.5744279879231,133.654699999999 0.562236942102355,41.5744279879231,133.614700000006 0.562172066670841,41.5744330166828,133.923800000004 0.562114063351255,41.5744370400935,134.0 0.562043991165832,41.5744370400935,134.0 0.561897978101249,41.5744159176885,134.0 0.561763029586014,41.5743800436559,134.0 0.56168105472305,41.574360932604,133.742499999993 0.561592038864936,41.5743419895528,134.0 0.561502016893672,41.5743299193022,133.930399999997 0.561411995820739,41.5743170117052,133.5818 0.561330020059478,41.5742980686411,133.104600000006 0.561241004201364,41.5742859983823,133.775200000004 0.561150983128431,41.5742670553091,133.292499999996 0.561069008265467,41.5742610205131,133.101999999999 0.560978986294237,41.5742420774326,133.619300000006 0.560888964322974,41.5742229663399,133.132800000007 0.560807995573158,41.5742100580495,133.790399999998 0.560726020710228,41.5742040232482,133.599900000001 0.560627952528962,41.5741909476193,134.0 0.560545976767701,41.574173010543,133.923599999995 0.560465008017886,41.5741659697134,134.0 0.560383033154955,41.5741540674367,134.0 0.560301058292024,41.574147026605,134.0 0.560212042433876,41.5741349563179,133.712100000004 0.560130067570946,41.5741099783903,133.100900000005 0.560047924723057,41.5740970700774,133.0 0.559966955074912,41.5740779596138,133.277400000006 0.559884980211981,41.5740660573209,133.0 0.55980300534905,41.5740469468481,133.435899999997 0.559730082809237,41.5740149273683,133.073499999999 0.559647939961348,41.5739969902431,133.2595 0.5595669712115,41.5739780470852,133.618100000007 0.55947694924027,41.5739520630687,133.144 0.559386927269007,41.5739339585907,133.0 0.559304952406076,41.5739150154142,133.020600000003 0.55922398365626,41.5738960722323,133.0 0.559133961684997,41.5738829965411,133.0 0.559051986822066,41.5738709268767,133.0 0.558961964850803,41.5738580185161,133.0 0.558880996100988,41.573845948175,133.067599999995 0.558799021238057,41.5738270056448,133.899900000004 0.558717046375126,41.573808062437,133.081099999996 0.558592993525953,41.5737619617642,133.0 0.558351930619452,41.5736860214873,133.0 0.558106005132328,41.5736330478478,133.0 0.558031071264614,41.5736060583309,133.0 0.557949934529808,41.5735869477221,133.0 0.55786795876858,41.5735680044438,133.0 0.557786990018765,41.573543026297,133.0 0.557705015155801,41.5735239156695,133.248900000006 0.55762304029287,41.5734989375056,133.184899999993 0.557542070644757,41.5734799948736,133.0 0.557444002463492,41.5734550166927,133.0 0.557353980492229,41.5734419409123,133.353499999997 0.557263959419296,41.5734169627166,133.0 0.557181984556365,41.5733980193886,133.0 0.55710101490822,41.5733730418481,133.0 0.557026919168664,41.573342028744,133.0 0.556953996628817,41.5733100095868,133.0 0.556895993309265,41.5732600537559,133.0 0.556830949892794,41.5732159647713,132.993000000002 0.556766074461279,41.5731720437661,132.989300000001 0.556691977823393,41.5731339896233,133.0 0.556611009073578,41.5731090113086,132.448300000004 0.556529034210647,41.5731029764044,132.257899999997 0.556447059347683,41.5730900685623,132.007400000002 0.556358043489569,41.5730779987497,132.585500000001 0.556276067728307,41.573064922893,132.238700000002 0.556193925778716,41.5730590553223,133.0 0.556112956130604,41.5730459794617,132.864600000001 0.556015055934296,41.5730399445516,133.0 0.555925033963066,41.5730340776507,133.0 0.555835011991803,41.5730149668726,132.825899999996 0.55574499091887,41.5730079259166,132.859400000001 0.555664021270724,41.5730020583408,133.0 0.555582046407793,41.5729899885118,132.0 0.55549202443653,41.57296400477,132.0 0.555410049573599,41.572945061309,132.0 0.555329080823784,41.5729140486715,132.0 0.555246937975896,41.5728949378579,132.0 0.555017944833562,41.5728200032796,132.0 0.554848965440385,41.5727239470002,132.0 0.554652996164548,41.5726099530676,132.0 0.554419979468048,41.5724570670246,132.0 0.554202049976734,41.5723469288225,132.0 0.553996023162961,41.572245004867,132.0 0.553760994240229,41.5721539773418,132.0 0.553681030705233,41.5721320168178,132.0 0.553538035979963,41.5720810546907,132.0 0.553502998988938,41.5720629503603,132.0 0.553343072817242,41.572029925183,132.0 0.553083066238016,41.5719650495215,132.0 0.552803948899473,41.5719519734394,132.0 0.552598927300485,41.5719829865388,132.0 0.5523139421665,41.5719229724447,132.0 0.552298016833157,41.5719199549372,132.0 0.551974978165394,41.5718569226022,132.0 0.551746990237846,41.5718190363696,132.0 0.551718995140334,41.5718210484924,132.0 0.551560074183424,41.5719429209207,132.0 0.551454965006975,41.5720500416383,132.0 0.551361925594695,41.5721489484046,132.0 0.551166962431941,41.5723469288225,132.0 0.551011059814378,41.5724449970938,132.202699999994 0.550981052490634,41.57246293465,132.6878 0.550801008548141,41.5725950330283,133.0 0.550581067728925,41.5727509368856,133.0 0.550409070894731,41.5728669419875,133.904200000004 0.550216958086367,41.5730159722433,134.154399999999 0.55005501968844,41.5731440480158,135.244000000006 0.549959968948225,41.5731740551747,135.233800000002 0.549849998089452,41.5732650826066,136.0 0.549835077970893,41.5732840259736,136.0 0.549634918952561,41.5733950019501,137.005399999995 0.549598038618558,41.5734310445385,137.900500000003 0.549552943191299,41.5734399288399,138.0 0.549535006530021,41.5734290324659,138.0 0.549500975652112,41.5734270210652,138.0 0.549420006902297,41.5733309643443,138.0 0.549342054695201,41.5733120209911,138.0 0.549080036788074,41.573332975748,138.0 0.549060926028723,41.5733339817859,138.0 0.54896503716035,41.5733539304982,138.0 0.54883494942911,41.5733259354989,138.0 0.548656917712848,41.5732479833031,138.0 0.548492967986953,41.5732340694506,138.0 0.548367071794836,41.5732079177976,138.0 0.548211001192316,41.5731450540566,138.0 0.547998938598145,41.5730310601951,138.0 0.547957029495191,41.5730119494161,138.0 0.547893997406654,41.5730000469268,138.0 0.547724011900394,41.5729960234266,137.501499999998 0.547536927861015,41.5729710457306,137.574600000007 0.547312963487633,41.5728929257685,137.8796 0.547251943625327,41.5728979553197,137.331600000005 0.547167956536131,41.5728860528094,137.009699999995 0.547030996692996,41.5728089394626,137.796900000001 0.546893030736711,41.5727819496014,137.458899999998 0.54687391997736,41.5727579771974,137.637900000002 0.546682979470441,41.5727380283011,135.610499999995 0.546298082812248,41.5726840491803,134.0 0.54617302474829,41.572650018272,134.037899999996 0.546200014630983,41.5724359446442,133.483900000007 0.546435043553714,41.572314071802,134.913100000005 0.546557083278324,41.5721420753664,133.040099999998 0.546637046813354,41.5719420828738,133.546000000002 0.54668096814254,41.5717529870928,132.524900000004 0.546754058667311,41.5715229881719,132.534100000004 0.546787083432104,41.5713149492412,131.507899999997 0.546822957652958,41.5712369973069,131.326100000006 0.546881966187362,41.571088973052,131.296700000006 0.546963941050293,41.5709189881937,131.149699999994 0.546970982045476,41.5708779165116,131.0 0.547107942786975,41.5706930119635,131.112299999993 0.547084975560085,41.5704569774776,130.259900000005 0.547010041692337,41.5703300751833,128.143100000001 0.547016076574438,41.5702730784822,128.091400000005 0.547067038898806,41.5701300831295,128.550700000007 0.547155048643838,41.5699399813301,129.0 0.547156054756954,41.5697810604742,128.997399999993 0.547174997531348,41.5695359738327,128.397299999997 0.547158066084855,41.569263058865,128.430399999997 0.547166951321346,41.5690169661695,128.0046 0.547216068506143,41.5687990368588,128.039099999995 0.547238029619885,41.5686530239437,128.0 0.547276921281789,41.5684550436305,128.0 0.547361075457611,41.5682029158556,127.076000000001 0.547487977762844,41.5680290750093,127.0 0.547493007430126,41.5680250518716,127.0 0.547652933601855,41.5678180192257,127.0 0.547791067543097,41.5676869259418,127.0 0.547853931646677,41.5674720138924,126.238599999997 0.54787807207331,41.5671950757536,126.0 0.547893997406654,41.5670029624543,126.0 0.547890979965603,41.5667830214633,125.904800000004 0.547891985180422,41.5665969431235,125.753700000001 0.547915957622098,41.5664160616586,125.0 0.548024922367755,41.5662269658328,125.058600000004 0.548145956877547,41.5660489344302,125.0 0.5482099950792,41.5659689712299,125.0 0.548430942011532,41.5657560711545,125.0 0.548482071422561,41.5656539795252,125.0 0.548242013730878,41.565495058208,125.0 0.547984018479587,41.5654189509371,125.7693 0.547749996568302,41.5653460280768,126.930999999997 0.547683947038714,41.5653230617644,126.431599999996 0.54739594446368,41.5652539947485,126.933000000005 0.547127053546327,41.5651990092588,126.939199999993 0.546888001069429,41.5651559263147,127.0 0.546637046813354,41.5650930621315,127.0 0.546385925470619,41.5650449502988,127.0 0.54609607865431,41.5649619693678,127.0 0.545816961315733,41.5649049726356,126.150299999994 0.545536000634212,41.5648379168409,126.0 0.545237939622944,41.5647740468493,126.0 0.54502302757268,41.5647329759655,126.0 0.5446969714639,41.5646699440114,126.0 0.544450040761958,41.56460506768,125.0 0.544175953090696,41.5645249366772,125.0 0.543938073813575,41.5644800096365,125.0 0.543595925284791,41.5644099368869,125.0 0.543330050910124,41.5644040698743,125.0 0.543017070678628,41.5644220069747,125.0 0.542730074216709,41.5644300536986,125.0 0.542424973108555,41.5644719635909,124.0 0.542156081292872,41.5645229249993,124.0 0.541894063385745,41.5645839454208,124.0 0.541607066923826,41.5645879687728,124.0 0.541398022669002,41.5645760667478,124.0 0.541102979098784,41.564554943807,124.0 0.540809947754798,41.5645160518219,123.0 0.540527980960161,41.5644699519113,123.0 0.540275015376152,41.5644419557505,123.0 0.539940074030881,41.564484032995,123.0 0.539652071455846,41.5644689457354,123.0 0.539588034152491,41.5644570436885,123.0 0.539427939995838,41.5644320653794,122.949200000003 0.539136081851594,41.5644050753791,122.149999999994 0.538806002188648,41.5644040698743,122.901800000007 0.538532081604013,41.5643650104383,122.846799999999 0.53828598903023,41.564318071602,122.635999999999 0.538011063230809,41.5642510165425,122.0 0.53769808299928,41.5642659358204,122.0 0.537401028101128,41.5642820293061,122.144199999995 0.537110008085076,41.5642649303134,122.0 0.536774061524986,41.5642419636169,122.0 0.536710024221664,41.5642379402433,122.0 0.536386985553901,41.5641910019868,122.0 0.536062940773056,41.5641670297555,121.760699999999 0.535972919700123,41.5641760820196,122.0 0.535619035580458,41.5641950253633,122.0 0.535353999333984,41.5641990487396,121.987099999998 0.535031966779337,41.5642179914045,122.0 0.534720997875742,41.5641839607413,122.0 0.534398965321128,41.5640880724244,122.0 0.534160081727518,41.5639779340689,122.0 0.53388196960376,41.5638550552162,121.957699999999 0.533518027946192,41.5637509522419,122.0 0.533230025371157,41.5637239619571,122.0 0.533173028164688,41.5637310032528,122.0 0.533123071953401,41.5637589983773,122.0 0.532944035022354,41.5639279777429,122.0 0.532823000512529,41.5640840490413,122.0 0.532741024751301,41.5641730648224,123.0 0.532548073814778,41.5641229406143,123.0 0.532341040887889,41.5640010682205,123.0 0.532081034308663,41.5638909297167,123.0 0.531817004175305,41.5637640279676,123.0 0.531559008924013,41.5636270674407,123.0 0.531373937110865,41.5635390577699,123.0 0.531095992972064,41.5634109817748,123.0 0.530795920632895,41.563265974976,123.0 0.530567932705347,41.5631789710094,123.0 0.53030893223927,41.5630430161127,123.0 0.530069041634214,41.5629380750107,123.0 0.529828983942531,41.5628150288328,123.0 0.529672075211852,41.5627380829275,123.0 0.529449954181448,41.5626390085036,123.0 0.529245938695576,41.5625499926256,123.0 0.529001020219899,41.5624190674448,123.0 0.528837069595706,41.5623469834031,123.0 0.528592989248155,41.5622589733331,123.0 0.52836500132064,41.5621610724246,123.0 0.528177079153069,41.5621280475627,123.0 0.528050008862879,41.5620599867058,123.286099999998 0.527945067671388,41.5619969548328,123.275200000004 0.527781956073684,41.5619210148411,124.0 0.527653042440517,41.5618489302438,124.0 0.527572072792372,41.561786066204,124.0 0.527458917405922,41.5617770136052,124.0 0.527384988752993,41.5617190112056,124.0 0.527280047561501,41.561646926383,124.0 0.527151972056493,41.5615790330589,124.0 0.527069997193562,41.561543996801,124.0 0.526976957781282,41.5614990697041,124.0 0.526883918368968,41.5614449225629,124.0 0.526743941084782,41.561394966295,124.0 0.526644028662243,41.561346016213,124.0 0.526568926809538,41.561319026268,124.0 0.526391063078233,41.5612139176866,124.0</coordinates>
</LineString>
</Placemark>
</Folder>
</Document></kml>
