<?xml version="1.0" encoding="UTF-8"?>

<kml xmlns:xsd="http://www.w3.org/2001/XMLSchema" xmlns:gx="http://www.google.com/kml/ext/2.2" xmlns:atom="http://www.w3.org/2005/Atom" xmlns="http://www.opengis.net/kml/2.2">
<Document>
<name>ES14a_04a_tortosa-xerta</name>
<visibility>1</visibility>
<Schema name="ES14a_04a_tortosa-xerta" id="kml_schema_ft_ES14a_04a_tortosa-xerta">
<SimpleField type="xsd:string" name="id">
<displayName>id</displayName>
</SimpleField>
<SimpleField type="xsd:string" name="nombre">
<displayName>nombre</displayName>
</SimpleField>
<SimpleField type="xsd:double" name="longitud">
<displayName>longitud</displayName>
</SimpleField>
<SimpleField type="xsd:string" name="_formato">
<displayName>_formato</displayName>
</SimpleField>
</Schema>
<Folder id="kml_ft_ES14a_04a_tortosa-xerta">
<name>ES14a_04a_tortosa-xerta</name>
<Placemark id="kml_1">
<name>&lt;img height='20' src='https://nco.ign.es/iconos/icono_todos_caminos_azul.png' /&gt;&lt;img height='20' src='https://nco.ign.es/iconos/Camino Santiago_20.png' /&gt;&lt;img height='20' src='https://nco.ign.es/iconos/icono_todos_caminos_azul.png' /&gt;  Camino de Santiago </name>
<visibility>1</visibility>
<description><![CDATA[<!DOCTYPE html>
<html>
<head>
<style>
#nco {
  border-collapse: collapse;
  overflow:hidden;
}
#nco th, #nco td {
  padding: 4px;
  text-align: left;
}
#nco th {
  color: #364B5F;
  padding-right: 5px;
}
#nco td {
  color: rgb(51, 51, 51);
  font-size: 12px;
  padding-right: 5px;
}
</style>
</head>
<body>
<table id="nco">
<tr>
<td>Caminos del Nordeste</td>
</tr>
<tr>
<th><b>Camino: </b></th>
<td>ES14a Camino Santiago del Ebro</td>
</tr>
<tr>
<th><b>Etapa: </b></th>
<td>04a Tortosa-Xerta</td>
</tr>
<tr>
<th><b>Longitud: </b></th>
<td>14.64 km</td>
</tr>
</table>
</body>
</html>]]></description>
<Style>
<IconStyle>
<scale>0.8</scale>
</IconStyle>
<LabelStyle>
<color>ffffffff</color>
<scale>0.75</scale>
</LabelStyle>
<LineStyle>
<color>ffff0000</color>
<width>3.0</width>
<gx:labelVisibility>1</gx:labelVisibility>
</LineStyle>
<PolyStyle>
<color>66ff0000</color>
</PolyStyle>
</Style>
<ExtendedData>
<SchemaData schemaUrl="#kml_schema_ft_ES14a_04a_tortosa-xerta">
<SimpleData name="id">ES14a_04a</SimpleData>
<SimpleData name="_formato">kml</SimpleData>
</SchemaData>
</ExtendedData>
<LineString>
<extrude>0</extrude>
<tessellate>1</tessellate>
<coordinates>0.522000957657206,40.8144329482269,10.0 0.521587058890021,40.8136589634363,8.52599999999802 0.522757004953141,40.8137030522979,10.0 0.522648040207484,40.8133260340677,9.0 0.52176391740654,40.8128420632174,8.35550000000512 0.521611031331697,40.8125450083237,8.0 0.521635003773373,40.8110739844703,11.0 0.522042028631968,40.8098909626673,12.0 0.51912495905428,40.8095709417527,8.0 0.518676024194401,40.809733047238,8.0 0.518321972089779,40.809478069759,3.48010000000068 0.515053029720327,40.8104480239935,11.5549000000028 0.498752072115596,40.8162870253085,9.04850000000442 0.49778396222549,40.8170030076358,9.4826999999932 0.497210975414768,40.8180780700099,10.9918999999936 0.497188009086208,40.8187479522328,11.9897999999957 0.497420020567922,40.8197039917145,13.9238000000041 0.497955959059684,40.8213709845582,18.0 0.498284027394696,40.8218410416584,19.0 0.498203057746584,40.8220470692801,19.0 0.498501956886011,40.8230289249674,21.0 0.49902096393128,40.8241410358774,26.0 0.499376021250721,40.8246070701918,26.0 0.500212032081685,40.8251299328175,24.6907999999967 0.500026960268504,40.8257599169151,22.0 0.504534076645224,40.8330060720904,21.6027999999933 0.505061968926984,40.833422988385,15.1989999999932 0.50540898003639,40.8329670127947,12.0 0.505691952944176,40.8330010431233,12.0 0.50490707152424,40.8337849184934,17.9305000000022 0.505042020039475,40.833804029564,20.4541000000027 0.507808048681958,40.8382219632265,24.2212 0.513083953160245,40.8468600168942,16.2642000000051 0.513288974759233,40.847643054289,18.8022999999957 0.513007007964597,40.8530260805846,11.3334000000032 0.512777007810817,40.8559439882526,11.0 0.512534938791233,40.8566170550008,11.7835999999952 0.507036075154315,40.8637430141567,11.9141999999993 0.500364080028336,40.877293030927,19.6760000000068 0.500038023919556,40.8782049823345,19.6662000000069 0.498876963092928,40.8797050076482,20.0 0.498046987144063,40.8814729189279,17.0 0.497052054457858,40.8826879593308,14.9903999999951 0.493006948818301,40.8861800277363,14.8711000000039 0.492341927810118,40.8855270774871,14.9478999999992 0.492587015169083,40.8851329606437,11.4674999999988 0.492272022711322,40.8850499796558,13.0016999999934 0.491566937739756,40.8871999376721,18.0 0.49092102838922,40.8882810357989,17.7768000000069 0.489442962878633,40.8925660319443,23.0 0.485136006418576,40.8980950708932,21.1003999999957 0.485063922006921,40.8983450189719,20.536300000007 0.483731031432758,40.8997800009577,13.1931999999942 0.485117062745885,40.9001910495156,10.6983999999939 0.484925955152339,40.9019200684067,11.3175999999949 0.485533978954086,40.9027019327089,11.3751000000047 0.486600995153616,40.9035520251455,12.0 0.487446058307699,40.904011018347,11.299199999994 0.488372929238052,40.9042710244549,12.0 0.490880962629244,40.9044420152967,11.0 0.490645933706512,40.906329955074,12.0</coordinates>
</LineString>
</Placemark>
</Folder>
</Document></kml>
