<?xml version="1.0" encoding="UTF-8"?>

<kml xmlns:xsd="http://www.w3.org/2001/XMLSchema" xmlns:gx="http://www.google.com/kml/ext/2.2" xmlns:atom="http://www.w3.org/2005/Atom" xmlns="http://www.opengis.net/kml/2.2">
<Document>
<name>ES14a_06a_gandesa-fabara</name>
<visibility>1</visibility>
<Schema name="ES14a_06a_gandesa-fabara" id="kml_schema_ft_ES14a_06a_gandesa-fabara">
<SimpleField type="xsd:string" name="id">
<displayName>id</displayName>
</SimpleField>
<SimpleField type="xsd:string" name="nombre">
<displayName>nombre</displayName>
</SimpleField>
<SimpleField type="xsd:double" name="longitud">
<displayName>longitud</displayName>
</SimpleField>
<SimpleField type="xsd:string" name="_formato">
<displayName>_formato</displayName>
</SimpleField>
</Schema>
<Folder id="kml_ft_ES14a_06a_gandesa-fabara">
<name>ES14a_06a_gandesa-fabara</name>
<Placemark id="kml_1">
<name>&lt;img height='20' src='https://nco.ign.es/iconos/icono_todos_caminos_azul.png' /&gt;&lt;img height='20' src='https://nco.ign.es/iconos/Camino Santiago_20.png' /&gt;&lt;img height='20' src='https://nco.ign.es/iconos/icono_todos_caminos_azul.png' /&gt;  Camino de Santiago </name>
<visibility>1</visibility>
<description><![CDATA[<!DOCTYPE html>
<html>
<head>
<style>
#nco {
  border-collapse: collapse;
  overflow:hidden;
}
#nco th, #nco td {
  padding: 4px;
  text-align: left;
}
#nco th {
  color: #364B5F;
  padding-right: 5px;
}
#nco td {
  color: rgb(51, 51, 51);
  font-size: 12px;
  padding-right: 5px;
}
</style>
</head>
<body>
<table id="nco">
<tr>
<td>Caminos del Nordeste</td>
</tr>
<tr>
<th><b>Camino: </b></th>
<td>ES14a Camino Santiago del Ebro</td>
</tr>
<tr>
<th><b>Etapa: </b></th>
<td>06a Gandesa-Fabara</td>
</tr>
<tr>
<th><b>Longitud: </b></th>
<td>30.13 km</td>
</tr>
</table>
</body>
</html>]]></description>
<Style>
<IconStyle>
<scale>0.8</scale>
</IconStyle>
<LabelStyle>
<color>ffffffff</color>
<scale>0.75</scale>
</LabelStyle>
<LineStyle>
<color>ffff0000</color>
<width>3.0</width>
<gx:labelVisibility>1</gx:labelVisibility>
</LineStyle>
<PolyStyle>
<color>66ff0000</color>
</PolyStyle>
</Style>
<ExtendedData>
<SchemaData schemaUrl="#kml_schema_ft_ES14a_06a_gandesa-fabara">
<SimpleData name="id">ES14a_06a</SimpleData>
<SimpleData name="_formato">kml</SimpleData>
</SchemaData>
</ExtendedData>
<LineString>
<extrude>0</extrude>
<tessellate>1</tessellate>
<coordinates>0.437421016328814,41.0524860388607,368.0 0.437441971329439,41.0526419424014,368.0 0.437730979119293,41.0526119351596,368.0 0.438073966674532,41.0530119199457,367.0 0.43828200571457,41.054039038168,365.0 0.435443054532274,41.053796968966,359.0 0.435013063345119,41.0536110579893,354.938200000004 0.434763953330319,41.0542120405811,352.736600000004 0.434617940265701,41.0542799338851,353.0 0.429000053446926,41.05505308075,360.0 0.428378954666225,41.0552480437933,356.982799999998 0.426901057140595,41.0560719849096,347.0 0.425725076195407,41.0561289818399,346.206900000005 0.423781983404936,41.0570779807205,341.356700000004 0.42267104587622,41.0579949615277,342.0 0.420886035914501,41.0581699754821,347.018299999996 0.417106970837907,41.0596929673241,365.0 0.415847003701854,41.0596929673241,367.711899999995 0.414061993740135,41.0603930239507,362.850900000005 0.413012076073724,41.0605150638979,361.0 0.411962997433803,41.0605549621751,362.038400000005 0.410913079767359,41.0601509544234,364.357000000004 0.410440005379177,41.0601640299491,366.324399999998 0.408986918423381,41.0609869652772,375.0 0.407202076446618,41.0617140113298,385.0 0.403386969164181,41.0640720088492,403.531700000007 0.397437997467674,41.064908019981,407.587599999999 0.396091024903111,41.0655140312073,411.844299999997 0.395180080204399,41.0655289512893,416.0 0.393744930808178,41.0664050275897,426.995200000005 0.391838047310177,41.0668630146807,436.0 0.390455033438101,41.0675630715181,443.102599999998 0.389352981145842,41.0677119336422,449.856 0.38727091628597,41.067698019802,452.500799999994 0.385205950857548,41.0680079826751,451.966400000005 0.384416039770331,41.068306043204,449.0 0.381686054231989,41.0698149533049,439.501300000004 0.376857072387316,41.0715129593615,451.0 0.375072062425596,41.0717820186384,450.650099999999 0.373077001197606,41.0711359410536,447.0 0.36922803192058,41.0720249257465,452.0 0.366742964857915,41.0719709467676,460.0 0.364292934786309,41.072401943697,461.040399999998 0.362998936772381,41.0729140785583,461.588399999993 0.361359938976914,41.0740459706771,456.0 0.360310022208834,41.0743160353907,456.049599999998 0.358939078100893,41.0752050197454,452.814499999993 0.35801807406765,41.0753270606465,451.109700000001 0.357060022613777,41.0757810247242,453.316099999996 0.354913920450549,41.077047027304,457.560299999997 0.354003980966655,41.0781970239739,454.978700000007 0.351903978547174,41.0787180433567,452.683000000005 0.350690949283061,41.0793289165448,453.0 0.350084937707545,41.0809459530849,454.0 0.350209995771503,41.0822590623247,447.0 0.349736083255163,41.0828940748912,445.206600000005 0.349501054332431,41.0829939876945,444.208799999993 0.346306040615942,41.0836789568086,436.785199999998 0.344837028326769,41.0834090592134,434.9378 0.343296937739023,41.084019932136,436.465299999996 0.342783965575822,41.0844329922881,435.5098 0.342084076459867,41.0846490782585,433.569600000003 0.340170990993139,41.0847389321828,425.633000000002 0.338911022958789,41.0852420137099,420.0 0.337697993694676,41.0851880340739,419.780499999993 0.336857959309544,41.0856909483083,416.589000000007 0.335154924210756,41.086221020421,403.949900000007 0.334675982925463,41.0862840517535,402.422200000001 0.332517978084728,41.0860500291852,397.0 0.331352054677477,41.0862659473394,392.601999999999 0.329420026436355,41.0862830462914,386.259699999995 0.328220073049492,41.0869809233496,377.166899999997 0.327436029757714,41.087181921249,372.577600000004 0.326965972810582,41.087524070714,368.275699999998 0.326688028671781,41.0879289163913,361.274600000004 0.32584799428665,41.0883059345264,352.237599999993 0.325381960893684,41.0883689665673,348.493499999997 0.323410033979212,41.0880729178231,341.0 0.322687011448037,41.0883959560999,343.593200000003 0.320785995745477,41.0887999643072,353.0 0.317612942244399,41.0917150221433,352.103600000002 0.313343033205006,41.0934519203808,364.0 0.31233100198568,41.0936949958674,363.0 0.31073894385878,41.0948500216969,363.0 0.309497918598825,41.095261070141,373.072700000004 0.309661031094858,41.0957740430385,375.984800000006 0.309525076466508,41.0960509811925,378.205300000001 0.309927072556152,41.0963720075383,377.303899999999 0.309409070725668,41.0965840702618,373.445900000006 0.308871958135799,41.0972909999579,365.0 0.308862067684523,41.0984530665097,358.161300000007 0.309233051235638,41.0986510473423,354.770300000004 0.309004057194974,41.0999470573647,346.0 0.308410953511785,41.1003820779825,344.0 0.307345949538487,41.1018410316652,331.010200000004 0.305786077149891,41.102802939401,315.525099999999 0.304838922260411,41.1035889941582,316.502299999993 0.30374407805003,41.104041952087,318.0 0.302282943985867,41.1062200734041,315.0 0.301156081123808,41.1072089705502,313.255499999999 0.299856048227779,41.108021009148,312.393200000006 0.298259965648416,41.1099659457262,305.527600000001 0.297294035969498,41.1121720631542,307.070500000002 0.294938050524958,41.1144829538891,309.049400000004 0.294587015861386,41.1146579677055,311.391699999993 0.293122027126379,41.1147910725085,321.823300000004 0.291693080597183,41.1152730317024,331.054600000003 0.290812980452075,41.1150269391169,338.0 0.28951495888398,41.1151910566647,336.771399999998 0.288725048695093,41.1150700224071,332.0 0.285674035816922,41.1157719229758,340.0 0.284192952865284,41.116254049575,343.5815 0.283910986070647,41.1166320739134,341.024799999999 0.283473953888275,41.1168719633574,340.221999999994 0.283393990353279,41.117313019535,337.783599999995 0.283187962641175,41.1174749576225,336.947799999994 0.280769951221247,41.1179369681033,323.792300000001 0.279752053104812,41.1179949711902,318.650500000003 0.278554950072339,41.1185520325067,311.441600000006 0.278026051677463,41.1186269665479,309.785300000003 0.277034975458796,41.1192700259155,303.0 0.275265052702262,41.1197519853838,305.773799999995 0.275188945634771,41.1202150016978,308.121499999994 0.274356957459642,41.1203249727948,310.863100000002 0.274188984179614,41.1211140450652,309.982799999998 0.27310000776464,41.1215819227653,305.240999999995 0.272876042492961,41.122080981282,305.0 0.26986593350296,41.1220920454875,331.0 0.266663040663095,41.1233719618589,339.449399999998 0.265927948367753,41.1234609778487,339.975200000001 0.264795049725296,41.1240299410856,344.903399999996 0.262516010374768,41.1241080608145,354.275099999999 0.261320080542071,41.1250480075549,360.440199999997 0.260202940146297,41.1253660169516,361.0 0.259678066203885,41.1257359939286,357.0 0.258431006061861,41.1260030413889,353.304199999999 0.257661044760484,41.1264610286128,350.623399999997 0.255422070271603,41.1269909327614,349.272899999996 0.254418924288802,41.1273679506494,354.693599999999 0.254185069464144,41.1283739467645,349.320800000001 0.253870077006383,41.1285090624799,348.518100000001 0.253531951133435,41.1289040181575,349.0141 0.252069979839478,41.1295549563578,354.184200000003 0.251632947657106,41.130390967405,357.0 0.250875056119897,41.1305750339608,355.0 0.250624939991947,41.1310600113432,353.0 0.250454954485687,41.131971961964,355.559800000003 0.250594932668204,41.1322239221362,356.386499999993 0.251489952033539,41.1325529957331,356.0 0.252376925188907,41.1332000783508,352.221999999994 0.253962949332036,41.133187003147,350.283800000005 0.255030970746385,41.1335239555621,345.006800000003 0.255024935864284,41.1339049967915,342.979500000001 0.254592932450897,41.1344580347409,339.0 0.254767946726108,41.1348759562307,334.312600000005 0.252987965533374,41.135897039698,330.001499999998 0.251681059627085,41.1360630014713,332.456699999995 0.251326002307677,41.1359820320695,333.262499999997 0.251208990453721,41.1375590037556,332.114499999996 0.25164904097544,41.1392709235117,322.0 0.250477082686089,41.139231025666,314.638500000001 0.250336937416912,41.1396799606117,306.681800000006 0.249793957929967,41.1401250396818,298.165900000007 0.248336009291813,41.1407979385883,281.630999999994 0.247135050690164,41.1422649394974,267.0 0.246150009353565,41.1429069933099,260.658100000001 0.245438050473476,41.1430099226341,258.794500000004 0.245046950948225,41.1432890400952,257.218099999998 0.244270953866449,41.143504958127,256.488800000006 0.242993049170822,41.1442650289427,250.903399999996 0.241611041411861,41.1448579646386,246.2736 0.240560956658791,41.1447860478689,245.390700000004 0.239522941669888,41.1452039698483,242.813200000004 0.237552020868565,41.1456359732075,240.0 0.236578043182985,41.1457030286353,240.0 0.235203076419241,41.1460810524451,234.980100000001 0.234130025337611,41.146665941508,230.0 0.231511015872861,41.1477540801102,224.130499999999 0.230285916844579,41.1479989994504,223.455400000006 0.228358917372408,41.1490930049413,220.0 0.22634994213901,41.1495590394074,218.263399999996 0.223230030275193,41.1520310298653,214.545800000007 0.222227052277315,41.1525879232959,214.771699999998 0.221539064940538,41.1535759824887,208.886299999998 0.221316944808464,41.154554988392,206.165200000003 0.220138952535343,41.1551839667079,205.870500000005 0.219101942761259,41.1561539205653,204.272899999996 0.217258930378251,41.1571149897603,202.702499999999 0.216815024287356,41.1578700311285,202.6541 0.215998962343901,41.1580140327017,200.0 0.215497053831751,41.1585620410377,198.077799999999 0.214716027980991,41.158876027473,195.880499999999 0.214096941426556,41.15932496184,191.0 0.212558024038586,41.1595589849955,185.238500000007 0.211623944128059,41.1593789414013,182.0 0.211448929852848,41.1589479443437,178.3992 0.210503954276226,41.1591269813935,178.607499999998 0.209711026646288,41.1603549301643,178.922000000006 0.209180955051636,41.1608020209239,180.0 0.203978978327947,41.1620839494601,197.0 0.202614069102106,41.1631000037867,199.718999999997 0.198914967560542,41.164860035354,204.0 0.197663046634491,41.1657709810675,209.013099999996 0.19751099868784,41.1660859730477,211.0 0.195752978608813,41.1664430419708,213.892500000002 0.193302947638877,41.1677370399019,215.354800000001 0.192971024632987,41.1680870683338,218.573799999998 0.191763025036122,41.1683700417578,220.638800000001 0.191012006509138,41.1688260168904,220.0 0.19074797637578,41.169326919792,219.0 0.190328042726561,41.1695959786996,220.0 0.18947107689497,41.1698519618466,224.070900000006 0.188544038877957,41.1698789516928,226.582899999994 0.187755972032014,41.1702839650767,228.0 0.186531040988689,41.1705669384795,231.622799999997 0.183923933303117,41.1719539759272,242.0 0.180872082296821,41.1731380029325,251.241699999999 0.176748018337054,41.1737359685726,258.003599999996 0.174250044280393,41.1746920082257,254.2166 0.173745956455351,41.1753330561363,254.0 0.172203015513249,41.1765529579868,255.0 0.171350073235791,41.1771019729061,253.7019 0.169846023955593,41.1776640630843,251.004700000005 0.169868991182483,41.1777849304735,250.0 0.169425923219714,41.1779599444513,246.776700000002 0.168848074726701,41.1785039300337,242.964099999997 0.167431029976715,41.1782429178287,244.612800000003 0.167021993790185,41.1784749288792,245.0</coordinates>
</LineString>
</Placemark>
</Folder>
</Document></kml>
