<?xml version="1.0" encoding="UTF-8"?>

<kml xmlns:xsd="http://www.w3.org/2001/XMLSchema" xmlns:gx="http://www.google.com/kml/ext/2.2" xmlns:atom="http://www.w3.org/2005/Atom" xmlns="http://www.opengis.net/kml/2.2">
<Document>
<name>ES14a_13a_alagon-gallur</name>
<visibility>1</visibility>
<Schema name="ES14a_13a_alagon-gallur" id="kml_schema_ft_ES14a_13a_alagon-gallur">
<SimpleField type="xsd:string" name="id">
<displayName>id</displayName>
</SimpleField>
<SimpleField type="xsd:string" name="nombre">
<displayName>nombre</displayName>
</SimpleField>
<SimpleField type="xsd:double" name="longitud">
<displayName>longitud</displayName>
</SimpleField>
<SimpleField type="xsd:string" name="_formato">
<displayName>_formato</displayName>
</SimpleField>
</Schema>
<Folder id="kml_ft_ES14a_13a_alagon-gallur">
<name>ES14a_13a_alagon-gallur</name>
<Placemark id="kml_1">
<name>&lt;img height='20' src='https://nco.ign.es/iconos/icono_todos_caminos_azul.png' /&gt;&lt;img height='20' src='https://nco.ign.es/iconos/Camino Santiago_20.png' /&gt;&lt;img height='20' src='https://nco.ign.es/iconos/icono_todos_caminos_azul.png' /&gt;  Camino de Santiago </name>
<visibility>1</visibility>
<description><![CDATA[<!DOCTYPE html>
<html>
<head>
<style>
#nco {
  border-collapse: collapse;
  overflow:hidden;
}
#nco th, #nco td {
  padding: 4px;
  text-align: left;
}
#nco th {
  color: #364B5F;
  padding-right: 5px;
}
#nco td {
  color: rgb(51, 51, 51);
  font-size: 12px;
  padding-right: 5px;
}
</style>
</head>
<body>
<table id="nco">
<tr>
<td>Caminos del Nordeste</td>
</tr>
<tr>
<th><b>Camino: </b></th>
<td>ES14a Camino Santiago del Ebro</td>
</tr>
<tr>
<th><b>Etapa: </b></th>
<td>13a Alagón-Gallur</td>
</tr>
<tr>
<th><b>Longitud: </b></th>
<td>21.15 km</td>
</tr>
</table>
</body>
</html>]]></description>
<Style>
<IconStyle>
<scale>0.8</scale>
</IconStyle>
<LabelStyle>
<color>ffffffff</color>
<scale>0.75</scale>
</LabelStyle>
<LineStyle>
<color>ffff0000</color>
<width>3.0</width>
<gx:labelVisibility>1</gx:labelVisibility>
</LineStyle>
<PolyStyle>
<color>66ff0000</color>
</PolyStyle>
</Style>
<ExtendedData>
<SchemaData schemaUrl="#kml_schema_ft_ES14a_13a_alagon-gallur">
<SimpleData name="id">ES14a_13a</SimpleData>
<SimpleData name="_formato">kml</SimpleData>
</SchemaData>
</ExtendedData>
<LineString>
<extrude>0</extrude>
<tessellate>1</tessellate>
<coordinates>-1.11858744154013,41.770876832009,228.612599999993 -1.12040949982081,41.7710900671625,231.1204 -1.12136922753104,41.7708458187781,231.0 -1.12165605690629,41.7711593016216,230.0 -1.12282918749709,41.771545037203,230.759999999995 -1.12320167931953,41.7715706856503,231.0 -1.12445795887133,41.7721988258752,231.0 -1.12764677061913,41.773234325629,230.0 -1.12984282899361,41.7738683330241,224.0 -1.13265026368247,41.7751866388964,219.0 -1.13440694257676,41.7754370897042,218.0 -1.13439638198229,41.7762372266066,218.0 -1.13549726107477,41.7769012405818,218.271800000002 -1.13562013982584,41.7775397744678,220.0 -1.13893618805218,41.7777577036017,219.0 -1.1436776632084,41.7785576728841,220.0 -1.14891266469688,41.7805607795585,219.0 -1.15210080540315,41.7820968475191,219.0 -1.15266205752132,41.7831761013976,218.313099999999 -1.15285869694039,41.7843941593378,218.524300000005 -1.15451060262815,41.7865127692834,219.0 -1.15668805329982,41.7887265976762,218.597999999998 -1.16020996125328,41.7922245335595,219.0 -1.16156414189969,41.7941558913881,219.0 -1.16180269042171,41.7947025590698,219.0 -1.16233510931418,41.7947588858354,219.0 -1.16251531944504,41.7946764075317,219.0 -1.1630913245951,41.7949905614863,219.0 -1.16410352290106,41.795178315889,219.0 -1.16536416107861,41.7942371956504,218.375100000005 -1.16642329815476,41.7941116347098,218.0 -1.16772752258992,41.7947610651279,219.0 -1.16963189080511,41.7962292390794,220.0 -1.17178151346593,41.7980249780396,219.0 -1.17403373091872,41.7997937270178,220.0 -1.17541557159105,41.800406108736,219.0 -1.17736251995073,41.8012845326633,220.0 -1.17881644503469,41.8020504707259,220.0 -1.17951113739674,41.8026710668368,220.0 -1.18066499014152,41.8032512623461,220.056400000001 -1.18329372297092,41.8043212962365,220.0 -1.18619201686087,41.8053098574195,221.0 -1.18679199355432,41.8056813437789,220.984500000006 -1.18777435252146,41.806030365939,221.0 -1.18918117174858,41.8066715814205,221.0 -1.19039671539717,41.8073288902499,220.575700000001 -1.19116717975512,41.8075221768472,221.0 -1.19259109751533,41.8084587711223,222.0 -1.19415482547314,41.8094070993845,222.0 -1.19473451730913,41.8095973686456,222.622600000002 -1.19510751218814,41.8098986144872,223.0 -1.19507281116703,41.8102219880608,222.0 -1.19397092596144,41.8118423773727,221.0 -1.1929221823931,41.8133779421604,222.0 -1.19290508296165,41.8135859810202,222.0 -1.1932713728154,41.8139566286786,222.0 -1.19386531372841,41.8143212417919,222.0 -1.19443193058545,41.8145054761251,222.0 -1.19486393399884,41.8146243313694,222.0 -1.19539383760853,41.8149587696136,221.0 -1.19620436772646,41.8140964390735,222.0 -1.19664072976563,41.8135930218024,222.0 -1.19787873668621,41.8139433854408,223.0 -1.19961177910877,41.8140243546074,221.0 -1.20105497561329,41.8137749095243,222.0 -1.20206985628868,41.8137375257194,222.695800000001 -1.2032927760041,41.8139319860772,222.938200000004 -1.20463890954217,41.8136664471524,222.732900000003 -1.20667705307286,41.8144571962869,222.0 -1.20844295227523,41.8156910125503,221.542600000001 -1.20980903470085,41.8163448009858,220.569600000003 -1.21297018642271,41.8174349512862,221.0 -1.21587535332293,41.8186183078931,222.789799999999 -1.21864875803221,41.8193959813999,223.0 -1.22183924513799,41.8206078367155,223.0 -1.22433520876505,41.821596398285,222.581000000006 -1.22669605499355,41.8223098658855,221.447700000004 -1.22789768463673,41.8230409356075,223.018299999996 -1.22977120829835,41.8241622666399,225.662100000001 -1.23214932194326,41.8248282924866,227.0 -1.23396333311561,41.8258062933339,229.0 -1.23711107299031,41.8267690385115,228.0 -1.23975573115305,41.8281336123833,231.0 -1.24257037392376,41.8294210724803,229.0 -1.24429369387997,41.830191201661,229.562699999995 -1.24618012453559,41.8305616822621,232.0 -1.24681362905037,41.8307536276519,231.857399999994 -1.2470769881422,41.8315012937121,232.0 -1.24751016475536,41.8319708476139,231.0 -1.24916994956647,41.8328460857629,232.0 -1.2511318180447,41.8338017902576,232.180900000007 -1.2543132528274,41.8354208386999,232.0 -1.25694232072838,41.8364699177945,232.8609 -1.25827789277368,41.836589108412,232.0 -1.26058308387878,41.8376105271275,232.907900000006 -1.26351037987769,41.838891617285,233.0 -1.26540821015428,41.8396032410851,233.0 -1.26664370269038,41.8400469786527,233.0 -1.26870397442146,41.8411327708526,232.657099999997 -1.27161148951782,41.8424058139571,233.688999999998 -1.27465579647239,41.8438780114715,234.723800000007 -1.27538653104025,41.844238265619,234.272500000006 -1.27639101820778,41.8446025430135,234.973700000002 -1.27850309039143,41.8456586634333,235.0 -1.28080878365477,41.8466872903848,237.247499999998 -1.28359425812819,41.847988496786,238.0 -1.28572208766023,41.8488474740688,237.946899999995 -1.28674803288496,41.8495533983702,234.0 -1.28867218290104,41.8500603356809,234.956000000006 -1.28975763881842,41.8504408742804,235.342999999993 -1.29186820273068,41.851572598752,240.0 -1.29360862032168,41.8525090251671,241.0 -1.29473648929689,41.8532012022174,240.0 -1.2964941743043,41.854251622432,239.0 -1.29719490154841,41.8546036624869,239.982300000003 -1.2984877263626,41.8548202509635,240.0 -1.30067490039892,41.8561350362922,240.0 -1.30314068871724,41.8576586985336,241.0 -1.30538033334932,41.8593003782143,242.0 -1.30767798040266,41.8610565544824,243.0 -1.3087723215565,41.8618771428919,242.892099999997 -1.31085891302708,41.8635619054375,243.418000000005 -1.31220756094966,41.8647502918105,244.0 -1.31249589859631,41.8649672152077,246.4179 -1.3128226248483,41.8656550341177,245.0 -1.31383817656518,41.8663909652504,246.696500000005 -1.3157110291853,41.8677235205442,246.933799999999 -1.31563207176339,41.8680183959774,248.0 -1.31597069979458,41.8681625643125,248.0 -1.31653530532368,41.8683687594332,239.643800000005</coordinates>
</LineString>
</Placemark>
</Folder>
</Document></kml>
