<?xml version="1.0" encoding="UTF-8"?>

<kml xmlns:xsd="http://www.w3.org/2001/XMLSchema" xmlns:gx="http://www.google.com/kml/ext/2.2" xmlns:atom="http://www.w3.org/2005/Atom" xmlns="http://www.opengis.net/kml/2.2">
<Document>
<name>ES14a_15a_tudela-alfaro</name>
<visibility>1</visibility>
<Schema name="ES14a_15a_tudela-alfaro" id="kml_schema_ft_ES14a_15a_tudela-alfaro">
<SimpleField type="xsd:string" name="id">
<displayName>id</displayName>
</SimpleField>
<SimpleField type="xsd:string" name="nombre">
<displayName>nombre</displayName>
</SimpleField>
<SimpleField type="xsd:double" name="longitud">
<displayName>longitud</displayName>
</SimpleField>
<SimpleField type="xsd:string" name="_formato">
<displayName>_formato</displayName>
</SimpleField>
</Schema>
<Folder id="kml_ft_ES14a_15a_tudela-alfaro">
<name>ES14a_15a_tudela-alfaro</name>
<Placemark id="kml_1">
<name>&lt;img height='20' src='https://nco.ign.es/iconos/icono_todos_caminos_azul.png' /&gt;&lt;img height='20' src='https://nco.ign.es/iconos/Camino Santiago_20.png' /&gt;&lt;img height='20' src='https://nco.ign.es/iconos/icono_todos_caminos_azul.png' /&gt;  Camino de Santiago </name>
<visibility>1</visibility>
<description><![CDATA[<!DOCTYPE html>
<html>
<head>
<style>
#nco {
  border-collapse: collapse;
  overflow:hidden;
}
#nco th, #nco td {
  padding: 4px;
  text-align: left;
}
#nco th {
  color: #364B5F;
  padding-right: 5px;
}
#nco td {
  color: rgb(51, 51, 51);
  font-size: 12px;
  padding-right: 5px;
}
</style>
</head>
<body>
<table id="nco">
<tr>
<td>Caminos del Nordeste</td>
</tr>
<tr>
<th><b>Camino: </b></th>
<td>ES14a Camino Santiago del Ebro</td>
</tr>
<tr>
<th><b>Etapa: </b></th>
<td>15a Tudela-Alfaro</td>
</tr>
<tr>
<th><b>Longitud: </b></th>
<td>23.58 km</td>
</tr>
</table>
</body>
</html>]]></description>
<Style>
<IconStyle>
<scale>0.8</scale>
</IconStyle>
<LabelStyle>
<color>ffffffff</color>
<scale>0.75</scale>
</LabelStyle>
<LineStyle>
<color>ffff0000</color>
<width>3.0</width>
<gx:labelVisibility>1</gx:labelVisibility>
</LineStyle>
<PolyStyle>
<color>66ff0000</color>
</PolyStyle>
</Style>
<ExtendedData>
<SchemaData schemaUrl="#kml_schema_ft_ES14a_15a_tudela-alfaro">
<SimpleData name="id">ES14a_15a</SimpleData>
<SimpleData name="_formato">kml</SimpleData>
</SchemaData>
</ExtendedData>
<LineString>
<extrude>0</extrude>
<tessellate>1</tessellate>
<coordinates>-1.60640766882492,42.0637604778261,264.0 -1.60615520539916,42.0638375911366,263.0 -1.6061925887897,42.0648425811922,259.080700000006 -1.6055339386335,42.064950372437,262.3321 -1.60450397075293,42.0651336006609,260.0 -1.60373518265129,42.0653733234775,261.327399999995 -1.60352848479599,42.0655399555837,251.743900000001 -1.60534484326618,42.0681257728767,255.541899999997 -1.60618152513868,42.0697485089905,253.0 -1.60654999340695,42.0709754519981,255.986399999994 -1.60665761696788,42.0724245154326,255.0 -1.60665242021397,42.0742450652099,254.470700000005 -1.6061354244966,42.0760594117234,255.807199999996 -1.60549772934103,42.0780715713177,254.0 -1.60520654133998,42.0796718439971,255.939100000003 -1.6053015920802,42.0816928891133,256.898499999996 -1.60551684010038,42.081947195856,257.0 -1.60445686399773,42.0841102294131,257.0 -1.60469340119182,42.0855175514438,258.0 -1.60534568139434,42.0860110777253,257.507899999997 -1.60539228509296,42.086531928968,258.0 -1.60513328372859,42.0877166274516,263.0 -1.60531952963981,42.0898255142185,270.0 -1.60629853609431,42.0908085434966,268.0 -1.6053619417993,42.0921149474149,267.988899999997 -1.60485818994418,42.0922564334663,269.0 -1.60440439340197,42.0922425199886,268.008100000006 -1.60381749258584,42.0929896824862,258.471900000004 -1.60320226070225,42.0934332531853,256.0 -1.6027957389002,42.0933851408433,255.150800000003 -1.6012412312505,42.0936785071747,256.0 -1.60024311403662,42.0940739659031,256.029699999999 -1.59610698031272,42.0942751312726,256.0 -1.59502269669678,42.0943487245902,256.0 -1.59394344274812,42.0947257421045,256.0 -1.59330256306487,42.0952729129527,256.0 -1.59247510150048,42.0968926319638,256.0 -1.59250896439343,42.0990343759493,256.0 -1.5928802821178,42.1011801433404,256.601899999994 -1.59316962587757,42.1033508882647,256.0 -1.59338487299942,42.1041339260778,257.028000000006 -1.5943467800225,42.1064169885799,257.0 -1.59455817157517,42.1079020943994,257.0 -1.5947187687884,42.1090485709918,257.107399999994 -1.59511741236541,42.1094351443394,257.0 -1.59616364154924,42.110020368977,258.0 -1.596179231811,42.1103588302699,259.438699999999 -1.59488238434098,42.1116174566628,259.0 -1.59473888566087,42.1128294798502,259.847999999998 -1.595076006319,42.1138912994811,258.550300000003 -1.59509561923659,42.1150966168249,260.0 -1.59594755629923,42.1171008974006,259.0 -1.59585921058432,42.1179234978974,259.0 -1.59621879451443,42.1190290705971,260.0 -1.59633312399896,42.1206950577198,261.0 -1.59621728624307,42.1211879138064,260.0 -1.5964652221598,42.1226041202823,260.918699999995 -1.59632692113193,42.1230533897707,260.072199999995 -1.59618090806731,42.1233291548949,261.0 -1.59620823302162,42.124716694626,260.198300000004 -1.59671533828775,42.124939820848,260.783500000005 -1.59683134402859,42.1254789450309,260.0 -1.59784957721661,42.1262891397587,263.0 -1.59826381105538,42.1270312733304,263.0 -1.5988072935989,42.1287804089231,264.0 -1.59986760477313,42.1303278762726,264.0 -1.60019600728146,42.1307395949832,263.0 -1.60120988274202,42.1317491114017,263.0 -1.6027372334224,42.1332415931393,264.0 -1.60364733999292,42.1342063504671,265.0 -1.60491786862175,42.135730347942,264.0 -1.60621253767721,42.1361623510509,263.0 -1.60822922404903,42.1371232529126,264.0 -1.60962648699816,42.1381892630637,264.0 -1.61214441084063,42.1391387648918,265.0 -1.61322802341503,42.1396374884849,265.0 -1.61397552144443,42.1400627858866,265.0 -1.61891045059371,42.1418042100016,265.245999999999 -1.62365594840576,42.1436991911789,265.0 -1.62421217175498,42.1438188842787,265.0 -1.6249858215389,42.1441144303713,266.0 -1.62558848060175,42.1437058964923,268.994500000001 -1.62657972390708,42.1431025673135,278.0 -1.62744339566227,42.1424717452012,279.0 -1.62721523974976,42.1411604800138,279.0 -1.6275930963111,42.14091388435,279.0 -1.62974439522824,42.1432195785961,278.0 -1.63214916368426,42.1456582094817,279.0 -1.63345338811941,42.1474076805283,274.0 -1.63523487758354,42.1489269839225,272.409299999999 -1.63899818441342,42.1505752012007,265.018299999996 -1.64041439103524,42.1532714919989,268.112500000003 -1.64190553152478,42.153795696547,276.961899999995 -1.64465596900721,42.1550942208244,268.103300000002 -1.65326032744593,42.1584446351775,273.360000000001 -1.65706319697921,42.1596075399761,271.0 -1.65863346287565,42.160427793242,271.0 -1.66718702787322,42.1635656428518,274.0 -1.67501103150275,42.1663779385383,275.0 -1.6767060194932,42.1666719757386,274.0 -1.67838826757632,42.1675777243187,272.0 -1.68359359771098,42.1695364077354,274.157000000007 -1.68456623331349,42.1682227955968,275.0 -1.68893069003653,42.1700872663243,276.0 -1.69433869447232,42.1717282754497,276.0 -1.69839100909205,42.1734207488964,274.825299999997 -1.70165777214861,42.1748859056329,274.6774 -1.70307716329812,42.1750200162554,275.0 -1.71095279939521,42.1752937689154,275.0 -1.71510251205297,42.1766675632754,279.0 -1.7179226875475,42.1779087553727,278.995899999994 -1.72025604173506,42.1786574269144,278.9565 -1.72278922076771,42.1795762511286,279.342900000003 -1.72499533757842,42.1799202447603,280.077399999995 -1.72775683961016,42.180723901566,281.0 -1.72967243946137,42.1809133322415,282.0 -1.73264432693267,42.1813664583293,284.0 -1.73810781940524,42.1814605031102,296.092900000003 -1.74205837736115,42.1815377841734,300.0 -1.74469465424231,42.1806933914901,305.0 -1.74672592386444,42.17960726434,304.0 -1.74780568086964,42.1793459162477,301.0 -1.7494267411055,42.1784540816158,300.0</coordinates>
</LineString>
</Placemark>
</Folder>
</Document></kml>
