<?xml version="1.0" encoding="UTF-8"?>

<kml xmlns:xsd="http://www.w3.org/2001/XMLSchema" xmlns:gx="http://www.google.com/kml/ext/2.2" xmlns:atom="http://www.w3.org/2005/Atom" xmlns="http://www.opengis.net/kml/2.2">
<Document>
<name>ES09a_13a_el_toboso-la_villa_de_don_fadrique</name>
<visibility>1</visibility>
<Schema name="ES09a_13a_el_toboso-la_villa_de_don_fadrique" id="kml_schema_ft_ES09a_13a_el_toboso-la_villa_de_don_fadrique">
<SimpleField type="xsd:string" name="id">
<displayName>id</displayName>
</SimpleField>
<SimpleField type="xsd:string" name="nombre">
<displayName>nombre</displayName>
</SimpleField>
<SimpleField type="xsd:double" name="longitud">
<displayName>longitud</displayName>
</SimpleField>
<SimpleField type="xsd:string" name="_formato">
<displayName>_formato</displayName>
</SimpleField>
</Schema>
<Folder id="kml_ft_ES09a_13a_el_toboso-la_villa_de_don_fadrique">
<name>ES09a_13a_el_toboso-la_villa_de_don_fadrique</name>
<Placemark id="kml_1">
<name>&lt;img height='20' src='https://nco.ign.es/iconos/icono_todos_caminos_azul.png' /&gt;&lt;img height='20' src='https://nco.ign.es/iconos/Camino Santiago_20.png' /&gt;&lt;img height='20' src='https://nco.ign.es/iconos/icono_todos_caminos_azul.png' /&gt;  Camino de Santiago </name>
<visibility>1</visibility>
<description><![CDATA[<!DOCTYPE html>
<html>
<head>
<style>
#nco {
  border-collapse: collapse;
  overflow:hidden;
}
#nco th, #nco td {
  padding: 4px;
  text-align: left;
}
#nco th {
  color: #364B5F;
  padding-right: 5px;
}
#nco td {
  color: rgb(51, 51, 51);
  font-size: 12px;
  padding-right: 5px;
}
</style>
</head>
<body>
<table id="nco">
<tr>
<td>Caminos del Sureste</td>
</tr>
<tr>
<th><b>Camino: </b></th>
<td>ES09a Camino del Sureste</td>
</tr>
<tr>
<th><b>Etapa: </b></th>
<td>13a El Toboso-La Villa de Don Fadrique</td>
</tr>
<tr>
<th><b>Longitud: </b></th>
<td>26.25 km</td>
</tr>
</table>
</body>
</html>]]></description>
<Style>
<IconStyle>
<scale>0.8</scale>
</IconStyle>
<LabelStyle>
<color>ffffffff</color>
<scale>0.75</scale>
</LabelStyle>
<LineStyle>
<color>ffff0000</color>
<width>3.0</width>
<gx:labelVisibility>1</gx:labelVisibility>
</LineStyle>
<PolyStyle>
<color>66ff0000</color>
</PolyStyle>
</Style>
<ExtendedData>
<SchemaData schemaUrl="#kml_schema_ft_ES09a_13a_el_toboso-la_villa_de_don_fadrique">
<SimpleData name="id">ES09a_13a</SimpleData>
<SimpleData name="_formato">kml</SimpleData>
</SchemaData>
</ExtendedData>
<LineString>
<extrude>0</extrude>
<tessellate>1</tessellate>
<coordinates>-2.99556009485581,39.514372609091,689.7255 -2.99567308315563,39.5154045888883,689.955700000006 -2.9958428997786,39.5164585297108,690.281499999997 -2.99629602617761,39.5171612683918,690.6204 -2.99734443467433,39.5177322434892,689.893599999996 -2.99785438939651,39.5179080959052,689.948000000004 -2.99938458953295,39.518083947876,692.565799999997 -3.00048965926622,39.5182598007875,691.712799999994 -3.00142491237653,39.5188966575944,689.173599999995 -3.00175918268026,39.5193414011261,688.5383 -3.00213988869766,39.5201992051142,688.095400000006 -3.00241665873839,39.5206194740954,687.980599999995 -3.00290113274754,39.5212005073566,688.5291 -3.00325870534976,39.5215223725009,688.828699999998 -3.00381241341614,39.5217191796977,688.729699999996 -3.00442378973052,39.5222376839385,688.322700000004 -3.00511596680979,39.5229705975178,687.857399999994 -3.00568124248209,39.5236589198152,685.7929 -3.0063504541311,39.5242667748423,684.592099999994 -3.0068466628328,39.525089039533,684.104600000006 -3.00750430687589,39.5258667130505,683.482399999994 -3.00821961826865,39.5265728043993,683.3992 -3.00909653298775,39.5272968330321,684.031099999993 -3.00973121070227,39.5281370351916,685.549799999993 -3.00978887805194,39.5289772368847,687.498800000001 -3.01008895039115,39.5297458575291,689.310700000002 -3.0105504580717,39.5302018328395,691.892200000002 -3.01116200147274,39.5306487564514,692.275500000003 -3.01186591414286,39.5315067277067,692.191600000006 -3.01255842629369,39.5324808725598,692.223400000003 -3.01326233896381,39.5332406083579,692.694199999998 -3.01379324868662,39.5338037047873,692.094899999996 -3.01455482870641,39.5341969836601,690.753200000006 -3.01527030808412,39.5345634399654,689.454500000007 -3.01613599026892,39.5355821767366,689.5 -3.01684007092396,39.5366993165371,689.544299999994 -3.0172670446701,39.5372892353838,689.566399999996 -3.01808645912619,39.5381024477685,690.438599999994 -3.01890587448058,39.5389067748059,695.143599999996 -3.01978295628634,39.5395144630963,693.616099999999 -3.02060237164072,39.5400507368301,694.486300000004 -3.021548856387,39.5406852469444,696.183199999999 -3.02250690784091,39.5413018201173,698.537200000006 -3.02313018593447,39.5419185603059,697.795800000007 -3.02424967272976,39.5424814886649,697.702799999999 -3.02530009255441,39.5430444173069,698.5389 -3.02613107461639,39.5433751672827,698.731299999999 -3.02651211660374,39.5439562013217,697.384000000005 -3.02662761838971,39.5445818262674,696.831300000005 -3.02705492810573,39.5453593313198,697.635699999999 -3.02771307520539,39.5461011299562,701.112200000003 -3.02845202396821,39.5469500492899,702.020499999999 -3.02920253943865,39.5477989686282,702.413100000005 -3.02954904749148,39.5484603004625,702.503899999996 -3.02934151150805,39.5491486221878,702.583199999994 -3.02926104491644,39.5500156464718,703.302100000001 -3.02931888025107,39.5506414391294,703.021099999998 -3.02950378497759,39.5514548192222,703.210600000006 -3.02960788804093,39.5520001456574,703.592699999994 -3.03001206344343,39.5527508290808,703.096000000005 -3.0301624351338,39.5536892666541,703.865699999995 -3.03017400184139,39.5541095358555,704.288700000005 -3.03054364420777,39.5547351606818,704.089800000002 -3.0309593863179,39.5553696708965,704.084900000002 -3.03128276005725,39.5558613534323,704.259600000005 -3.03166380114623,39.5563796899525,704.417600000001 -3.03189480651483,39.5569427863452,704.3076 -3.03191810881327,39.5575149351436,704.501300000004 -3.03257642299959,39.5584711428647,704.495500000005 -3.03264582504181,39.5588287147726,704.704199999993 -3.03266929442691,39.5597135084546,704.256699999998 -3.03273869646914,39.5603302491349,704.663100000005 -3.03322384151978,39.5611523456656,695.707399999999 -3.03361678528631,39.5620817316258,701.447400000005 -3.03391735978376,39.5630826984988,698.410499999998 -3.03424090150806,39.5638781410667,695.437000000005 -3.03499158496343,39.5647627671467,692.826499999996 -3.03598484049498,39.5657545133868,690.149099999995 -3.03680492599261,39.5668178418793,688.331999999995 -3.03727867052399,39.5675864624182,687.474600000001 -3.03757924591973,39.5683907897748,688.073799999998 -3.03800689070737,39.5692665313609,687.981199999995 -3.03806489312862,39.5699548529909,688.087100000004 -3.03798442743538,39.570884406272,689.1201 -3.03800772883553,39.5715279686163,689.898199999996 -3.03819280154697,39.5722340600749,689.479699999996 -3.03848164135187,39.5728865076773,691.967600000004 -3.03896695348918,39.573664012638,687.939100000003 -3.03948696664756,39.5746470421295,687.372700000007 -3.03963717035297,39.5750493733971,687.971399999995 -3.03917566357071,39.5758181616425,688.294099999999 -3.0388180909685,39.5766851856091,688.857399999994 -3.0385299213068,39.5776326763391,689.243799999997 -3.03797587727051,39.5782943434168,687.916299999997 -3.03797621324042,39.5790809014274,686.820900000006 -3.03821912038817,39.5799388734619,688.502099999998 -3.03823119015234,39.581020306164,689.612399999998 -3.03811619052461,39.5821107916801,688.805800000002 -3.0380586911599,39.5827097623441,688.741999999998 -3.03824376297304,39.5834963207855,689.307700000005 -3.03901791581354,39.5844880669787,690.008600000001 -3.03975736763294,39.5853904626867,689.954299999998 -3.04036958117714,39.5856853382673,690.083400000003 -3.04090099395653,39.5861232092037,689.683699999994 -3.04113216731005,39.586650598384,688.868199999997 -3.04122470276746,39.5869635783256,688.1394 -3.04150197676306,39.5873479728601,687.460399999996 -3.04167548186861,39.5879647128061,686.153200000001 -3.04177958493195,39.5884027514081,686.431599999996 -3.04125990684515,39.5885819560867,687.1247 -3.04106360339599,39.5887878156967,687.407300000006 -3.04146811387011,39.5893150378345,687.953899999993 -3.04181495699459,39.5900031922323,688.572199999995 -3.04204629743474,39.5907361052617,688.713499999998 -3.04211586746192,39.5912814322449,688.530299999999 -3.04230060420348,39.5913888881993,688.770499999999 -3.04230060420348,39.5916125170831,688.541200000007 -3.04223153723288,39.592014848858,688.390400000004 -3.04242817665192,39.592524300907,688.165500000003 -3.04287878776811,39.592953286717,687.829700000002 -3.04277485268974,39.5931948532023,687.630799999999 -3.04310979313668,39.5933826076787,688.067299999995 -3.04344439851203,39.5929628416255,688.348499999993 -3.04377900478569,39.5925430764901,688.875599999999 -3.04412517686864,39.5923286671004,689.111300000004 -3.04458701962081,39.5923554893372,688.295700000002 -3.0449913630083,39.5927933596556,686.827799999999 -3.04540744019002,39.5934099327585,686.445399999997 -3.04583508497765,39.5940980866317,686.441000000006 -3.04626272976529,39.5947771884829,686.530400000003 -3.04642450107659,39.5949739955998,686.940300000002 -3.04679414254467,39.5950812838489,687.183000000005 -3.04716361692607,39.5951171584693,687.494399999996 -3.04749839028638,39.5950547970064,688.057400000005 -3.04841067616979,39.5948670429089,688.586200000005 -3.04942673094325,39.5946167589288,688.936499999996 -3.0504543524243,39.5943663079115,689.692899999995 -3.05151667402817,39.5941337935513,689.913 -3.05327218062101,39.594124238112,689.676200000002 -3.05513162139394,39.5942397408844,688.505000000005 -3.05726833616243,39.5943461912996,688.678799999994 -3.05953195323616,39.5944347040713,689.3603 -3.06179557030992,39.594523049213,687.676900000006 -3.06408248878382,39.5946561537145,688.174499999994 -3.06642707460736,39.5947890911362,688.731899999999 -3.06876746979014,39.5949037552202,690.497600000002 -3.07114658864984,39.5949471736847,691.197499999995 -3.0737337474479,39.5950797755168,696.323199999999 -3.07673664745776,39.5952210941161,699.217199999999 -3.08207273456852,39.5954946798196,700.589699999997 -3.08755818725654,39.5957726232644,699.862200000003 -3.08946372956981,39.5956909837404,698.608600000007 -3.09012170868451,39.5955387686636,698.339399999997 -3.09328671507729,39.5959117627743,697.441900000005 -3.09684449814994,39.5963469511807,696.295400000003 -3.09957062811907,39.5966487000286,695.668000000005 -3.10103746109535,39.5966834012556,695.653900000005 -3.10282817086755,39.5970305793886,695.478300000002 -3.10480361827962,39.5973953602482,695.972099999999 -3.1067673301008,39.597635082484,696.115099999995 -3.10878887815494,39.5978657521855,696.033599999995 -3.11092592799505,39.598123077075,696.166800000006 -3.11272786940323,39.5983002700514,696.151599999997 -3.11327068090525,39.5983715161855,695.506299999994 -3.1145871430895,39.5982721072851,694.9804 -3.1157882696761,39.5982265091486,693.724799999996 -3.11626268524902,39.5987981553024,693.5386 -3.11686366805555,39.5990658731695,693.556500000006 -3.11789179259317,39.5991723230898,693.560200000007 -3.11920892492065,39.5994482555612,692.104600000006 -3.12046872407171,39.599983356457,691.263200000001 -3.12167052169985,39.6003754620938,690.467900000003 -3.12297608731971,39.6006691636772,689.9614 -3.12447845944529,39.6011950439836,687.702699999994 -3.12603866690547,39.6017029874676,684.390599999999 -3.12808418650296,39.6023086637982,682.552100000001 -3.1302453767697,39.6029767016769,681.597500000003 -3.13194505845752,39.6038775886003,680.824900000007 -3.13282364943294,39.6043236735365,680.771500000003 -3.13401438251173,39.6048408365836,680.777499999997 -3.13541298754386,39.6053130736443,680.649799999999 -3.13634891079737,39.605508874259,680.290999999997 -3.13676582610724,39.6060805205175,679.850999999995 -3.13732087625668,39.6064285367409,680.525800000003 -3.13808396454783,39.60685685231,680.877699999997 -3.13878905041769,39.6071601098079,681.129300000001 -3.13919356089181,39.6072761147549,680.763999999996 -3.14001398146102,39.6074093871494,681.608800000002 -3.1412625498744,39.6079532049305,682.240099999995 -3.14187509938856,39.6081314046514,682.121299999999 -3.14367754385331,39.6083706239561,682.539000000004 -3.1448676067889,39.6085302153809,682.411900000006 -3.14611600721733,39.6089756294838,680.968699999998 -3.14770001913422,39.6096976465707,679.704199999993 -3.14811609721427,39.6098671287014,679.679600000003 -3.14926123270755,39.61056282721,679.361699999994 -3.15040586514423,39.6110352307863,679.679399999994 -3.15112268570668,39.6113205507176,679.540599999993 -3.15237075106352,39.6115247344312,680.1204 -3.15314574203218,39.6120065259393,679.029399999999 -3.15431283774088,39.6121570646827,679.270399999994 -3.15560733881138,39.6124951908856,678.402600000001 -3.15650906410031,39.6128158823673,678.950100000002 -3.1577219253795,39.6127877192758,678.516799999998 -3.15903888972199,39.6128219176107,678.3508 -3.16030992230569,39.6129454666276,678.045199999993 -3.161927294059,39.6129791617757,677.415999999997 -3.16354449872565,39.6129323906358,677.107399999994 -3.16515013578637,39.6128678500786,677.197499999995 -3.16672107182599,39.6128212470281,678.399399999995 -3.16769136102899,39.6128111882889,677.771900000007 -3.16943630612906,39.6130680098998,677.574500000002 -3.17143539001288,39.6133333812879,677.275899999993 -3.1730069961957,39.6135635481906,677.5242 -3.17431205875901,39.6134725208107,677.024900000004 -3.1759413331898,39.6136579283231,676.701100000006 -3.1784827264174,39.6136096490212,676.727400000003 -3.18117432335038,39.6135699183104,676.377099999998 -3.18263025976227,39.6137197872324,675.717999999993 -3.18430596990674,39.613958670973,675.474499999997 -3.18607354536543,39.6140186853704,675.469899999996 -3.18788889772251,39.6146593980848,675.044899999994 -3.18995872483326,39.6153532519768,675.499100000001 -3.19184297707432,39.6157792204107,674.653699999995 -3.19358775418943,39.6159015960454,674.868100000007 -3.19608388490308,39.6161478566149,674.758700000006 -3.19867238398755,39.6163671269209,673.740399999995 -3.20008289079889,39.6167312371046,673.319300000003 -3.20198960631194,39.6169069216661,673.036999999997 -3.20460073665334,39.6169741447789,672.054799999998 -3.20655254669535,39.6167922573364,671.786999999997 -3.20893166555504,39.616520180593,671.274600000004 -3.21016715809117,39.6163216970914,670.830700000006 -3.21159929004638,39.6162211147199,670.438599999994 -3.21401361388206,39.6161364572582,670.622900000002 -3.21477737321471,39.6165820390206,671.688200000004 -3.21547156162188,39.6169562075961,671.573999999993 -3.21645459163054,39.6172941657318,671.587100000004 -3.21694040682443,39.617499019663,671.911200000002 -3.21676790693366,39.6177766277561,672.226500000004 -3.21747316078851,39.6179720941867,671.532099999997</coordinates>
</LineString>
</Placemark>
</Folder>
</Document></kml>
