<?xml version="1.0" encoding="UTF-8"?>

<kml xmlns:xsd="http://www.w3.org/2001/XMLSchema" xmlns:gx="http://www.google.com/kml/ext/2.2" xmlns:atom="http://www.w3.org/2005/Atom" xmlns="http://www.opengis.net/kml/2.2">
<Document>
<name>ES09a_23a_avila-gotarrendura</name>
<visibility>1</visibility>
<Schema name="ES09a_23a_avila-gotarrendura" id="kml_schema_ft_ES09a_23a_avila-gotarrendura">
<SimpleField type="xsd:string" name="id">
<displayName>id</displayName>
</SimpleField>
<SimpleField type="xsd:string" name="nombre">
<displayName>nombre</displayName>
</SimpleField>
<SimpleField type="xsd:double" name="longitud">
<displayName>longitud</displayName>
</SimpleField>
<SimpleField type="xsd:string" name="_formato">
<displayName>_formato</displayName>
</SimpleField>
</Schema>
<Folder id="kml_ft_ES09a_23a_avila-gotarrendura">
<name>ES09a_23a_avila-gotarrendura</name>
<Placemark id="kml_1">
<name>&lt;img height='20' src='https://nco.ign.es/iconos/icono_todos_caminos_azul.png' /&gt;&lt;img height='20' src='https://nco.ign.es/iconos/Camino Santiago_20.png' /&gt;&lt;img height='20' src='https://nco.ign.es/iconos/icono_todos_caminos_azul.png' /&gt;  Camino de Santiago </name>
<visibility>1</visibility>
<description><![CDATA[<!DOCTYPE html>
<html>
<head>
<style>
#nco {
  border-collapse: collapse;
  overflow:hidden;
}
#nco th, #nco td {
  padding: 4px;
  text-align: left;
}
#nco th {
  color: #364B5F;
  padding-right: 5px;
}
#nco td {
  color: rgb(51, 51, 51);
  font-size: 12px;
  padding-right: 5px;
}
</style>
</head>
<body>
<table id="nco">
<tr>
<td>Caminos del Sureste</td>
</tr>
<tr>
<th><b>Camino: </b></th>
<td>ES09a Camino del Sureste</td>
</tr>
<tr>
<th><b>Etapa: </b></th>
<td>23a Ávila-Gotarrendura</td>
</tr>
<tr>
<th><b>Longitud: </b></th>
<td>22.85 km</td>
</tr>
</table>
</body>
</html>]]></description>
<Style>
<IconStyle>
<scale>0.8</scale>
</IconStyle>
<LabelStyle>
<color>ffffffff</color>
<scale>0.75</scale>
</LabelStyle>
<LineStyle>
<color>ffff0000</color>
<width>3.0</width>
<gx:labelVisibility>1</gx:labelVisibility>
</LineStyle>
<PolyStyle>
<color>66ff0000</color>
</PolyStyle>
</Style>
<ExtendedData>
<SchemaData schemaUrl="#kml_schema_ft_ES09a_23a_avila-gotarrendura">
<SimpleData name="id">ES09a_23a</SimpleData>
<SimpleData name="_formato">kml</SimpleData>
</SchemaData>
</ExtendedData>
<LineString>
<extrude>0</extrude>
<tessellate>1</tessellate>
<coordinates>-4.69656877222791,40.6559544610301,1129.61229999999 -4.69695249568636,40.6561579738443,1130.7311 -4.69738265485847,40.6561319899237,1130.7537 -4.69795849202359,40.6561832871673,1131.02650000001 -4.69831472254277,40.6563274558448,1131.4301 -4.69873666751992,40.6564903998977,1129.80680000001 -4.69915861249707,40.6566533442341,1128.1707 -4.69954015664263,40.6567673377702,1126.875 -4.69978893158585,40.6567936574155,1125.8116 -4.7001087848276,40.6570476287506,1122.38430000001 -4.70049401745571,40.6573104856176,1118.598 -4.70096491253104,40.6573435101268,1116.64939999999 -4.70146313345897,40.6574258205439,1113.90489999999 -4.70209244643463,40.6575262356808,1110.2656 -4.70295293276381,40.6574739322449,1105.2861 -4.7040885128774,40.6574575038465,1098.49679999999 -4.70491211887262,40.6574953899474,1093.0416 -4.70564452969679,40.6575445081405,1087.52499999999 -4.70620544584505,40.6575265709678,1082.4268 -4.70666075155691,40.6574603537892,1078.2824 -4.70693584534129,40.6574962281653,1076.59110000001 -4.70720792168465,40.6574127443284,1073.87519999999 -4.70752442241377,40.6575374671142,1071.9048 -4.70765652147294,40.6575019280474,1071.1841 -4.70762165246687,40.65736748253,1071.4139 -4.70759801599511,40.6572645524916,1071.7294 -4.70774436413131,40.6572704200376,1071.0324 -4.70796564613523,40.6573468630062,1067.5175 -4.70842296227669,40.6572606966754,1061.6303 -4.70888027931649,40.6571746985592,1057.3322 -4.70904691141182,40.6571565936426,1060.7444 -4.70921203523575,40.6570826651255,1064.07429999999 -4.70936927903805,40.6571042905984,1067.5067 -4.70926869647231,40.6572570085032,1067.8005 -4.70940230380281,40.6575815559751,1065.9578 -4.70976473718905,40.6578707320033,1068.5598 -4.71012800960175,40.6581917587366,1067.0223 -4.71077375096729,40.65852452016,1069.74310000001 -4.7109387068063,40.6588485646781,1070.1627 -4.71107617060435,40.6593241534524,1072.4083 -4.71120256895471,40.6597761059897,1078.0411 -4.71127934796202,40.6603321612007,1080.97749999999 -4.71130013497773,40.6607378456736,1080.2068 -4.71149057152974,40.6612444476183,1080.4945 -4.71167765556912,40.6620294970152,1081.19040000001 -4.71180321668965,40.6628552822089,1083.97380000001 -4.71192726864049,40.6636254114565,1085.8792 -4.71217134988634,40.6641869989708,1086.69100000001 -4.71274970143593,40.6647435570837,1084.02929999999 -4.71353776738354,40.6653287817428,1083.8434 -4.71426079081302,40.6658194580548,1083.6528 -4.7150218668779,40.6661664688028,1084.2553 -4.71570784198845,40.6664350249697,1084.2306 -4.71622483770582,40.6666345142589,1083.0463 -4.71674351057783,40.6668975384451,1081.0998 -4.71733141660878,40.6674141991045,1078.7922 -4.71794111666685,40.6679702546897,1075.94560000001 -4.71853103492403,40.6685663753597,1075.4942 -4.71859054651497,40.6692578822335,1082.1339 -4.71869582277805,40.6701078073935,1080.82889999999 -4.71874091730701,40.6710541245185,1084.80590000001 -4.71885893527408,40.67199138901,1092.1048 -4.71918381728479,40.6728460076984,1092.7211 -4.71952076995796,40.6737641614171,1092.77770000001 -4.72003944193168,40.6744328697073,1093.1143 -4.72098777091923,40.675150863194,1093.97 -4.72212553034568,40.6759137841177,1093.7099 -4.72324484915602,40.6767724265912,1094.7132 -4.72416669131742,40.6776738160048,1096.9846 -4.72506355492406,40.6788223044526,1095.424 -4.72571030240276,40.6795926015181,1094.93369999999 -4.72572589266448,40.6801972721529,1094.1093 -4.72536949416038,40.6809665628096,1099.77099999999 -4.72512021616059,40.6818377776899,1108.5451 -4.72506288478086,40.6828571852879,1110.69990000001 -4.72512423971475,40.6840261255497,1113.2931 -4.72518593061859,40.6852029444473,1114.01179999999 -4.72513061056673,40.686301979362,1120.31510000001 -4.72492542098282,40.6872679099079,1128.842 -4.7246162963205,40.688251442713,1133.6412 -4.72459098359242,40.6893021983326,1142.23330000001 -4.7247693503803,40.6901430703046,1144.9072 -4.72491737477282,40.6906184924345,1146.3395 -4.72482567654524,40.6911214065315,1144.33560000001 -4.72486842467465,40.6919723368897,1143.9378 -4.72491871595752,40.6927117887612,1147.3079 -4.72518492450544,40.6933127713497,1148.1669 -4.72530595991356,40.6939556630792,1149.0928 -4.72517805149521,40.6946738242925,1150.9572 -4.7249956611532,40.694899633135,1151.0975 -4.72501359871278,40.6951938379482,1153.28879999999 -4.72498040686136,40.6955287787922,1155.9602 -4.72496967738359,40.6959269192931,1159.3244 -4.72495526032161,40.69618189671,1158.9887 -4.7250338826719,40.696395635101,1158.0864 -4.72543453757681,40.6965329305744,1159.0647 -4.72570074702307,40.6967280614962,1159.47930000001 -4.72610240804109,40.6969050868241,1160.8876 -4.72664153195886,40.6971439715151,1163.4488 -4.72725575772933,40.6974532636911,1167.65949999999 -4.72793268051673,40.6977615498579,1173.7322 -4.72857624256942,40.6979908788719,1177.22440000001 -4.72922684651565,40.6980928027761,1183.4279 -4.72995556885727,40.6983844933163,1189.2144 -4.73071698089208,40.6987234574668,1190.9189 -4.73123146222497,40.6992171516053,1188.0882 -4.73151007650697,40.6994836956244,1185.537 -4.73209211564081,40.6997616399707,1182.1306 -4.73268471626746,40.7000394163016,1181.2298 -4.7333894670657,40.7002120830183,1181.47 -4.73408969125328,40.7002097361493,1181.4397 -4.73458925246761,40.7005287515771,1182.2858 -4.73473811498829,40.701433829606,1178.37880000001 -4.73488714549392,40.7023467863124,1174.4954 -4.73536105801026,40.7032867332406,1169.2761 -4.73567420622675,40.7040778170652,1164.87179999999 -4.73573002933511,40.7050239658776,1157.961 -4.73565174295473,40.7060358296588,1150.5113 -4.73559524880483,40.7070870879244,1143.3098 -4.73553875465494,40.7081383459385,1138.34390000001 -4.73548226050504,40.7091896043812,1137.25 -4.7355100885159,40.7102634935727,1135.5031 -4.73556876197868,40.7109152706232,1133.70299999999 -4.73546532905855,40.711849349637,1131.1419 -4.73510725429809,40.7128067306834,1127.96739999999 -4.73476711619891,40.7134725891684,1127.2234 -4.73512938249849,40.7136615171367,1127.3602 -4.73573472393081,40.7133805558207,1127.609 -4.73648020973394,40.7135830626545,1128.8621 -4.73765417935119,40.7145560344158,1133.6583 -4.73774453639407,40.7160699732153,1153.1946 -4.73786925938641,40.7169423618515,1155.83930000001 -4.73821409028463,40.7174424266105,1158.17230000001 -4.73937850452222,40.7180465937774,1162.1262 -4.74022038314863,40.7190053161753,1165.9595 -4.74092496596195,40.7195970784927,1169.2114 -4.74135344887774,40.7203678784737,1171.436 -4.74232357009578,40.7203729071236,1175.1556 -4.742660354784,40.7205621709054,1176.29670000001 -4.74288566034208,40.7213747126838,1176.69960000001 -4.7431109659002,40.722187254075,1173.0656 -4.74272288381596,40.7229702915565,1169.9926 -4.74151404609097,40.7236103338141,1164.65300000001 -4.73997244633357,40.7242165125781,1163.7343 -4.73890459200588,40.7243881743903,1160.5576 -4.73838826643171,40.7251537769106,1153.8392 -4.73846755892521,40.7262405748045,1155.0925 -4.7385798770818,40.7276182244307,1155.18859999999 -4.73911028374807,40.7293586426009,1164.7917 -4.73980866369433,40.7306886834832,1174.1271 -4.74047351671759,40.7317084252531,1179.2209 -4.74140591947347,40.732219051316,1176.50509999999 -4.74259212594152,40.7326674831831,1168.03969999999 -4.74298054309734,40.7328755219942,1165.4133 -4.74321976266086,40.7332409723892,1160.39139999999 -4.74337818145953,40.7344234919072,1154.7306 -4.7435540329646,40.7352952098023,1140.49770000001 -4.74326183974877,40.7358437213808,1136.5275 -4.74309822509449,40.736428945887,1132.95110000001 -4.74303217646324,40.7368379823411,1129.43309999999 -4.74270176172871,40.7369013496757,1129.0445 -4.74232390516737,40.7371013420498,1125.22659999999 -4.74197102716082,40.737281553097,1127.47040000001 -4.7421862742827,40.7377056772213,1121.8658 -4.74216984589278,40.7380557053641,1119.23330000001 -4.74218241871349,40.7385411851303,1117.3677 -4.74224142724786,40.7388511480901,1113.5794 -4.7430147419602,40.7391309360086,1107.6872 -4.74389467412035,40.7395838938204,1105.44469999999 -4.74423866689041,40.7400450665242,1104.51240000001 -4.74433187428765,40.740684773039,1102.3184 -4.74440261751461,40.741441323671,1103.0316 -4.74495682863756,40.7421324956011,1104.6624 -4.7455125489302,40.7428818378135,1106.405 -4.74621545548721,40.7433958158287,1107.024 -4.74627563722136,40.7437448387356,1106.7981 -4.74558882398265,40.743852462009,1105.9672 -4.74510619421481,40.7439569006088,1105.09080000001 -4.74465122447286,40.7441386203324,1103.3008 -4.74383465947283,40.7441704713585,1100.82000000001 -4.7431498575621,40.7443557118712,1099.3668 -4.74249975757077,40.7448899742101,1095.17939999999 -4.74200371685403,40.7454609494859,1089.745 -4.74218107752876,40.7463906699196,1087.0196 -4.74295020070198,40.7474865201287,1085.9237 -4.74294986563039,40.7484579829324,1082.50199999999 -4.74307022999698,40.7491556920389,1078.2592 -4.74287660801896,40.7495667408415,1075.0897 -4.74327005484206,40.7499687367019,1081.6036 -4.74327642479575,40.7511924944134,1089.5358 -4.74313661459819,40.7526905082552,1090.8881 -4.74322613351288,40.7541655558525,1097.31050000001 -4.74302764985253,40.7553730525351,1105.7311 -4.74274300068846,40.7562127520284,1114.5963 -4.74262749800416,40.756680965184,1118.7344 -4.74296897638974,40.7570449068619,1123.3612 -4.74340030965993,40.7579126014624,1123.06449999999 -4.74394848590082,40.7593418840859,1114.5892 -4.74457226705095,40.7607312680025,1115.09149999999 -4.74422374767018,40.7620576204563,1119.2072 -4.74403968107182,40.7628376405956,1120.15459999999 -4.74401336133233,40.7637899921365,1121.97629999999 -4.74344724753183,40.7646146039675,1126.1857 -4.74331431124283,40.7653937858133,1118.1152 -4.74340450030072,40.7659171517345,1111.9397 -4.74377866837952,40.76655249998,1101.0897 -4.74413087624283,40.7673241377827,1094.1493 -4.74405610946174,40.768374390578,1085.5147 -4.74397933135272,40.7693470265448,1079.97749999999 -4.74348982767632,40.7701704645754,1077.4451 -4.74341254651072,40.7711236546364,1072.0258 -4.7433357684017,40.7720962904996,1065.37270000001 -4.74324876476982,40.7726805095636,1065.10920000001 -4.74264074096807,40.7728840216865,1064.4195 -4.74267007814861,40.7740102140996,1068.51850000001 -4.74250528939626,40.7755280096356,1062.71739999999 -4.74286671756769,40.7766493403144,1056.02929999999 -4.74322764178424,40.7777512255436,1045.4909 -4.7432692167139,40.7793436196635,1036.75780000001 -4.74346300577855,40.7808947742652,1029.27370000001 -4.7439629029628,40.7824219570806,1021.3502 -4.74446078792082,40.7838715235571,1010.2245 -4.74450957003403,40.7847645316478,1004.2951 -4.74458098430248,40.7855406959987,1002.1357 -4.74408829609838,40.7862474578786,998.555399999997 -4.74359409872461,40.7868962168522,996.376199999999 -4.74335689138732,40.7875992908309,994.784899999999 -4.74320484344063,40.7886311036072,989.558600000004 -4.7428853252705,40.7891217802852,987.911200000002 -4.74246874413388,40.7898079228047,989.213099999994 -4.7419760559298,40.7905148521467,987.521900000007 -4.74184194554269,40.7912553095054,985.679300000003 -4.74213900044085,40.7928436801601,984.560800000007 -4.74243655839557,40.7944516643268,982.221999999994 -4.74262632390609,40.7958475867187,982.073699999994 -4.74233681305969,40.7974837343278,982.940600000002 -4.74207781259358,40.7993136714248,980.1198 -4.74219549459078,40.8008854460627,977.818499999994 -4.7422258369861,40.8020506981933,976.725399999996 -4.74145738395608,40.8039466843756,972.556500000006 -4.74059019260163,40.8059801341581,960.116699999999 -4.73997496071804,40.8078737738056,955.141300000003 -4.73933558930615,40.809826086815,951.902700000006 -4.73908379692192,40.8109566378979,953.113299999997 -4.73996071164102,40.8112543628103,949.367899999997 -4.74106913388693,40.8116067382361,946.958100000003 -4.7426992464459,40.812359097799,944.499200000006 -4.74295036868693,40.814142599268,941.255799999999 -4.74286889688058,40.8149403887278,940.795599999998 -4.74337566617675,40.8157487397205,938.402799999996 -4.74316343649592,40.8164320324298,938.337799999994 -4.74329654166821,40.8176148866164,936.223199999993 -4.74361874130949,40.8191836431297,937.011899999998 -4.74381119008773,40.8206766278564,931.028399999996 -4.74348027229663,40.8217112901475,929.011700000003 -4.74311716876722,40.822493992427,928.076400000005 -4.74267628011734,40.8232389759285,926.420899999997 -4.74238425488647,40.8238069334775,927.656300000002 -4.74173080148418,40.8242441335466,934.246199999994 -4.74105237042542,40.8247014504835,933.256200000003 -4.74057778686755,40.8251359684304,931.739199999996 -4.74025156367211,40.8253740140865,931.621299999999 -4.73969064662556,40.825440901778,931.144799999995 -4.73979994644283,40.8257113020893,930.947499999995 -4.74009582814121,40.8262702072944,929.465299999996</coordinates>
</LineString>
</Placemark>
</Folder>
</Document></kml>
