<?xml version="1.0" encoding="UTF-8"?>

<kml xmlns:xsd="http://www.w3.org/2001/XMLSchema" xmlns:gx="http://www.google.com/kml/ext/2.2" xmlns:atom="http://www.w3.org/2005/Atom" xmlns="http://www.opengis.net/kml/2.2">
<Document>
<name>ES09a_04b_villena-yecla</name>
<visibility>1</visibility>
<Schema name="ES09a_04b_villena-yecla" id="kml_schema_ft_ES09a_04b_villena-yecla">
<SimpleField type="xsd:string" name="id">
<displayName>id</displayName>
</SimpleField>
<SimpleField type="xsd:string" name="nombre">
<displayName>nombre</displayName>
</SimpleField>
<SimpleField type="xsd:double" name="longitud">
<displayName>longitud</displayName>
</SimpleField>
<SimpleField type="xsd:string" name="_formato">
<displayName>_formato</displayName>
</SimpleField>
</Schema>
<Folder id="kml_ft_ES09a_04b_villena-yecla">
<name>ES09a_04b_villena-yecla</name>
<Placemark id="kml_1">
<name>&lt;img height='20' src='https://nco.ign.es/iconos/icono_todos_caminos_azul.png' /&gt;&lt;img height='20' src='https://nco.ign.es/iconos/Camino Santiago_20.png' /&gt;&lt;img height='20' src='https://nco.ign.es/iconos/icono_todos_caminos_azul.png' /&gt;  Camino de Santiago </name>
<visibility>1</visibility>
<description><![CDATA[<!DOCTYPE html>
<html>
<head>
<style>
#nco {
  border-collapse: collapse;
  overflow:hidden;
}
#nco th, #nco td {
  padding: 4px;
  text-align: left;
}
#nco th {
  color: #364B5F;
  padding-right: 5px;
}
#nco td {
  color: rgb(51, 51, 51);
  font-size: 12px;
  padding-right: 5px;
}
</style>
</head>
<body>
<table id="nco">
<tr>
<td>Caminos del Sureste</td>
</tr>
<tr>
<th><b>Camino: </b></th>
<td>ES09a Camino del Sureste</td>
</tr>
<tr>
<th><b>Etapa: </b></th>
<td>04b Villena-Yecla</td>
</tr>
<tr>
<th><b>Longitud: </b></th>
<td>23.16 km</td>
</tr>
</table>
</body>
</html>]]></description>
<Style>
<IconStyle>
<scale>0.8</scale>
</IconStyle>
<LabelStyle>
<color>ffffffff</color>
<scale>0.75</scale>
</LabelStyle>
<LineStyle>
<color>ffff0000</color>
<width>3.0</width>
<gx:labelVisibility>1</gx:labelVisibility>
</LineStyle>
<PolyStyle>
<color>66ff0000</color>
</PolyStyle>
</Style>
<ExtendedData>
<SchemaData schemaUrl="#kml_schema_ft_ES09a_04b_villena-yecla">
<SimpleData name="id">ES09a_04b</SimpleData>
<SimpleData name="_formato">kml</SimpleData>
</SchemaData>
</ExtendedData>
<LineString>
<extrude>0</extrude>
<tessellate>1</tessellate>
<coordinates>-0.865585226929766,38.6361431138061,515.141399999993 -0.865925699202232,38.6360861169511,513.296000000002 -0.86620515251069,38.636193237488,512.895300000004 -0.866833794444818,38.6361751329854,509.969100000002 -0.867441650261608,38.6362956642164,508.079899999997 -0.867960490220251,38.6362515759027,506.314700000003 -0.868690218675025,38.6361312116018,504.267200000002 -0.870007351002471,38.6359424510217,501.965100000001 -0.873713828610835,38.6356209215025,497.945099999997 -0.873911139071405,38.635348006847,497.886799999993 -0.87485158803732,38.6345897794452,498.014200000005 -0.875468328192237,38.6341874481794,497.923899999994 -0.875994209146096,38.6338553569126,497.396900000007 -0.880032777745341,38.6307852337885,497.2981 -0.884232446614354,38.6274668382592,498.543300000005 -0.886764451548891,38.6256737812351,498.086299999995 -0.889603066761273,38.6241695653836,503.173599999995 -0.890488028588706,38.6231952531373,504.952499999999 -0.89205460600257,38.6220217860834,506.075899999996 -0.896801445897685,38.6215416708784,504.426900000006 -0.901286266987343,38.6207737207394,494.955900000001 -0.905839651991064,38.6191935643365,490.305999999997 -0.908222124261723,38.6178573214421,490.536999999997 -0.911225862399743,38.6168503193961,488.236900000004 -0.916788261181706,38.6162070925871,487.208100000003 -0.921576675108158,38.6158325887574,488.092099999994 -0.922960695093383,38.6162820266688,488.103400000007 -0.927015021041015,38.6179101278465,495.475300000006 -0.931111928031396,38.6196446782855,501.725300000006 -0.933785420318139,38.6207180648304,505.6054 -0.936440304003776,38.6208712860423,512.309699999998 -0.94004938357411,38.6207582983179,515.155700000003 -0.943658296057784,38.6206453104155,516.464999999997 -0.947272572382026,38.6203554641118,513.686400000006 -0.950886681619609,38.620065450297,508.920100000003 -0.954235251554142,38.6195938839872,507.880499999999 -0.957161542338269,38.6197160924631,512.251799999998 -0.960801635345461,38.62009813991,516.359700000001 -0.964410546930805,38.6199844806949,520.373300000007 -0.968386922467968,38.6196295911101,523.090400000001 -0.972363464193461,38.6192745334278,522.694199999998 -0.976325757740226,38.6194141759963,526.787200000006 -0.980367511765478,38.6199439126895,534.343099999998 -0.98482970159816,38.6199506182278,537.974700000006 -0.988948065747444,38.6193498033046,537.568899999998 -0.993111524425689,38.6187493237547,538.066800000001 -0.997274648032318,38.6181493473345,536.732300000003 -1.0015762415501,38.617445267176,539.115699999995 -1.00623188537588,38.6169587819017,542.331600000005 -1.01097604290156,38.6165450505721,546.435800000007 -1.01594114646125,38.616275991797,549.524600000004 -1.02104471993209,38.615902996702,554.791899999997 -1.02628022447711,38.615638128662,561.130900000004 -1.03161161789054,38.6151623723607,561.751699999993 -1.03743469339493,38.6148361486547,564.876199999999 -1.04325676368454,38.6145449613916,561.647500000006 -1.04907866598915,38.6142534388363,561.913799999995 -1.05487374549773,38.6141659313711,563.747399999993 -1.05787128166703,38.614545128446,565.682199999996 -1.06051174918898,38.6151925471837,569.668399999995 -1.06527954318639,38.6147776426065,569.540099999998 -1.0682222623604,38.6146066521902,569.987299999993 -1.06817213816419,38.61647179288,575.641699999993 -1.07104629252584,38.6162448109154,575.103400000007 -1.07446929416988,38.6164111080918,577.630600000004 -1.07519030537312,38.6156000752088,575.073600000003 -1.07791123948664,38.6158646078827,575.153399999996 -1.08147840905569,38.6158684634005,575.696800000005 -1.0844204571882,38.6156974727767,575.256200000003 -1.08541974760183,38.6149457835806,575.783899999995 -1.08716586590164,38.6150290997233,579.420100000003 -1.08889488477004,38.6157712338182,580.8658 -1.0934554787539,38.6152423352628,582.7984 -1.0979401318586,38.6149313671407,581.522700000001 -1.10172137624809,38.6147734515185,581.8747 -1.1026417092398,38.614349662531,582.428400000004 -1.10363664102767,38.6137622592526,580.906499999997 -1.1042773536243,38.6131305984216,585.403399999996 -1.10474154367432,38.6124382537068,588.729099999997 -1.10633360180122,38.612954243478,589.791200000007 -1.1080562507159,38.6135773543835,591.089800000002 -1.10969290121352,38.6140940147124,591.671199999997 -1.11159592824402,38.6146497346428,593.299299999999 -1.11345536991524,38.6151700834716,592.938800000004 -1.11469237162103,38.615610301177,595.326700000005</coordinates>
</LineString>
</Placemark>
</Folder>
</Document></kml>
