<?xml version="1.0" encoding="UTF-8"?>

<kml xmlns:xsd="http://www.w3.org/2001/XMLSchema" xmlns:gx="http://www.google.com/kml/ext/2.2" xmlns:atom="http://www.w3.org/2005/Atom" xmlns="http://www.opengis.net/kml/2.2">
<Document>
<name>ES15a_10a_lagunas_de_ruidera_-tomelloso</name>
<visibility>1</visibility>
<Schema name="ES15a_10a_lagunas_de_ruidera_-tomelloso" id="kml_schema_ft_ES15a_10a_lagunas_de_ruidera_-tomelloso">
<SimpleField type="xsd:string" name="id">
<displayName>id</displayName>
</SimpleField>
<SimpleField type="xsd:string" name="nombre">
<displayName>nombre</displayName>
</SimpleField>
<SimpleField type="xsd:double" name="longitud">
<displayName>longitud</displayName>
</SimpleField>
<SimpleField type="xsd:string" name="_formato">
<displayName>_formato</displayName>
</SimpleField>
</Schema>
<Folder id="kml_ft_ES15a_10a_lagunas_de_ruidera_-tomelloso">
<name>ES15a_10a_lagunas_de_ruidera_-tomelloso</name>
<Placemark id="kml_1">
<name>&lt;img height='20' src='https://nco.ign.es/iconos/icono_todos_caminos_azul.png' /&gt;&lt;img height='20' src='https://nco.ign.es/iconos/Camino Santiago_20.png' /&gt;&lt;img height='20' src='https://nco.ign.es/iconos/icono_todos_caminos_azul.png' /&gt;  Camino de Santiago </name>
<visibility>1</visibility>
<description><![CDATA[<!DOCTYPE html>
<html>
<head>
<style>
#nco {
  border-collapse: collapse;
  overflow:hidden;
}
#nco th, #nco td {
  padding: 4px;
  text-align: left;
}
#nco th {
  color: #364B5F;
  padding-right: 5px;
}
#nco td {
  color: rgb(51, 51, 51);
  font-size: 12px;
  padding-right: 5px;
}
</style>
</head>
<body>
<table id="nco">
<tr>
<td>Caminos del Sureste</td>
</tr>
<tr>
<th><b>Camino: </b></th>
<td>ES15a Ruta del Argar</td>
</tr>
<tr>
<th><b>Etapa: </b></th>
<td>10a Lagunas de Ruidera  - Tomelloso</td>
</tr>
<tr>
<th><b>Longitud: </b></th>
<td>36.19 km</td>
</tr>
</table>
</body>
</html>]]></description>
<Style>
<IconStyle>
<scale>0.8</scale>
</IconStyle>
<LabelStyle>
<color>ffffffff</color>
<scale>0.75</scale>
</LabelStyle>
<LineStyle>
<color>ffff0000</color>
<width>3.0</width>
<gx:labelVisibility>1</gx:labelVisibility>
</LineStyle>
<PolyStyle>
<color>66ff0000</color>
</PolyStyle>
</Style>
<ExtendedData>
<SchemaData schemaUrl="#kml_schema_ft_ES15a_10a_lagunas_de_ruidera_-tomelloso">
<SimpleData name="id">ES15a_10a</SimpleData>
<SimpleData name="_formato">kml</SimpleData>
</SchemaData>
</ExtendedData>
<LineString>
<extrude>0</extrude>
<tessellate>1</tessellate>
<coordinates>-2.84699689552613,38.9367402903489,822.730500000005 -2.84742336711403,38.9371318929903,821.295599999998 -2.84774674085334,38.9374718629915,820.382500000007 -2.84777959853151,38.9375578608955,820.100099999996 -2.84778999203936,38.9376515706544,819.846600000004 -2.84767733881115,38.9379508047836,819.039300000004 -2.8474749995816,38.9383595063486,819.201799999995 -2.84742688761162,38.9384532164456,819.309500000003 -2.84734893630282,38.9385551399664,819.395499999999 -2.84722169892597,38.9386827129038,819.310400000002 -2.84710384894385,38.9388453217932,819.149600000004 -2.84708306192819,38.9389448984348,819.075800000006 -2.84710032844626,38.9390595631624,818.915500000003 -2.84718029198129,38.939202054996,818.5861 -2.84732764623061,38.9394595474071,818.449800000002 -2.84742487628368,38.9396375787009,818.636199999994 -2.84749880403831,38.9397302830534,818.659499999994 -2.84762855579964,38.9398736133945,818.723100000003 -2.84784313277829,38.9400940576242,819.085200000001 -2.84833766522367,38.9405738376228,819.174599999998 -2.84843305103547,38.9406340194193,819.145499999999 -2.84860471279808,38.9407121390642,819.015700000004 -2.84885499601262,38.9407862347754,819.008100000006 -2.84908013448408,38.9408311622541,819.119200000001 -2.8493636104484,38.9408351854004,818.866200000004 -2.84987172092932,38.9408301561181,817.720700000005 -2.84995185244927,38.9408366939055,817.639800000004 -2.85014430032922,38.9408863152524,816.854500000001 -2.85036222982053,38.9409396236282,816.157300000006 -2.85048980226897,38.9409518614358,815.774600000004 -2.85067018128308,38.9409510229906,815.276199999993 -2.85098249137137,38.9408928530347,813.916899999997 -2.85121869259555,38.9408715627938,814.207699999999 -2.85166310174302,38.9408757536271,814.383400000006 -2.8519782612874,38.9408668688926,814.405199999994 -2.85213248764865,38.9408549664488,814.429699999993 -2.85233197742211,38.9408174159201,814.238899999997 -2.85247178761967,38.9408033342047,814.2932 -2.85263020552001,38.9408093689264,814.230599999995 -2.85272257389079,38.9408311622541,814.168999999994 -2.85294737639233,38.9408886622025,813.781300000002 -2.85314887749373,38.940957728456,813.758000000002 -2.85335959890316,38.9410418831449,813.656199999998 -2.85347057497672,38.9410990475451,813.627399999998 -2.85389101168255,38.941381182513,813.853900000002 -2.85397583600154,38.9414551112346,814.502500000002 -2.85400249081265,38.9414995352262,813.880799999999 -2.85404507095713,38.9415840246471,813.591100000005 -2.85419326243628,38.9422054586983,814.728700000007 -2.85420214767277,38.9422758665537,814.909199999995 -2.85420197968781,38.9423628710339,814.972899999993 -2.85411581418406,38.9428721551454,815.702099999995 -2.85410458254808,38.9429370315503,816.012600000002 -2.85410592373278,38.9429920166238,816.009399999995 -2.85412553665038,38.9430580660088,816.022299999997 -2.85416811679486,38.9431150631955,816.038199999995 -2.8542143854219,38.9431519431695,815.916899999997 -2.85434547836792,38.9432179931041,815.870200000005 -2.85491695600895,38.9435038156532,815.320800000001 -2.85501418606206,38.9435609801645,815.208400000003 -2.85507688307898,38.9436117747814,815.169099999999 -2.85512432490579,38.9436669277129,815.385500000004 -2.85516623400871,38.9437475613487,815.233399999997 -2.85518299747025,38.9437877946404,815.169699999999 -2.85519389403464,38.9438690988673,814.788499999995 -2.85521233465079,38.944029360894,814.715200000006 -2.8552403297483,38.9442424289002,815.234500000006 -2.85525407666711,38.9443706721103,815.245999999999 -2.85524116787646,38.9445067939826,815.303599999999 -2.85521032332289,38.9446816406525,815.064700000003 -2.85517008957792,38.9448625219667,815.244600000005 -2.85514846443409,38.9450328425119,815.263500000001 -2.855153661188,38.9451302404161,815.3698 -2.85523379180966,38.9454764124977,815.080600000001 -2.8552919622159,38.9456765726455,815.102100000004 -2.85542976108553,38.9461156169185,814.673800000004 -2.85549011080463,38.9463152736298,814.696899999995 -2.85555968083181,38.9465333706303,814.7022 -2.85569563546016,38.9470012482599,814.559500000003 -2.85571943991688,38.9471048488134,814.464200000002 -2.85572748612688,38.9472000675987,814.527900000001 -2.85572195430135,38.94725706425,814.580700000006 -2.85570602896801,38.9473388717118,814.680999999997 -2.85552648808206,38.9477822742672,814.863299999997 -2.85546882073239,38.9479219170004,814.530400000003 -2.85539539513603,38.9481572806733,813.619399999996 -2.85535851480203,38.9484741164694,812.271699999998 -2.85532817240667,38.9487156828229,810.902400000006 -2.85528860970324,38.9490804634192,808.733999999997 -2.85525642306663,38.9493795298504,807.452499999999 -2.85523144541014,38.9496190845889,806.466 -2.85515466730112,38.9503132736655,806.420700000002 -2.85515517035769,38.9504306201387,806.624100000001 -2.85516606602375,38.9505146070945,806.948600000003 -2.8551972474456,38.9505907150351,806.982999999993 -2.85526966692884,38.9506767130951,807.176699999996 -2.85535247991996,38.9507456126265,807.165200000003 -2.85601716495823,38.9512009176345,807.112800000003 -2.85655796513232,38.9515688829319,807.009000000005 -2.85665301587253,38.9516294005029,807.082800000004 -2.85679098182882,38.9516979644795,806.827000000005 -2.85691050806725,38.95173769446,806.7068 -2.85717889682639,38.9518079349655,806.395399999994 -2.85818120468104,38.9519864696769,806.748000000007 -2.85835403964339,38.9520156381327,806.865600000005 -2.85850809891801,38.9520318993337,806.805900000007 -2.85867590421308,38.9520307256939,806.898400000005 -2.85883080251415,38.9520054120939,806.861900000004 -2.85905225160473,38.9519635026446,806.936799999996 -2.85946732357166,38.9518535324,806.621599999999 -2.85974375943906,38.9517935180105,806.766799999998 -2.85990368561079,38.9517737365211,806.753400000001 -2.86015564597998,38.9517665283898,806.530299999999 -2.8609504178512,38.9518144724392,805.888000000006 -2.86175139258947,38.9518538677264,805.483800000002 -2.86251062531141,38.951890412718,805.763800000001 -2.86278706028052,38.9518937652827,805.314499999993 -2.86291195035952,38.9519091881961,804.841400000005 -2.8630646693477,38.9519522713187,804.006800000003 -2.86314144745673,38.9520196613429,803.693700000003 -2.86317195783704,38.9521090130181,803.230800000005 -2.86316726324138,38.9522248503512,802.644100000005 -2.86314228558488,38.9523086696146,802.167700000005 -2.86307690709683,38.9524191428374,801.502299999993 -2.86294028142695,38.9525522481123,800.763600000006 -2.86243401428901,38.9528494702954,798.623099999997 -2.86224508690669,38.9529596080525,798.376099999994 -2.86212237524222,38.9530606940732,797.642600000006 -2.8620025139322,38.9531758613061,797.807100000005 -2.86171216495761,38.9534898475131,797.768500000006 -2.86159431587383,38.953626304657,798.363400000002 -2.86147797506137,38.9537988046653,797.855100000001 -2.8613592869511,38.9539964494934,797.601899999994 -2.8613009485599,38.9541002179594,797.920499999993 -2.86123154651767,38.9543268645883,797.390299999999 -2.86116030023418,38.9545789922361,797.688999999998 -2.86112660532622,38.9547397567708,797.093099999998 -2.86108503129485,38.9548730288363,796.653600000005 -2.8610261898471,38.9550287651275,796.707500000004 -2.86098025719002,38.955150805132,797.2785 -2.86090934687643,38.9552453529663,796.891499999998 -2.86082435367412,38.9553553235365,797.613200000007 -2.86057943519845,38.9556148278104,798.130000000005 -2.8603293190705,38.95592378478,797.843800000002 -2.86022588615036,38.956035599183,797.6878 -2.86018364107753,38.9561155628065,797.541400000002 -2.86016704470265,38.9562018957558,797.745800000004 -2.86018095870806,38.9562443084516,797.8508 -2.86025689958726,38.9563645049786,798.198799999998 -2.86034692066019,38.9564687757285,798.462700000004 -2.86065168669673,38.9568181336996,799.531400000007 -2.86086509047563,38.957061711368,799.639500000005 -2.86100389456007,38.9572035334393,799.223400000003 -2.86174317839451,38.957757912686,796.837899999999 -2.86208314850873,38.9579729924258,797.555699999997 -2.86217316958166,38.9580423940967,797.785900000003 -2.86222849053181,38.9581143111249,797.787500000006 -2.86223771083989,38.958170972784,797.558499999999 -2.8622214495366,38.9582430573299,797.133400000006 -2.86218792171526,38.9583010600701,796.726200000005 -2.86209790064233,38.958391416698,796.210200000001 -2.86167578768019,38.9587027204959,794.534499999994 -2.86143170643434,38.9588830994144,793.8995 -2.86129742896064,38.959012850799,793.329400000002 -2.86121344187144,38.9591270129608,793.216899999999 -2.86110565032556,38.9593107437115,792.996700000003 -2.86100573880135,38.9594713410429,793.127099999998 -2.86092862472241,38.959568403376,793.097699999998 -2.86065319586642,38.9598327685776,792.499800000005 -2.86042520793887,38.9600392991667,791.813599999994 -2.86027081269437,38.9601494369262,791.513399999996 -2.86017861230854,38.9602099548538,791.109200000006 -2.8600808791989,38.9602391234174,790.938500000004 -2.85990988847782,38.9602785182127,790.581000000006 -2.85967217718565,38.9603043345815,790.342999999993 -2.85939943069909,38.9603160696089,790.1106 -2.85923799535771,38.9603167401819,790.222800000003 -2.85910891373958,38.9602999758564,790.491399999999 -2.85901805364016,38.960285056302,790.471300000005 -2.85849502304072,38.960135020271,790.432000000001 -2.85832721774565,38.9600817116613,790.543399999995 -2.85816511136274,38.9600491894571,789.725200000001 -2.85805799085835,38.9600300787522,790.159700000004 -2.85797433884081,38.9600424844006,789.938500000004 -2.85789772871674,38.9600689707321,789.880300000004 -2.85784542520764,38.9601410554427,789.747199999998 -2.85777233558117,38.9605209230604,789.706999999995 -2.85774853112445,38.960710186584,789.8802 -2.85776160700173,38.9608188159193,790.050000000003 -2.85779597205293,38.9608986113928,790.1538 -2.85788280859818,38.960983436725,790.832599999994 -2.85862460771539,38.9613788946061,791.135200000004 -2.8587613995736,38.9614353888082,790.931500000006 -2.85891110112077,38.9614858479085,791.152000000002 -2.8590688479796,38.9615250750687,791.580300000001 -2.85926330808578,38.9615559201925,792.228000000003 -2.85945273942301,38.9615810662334,792.968500000003 -2.85963714109296,38.961606882826,794.026199999993 -2.85982539833211,38.9616266636662,794.583400000003 -2.86001298542803,38.9616296811886,794.354600000006 -2.86021683382725,38.9616127495337,794.588000000003 -2.86053651908404,38.9615393244991,793.879199999996 -2.86075696385813,38.9614657310495,793.961500000005 -2.86097170792344,38.9613799004505,793.635299999994 -2.86124009668258,38.9612617157407,793.228300000002 -2.86143472387539,38.9611297842477,792.6446 -2.86159414788887,38.9609955062247,792.028699999995 -2.86173613739929,38.9608402733994,791.0 -2.86206051725175,38.9605356756209,790.5861 -2.86226185036819,38.9603324979456,790.102199999994 -2.86245077864885,38.9601430671665,790.2019 -2.86253476483971,38.9600604215953,790.356299999999 -2.86264775313954,38.9599702319456,790.170499999993 -2.86273878032558,38.9599110556654,790.103799999997 -2.86286367130288,38.9598508734697,790.307100000005 -2.86301068958228,38.959810976202,789.966899999999 -2.86323398381246,38.9597751016817,789.754499999995 -2.86357227677204,38.9597549850355,789.599400000006 -2.86379221848959,38.9597288331773,789.404599999994 -2.86391844975332,38.9597068724265,789.218099999998 -2.86406161246351,38.959665969209,789.210200000001 -2.86427635742712,38.9595593512437,788.718500000003 -2.86447316393282,38.9594544095707,788.984599999996 -2.86480123136953,38.9592656491225,788.907000000007 -2.86537153670912,38.9589394258643,789.098499999993 -2.86569423940696,38.9587531794467,789.449800000002 -2.86589389626705,38.9586246011173,789.452999999994 -2.86608785421499,38.958493843835,789.670199999993 -2.86620989483793,38.958421927192,789.622000000003 -2.86630511266477,38.9583981226092,789.577300000004 -2.86647777964217,38.9583972843704,789.338300000003 -2.8667496888989,38.9584477435387,789.363100000002 -2.86699980502682,38.9585126189608,789.696299999996 -2.86728177182145,38.9585883914003,789.878899999996 -2.86756809814017,38.9586665108188,790.323099999994 -2.86780128282163,38.9587355779136,790.589399999997 -2.86799088124548,38.9588098412935,790.5242 -2.86909947147638,38.9593446067205,790.811499999996 -2.86952292562319,38.9595104009747,790.4617 -2.86998309211908,38.9596874263398,790.497600000002 -2.87030696891497,38.9598123173574,790.804999999993 -2.87059899414584,38.9599251377763,791.324099999998 -2.87077752891868,38.9599710701659,791.198699999994 -2.87087341778705,38.9599866603625,791.283899999995 -2.87106402232406,38.9599930308348,791.079700000002 -2.87123182761913,38.9599772729956,790.821299999996 -2.87149434948113,38.959924802488,790.530100000004 -2.87189165097507,38.9598384684863,790.982199999999 -2.87202358204929,38.9598248899898,791.251099999994 -2.87211343603559,38.9598401449299,791.363800000006 -2.87221435457122,38.9598837310536,791.349700000006 -2.87227001059299,38.9599419014919,791.297600000005 -2.87231477005033,38.9600292405325,790.9467 -2.87235148239934,38.9601564779583,791.287200000006 -2.8723885307183,38.9603702162579,791.1489 -2.87251057134121,38.9606885614221,791.396800000002 -2.87265507523614,38.9609631520815,791.285799999998 -2.87277225417675,38.9611872844953,791.179699999993 -2.87286596373223,38.9613170365501,791.161900000006 -2.87300879137084,38.9614669045331,790.894799999995 -2.8731573188199,38.9615656433294,791.264800000004 -2.87342906009168,38.9617005922287,791.401400000002 -2.87360256519723,38.9617673122028,791.206300000005 -2.87399567694872,38.9618979020913,790.919899999994 -2.87457721302598,38.9620680545755,791.237599999993 -2.87481408529169,38.9621669615699,791.180399999997 -2.87501357506515,38.96230559807,790.6967 -2.87521440512498,38.9624452401281,790.605299999996 -2.87529135121896,38.9624881554939,790.574399999998 -2.87539897477992,38.9625247005895,790.589500000002 -2.87552520604362,38.9625448171478,790.430099999998 -2.87573508932493,38.9625315737475,790.299799999993 -2.8759035656615,38.9624801088647,790.3367 -2.87615384887608,38.9623922671362,789.931599999996 -2.87663999914155,38.9622211082013,790.469599999997 -2.87694677740435,38.9621156640612,790.621400000004 -2.87736352562756,38.9620025083593,790.198199999999 -2.87764834277662,38.9619269037176,790.395199999999 -2.87799602402923,38.9618663865581,790.593800000002 -2.87855358766485,38.9618026834937,790.578599999993 -2.87892222391808,38.9617192002618,790.701000000001 -2.87948029150858,38.9615676550127,791.023799999995 -2.87976896422681,38.9615064669846,790.941200000001 -2.880000136682,38.9614912124033,791.383600000001 -2.88029836477993,38.9615240692264,791.447899999999 -2.88046332061891,38.9615805633126,791.387000000002 -2.88066146920767,38.9616868457506,791.257599999997 -2.88144098588871,38.9622048472428,790.486300000004 -2.88208253661349,38.9626457358278,790.557700000005 -2.88220340403666,38.9627595617508,790.855299999996 -2.88231102759758,38.9628960192056,790.848299999998 -2.88287982376751,38.9638761993055,790.884000000005 -2.88296230168698,38.9640126567051,790.886400000003 -2.88326673175364,38.9644144845166,791.003299999997 -2.88362514248401,38.9647940177051,791.082500000004 -2.88378339239939,38.9649331568508,791.107000000004 -2.88397014136718,38.9650753137973,790.922999999995 -2.88419930249448,38.9652360789649,790.899699999994 -2.88443013987808,38.9654590377146,791.099400000006 -2.8845533545991,38.965606559186,791.028900000005 -2.88464354365699,38.9657428491145,791.319300000003 -2.88467790960648,38.9658695831676,791.395600000003 -2.88466684505713,38.966029006892,791.164999999994 -2.88441186814522,38.9669520224907,789.722299999994 -2.88432972529733,38.967078085967,790.182700000005 -2.88425529358783,38.9671625756309,790.104300000006 -2.88415588422186,38.9672504177307,789.9804 -2.88396930323903,38.9673912339044,789.781099999993 -2.88369806502382,38.9675354023212,787.100000000006 -2.88347795621965,38.9676212331458,787.105100000001 -2.88320487376318,38.9677320421935,789.592399999994 -2.88306908711975,38.9678061382965,789.532099999997 -2.8829780590354,38.9679057147655,789.583400000003 -2.88293480874772,38.9680270851403,789.626300000004 -2.88292944400885,38.9681551602949,789.589999999997 -2.88296883962563,38.9683303425432,789.476500000004 -2.88304846719074,38.9684776959987,789.407900000006 -2.88316464091654,38.9686129802492,789.566699999996 -2.88324074798403,38.9686703123874,789.527000000002 -2.88349203731172,38.9688677900179,790.507299999997 -2.88354350269266,38.9689309894483,790.5 -2.88358826215001,38.96900223541,790.497700000007 -2.88362296317112,38.969101141803,790.322499999995 -2.88367258341246,38.9692493338608,790.141099999993 -2.88376897533741,38.9696161263786,789.984599999996 -2.88381272957993,38.9697524162755,789.989600000001 -2.88392353766857,38.9699685016445,789.991800000003 -2.8840135596398,38.9701410009805,790.249299999996 -2.88408748829276,38.9703208765542,790.409 -2.88419594998184,38.9706459271545,789.9467 -2.88426216659806,38.9708330111307,790.120200000005 -2.88431866074795,38.9709609184826,790.309699999998 -2.88441387947312,38.9711210130921,790.117499999993 -2.88454648069054,38.9712968654583,790.077699999994 -2.88471478994048,38.9715084246538,790.384000000005 -2.88484571490159,38.9717053992052,790.173699999999 -2.8849642350269,38.9719013682123,789.978499999997 -2.88522357146289,38.9724428392759,790.411600000007 -2.8852698391916,38.9725841584455,790.354099999997 -2.88541736052757,38.973031416684,790.269899999999 -2.88546010865698,38.9731378670153,790.337700000004 -2.8855028558881,38.9731861464965,790.231499999994 -2.88560612082327,38.9732744916462,790.250899999999 -2.88590887553191,38.9734744838908,790.326000000001 -2.88601767229261,38.9735586383835,790.256200000003 -2.88607684881193,38.9736220054304,790.276100000003 -2.88616871502447,38.9736991186656,790.137400000007 -2.886424027008,38.9739991909227,789.248500000002 -2.88672711678822,38.9743743651816,788.499899999995 -2.88663541856064,38.9744087308039,789.049799999993 -2.88671052041334,38.9744907059588,788.321899999995 -2.88674572449103,38.9745983294578,787.872600000002 -2.8867423719784,38.9746749401989,787.604900000006 -2.88673583403975,38.9747371336816,787.710699999996 -2.88671890259326,38.9748320171352,787.140599999999 -2.88662284573993,38.9749807119003,786.449299999993 -2.88639888136655,38.9752418923046,786.1587 -2.88596235224075,38.9757248570562,785.249400000001 -2.88561819148574,38.9758740548608,783.626300000004 -2.8853994238663,38.9759908987862,782.849300000002 -2.88548693055475,38.9760658333578,781.992499999993 -2.88517110086716,38.9762582817575,780.238400000002 -2.88506582370576,38.9763483033179,779.812999999995 -2.88501419123815,38.9764165319096,779.594400000002 -2.88498418391441,38.976559359275,779.231400000004 -2.88485761757909,38.9766574275673,779.407800000001 -2.88498686628384,38.9767610280634,779.013999999996 -2.88506062695182,38.9767982438945,778.948199999999 -2.88524620271984,38.9768069607107,778.558900000004 -2.88558097518185,38.9768656340323,777.941399999996 -2.88589009984414,38.9769568294443,776.909299999999 -2.88638664451575,38.9769955536064,776.317800000004 -2.88687966779145,38.9770116470577,776.732900000003 -2.88736917056955,38.9769952183989,775.449900000007 -2.88766572241116,38.9769925360402,775.792700000005 -2.88799395783283,38.9770688117774,776.918300000005 -2.88838656652774,38.9772907646756,776.207599999994 -2.88858203184874,38.9773740808091,776.017300000007 -2.88865327813223,38.9774010704526,776.014500000005 -2.88879677681234,38.9774097871946,775.925099999993 -2.88964703672033,38.9773236218524,775.423899999994 -2.88998281619376,38.9772907646756,775.2834 -2.89056099975839,38.977159168911,773.937399999995 -2.89083374624495,38.9770787024837,772.956900000005 -2.89097623881195,38.9770456775896,772.741800000003 -2.89109341775256,38.9770388044431,772.664799999999 -2.89119383323164,38.9770466832115,772.909199999995 -2.89129776920835,38.9770631118584,773.0236 -2.8913866170815,38.9770832284782,773.068199999994 -2.89150798666291,38.9771305024425,773.2791 -2.89160924027015,38.977198228169,773.403600000005 -2.89168534823597,38.9772667925446,773.499200000006 -2.89175240298038,38.9773512819268,773.666599999997 -2.89180906511523,38.9774833808407,773.760299999994 -2.89181778236673,38.9776223525985,773.874200000006 -2.89177402812421,38.9777556249188,772.965500000006 -2.89166824880456,38.9778904061013,771.506200000003 -2.89156816929539,38.9780109374214,770.671300000002 -2.89150865770445,38.9781162140433,769.757700000002 -2.89145585113877,38.9782441222084,768.670400000003 -2.8914183006616,38.9783683422327,768.065199999997 -2.89140656596901,38.9785636405592,766.644100000005 -2.8914806617086,38.97927777869,765.228300000002 -2.89152575623757,38.9796760862525,765.158800000005 -2.89157202486457,38.9800333234423,764.756599999993 -2.89161611328041,38.9803905602263,765.074500000002 -2.89164695873232,38.9805263468541,765.440100000007 -2.89167998349711,38.9805965867529,765.505999999994 -2.8917344663191,38.9806753767235,765.771800000002 -2.89180319731979,38.9807488021739,766.145300000004 -2.89188668135241,38.980800938129,766.518700000001 -2.89199430491334,38.9808522353741,766.918600000005 -2.89222011352799,38.9809280076618,767.824200000003 -2.89243385237848,38.9809967388135,768.759300000005 -2.89262663533005,38.9810703322231,769.701499999996 -2.89281405533934,38.9811717531287,770.4329 -2.89291229060723,38.9812371321694,770.869699999996 -2.89304137222536,38.9813323504802,771.171400000007 -2.89319509642836,38.9814600908288,771.964699999997 -2.89338352165247,38.9816518688614,772.918000000005 -2.89353825107026,38.9818278885077,773.830199999997 -2.89369348444292,38.9820109493695,774.507400000002 -2.89382927108634,38.9821764084627,775.088900000002 -2.89392515995468,38.9823351614296,774.815900000001 -2.89401467886941,38.9825545993235,774.707599999994 -2.89408106347058,38.9827346430797,774.376199999999 -2.89417644928238,38.9830104072963,774.909199999995 -2.89423244037573,38.9831430095926,774.820500000002 -2.89430318360268,38.9832608589278,774.745899999994 -2.89441801614375,38.9833770321803,774.438299999994 -2.89451893378107,38.983453474913,774.609599999996 -2.89489544915772,38.9836698955505,773.054699999993 -2.89544731388115,38.9839587363128,770.546300000002 -2.89694750669381,38.9847462999874,769.922000000006 -2.89778435565293,38.9851253290081,768.927100000001 -2.89853822453431,38.9854793811472,767.027499999997 -2.89874341321996,38.9856052768805,766.194099999993 -2.89892647370517,38.9857430756759,765.148199999996 -2.89932277088266,38.9860877394222,763.721399999995 -2.89985653006153,38.9865539412124,763.849300000002 -2.90001461289028,38.986698109723,764.141499999998 -2.90018644173952,38.9868940784366,764.088699999993 -2.90065851091292,38.98751735653,764.2788 -2.90090493855828,38.9878268167486,764.379400000005 -2.901196125661,38.9882177489031,765.739199999996 -2.90139008271063,38.9884353426753,766.210600000006 -2.90164221106478,38.988678921252,766.447799999994 -2.90180180216489,38.9888058230339,766.350399999996 -2.90291022530913,38.9896453546987,764.8799 -2.90359234395214,38.9901695585788,764.214699999997 -2.90394773724146,38.9904332530912,763.629199999996 -2.90413415023934,38.9905477500278,763.155100000004 -2.90432140226368,38.9906486686061,762.793600000005 -2.90455140151913,38.9907447246825,762.386499999993 -2.9055537093738,38.9911090026255,761.871100000004 -2.90682775939855,38.9915736953391,760.654399999999 -2.90712330512705,38.991682492387,759.909799999994 -2.90724786013443,38.9917415010866,759.623500000002 -2.90737878509553,38.991815428937,759.198000000004 -2.90752882171428,38.9919299257323,758.951700000005 -2.90766594954241,38.9920727539201,758.284700000004 -2.90787583192539,38.9923121405665,756.782300000006 -2.90798295332807,38.9924501071385,756.065700000006 -2.90805654601109,38.992557395435,755.683999999994 -2.90809912615554,38.9926675335987,755.214500000002 -2.90812544499673,38.9927790128204,755.245999999999 -2.9081214223409,38.9929679408927,755.327799999999 -2.90809292328851,38.9931575394209,755.169500000004 -2.90804078776437,38.9933456293556,755.119500000001 -2.90793953505543,38.9935181289959,755.026599999997 -2.90780659786813,38.9936700087345,755.011499999993 -2.90763812153152,38.9938083105801,754.926600000006 -2.90654361239273,38.9944493585303,754.444799999997 -2.90644973485229,38.9945351888504,754.555699999997 -2.90637413084134,38.9946225285211,754.491599999994 -2.90601873755198,38.9950610698252,755.273499999996 -2.90588110666732,38.995249159588,755.578099999999 -2.9058309833694,38.9953634888532,755.767500000002 -2.90582343931765,38.995479829352,755.991899999994 -2.90585512289774,38.9956125988893,756.162299999996 -2.90592687223778,38.9957326280783,756.503299999997 -2.90606852577831,38.9959131738079,757.107499999998 -2.90615670350827,38.9960176125451,757.789000000004 -2.90622845284834,38.9961347918552,758.620800000004 -2.90628779645433,38.9962450975949,759.130799999999 -2.90632635394294,38.9964231286505,760.015700000004 -2.90637413084134,38.9967406352562,761.963300000003 -2.90639407972885,38.9968750814857,762.9372 -2.90639391174389,38.9969894102185,763.700899999996 -2.90636541358981,38.9970827844693,764.180900000007 -2.9063050638707,38.997178170665,764.716499999995 -2.90618671083204,38.9972983675468,765.341499999995 -2.90589032697539,38.9975248466392,766.989700000006 -2.90573174109006,38.997652586392,767.770399999994 -2.90560165425715,38.9977776443431,768.560700000002 -2.9055302399887,38.9978730303002,767.365999999995 -2.90544088905897,38.9979954062989,769.695600000006 -2.90531415473869,38.9981555005215,770.873000000007 -2.90521239897318,38.9982617832257,771.830100000006 -2.90511617413489,38.9983259889685,772.460099999997 -2.90497636393733,38.9983895237425,773.130699999994 -2.90460890178217,38.998507372827,774.738899999997 -2.90432810818728,38.9985913600332,775.975699999995 -2.90406323992576,38.9986478538733,777.107300000003 -2.90374858343795,38.9986956307558,778.0003 -2.90336200962507,38.9987454189315,779.633499999996 -2.90321331508935,38.9987846463985,780.414600000004 -2.90302857744949,38.9988401347721,781.108300000007 -2.90268810427873,38.999004922719,782.4228 -2.90224034351692,38.99922318774,784.034599999999 -2.90147842842555,38.9995879679767,786.7264 -2.90125010542641,38.9997085000538,787.527100000007 -2.90115119911699,38.9997747164782,787.9283 -2.90094466924668,38.9999731999247,789.150399999999 -2.90073478596536,39.0002186223202,789.998600000006 -2.9005567542491,39.0004370546361,790.852299999999 -2.90032323449606,39.0007114786193,791.998600000006 -2.90023807420712,39.0008187669571,792.583400000003 -2.90013413912875,39.0009698086501,793.417499999996 -2.90010279062027,39.0010739118116,793.848599999998 -2.90010195249211,39.0012028256616,794.293799999999 -2.90013011557458,39.0013620818779,795.282099999997 -2.90020437929913,39.0016708707189,796.983200000002 -2.90022969202721,39.0018517524433,797.880600000004 -2.90019834441703,39.0020390038861,798.482000000004 -2.90013095370274,39.0022326263928,798.669500000004 -2.89999784942878,39.0024787188038,799.627600000007 -2.89985854138946,39.0027068741962,800.175700000007 -2.89973851299279,39.0029652046203,800.840500000006 -2.89967464277606,39.003158323363,801.348100000003 -2.8995556195942,39.0036391095194,803.169999999998 -2.8994562102282,39.0039990285783,805.086500000005 -2.89935831003193,39.0042714401427,806.230500000005 -2.89924716597338,39.0045606156796,807.454100000003 -2.89911188148823,39.0048643762942,809.648000000001 -2.89901264010722,39.0051066131756,811.1584 -2.89893485588509,39.00531800433,812.926099999997 -2.89890971024367,39.0054755842963,813.912200000006 -2.89890870413055,39.0056715533709,815.349000000002 -2.89897928027085,39.0061104296766,817.391699999993 -2.89900174354283,39.0063085777316,818.184699999998 -2.89898498008133,39.0064260925186,818.618700000006 -2.89893837638268,39.006607979852,819.766900000002 -2.89885170782238,39.0067876873896,820.716700000004 -2.89870602982941,39.0070088022849,821.959400000007 -2.89845876405585,39.0072885897247,823.100000000006 -2.89833253279215,39.0074386263759,823.929799999998 -2.89826665034919,39.0075589901116,824.4234 -2.89822155582026,39.0076662785358,824.860799999995 -2.89820898299955,39.0077774227998,825.296100000007 -2.89822608243097,39.0078837050109,825.911399999997 -2.89828475589376,39.0080181510077,826.969599999997 -2.89839304959788,39.0082043970046,828.302599999995 -2.89845993725563,39.0083301252703,829.207800000004 -2.89852481358544,39.0084932374608,830.380000000005 -2.89854459448799,39.0086449496372,831.373699999996 -2.89854090690377,39.0087998473212,832.435700000002 -2.8985115697232,39.0089886076703,833.311400000006 -2.89843579772733,39.0092393938726,834.722099999999 -2.8982919639756,39.0096662008003,838.023499999996 -2.89812264951084,39.010077249387,840.702799999999 -2.89799910061657,39.0103620664871,842.848599999998 -2.8978985171525,39.0105330574092,844.454199999993 -2.89777379505846,39.0106592882958,845.547600000005 -2.89763867855826,39.0107719411551,846.595799999996 -2.89751412355085,39.0108906288698,847.441699999996 -2.89745511501648,39.0110044554193,847.822400000005 -2.89743080750322,39.0111075526366,848.982900000003 -2.89745125944727,39.0113125739628,850.926900000006 -2.89750155073014,39.0114934554646,852.5291 -2.8975877162339,39.0116689730188,853.696800000005 -2.89768578441513,39.0118330903152,854.745999999999 -2.89785493179323,39.012067951267,856.478000000003 -2.89794394765138,39.0122347514529,857.388800000001 -2.89799340080609,39.0124323965441,857.236799999999 -2.89799239469297,39.0126359091474,856.617599999998 -2.89796456668209,39.0127944946773,856.349600000001 -2.89790807253219,39.0130627158207,856.311900000001 -2.8979125991429,39.0132543258595,856.516399999993 -2.89792768634808,39.0133621172716,856.848199999993 -2.89799105350824,39.0134938809533,857.036800000002 -2.89806833467384,39.0136008337167,857.094800000006 -2.89813924588571,39.0136745942453,856.979300000006 -2.89823111119992,39.0137391349937,856.829500000007 -2.89835616926391,39.0138071963238,856.544800000003 -2.89853855960592,39.0138725752314,856.110799999995 -2.89872614670188,39.0139175017323,855.879700000005 -2.89896637237852,39.0139501911426,855.514800000004 -2.89942318546344,39.0139978006446,854.428799999994 -2.89970699739765,39.014033339885,853.750899999999 -2.8999282794016,39.0140799435373,853.376199999999 -2.90015794358547,39.0141600740514,852.913799999995 -2.90031183487509,39.0142328289031,852.470199999996 -2.90045902113945,39.0143263709447,851.768599999996 -2.90064442892252,39.0144779163557,851.430800000002 -2.90075523790945,39.0145867130852,851.108900000007 -2.90089588623517,39.014764073996,850.608900000007 -2.90094047770755,39.0148349848726,850.464999999997 -2.90098020839595,39.0149343946893,850.438899999994 -2.9009932842732,39.0150168722195,850.357199999999 -2.90099780998561,39.0151493063617,850.187300000005 -2.90100652723714,39.0152726882656,849.809399999998 -2.90102429681176,39.0153653920652,849.517699999997 -2.90108246721797,39.0154881028437,849.140799999994 -2.90116058651173,39.0156148371948,849.038499999995 -2.90126971924234,39.0157380514725,849.171100000007 -2.90146552053322,39.0159100477281,850.412200000006 -2.90176643100058,39.0161140633265,852.301800000001 -2.90190456404353,39.0162220227763,853.002900000007 -2.90199860956892,39.0163242818139,853.562900000004 -2.90212333166297,39.0164957755089,853.756200000003 -2.90219726031589,39.0166307244158,853.614799999996 -2.90224704854222,39.0167738873165,853.691399999996 -2.90227152404044,39.0169743820337,853.6299 -2.90226867458435,39.0171215686364,853.475900000005 -2.902249563825,39.0172241627861,853.256099999999 -2.90222374714205,39.017307478677,853.3128 -2.9021716116179,39.0174070560159,853.347999999998 -2.90207035801066,39.0175661445368,853.393800000005 -2.90174748732789,39.0180009973704,853.043300000005 -2.90167741514247,39.0181113032166,852.799499999994 -2.90161253881262,39.0182289854423,852.392999999996 -2.90157297610922,39.0183163244791,852.153600000005 -2.90151497368793,39.0184705518975,851.732099999994 -2.90149116923121,39.0185791812603,851.322499999995 -2.90148580449235,39.0186826143102,850.8943 -2.90151866127218,39.0188536046571,850.373099999997 -2.90157582646361,39.0189853685757,849.859899999996 -2.90165344270079,39.0191444570353,849.377999999997 -2.90175570152282,39.0193377437765,849.214600000007 -2.90181906868297,39.0194571017849,849.056299999997 -2.90189081802304,39.0196208841479,848.511499999993 -2.90194261847557,39.0197870132596,847.961200000005 -2.90198486265014,39.0199826474595,847.291899999997 -2.90210505903177,39.0205683743073,846.864799999996 -2.90222357915709,39.0211135335688,849.059399999998 -2.90226330984548,39.0212924030467,850.042300000001 -2.90231511029804,39.0214389190418,850.824500000002 -2.90238065677106,39.021571520519,851.734599999996 -2.90249180082957,39.0217544136702,853.243100000007 -2.90262356391883,39.0219131671856,854.456000000006 -2.90273437290576,39.0220120736328,855.128500000006 -2.90288776203715,39.0221279117856,856.015299999999 -2.90302170443927,39.0222097186154,856.646299999993 -2.90321448828913,39.0223014167163,857.369200000001 -2.90344834311379,39.0223807095052,858.001600000003 -2.90365118539988,39.0224341861656,858.368799999997 -2.90422886590794,39.0225563940535,859.371499999994 -2.90439968954239,39.0225962922577,859.377099999998 -2.90459934640248,39.0226744115488,859.122600000002 -2.9047165253431,39.022732414552,858.872199999998 -2.90484108035051,39.0228182447559,858.496199999994 -2.90496764668583,39.0229327416279,858.007100000003 -2.90510879806809,39.0230883100998,857.370999999999 -2.90548581650127,39.0235429441571,856.065300000002 -2.9057141395004,39.0238141826723,855.380999999994 -2.90584372327677,39.0240321122278,854.740300000005 -2.90590926974979,39.0241605229352,854.277100000007 -2.906041200824,39.0245372060249,852.214200000002 -2.90648477184331,39.025933295449,853.112599999993 -2.90674712482202,39.0267352758809,856.830700000006 -2.90698751848362,39.0274643336826,858.814299999998 -2.90714727756869,39.0279553455439,858.335600000006 -2.90719488648213,39.0281075609848,858.209700000007 -2.90729764836076,39.0283660589293,857.4522 -2.90736319483377,39.0284887701736,856.783800000005 -2.90743092061968,39.0285811384303,855.993400000007 -2.90751758917998,39.0286840683601,855.302899999995 -2.90766678767057,39.0287999060477,854.481199999995 -2.90780609481155,39.0288865753612,853.982099999994 -2.9079663569532,39.028958492311,853.584400000007 -2.9081140462741,39.029013980043,853.506899999993 -2.90886573494428,39.0292196724076,853.623200000002 -2.90943184874478,39.029368199176,854.029200000004 -2.90996544083702,39.0295068359739,854.807000000001 -2.91049584750326,39.0296494961847,855.548599999995 -2.91081167719085,39.0297346564487,856.126300000004 -2.91100563513878,39.0297893061777,856.266699999993 -2.91112801083331,39.0298390947977,856.464200000002 -2.91122742019927,39.0298821779617,856.699399999998 -2.91134392809839,39.029951244673,856.894700000004 -2.9114322738133,39.0300291960343,856.981199999995 -2.91152413912751,39.0301403400428,857.030899999998 -2.91158130431894,39.0302400849285,857.063200000004 -2.9116217042522,39.0303455294885,857.193100000004 -2.91163897166861,39.0304674020041,856.845199999996 -2.91163410998628,39.0305751936926,856.7978 -2.91161617242671,39.0306826495656,856.601200000005 -2.91156487503072,39.0308658778232,855.728199999998 -2.91152413912751,39.0310008265167,854.862299999993 -2.91151994848672,39.0311106291924,854.268800000005 -2.91153402957879,39.0312078591825,853.818100000004 -2.91156923365647,39.0312903372683,853.155799999993 -2.91170736759771,39.0317521799726,851.001799999998 -2.91175095385528,39.0318584631349,850.082299999995 -2.91178867231744,39.0319265237708,849.486300000004 -2.91185321267734,39.0320123546742,848.676099999997 -2.91192613521715,39.0320874567163,847.862500000003 -2.91198933529068,39.0321350658682,847.345300000001 -2.91209913816446,39.0321840161682,846.678199999995 -2.91248504093581,39.0322884543867,844.5625 -2.91287764873242,39.0323818287935,842.817999999999 -2.9129633120779,39.0324036218593,842.440199999997 -2.91306842125435,39.0324488840908,842.018899999995 -2.91319079694887,39.0325182860297,841.312999999995 -2.9133384862698,39.0326361354709,840.418000000005 -2.91345030047152,39.0327596850337,839.550900000002 -2.91352271995479,39.0328572504893,839.020999999993 -2.91363755249586,39.0330817177238,837.268599999996 -2.91376814238534,39.0333963746761,834.924199999994 -2.91388716556723,39.0336707977752,833.192599999995 -2.9139999858821,39.0339173934516,831.779599999994 -2.9140623469291,39.0340441275635,831.072799999994 -2.9141852256802,39.0342370791025,829.710200000001 -2.91444824970045,39.0345928071758,827.835900000005 -2.91476793585554,39.0350199488187,825.772899999996 -2.91505727961531,39.0354133959404,823.539900000003 -2.9151831749091,39.0355743279233,822.709400000007 -2.91532030363555,39.035742971984,821.828800000003 -2.91546514260206,39.0359047426309,821.130900000004 -2.91578080520299,39.036222752332,819.113100000002 -2.91611021382444,39.0365154479066,817.120500000005 -2.9162641060124,39.0366282688996,816.262300000002 -2.91645169221002,39.0367477944825,815.424700000003 -2.91660457828487,39.0368302723826,814.801600000006 -2.91690213623956,39.0369732680847,813.769499999995 -2.91713079431031,39.0370715038487,812.820500000002 -2.91766539251567,39.0372725019963,811.278699999995 -2.91811164500608,39.0374486895929,811.046700000006 -2.91822262107967,39.0375033396366,811.059999999998 -2.91832018620436,39.037582967737,811.121599999999 -2.91838472746256,39.0376433169034,811.084700000007 -2.91844407106855,39.0377331710654,810.944799999997 -2.91848866254093,39.0378287250226,810.906400000007 -2.91851649055182,39.037938192637,810.808999999994 -2.91851582040862,39.0380354223044,810.821500000005 -2.91848832746935,39.0381755680692,810.587299999999 -2.91839294165752,39.0383604731143,809.996100000004 -2.91831649862011,39.0384994446322,810.049599999998 -2.91826536920908,39.0386384165746,809.75 -2.91822999714647,39.0387750417462,810.1777 -2.91822982916152,39.0389128402489,810.347899999993 -2.91826184871149,39.03901409382,809.630399999995 -2.91831482236379,39.0391056242942,810.993799999997 -2.91839092943129,39.0391872635552,810.969700000001 -2.91846921671,39.0392501280803,811.514999999999 -2.91855270074262,39.0393056161048,811.699299999993 -2.91864205167235,39.0393393110724,811.987399999998 -2.91877616205943,39.0393758562649,812.441699999996 -2.91898604444241,39.0393698215683,813.301300000006 -2.91931059227983,39.0393376351158,814.891300000003 -2.91959037976157,39.0393222124064,816.202999999994 -2.91983597017711,39.039326068084,817.405599999998 -2.9199363847579,39.0393331089166,817.992599999998 -2.9200552399548,39.039366803871,818.528600000005 -2.92015565543391,39.0394107254837,819.0677 -2.92024869484619,39.0394727511355,819.5723 -2.92033016665258,39.0395388005524,820.076700000005 -2.92056754197483,39.039825294233,821.622900000002 -2.92095243953136,39.0403459781452,825.637199999997 -2.9210684452722,39.0404956788217,826.393500000006 -2.92116248989929,39.0405682663298,827.046100000007 -2.9212771544554,39.0406257662444,827.895399999994 -2.92135812320525,39.0406594612801,828.554900000003 -2.92149005427943,39.0406886301873,829.304699999993 -2.92172877078642,39.0407174641768,830.373999999996 -2.92207477578271,39.0407521652808,832.032600000006 -2.92275790143716,39.0408170406356,835.419599999994 -2.92290357853183,39.0408291111765,836.107699999993 -2.92308814818673,39.0408624712102,836.628299999997 -2.92321488250701,39.0408884549487,836.6495 -2.92343147081359,39.0409672447639,836.723800000007 -2.92403547106117,39.0412002618575,835.627099999998 -2.92616246246505,39.0420324172284,829.804399999994 -2.92847301830901,39.0429398416847,823.792199999996 -2.93017471222306,39.0436065380257,822.569000000003 -2.93186064789044,39.0442633439701,822.915699999998 -2.93345622741326,39.0448929929399,822.622900000002 -2.93405184548092,39.0451201421827,823.589000000007 -2.93464746354859,39.0453555065089,824.952399999995 -2.93534718467958,39.0456171890258,827.176500000001 -2.93557550767872,39.0456803889908,827.899399999995 -2.9357927661285,39.0457103958207,828.917400000006 -2.93612469003272,39.0457258185309,830.390199999994 -2.93770886993457,39.0456626193043,836.320600000006 -2.9385120239857,39.0456084723142,838.265799999994 -2.93903438354364,39.0455640480443,840.2166 -2.93930428147244,39.0455497987838,840.525200000004 -2.93966604381712,39.0455598571267,840.627299999993 -2.94021673534081,39.0455999223449,839.433199999999 -2.94048763848439,39.0456299299067,838.995200000005 -2.94065963442029,39.045660775359,838.987599999993 -2.94087722883999,39.0457306799002,838.674599999998 -2.94107118588959,39.0458205342422,838.627999999997 -2.9412441888369,39.0459367073258,838.7307 -2.94138031055191,39.0460585801614,838.692200000005 -2.9415169362218,39.0462243743495,838.938800000004 -2.94172329810719,39.0465423836493,839.549700000003 -2.94215245206448,39.0472598744023,840.831399999995 -2.94243760428512,39.0477140062429,841.650099999999 -2.94250952071182,39.0478415786017,842.083599999998 -2.94261144446226,39.0479860826584,842.505399999995 -2.94269140799729,39.0480903538059,843.004700000005 -2.94280121087111,39.0482040123277,843.397599999997 -2.94295476708915,39.0483369493888,843.503200000006 -2.94307831688175,39.0484185891448,843.469800000006 -2.94324176355107,39.0485143100373,843.367599999998 -2.94345851984258,39.0486053377608,843.0481 -2.94382715609584,39.0487240254464,842.487699999998 -2.94419579234911,39.0488214230519,842.337499999994 -2.94446971293374,39.0488834495109,842.284 -2.94466232879865,39.0489188212208,842.204199999993 -2.944985702538,39.0489431283604,842.649000000005 -2.94497245957409,39.0490732155761,842.934500000003 -2.94492200030626,39.0491033904905,842.641399999993 -2.94483415764789,39.0491603874385,842.149099999995 -2.94477146152926,39.0492230840281,841.894799999995 -2.94474044809237,39.0493022091796,841.809299999994 -2.94474832721575,39.0493986013943,841.650299999994 -2.9447681081183,39.0495716033584,841.480200000005 -2.9447632473343,39.0497164429244,841.177100000001 -2.94472536088719,39.0498492124983,840.541899999997 -2.94468479207063,39.0499816462632,839.724499999997 -2.94467356043462,39.050128832504,838.659199999995 -2.9446304772336,39.0502141599347,837.909499999994 -2.94449519364678,39.0503080373604,836.965500000006 -2.94429369254538,39.0504453334026,835.626900000003 -2.94417953104582,39.0505556388469,834.820699999997 -2.94399898494508,39.0507504344531,833.481700000004 -2.94388582955863,39.0508573873567,832.885699999999 -2.94382262948514,39.0509574671561,832.357600000003 -2.9437904428485,39.0511301346311,831.603700000007 -2.94378926964872,39.051223676681,831.112999999998 -2.94378139052538,39.0513118539438,830.509099999996 -2.94371869440676,39.0513869564013,829.987599999993 -2.94362246956847,39.0514471382082,829.419800000003 -2.94342834543221,39.0515425243276,828.444199999998 -2.94323723783866,39.0517110005173,826.700599999996 -2.94301360853686,39.0519106573688,825.387100000007 -2.94276466560872,39.0521882663837,823.862800000003 -2.94259920761147,39.0524620193468,822.778399999996 -2.94251974713301,39.0526018288502,822.237200000003 -2.94236652508825,39.0527899190537,821.498500000002 -2.94222285932152,39.0529411287765,820.7886 -2.94195748890176,39.0531510117188,819.790099999998 -2.94164936945422,39.0533391011572,818.503599999996 -2.94151727129338,39.0534058212525,817.956399999995 -2.94089633959934,39.0536844358986,816.000100000005 -2.93938592036546,39.0543271601464,811.882199999993 -2.9391520655408,39.0544336102556,811.157999999996 -2.93892843623903,39.0545618534115,810.563599999994 -2.93834170340783,39.0549048410949,808.910699999993 -2.93817909396837,39.0550077703496,808.479699999996 -2.93792746956906,39.0551978722357,807.593099999998 -2.937716413088,39.0553893150473,807.076700000005 -2.93754743369486,39.0556037242414,806.311000000002 -2.93743628963634,39.0557534246724,805.718299999993 -2.93709481125076,39.0564734300486,802.716 -2.93677395189589,39.0570863152686,801.130999999994 -2.93662374819048,39.0573344196453,800.490600000005 -2.93647706498269,39.0576126986143,799.828099999999 -2.93628780163042,39.0580420197332,798.949600000007 -2.93622409939868,39.0581605394946,798.716700000004 -2.93614614719159,39.0582383237128,798.587299999999 -2.93604036787194,39.0582820773416,798.398700000005 -2.93592033947526,39.0583617057373,798.302899999995 -2.93589234347942,39.0584309399228,798.289999999994 -2.93589904940302,39.0585445985444,798.2408 -2.93595051388563,39.0586421639675,798.044500000004 -2.93600147621004,39.0587172656049,798.077099999995 -2.9360244425386,39.05891491117,797.699900000007 -2.93597850988148,39.0590334308612,797.708599999998 -2.9360068400506,39.0591040064523,797.525399999999 -2.93604405635449,39.059219341568,797.251699999993 -2.93611178214039,39.0593576428732,796.902799999996 -2.93623834847571,39.0595500914116,796.403200000001 -2.93637866172984,39.0597220884747,795.614700000006 -2.93644538140263,39.0598062429242,795.381899999993 -2.93656038103036,39.0600593759965,795.231 -2.93671745774599,39.0603289383988,794.991200000004 -2.93685877711321,39.0605869327339,794.718699999998 -2.93698433823374,39.0607973188827,794.562399999995 -2.93706262461412,39.0609052777406,794.482000000004 -2.93716974511851,39.0610546432828,794.466700000004 -2.93728373953141,39.0611731635672,794.262300000002 -2.93736621745092,39.0612843074107,794.170199999993 -2.93738817766636,39.0613573973907,794.327499999999 -2.93740427098466,39.0615079365912,793.963000000003 -2.93746244139088,39.0616953557803,793.710399999996 -2.9375311732899,39.0618606473237,793.614100000006 -2.93762471486045,39.0620460546566,793.275800000003 -2.93766712791828,39.0621835182976,793.292700000005 -2.93772228088344,39.0623241664867,793.054799999998 -2.93782688700335,39.0624985101736,792.866899999994 -2.93794926269787,39.0626555867338,792.638600000006 -2.93798128134955,39.0627494643603,791.983699999997 -2.93802117912457,39.0628233926155,791.710600000006 -2.93819502020004,39.0630748492418,790.785900000003 -2.93822485953883,39.0631663799261,790.410099999994 -2.9382758218632,39.0632423200256,790.115000000005 -2.93854404263738,39.0634121374862,789.621400000004 -2.93870547797877,39.0635331717691,789.391699999993 -2.93882533928882,39.0636768381133,789.1633 -2.93886624317695,39.0637653506646,789.043900000004 -2.9389022853828,39.063982274684,788.775699999998 -2.93893212472158,39.0641254372246,788.808000000005 -2.93892039002903,39.0642434543476,788.434299999994 -2.93893346590631,39.0643209033478,788.3364 -2.9389633052451,39.064463228219,788.010500000004 -2.93897420180949,39.0646531616636,787.664600000004 -2.93895559410668,39.0648446046454,787.380699999994 -2.93890446379736,39.0649959817561,787.205000000002 -2.93881377168289,39.0651557408424,786.952399999995 -2.93877219765156,39.0652291664861,786.829500000007 -2.93874152018461,39.0653398073405,786.855200000005 -2.93872576193789,39.0654356964056,786.624100000001 -2.93869156397332,39.0654967164617,786.715299999996 -2.93863423169527,39.0655709801152,786.619999999995 -2.93860355422833,39.0656742453479,786.789799999999 -2.93853968401163,39.0658329985395,786.402799999996 -2.93857270877639,39.0659342518823,786.361000000004 -2.93865988039326,39.0659741500062,786.644 -2.93877001833866,39.0660070071446,786.893200000006 -2.93912189113039,39.0660710446584,787.6057 -2.93951952859429,39.0662276187645,789.215700000001 -2.93963570142179,39.0662993679764,789.5867 -2.93970359519265,39.0663407745151,789.766499999998 -2.93981457126621,39.0663920718033,790.364199999996 -2.93992655345288,39.0664631498859,790.219899999996 -2.94004490559327,39.0665079097422,790.363599999997 -2.94016225251882,39.0665271876833,790.363299999997 -2.94039845464132,39.066531881624,790.669099999999 -2.94047690900666,39.0665519979115,790.595199999996 -2.94053206197186,39.0665975960639,790.528999999995 -2.94060196707062,39.0667679159958,790.109100000001 -2.94064605638476,39.0668252481148,789.912800000006 -2.94074228032475,39.0668912977606,789.564100000003 -2.94095736035994,39.0670156850476,789.054600000003 -2.94104889060256,39.0670592707285,788.595000000001 -2.94131861964808,39.0672140006548,788.251000000004 -2.94138433410608,39.067275188656,788.063699999999 -2.94142892557847,39.0673519668635,788.014899999995 -2.94145490934804,39.067800566333,787.936300000001 -2.94147318197924,39.0679625048835,787.821299999996 -2.941517606365,39.0682335756799,788.105599999995 -2.94151375079579,39.0683594719694,788.033599999995 -2.94153839338067,39.068523086594,787.849700000006 -2.94155046314483,39.0686399302377,787.813200000004 -2.941520791791,39.0687212347642,787.450800000006 -2.94142758439373,39.0688184646026,786.800399999993 -2.94133119246882,39.0688910522958,786.145600000003 -2.94128106917091,39.0689800681383,785.762600000002 -2.94105526055625,39.0691312773642,784.028399999996 -2.94078050184346,39.0693354608459,783.835099999997 -2.94056827216262,39.0695195276036,784.392000000007 -2.94043499990371,39.0696264806733,784.805200000003 -2.94031077996791,39.0697084556922,784.385500000004 -2.94022075799664,39.0698425658031,784.039099999995 -2.94018320751947,39.0699905901063,784.084900000002 -2.94017583145267,39.0701235273018,784.360100000005 -2.94003333888565,39.0706229207513,783.584199999998 -2.93998103627488,39.0708415212233,783.065700000006 -2.93995304027903,39.0709994363492,782.324399999998 -2.93989252257497,39.0711006892549,781.835200000001 -2.93979093389615,39.0716904405021,781.044399999999 -2.93974818666504,39.0719336828096,780.272299999997 -2.93975070104951,39.0720833834858,779.933799999999 -2.93968901014568,39.0722986311775,779.596000000005 -2.93964425068833,39.0724401177204,779.322799999994 -2.93963938990434,39.0726439652441,778.885200000004 -2.93966922924312,39.0727428718164,778.818100000004 -2.93977232619334,39.0729019606001,778.7114 -2.93995991328929,39.0732208079897,778.867100000003 -2.94014314175946,39.0736658873684,778.6057 -2.94028446112671,39.073926396574,778.330100000006 -2.94039962784106,39.0740851500345,778.254100000006 -2.94084722151624,39.0747441349765,776.937900000004 -2.94093456111804,39.074848238293,776.544500000004 -2.94117696610757,39.0749964306268,775.895799999998 -2.9414161856711,39.0751290320191,775.652000000002 -2.9416450117268,39.0752468815049,775.358200000002 -2.94236116124772,39.0758336147405,773.963300000003 -2.94244581848008,39.0759201161676,773.917700000005 -2.94255193287135,39.0761130676864,773.580700000006 -2.94266073053035,39.0763449109125,773.272599999997 -2.94282836873876,39.0766292252598,772.780299999999 -2.94300220891593,39.0769603105538,771.561400000006 -2.94306373183478,39.0770640779596,771.299199999994 -2.94314889212372,39.077149406313,770.802800000005 -2.94330714293742,39.0773311256055,769.962700000004 -2.94377233820226,39.0779518897453,768.085699999996 -2.94391013707189,39.0781347827041,767.633199999997 -2.94402094516052,39.0783255545312,767.243900000001 -2.94412186369615,39.0785044242249,767.034799999994 -2.94427156434498,39.0787453201909,766.342499999999 -2.94435940700335,39.0788440592172,766.094400000002 -2.94450860459565,39.0791590513592,765.306700000001 -2.94455738760716,39.0794260987469,764.831300000005 -2.94460197907955,39.0795281903129,764.572799999994 -2.94467808704537,39.0796795673107,764.174100000004 -2.94484790456667,39.0799417530173,763.732699999993 -2.94506432488829,39.0802887644127,763.182400000005 -2.94517530096185,39.0804393029854,762.887499999997 -2.94527353712807,39.0805906801204,762.801000000007 -2.94538602237132,39.0807088649628,762.657399999996 -2.94563781475556,39.0809571373516,762.285399999993 -2.94571610203427,39.0810535288871,762.248000000007 -2.94592782865852,39.0813871288701,762.184599999993 -2.9461486076059,39.0817086581455,761.572199999995 -2.94639671240591,39.0821735189891,761.318899999998 -2.94649545073035,39.0824179349907,761.521699999998 -2.94677658029516,39.0833109433208,760.080000000002 -2.94701881729973,39.0840711816859,757.7451 -2.94713063150145,39.0844800508124,756.8986 -2.9472954202538,39.0850773456982,755.500199999995 -2.94736264298313,39.0852996332335,754.761100000003 -2.9473894648809,39.0854181532483,754.465500000006 -2.94748719799055,39.0855420379156,754.2736 -2.94756129373013,39.0856679340067,754.057499999995 -2.94780738630388,39.0859609657472,753.716799999995 -2.9478930496494,39.086050819794,753.641799999998 -2.94797100095816,39.0861099958713,753.507599999997 -2.94805565819053,39.0861604546151,753.447700000004 -2.94836863842206,39.0863267521998,753.214399999997 -2.94873006659348,39.0864782965969,752.740999999995 -2.94885361548775,39.0865607742925,752.903900000005 -2.94896207717683,39.0866781214785,752.464099999997 -2.94893408207932,39.0867654609709,752.409799999994 -2.9488846289246,39.086899906123,752.301600000006 -2.94889820696013,39.087031167318,752.259300000005 -2.9489639214181,39.0871176682646,752.235199999996 -2.94920012354061,39.0872896650879,751.939700000003 -2.95092545482476,39.0884346327364,749.286500000002 -2.95118512543404,39.088654573916,748.777900000001 -2.95126022728674,39.0887952223437,748.711599999995 -2.95134119693485,39.0889856592542,748.526500000007 -2.95141948421357,39.0891033412657,748.477700000003 -2.9516109268787,39.0892912630961,747.863599999997 -2.9516706055563,39.0893898346668,747.621199999994 -2.95179247819425,39.08971874048,746.894700000004 -2.95183807577975,39.0899333173213,746.752699999997 -2.95198777732692,39.0902462972453,747.164399999994 -2.95208400126688,39.0903812461344,746.912299999996 -2.95225549504453,39.0905658157756,746.176099999997 -2.95241693038592,39.0907171927946,745.8554 -2.952671070068,39.0909088028245,745.534299999999 -2.95284138974755,39.0910179357634,745.316099999996 -2.95324925363263,39.0912063607667,744.891799999998 -2.95364890242442,39.0913361121354,744.331099999996 -2.95411275740286,39.0914318341029,743.896900000007 -2.95462472345295,39.091483298612,743.669699999999 -2.95508790738985,39.0914843046984,743.081399999995 -2.95542418991986,39.0915185025626,742.766900000002 -2.95562367879499,39.0915550479426,742.587400000004 -2.95588351828756,39.0916626711043,742.237699999998 -2.95639649045076,39.0919619054539,741.930300000007 -2.95720651751215,39.0926560948329,739.7549 -2.95751731843075,39.0929772889814,739.146999999997 -2.95773139235285,39.0931212900013,739.075899999996 -2.95792920497167,39.0932051090138,739.078699999998 -2.95840814715529,39.0932963043096,738.554099999994 -2.95862607664661,39.0933373756896,738.371299999999 -2.95894961837091,39.0934379586026,738.266000000003 -2.95938111872772,39.0936408007577,737.777400000006 -2.95971941168733,39.0938397868397,737.559099999999 -2.95985670750041,39.0939345021462,737.289799999999 -2.96001864589834,39.094150420108,736.807499999995 -2.96031352148364,39.0947177077698,735.271399999998 -2.96046707770168,39.0949170289475,735.017300000007 -2.96063907453584,39.0950806440412,735.009099999996 -2.96104257889684,39.0953912774209,734.739100000006 -2.96158874380983,39.0957399641229,733.953500000003 -2.96193642506244,39.0960226023834,732.805200000003 -2.96208746689601,39.0961189942471,732.334700000007 -2.96286312890616,39.0964202398456,731.475600000005 -2.96324299679541,39.0965335633022,731.146599999993 -2.96369092554217,39.0966284457965,730.790999999997 -2.96395763714666,39.0967298668898,730.443799999994 -2.96431235939449,39.0968792326019,729.678 -2.96453749786591,39.0970113313414,729.188599999994 -2.96512724813817,39.0975212867638,728.853799999997 -2.96521341454022,39.0976936186456,728.587799999994 -2.96562211565513,39.098258558379,728.355100000001 -2.9656952061799,39.0984181501353,728.443799999994 -2.96584725412659,39.0987064872958,728.440600000002 -2.96605965089405,39.0991274269674,727.772200000007 -2.96644404539403,39.0997349468084,727.115999999995 -2.96672215661946,39.1002891587609,726.812900000004 -2.96684671162687,39.1006373430121,726.611600000004 -2.96702809675407,39.1009347330267,726.307000000001 -2.96720227200282,39.1011648996587,726.060700000002 -2.96782605315299,39.1019853206182,724.582899999994 -2.96805169468099,39.1023056768672,723.919200000004 -2.96831103021868,39.1026407852607,723.299599999998 -2.96864831796347,39.1029628178573,722.629499999995 -2.96937653814685,39.1035617888857,721.687900000004 -2.96954585261158,39.1037562486018,721.526899999997 -2.96966319863885,39.1039584204433,721.285699999993 -2.96979932125216,39.1042819618016,720.827799999999 -2.96990878905436,39.1044437329695,720.473599999998 -2.97028714777394,39.1048609835626,719.448999999993 -2.97042444358703,39.1050525941963,718.991999999998 -2.97068009154047,39.1054783950567,718.022299999997 -2.97086365508226,39.1057487947261,717.455900000001 -2.97097831963837,39.105857089118,717.250400000004 -2.97121418668925,39.1060522200587,716.4035 -2.97139775023104,39.1062594202697,715.517300000007 -2.97145038881176,39.1063529624511,714.945500000002 -2.9714845867763,39.1064830498192,714.347800000003 -2.97144452101632,39.1067158987773,713.630999999994 -2.97138702165161,39.1069197469386,713.134999999995 -2.97137847148673,39.1071460580883,712.839399999997 -2.97142524317034,39.1073646583142,712.702600000004 -2.97169765458529,39.1077969968492,712.789799999999 -2.97248689463097,39.1088708862124,715.984800000006 -2.97269795111203,39.1091427952114,715.945999999996 -2.97284949600214,39.1092658414816,715.703800000003 -2.97306273089779,39.1093655861329,715.627699999997 -2.97327898413275,39.1094965113597,715.723700000002 -2.97353195061509,39.1097100821348,715.8514 -2.97359816723131,39.1098477129147,715.829500000007 -2.97361593680593,39.109931364968,715.869999999995 -2.97359380860556,39.1100889444481,715.473299999998 -2.97353580618427,39.1102520559268,715.180699999997 -2.97336414442169,39.1104456781747,714.958899999998 -2.97324411602502,39.1105948761188,714.630499999999 -2.97320572652132,39.1106929446264,714.450700000001 -2.97320287706526,39.1107890006788,714.198900000003 -2.97324830666581,39.110938701846,713.671600000001 -2.97337386778631,39.1111140511082,713.021099999998 -2.97361811611882,39.11149526041,711.866099999999 -2.97373713930071,39.1117126866109,711.182400000005 -2.97390326833946,39.1119440273743,710.791700000002 -2.97409219662012,39.1121093183062,710.2785 -2.97429386570647,39.1122251564606,709.966899999999 -2.97448329614537,39.1123131662029,709.770799999998 -2.97483231858271,39.1124375535639,709.098199999993 -2.97507807608487,39.1125585880866,708.377200000003 -2.97537194555702,39.1127641123823,707.986000000004 -2.9762552302298,39.1138453783574,705.865699999995 -2.97674104542368,39.1143814844327,704.249899999995 -2.97703491489583,39.114759005719,702.808999999994 -2.97715209383645,39.1149782765305,702.212400000004 -2.9772778229419,39.1152592373878,701.863500000007 -2.97756247210601,39.1157313061748,701.384600000005 -2.97777604297154,39.1160856931999,701.039699999994 -2.97817015993781,39.1170065288112,699.4274 -2.97824794415994,39.1171877460514,698.837499999994 -2.97867994757336,39.1177706233011,697.385800000004 -2.97917297084906,39.1185593606586,695.277400000006 -2.97933189180597,39.118784163173,694.596999999994 -2.97946399086511,39.1188936307092,694.064199999993 -2.97956457343085,39.118946604274,693.699500000002 -2.97984838446676,39.1190463491622,692.859100000001 -2.98029949863953,39.1192887535259,692.087 -2.98071188823699,39.1195620036655,691.964300000007 -2.98138763782464,39.1199390218845,691.712299999999 -2.98178091666275,39.1202052311607,691.651700000002 -2.98211200154052,39.1204640644976,691.469800000006 -2.98244308641825,39.1206417603168,691.077300000004 -2.98273729186034,39.1208333705596,690.859800000006 -2.98298187526444,39.1210350397163,690.869900000005 -2.98332637198937,39.1213604247968,691.519899999999 -2.98365997125157,39.1217381135849,692.864300000001 -2.9841469596452,39.1221360861649,691.475300000006 -2.98465658019409,39.12268241834,691.677299999996 -2.98483192954092,39.1229347139463,691.598299999998 -2.98501716933903,39.1232471912499,691.3033 -2.98546979178316,39.1235548069772,690.609500000006 -2.98593046133556,39.1239613292849,690.093399999998 -2.98649791632075,39.1245085003002,688.915299999993 -2.98661576540457,39.1246488130811,688.570399999997 -2.98668885592934,39.1247936525744,688.016699999993 -2.98686303207643,39.1250327046503,687.501699999993 -2.98715203986625,39.1253349556352,686.367599999998 -2.98726586629423,39.1254231336768,685.979900000006 -2.98792015782468,39.1257480162482,684.312699999995 -2.98830555753945,39.1261392831358,682.975600000005 -2.98850890288209,39.1263010536096,682.327699999994 -2.98921264666895,39.126573633338,680.083400000003 -2.98945119608927,39.1267012060057,679.525999999998 -2.98985604163498,39.1268911398266,678.8946 -2.99036096758821,39.1270819121626,678.025800000003 -2.99091484363958,39.1273033620453,677.344100000002 -2.9911870879679,39.1274235584894,676.9902 -2.99149554248699,39.1276087983957,676.653000000006 -2.99172621188564,39.1277868301973,676.2886 -2.99224320760304,39.1282642630558,675.313200000004 -2.99248795989039,39.1284565438434,674.735100000005 -2.99278752917301,39.1286669296859,674.349400000006 -2.99348775336059,39.1291582767744,673.861900000004 -2.99452291799506,39.1299818825359,673.703500000003 -2.99527796007621,39.1308587972625,673.330300000001 -2.99600886173073,39.1314953192107,672.957800000004 -2.99646751995523,39.1318919510336,672.813099999999 -2.99772765507624,39.1329661755651,672.301999999996 -2.99806041621028,39.133218806431,672.081300000005 -2.99906037766544,39.1338565013623,671.654399999999 -3.00025312207213,39.1346024909029,671.223299999998 -3.00100514671223,39.1351660903061,670.995699999999 -3.00161233148752,39.1355970876652,670.425000000003 -3.00436394306799,39.137429036,669.029899999994 -3.0047295618802,39.1376709381441,668.762100000007 -3.00568174553864,39.1383082980284,668.248999999996 -3.00684716588934,39.1390542870869,667.600999999995 -3.00779884649124,39.139655102181,666.929199999999 -3.00836445723516,39.1400741968617,666.963000000003 -3.00883820266484,39.1405353696648,666.425499999998 -3.00913995126036,39.1407960463938,666.209900000002 -3.00927406164743,39.1408691368981,666.189599999998 -3.00959307676103,39.1410962865539,664.873900000006 -3.01002441003122,39.1414235158517,663.1348 -3.01047937977316,39.1416996161086,665.516799999998 -3.01077676974293,39.1418870354261,665.197199999995 -3.0110010691879,39.1420588644781,665.087700000004 -3.01216380627084,39.1433134673458,664.4427 -3.01239280031151,39.1435627454751,664.389899999995 -3.01319293692159,39.1442450321636,664.354200000002 -3.01328094666662,39.1442158628625,664.471399999995 -3.01369870100298,39.1446418318309,664.423200000005 -3.01380079273838,39.1447283324485,664.3992 -3.01408896240004,39.1452367791173,664.337899999999 -3.01459237918358,39.1452339289715,664.502099999998 -3.01693093012505,39.145260918615,664.300900000002 -3.01685364895949,39.1454188335999,664.200200000007 -3.01888005779763,39.1483283600311,663.796499999997 -3.01971389021403,39.1496195085433,663.3894 -3.02081996606042,39.1491419076827,663.875499999995 -3.02245896295756,39.1484629733915,664.183499999999 -3.0226616372587,39.1483570260357,664.193499999994 -3.02295349540294,39.148221072104,664.318899999998 -3.02320797015661,39.1481680982639,664.2834 -3.02533378836071,39.1482143660806,665.031400000007</coordinates>
</LineString>
</Placemark>
</Folder>
</Document></kml>
