<?xml version="1.0" encoding="UTF-8"?>

<kml xmlns:xsd="http://www.w3.org/2001/XMLSchema" xmlns:gx="http://www.google.com/kml/ext/2.2" xmlns:atom="http://www.w3.org/2005/Atom" xmlns="http://www.opengis.net/kml/2.2">
<Document>
<name>ES30a_03a_los_corrales_de_buelna-barcena_de_pie_de_concha</name>
<visibility>1</visibility>
<Schema name="ES30a_03a_los_corrales_de_buelna-barcena_de_pie_de_concha" id="kml_schema_ft_ES30a_03a_los_corrales_de_buelna-barcena_de_pie_de_concha">
<SimpleField type="xsd:string" name="id">
<displayName>id</displayName>
</SimpleField>
<SimpleField type="xsd:string" name="nombre">
<displayName>nombre</displayName>
</SimpleField>
<SimpleField type="xsd:double" name="longitud">
<displayName>longitud</displayName>
</SimpleField>
<SimpleField type="xsd:string" name="_formato">
<displayName>_formato</displayName>
</SimpleField>
</Schema>
<Folder id="kml_ft_ES30a_03a_los_corrales_de_buelna-barcena_de_pie_de_concha">
<name>ES30a_03a_los_corrales_de_buelna-barcena_de_pie_de_concha</name>
<Placemark id="kml_1">
<name>&lt;img height='20' src='https://nco.ign.es/iconos/icono_todos_caminos_azul.png' /&gt;&lt;img height='20' src='https://nco.ign.es/iconos/Camino Santiago_20.png' /&gt;&lt;img height='20' src='https://nco.ign.es/iconos/icono_todos_caminos_azul.png' /&gt;  Camino de Santiago </name>
<visibility>1</visibility>
<description><![CDATA[<!DOCTYPE html>
<html>
<head>
<style>
#nco {
  border-collapse: collapse;
  overflow:hidden;
}
#nco th, #nco td {
  padding: 4px;
  text-align: left;
}
#nco th {
  color: #364B5F;
  padding-right: 5px;
}
#nco td {
  color: rgb(51, 51, 51);
  font-size: 12px;
  padding-right: 5px;
}
</style>
</head>
<body>
<table id="nco">
<tr>
<td>Caminos del Norte</td>
</tr>
<tr>
<th><b>Camino: </b></th>
<td>ES30a Camino del Besaya -Calzada Romana</td>
</tr>
<tr>
<th><b>Etapa: </b></th>
<td>03a Los Corrales de Buelna-Bárcena de Pie de Concha</td>
</tr>
<tr>
<th><b>Longitud: </b></th>
<td>24.36 km</td>
</tr>
</table>
</body>
</html>]]></description>
<Style>
<IconStyle>
<scale>0.8</scale>
</IconStyle>
<LabelStyle>
<color>ffffffff</color>
<scale>0.75</scale>
</LabelStyle>
<LineStyle>
<color>ffff0000</color>
<width>3.0</width>
<gx:labelVisibility>1</gx:labelVisibility>
</LineStyle>
<PolyStyle>
<color>66ff0000</color>
</PolyStyle>
</Style>
<ExtendedData>
<SchemaData schemaUrl="#kml_schema_ft_ES30a_03a_los_corrales_de_buelna-barcena_de_pie_de_concha">
<SimpleData name="id">ES30a_03a</SimpleData>
<SimpleData name="_formato">kml</SimpleData>
</SchemaData>
</ExtendedData>
<LineString>
<extrude>0</extrude>
<tessellate>1</tessellate>
<coordinates>-4.06656783079136,43.2581151274707,94.7676000000065 -4.06656414230878,43.2579684440655,94.8643000000011 -4.06662298375652,43.2579577154917,94.8377000000037 -4.06692121185445,43.2579473218773,94.6624000000011 -4.06721122575739,43.257892336507,94.4376000000047 -4.06757131184578,43.2578234377341,93.9388999999937 -4.0675902555185,43.2577930948766,93.898000000001 -4.0676085281497,43.2574460841688,93.9560000000056 -4.06766334514494,43.2571647875938,94.3104000000021 -4.06769888519254,43.2571002471356,94.392399999997 -4.06782176304531,43.2571304215469,93.9882999999973 -4.06782997813857,43.2570898533748,94.0782999999938 -4.06787909532337,43.2569079658729,94.4591999999975 -4.06793592454488,43.2567445187331,94.6713000000018 -4.0679642556123,43.2565282657755,94.9306999999972 -4.06796224428437,43.2563621365476,95.1008000000002 -4.06793843982768,43.2561331428549,95.3105999999971 -4.06786099067713,43.2560183110408,95.5154000000039 -4.0677555464291,43.2559023052976,95.7914000000019 -4.06791882601176,43.2558458113568,95.6097000000009 -4.06825779001287,43.2558215035715,95.1753000000026 -4.06853137552588,43.2558032311815,94.8576999999932 -4.06861821207114,43.2557940109141,94.7661999999982 -4.0686928108673,43.2558163069093,94.6454999999987 -4.06879087904853,43.2557976988904,94.5709999999963 -4.06881602468999,43.2557517663302,94.6267999999982 -4.06903093674025,43.2555915042313,94.7724000000017 -4.06948825378001,43.2552830503363,95.3932999999961 -4.06985135730942,43.254880718613,95.9401000000071 -4.07001966566107,43.2544532417203,96.2332000000024 -4.07034505162665,43.254017550819,97.0446999999986 -4.07056700467209,43.2534881498062,98.9649000000063 -4.0706151166421,43.253068551718,101.289600000004 -4.07052895024005,43.2529072834789,101.206300000005 -4.07046843343429,43.2526239749675,101.037400000001 -4.07030398065185,43.2522266728147,100.874899999995 -4.07043205615686,43.2521445301642,101.138200000001 -4.07052978836821,43.251913692536,101.866699999999 -4.07112071273851,43.2518407703306,104.891900000002 -4.07179361197177,43.2516927455686,109.719800000006 -4.07220147585682,43.251367192942,115.654500000004 -4.07232167223849,43.2510372809665,119.732600000003 -4.07238638058334,43.2506289147193,123.285000000003 -4.07245259719955,43.2502995058298,126.363599999997 -4.07230440572041,43.2500641419167,130.119600000005 -4.07219074637909,43.2497494853073,134.772700000001 -4.07253088447827,43.2496411911056,137.501099999994 -4.07321350617781,43.249556031209,138.560400000002 -4.07353168316325,43.2492242753776,142.774999999994 -4.07343663242304,43.248976506026,147.083799999993 -4.07353905923005,43.2486596701429,152.776400000002 -4.07349731811206,43.2483309324094,160.508600000001 -4.07416451753483,43.2473638282382,184.875499999995 -4.07285911989994,43.2468495147573,197.358900000007 -4.07211078374239,43.2462777008198,206.301000000007 -4.07207926724895,43.2460624537269,210.353400000007 -4.0725194848573,43.2459913750174,215.179000000004 -4.07289667037711,43.2459321988612,218.986900000004 -4.07285710767367,43.2449503426453,240.060200000007 -4.07275719525117,43.2443619331404,253.630900000004 -4.07304603595436,43.2438786325198,265.201199999996 -4.07267538837319,43.2435279336399,269.698199999999 -4.0725114386473,43.2431202381739,278.589999999997 -4.07228210953505,43.2428112813695,287.649099999995 -4.07095374557159,43.2423983885357,299.273100000006 -4.06942388050678,43.2419873402546,305.308900000004 -4.07020390024439,43.241783827666,328.941900000005 -4.0697086976558,43.2416413349444,331.796300000002 -4.073132537428,43.2415276766258,364.260899999994 -4.071579370963,43.2410678452739,394.178799999994 -4.06942119813731,43.2405808571084,404.655100000004 -4.07080739743539,43.2404698805434,419.183099999995 -4.07168179777002,43.2405438090996,427.327900000004 -4.07480103859234,43.2407067532891,438.563399999999 -4.07472241714034,43.2387817649236,552.464500000002 -4.07532323196194,43.2386785001385,554.629799999995 -4.07641321449,43.2384563795409,553.778600000005 -4.07835664235209,43.2385199142647,540.411500000002 -4.07915560486409,43.2382515260045,539.719700000001 -4.08097565181684,43.2389200661917,515.220199999996 -4.08209714994007,43.2392198035919,490.650099999999 -4.08326106112109,43.2393886149324,455.270900000003 -4.08493375382451,43.2392913849451,385.718200000003 -4.0867873277003,43.239323068114,323.509000000005 -4.08855004237499,43.2392739504913,322.248200000002 -4.09008493620879,43.2389658314789,346.524600000004 -4.09085975919246,43.2385995426482,356.834000000003 -4.09155311036981,43.2386748117799,360.325500000006 -4.09235458816458,43.2385531069498,365.830900000001 -4.09333862338807,43.2386582161273,370.605100000001 -4.09387741223425,43.2388328946508,372.386899999998 -4.09460579950426,43.2388593812579,375.586500000005 -4.09531339975863,43.2391659917089,378.152799999996 -4.09560877840047,43.2389733756933,381.3076 -4.09559939100573,43.2383435594981,383.612999999998 -4.09587331159037,43.2378610965874,385.174599999998 -4.09622417737068,43.2373016883301,381.780599999998 -4.09657521203426,43.237064648552,379.735799999995 -4.09677738327885,43.2364522668728,368.066399999996 -4.09724693716941,43.2358893377851,364.926999999996 -4.09765044242874,43.2355998269788,372.614400000006 -4.09713998465002,43.23489038271,359.221999999994 -4.09725230190831,43.2342268711557,362.472800000003 -4.09803332775904,43.2331932147555,370.524399999995 -4.09824924502409,43.2323598863802,360.854999999996 -4.09832065929254,43.2313979787467,347.080700000006 -4.09825427469137,43.230671267909,332.625899999999 -4.09874159815658,43.2301081715329,327.653200000001 -4.09926764709539,43.2297266274736,329.291100000002 -4.09933973060875,43.2288037801797,315.901100000003 -4.09987214950122,43.2277855464913,305.671300000002 -4.10007013010499,43.2269393096741,289.293699999995 -4.09945389300661,43.2272573188902,284.595000000001 -4.09883597875359,43.2274843004047,278.220600000001 -4.09875433896228,43.226900584911,267.227400000003 -4.09765781849555,43.2261968401062,260.046300000002 -4.09755706794485,43.2255355085335,261.405799999993 -4.09809468269293,43.2248029302061,263.725600000005 -4.0979924238709,43.2240636460129,263.368499999997 -4.09851444925552,43.2234611548396,252.025699999998 -4.09872014099771,43.223043735928,243.536600000007 -4.0995154159255,43.2228154129709,233.476299999995 -4.10036165227932,43.2224566675876,221.557700000005 -4.10117922339243,43.2224751077398,213.812000000005 -4.10189621193984,43.2218447884942,213.782300000006 -4.10134669361592,43.2209278083626,197.813899999994 -4.10020541369184,43.2206921090616,194.048899999994 -4.09892834712437,43.2208086178364,193.169800000003 -4.09842861792508,43.2206837272869,187.129400000005 -4.09759931301772,43.2210037487021,189.610400000005 -4.09585520604583,43.2208387925509,179.241500000004 -4.09416491175271,43.2206993177535,168.902100000007 -4.09327290982843,43.2205001639062,163.911600000007 -4.09208485822078,43.2206287423187,161.577000000005 -4.09052364554578,43.2207608410109,159.076000000001 -4.08994831143721,43.2204039393987,157.276700000002 -4.08971244438632,43.2201333719655,156.907000000007 -4.08940348770899,43.2197464629535,158.981299999999 -4.08861760017593,43.2195070761134,161.654399999999 -4.08781578730951,43.2193717918662,161.597599999994 -4.08706476878252,43.2191062533686,165.793999999994 -4.08658817389675,43.2192799261131,166.785900000003 -4.08628609022965,43.2192831115752,171.004000000001 -4.08608341592851,43.2188824562555,178.487099999998 -4.08533239740152,43.2186169175908,194.033899999995 -4.08522645009692,43.2188827914316,196.457800000004 -4.08417619735889,43.2185830548208,213.982000000004 -4.08271271779354,43.2180700826497,228.575100000002 -4.08148661265214,43.2174104265625,238.767999999996 -4.0812390109087,43.2169790939506,241.132700000002 -4.0813317152494,43.2166374474678,245.135699999999 -4.08192012433689,43.2163735854509,249.256399999998 -4.08239219351028,43.2159147597271,261.365099999995 -4.08291555918134,43.215724155364,266.200700000001 -4.0829378553667,43.2148355056564,295.696899999995 -4.08295026020245,43.2131522521394,368.898499999996 -4.08287515834974,43.2129053214321,375.169399999999 -4.08210201162236,43.2121424005523,380.194900000002 -4.08201182256447,43.2111997717236,375.305600000007 -4.08235212775031,43.2104842922955,376.811600000001 -4.0829385255099,43.2101175003413,389.289199999999 -4.08263241828863,43.2095835733471,395.243100000007 -4.08189514668043,43.2094152641373,384.314499999993 -4.08135065802379,43.2089663297101,378.040800000002 -4.08106533781819,43.2088040562393,374.636599999998 -4.08025765805465,43.208646643862,364.952600000004 -4.07950328701503,43.2083028181622,360.314299999998 -4.0792079083732,43.2083678620984,358.650500000003 -4.07727520909058,43.2068579456921,348.319499999998 -4.07611062776636,43.2064663434919,339.667300000001 -4.07550193382141,43.2062289677197,335.030700000003 -4.07489625731751,43.2057845592636,327.049700000003 -4.07364266013514,43.2054875044392,332.263699999996 -4.07259626296632,43.2049700062042,334.005600000004 -4.07212771518885,43.2043183966539,326.924599999998 -4.07178724201808,43.2039616626913,324.925199999998 -4.07099766690078,43.2030560823653,311.310700000002 -4.07042535023326,43.2025085761793,297.984200000006 -4.06957156982768,43.2019508446077,288.778099999996 -4.06924333440601,43.2012853210724,270.220300000001 -4.06810875950723,43.200755920262,264.190799999997 -4.06749620999307,43.1999130363178,246.816200000001 -4.0667644702104,43.1992899255862,242.231 -4.06573282517518,43.1986052917574,234.873699999996 -4.06501935802373,43.1980205702704,226.989799999996 -4.06421050416212,43.1980155409077,232.176099999997 -4.06375251697912,43.1979686021341,232.166599999997 -4.06406298282614,43.197631482357,220.367599999998 -4.06455013920473,43.1973443183155,212.506699999998 -4.06521717064255,43.1972869855405,209.506299999994 -4.06590398388122,43.1973580640806,207.231700000004 -4.06586425409115,43.1971014106852,202.819399999993 -4.06564833592777,43.1968207844138,196.472699999998 -4.06583575503877,43.1964848377365,189.237299999993 -4.06553434241316,43.1963463688044,188.968299999993 -4.06519805988319,43.196221143283,188.937000000005 -4.06494626749893,43.1959021280462,184.562000000005 -4.06530719261381,43.1954359261625,179.9228 -4.0656699610716,43.1950726548227,182.108399999997 -4.0659668479848,43.1949672104944,182.435299999997 -4.06578429055612,43.1945833194045,181.108099999998 -4.06558664502397,43.194341081884,180.261100000003 -4.06537122991713,43.1940861048048,179.251000000004 -4.06477443864972,43.1941434366577,177.523799999995 -4.06407622579009,43.1944331155289,175.486300000004 -4.06278424000236,43.1949469263454,171.853000000003 -4.06111774926766,43.1951556353972,171.279699999999 -4.05841911223779,43.1956567057903,175.460999999996 -4.05755376422628,43.1954334120296,175.569799999997 -4.05647920487329,43.1953148914039,175.365999999995 -4.05498487895774,43.1953160649738,172.558499999999 -4.05462563009921,43.1939006970406,163.479399999997 -4.05428498984179,43.193168286167,164.798999999999 -4.05423235126107,43.1926571580008,167.384999999995 -4.05306005879847,43.1906047648079,172.5239 -4.05203897525602,43.1884390489572,170.6584 -4.0514492240855,43.1871970184008,173.782800000001 -4.05087422594684,43.1868186595626,173.407200000001 -4.05005481059246,43.1862025892454,175.004700000005 -4.04951568667469,43.1853600407212,177.436700000006 -4.04902350152715,43.1847089343936,177.079800000007 -4.04853785431826,43.1844417194668,175.793900000004 -4.04795313281499,43.1834875233267,176.630999999994 -4.04743479591289,43.1825807692567,179.487399999998 -4.04693724602649,43.1816098096996,181.822 -4.04676558426388,43.1805238501412,180.819000000003 -4.04698301069862,43.1791783866433,183.6731 -4.04698736932437,43.1781547892275,183.954100000003 -4.0465999582817,43.1772307677595,185.022700000001 -4.04598288215684,43.1743733767911,188.941900000005 -4.04577869958434,43.1739435532507,189.145199999999 -4.04467480215251,43.1732979789424,192.290200000003 -4.04370266960653,43.1726832501732,191.603900000002 -4.04355347201424,43.1716291417399,194.293699999995 -4.04326278706977,43.1699685192678,196.117599999998 -4.04291611193028,43.1688681431766,197.072100000005 -4.04262693615547,43.1672874836109,201.101699999999 -4.04222208971143,43.1666196138484,204.046000000002 -4.04128717257108,43.1656206587918,205.345100000006 -4.04137819975713,43.1645482781089,209.454199999993 -4.04152974464724,43.1631875598723,214.601299999995 -4.0415976384181,43.1620516440184,215.670899999997 -4.04158422746923,43.161268103842,216.274699999994 -4.04129354252476,43.1608870628715,216.797399999996 -4.04085114560353,43.1605714001032,217.110000000001 -4.0406494774155,43.1602855773508,217.104399999997 -4.03999317455712,43.1602438353432,215.991500000004 -4.03893202525473,43.1595179626826,215.2071 -4.03863681459785,43.1588650120393,215.584099999993 -4.03810758113136,43.1585822067692,214.997600000002 -4.03794799003125,43.1581999918023,216.207599999994 -4.03766149662587,43.1580588410628,216.983500000002 -4.0369129924834,43.1577299352006,218.915500000003 -4.03687812347729,43.1569626553965,221.282699999996 -4.03684560176908,43.156339376852,223.027300000002 -4.03702916620919,43.1555700861027,224.279899999994 -4.03749838502817,43.1548943370266,225.381699999998 -4.03796760384714,43.1542184205765,225.690199999997 -4.03911475066833,43.1535844129694,226.999599999996 -4.04004564515288,43.1530803254009,230.525200000004 -4.04048183920706,43.1530446188083,233.506800000003 -4.04096011034918,43.1529125196351,237.890400000004 -4.04143838238957,43.1527804208317,242.470199999996 -4.04167257228585,43.1524267050063,245.823699999994 -4.04183451068381,43.1516736743451,250.725699999995 -4.04201572782604,43.1507764757352,254.604500000001 -4.04250087197839,43.150583021494,256.965899999996 -4.04292466119682,43.1499818710265,258.202999999994 -4.04330117657346,43.149660844625,259.940499999997 -4.04341802044246,43.1493929585793,261.501300000004 -4.04393786561589,43.1493376380305,263.092399999994 -4.04492324202411,43.1490873543416,266.326700000005 -4.04514519506955,43.148869425037,267.612800000003 -4.04557200172903,43.1484461391947,269.8897 -4.04603853817857,43.1483150459493,271.131500000003 -4.04655888640857,43.1482850385393,270.862699999998 -4.04658989984547,43.1480687855109,273.9663 -4.04686063500409,43.1476597485321,280.423999999999 -4.04609620552824,43.1461588851081,294.123399999997 -4.04524778986153,43.1445991809346,299.578299999994 -4.04467882570664,43.1442087516843,300.969500000007 -4.04393283684694,43.143582455814,306.719500000007 -4.04442217164008,43.1431191041532,309.544800000003 -4.04495459053258,43.1426394916341,313.415999999997 -4.04546454525473,43.1421126052291,316.905199999994 -4.04577903465592,43.1415399539207,317.530100000004 -4.04589822492447,43.1409215370786,316.2647 -4.04630273539859,43.140553906239,314.775200000004 -4.04698552598143,43.1400253434783,310.812000000005 -4.04760478052085,43.1395765764279,305.505699999994 -4.04847985099868,43.1391641867904,297.742700000003 -4.04885167267792,43.1393398719803,299.443199999994 -4.04907044029739,43.1393262927581,298.998999999996 -4.04941275681113,43.1391175836131,296.192299999995 -4.04957687452195,43.1388547268955,293.0622 -4.0497518887972,43.138718772862,291.871499999994 -4.04976529974606,43.13862690695,290.488500000007 -4.04919968900214,43.1386027674292,289.176600000006 -4.04853399874905,43.1383187881218,284.286600000007 -4.04830316046712,43.1383025276555,284.3891 -4.04779471491462,43.1380882858083,282.058300000004 -4.0475487894275,43.1380146925636,282.151400000002 -4.04748709852366,43.1378063184961,277.594700000001 -4.04723681530912,43.137080446124,265.007700000002 -4.04689483386696,43.136569987756,262.875100000005 -4.04687387886633,43.1364244782909,262.556599999996 -4.04687656123577,43.1361802296222,262.159100000004 -4.04700664806871,43.1360638889865,262.123000000007 -4.04695769797054,43.1359433566659,261.830199999997 -4.04670439641662,43.1355884670199,261.387300000002 -4.04632218212786,43.1350273825861,261.728700000007 -4.04562614858111,43.134396225523,263.184699999998 -4.04627440522946,43.1337156147909,265.592199999999 -4.04682476078324,43.1331443041268,268.297300000006 -4.04739255084002,43.1324999035193,270.165399999998 -4.04796604070728,43.1319267491694,272.155299999999 -4.04908401923122,43.1311043164641,274.949099999998 -4.04981844138332,43.1305975463742,277.387199999997 -4.05078772447321,43.1300190278255,280.610000000001 -4.05133740988375,43.1299563313479,280.136499999993 -4.05213721052395,43.1294827533061,282.310899999997 -4.05321747058569,43.1291659173932,282.231199999995 -4.05399413781066,43.1289935858961,283.732099999994 -4.05568091160619,43.1290257721717,284.5386 -4.05604887771622,43.1285962832362,285.716499999995 -4.05611559738901,43.1281862407301,286.716199999995 -4.05624903763289,43.1281342728166,286.689400000003 -4.05714506311137,43.1274508125605,287.965400000001 -4.05732275885772,43.1272226570654,288.475099999996 -4.0578260085546,43.1268218346345,288.149699999994 -4.0575856157913,43.1266649254807,289.021399999998 -4.05740624289031,43.126650340985,289.6633 -4.05720423873237,43.1266109461107,290.5196 -4.05696485208222,43.1265321562859,291.762900000002 -4.05659520971584,43.1264367696769,293.865699999995 -4.05580764592647,43.1263817843641,296.603000000003</coordinates>
</LineString>
</Placemark>
</Folder>
</Document></kml>
