<?xml version="1.0" encoding="UTF-8"?>

<kml xmlns:xsd="http://www.w3.org/2001/XMLSchema" xmlns:gx="http://www.google.com/kml/ext/2.2" xmlns:atom="http://www.w3.org/2005/Atom" xmlns="http://www.opengis.net/kml/2.2">
<Document>
<name>ES11a_13a_bonar-la_robla</name>
<visibility>1</visibility>
<Schema name="ES11a_13a_bonar-la_robla" id="kml_schema_ft_ES11a_13a_bonar-la_robla">
<SimpleField type="xsd:string" name="id">
<displayName>id</displayName>
</SimpleField>
<SimpleField type="xsd:string" name="nombre">
<displayName>nombre</displayName>
</SimpleField>
<SimpleField type="xsd:double" name="longitud">
<displayName>longitud</displayName>
</SimpleField>
<SimpleField type="xsd:string" name="_formato">
<displayName>_formato</displayName>
</SimpleField>
</Schema>
<Folder id="kml_ft_ES11a_13a_bonar-la_robla">
<name>ES11a_13a_bonar-la_robla</name>
<Placemark id="kml_1">
<name>&lt;img height='20' src='https://nco.ign.es/iconos/icono_todos_caminos_azul.png' /&gt;&lt;img height='20' src='https://nco.ign.es/iconos/Camino Santiago_20.png' /&gt;&lt;img height='20' src='https://nco.ign.es/iconos/icono_todos_caminos_azul.png' /&gt;  Camino de Santiago </name>
<visibility>1</visibility>
<description><![CDATA[<!DOCTYPE html>
<html>
<head>
<style>
#nco {
  border-collapse: collapse;
  overflow:hidden;
}
#nco th, #nco td {
  padding: 4px;
  text-align: left;
}
#nco th {
  color: #364B5F;
  padding-right: 5px;
}
#nco td {
  color: rgb(51, 51, 51);
  font-size: 12px;
  padding-right: 5px;
}
</style>
</head>
<body>
<table id="nco">
<tr>
<td>Caminos del Norte</td>
</tr>
<tr>
<th><b>Camino: </b></th>
<td>ES11a Camino Olvidado</td>
</tr>
<tr>
<th><b>Etapa: </b></th>
<td>13a Boñar-La Robla</td>
</tr>
<tr>
<th><b>Longitud: </b></th>
<td>33.66 km</td>
</tr>
</table>
</body>
</html>]]></description>
<Style>
<IconStyle>
<scale>0.8</scale>
</IconStyle>
<LabelStyle>
<color>ffffffff</color>
<scale>0.75</scale>
</LabelStyle>
<LineStyle>
<color>ffff0000</color>
<width>3.0</width>
<gx:labelVisibility>1</gx:labelVisibility>
</LineStyle>
<PolyStyle>
<color>66ff0000</color>
</PolyStyle>
</Style>
<ExtendedData>
<SchemaData schemaUrl="#kml_schema_ft_ES11a_13a_bonar-la_robla">
<SimpleData name="id">ES11a_13a</SimpleData>
<SimpleData name="_formato">kml</SimpleData>
</SchemaData>
</ExtendedData>
<LineString>
<extrude>0</extrude>
<tessellate>1</tessellate>
<coordinates>-5.32368902136417,42.8672750291034,974.228199999998 -5.32311201099931,42.8682230229873,974.032000000007 -5.32372900268251,42.8689580320275,973.684500000003 -5.32489802707415,42.869591033043,972.940700000006 -5.32542600289924,42.8701549675779,971.858099999998 -5.32723699663053,42.8704390304797,971.098499999993 -5.32838699380614,42.8711310398508,971.814599999998 -5.32933197028106,42.8704329952026,973.090899999996 -5.3295870307363,42.870220010838,973.132500000007 -5.33002096193429,42.8695590140919,970.680300000007 -5.33043704001434,42.8690939865472,970.712400000004 -5.33058498086353,42.8688229996087,970.295299999998 -5.3306869881573,42.8685980289754,970.131399999998 -5.33074901413272,42.8683449790752,969.7644 -5.33072898170188,42.8680749981681,969.310899999997 -5.33070702148647,42.867805017397,968.145900000003 -5.3307029979323,42.8674969824968,967.868400000007 -5.33071800159416,42.8672010172475,966.959799999997 -5.33084599265754,42.8670460358929,967.087100000004 -5.3310240243738,42.8668690099958,967.585399999996 -5.33111304023195,42.8666789925048,967.880799999999 -5.33114204144257,42.8665690214771,968.024900000004 -5.33130900950782,42.8661360125605,966.217799999999 -5.33149399777763,42.8659579812836,966.160300000003 -5.33174503557704,42.8657149897827,966.039399999994 -5.33194100485291,42.865474010124,966.046499999997 -5.33207503169665,42.8653030187901,966.206000000006 -5.33222397776066,42.8651119956701,965.417000000001 -5.33260895886052,42.8651359676651,967.632700000002 -5.33302000727328,42.8652630372558,969.226899999994 -5.33331999517082,42.8653409888124,970.168799999999 -5.33376197347714,42.8655610140579,973.625899999999 -5.33411996469427,42.8656429888495,979.223899999997 -5.33427301785574,42.865351969353,981.743000000002 -5.33449698222912,42.8652450161581,986.514599999995 -5.33549803334069,42.8652129975864,992.713399999993 -5.33576700869971,42.865249039795,994.042400000006 -5.33614603846079,42.8652580082046,995.359800000006 -5.33662799718713,42.8652150090766,996.564899999998 -5.33700602173343,42.8651549948698,998.901100000003 -5.33738102794035,42.8651119956701,1001.5754 -5.33730902707202,42.8652450161581,1001.6602 -5.33750197890684,42.8654460146365,1005.1655 -5.33774203659852,42.8655729999694,1007.1186 -5.3379749688534,42.8656719903145,1008.3624 -5.33813799690777,42.8657500256326,1009.2847 -5.33840102182634,42.8657180073227,1012.0361 -5.33864702995847,42.8657660351105,1013.8202 -5.33906000705416,42.8660449851939,1019.1876 -5.33899102362686,42.8654229638962,1023.928 -5.33980599591386,42.8657389615435,1034.96090000001 -5.33972603237883,42.8651440142942,1039.6419 -5.3402779806456,42.864987021545,1043.00780000001 -5.34090201332402,42.8648560120029,1040.0488 -5.34204002427876,42.8645270222474,1033.3692 -5.3425280187855,42.864352008546,1030.8029 -5.34312003281224,42.8640459850628,1031.3967 -5.3435050139121,42.8638119625569,1033.8259 -5.34399300841884,42.8635930267266,1034.29730000001 -5.34458200410623,42.8634620181769,1032.24589999999 -5.34518701046693,42.8631910308765,1031.34080000001 -5.34598102775331,42.8621990326957,1027.7099 -5.34554600689888,42.8616889938031,1023.8066 -5.34578899848828,42.8615859804391,1023.69040000001 -5.34655099712299,42.8614090383129,1023.4114 -5.34724895845434,42.8612149972363,1023.4966 -5.34784700736318,42.8610490353528,1022.1651 -5.34858997878183,42.8608880194632,1020.55929999999 -5.34969999463906,42.8606430161215,1016.21769999999 -5.35032100987646,42.8606020287121,1015.69839999999 -5.3510870320653,42.8605529947074,1022.1237 -5.35196201899983,42.8604099993799,1027.0622 -5.35347201872047,42.8599759845632,1030.8003 -5.35387803836428,42.8597250301737,1028.1176 -5.35416101127203,42.8594739924534,1025.84209999999 -5.35444800773395,42.8591959641967,1024.5987 -5.3548009692838,42.8588399848987,1022.3477 -5.3551110156176,42.8585219757892,1022.2488 -5.35544897440389,42.8581700193377,1024.99950000001 -5.3564090371857,42.8576660152964,1036.12699999999 -5.35804996276574,42.856169007941,1034.4023 -5.35826998802658,42.8561049699276,1032.34819999999 -5.35950698883407,42.8573940226949,1028.6689 -5.36014803650228,42.8576260340842,1029.0036 -5.36067198967154,42.8576629980212,1029.87390000001 -5.36109200686409,42.8575749879525,1030.32490000001 -5.36241701831491,42.8570650333451,1033.2741 -5.36260200658473,42.8569239659712,1035.22289999999 -5.36403195922704,42.8567789590349,1039.2975 -5.36401502778058,42.8564249907497,1035.5094 -5.36398703268307,42.856118967486,1033.5315 -5.36396197058494,42.8558420297871,1031.838 -5.36385803460824,42.8555410354531,1029.7139 -5.36366298790219,42.8554700407413,1028.6335 -5.37163199848314,42.8543310237168,1047.7141 -5.37381196353932,42.8544890228115,1063.0735 -5.37397700381996,42.8546669705999,1062.09 -5.37620902085696,42.8549999838598,1070.6441 -5.37616199854339,42.855418994803,1072.5324 -5.37726002728148,42.8555420416851,1070.44289999999 -5.37978700344707,42.8564150168147,1075.2417 -5.38345098535261,42.8576019781768,1066.49159999999 -5.38605297892927,42.859675996131,1050.8219 -5.38881498401759,42.8605639747826,1055.5119 -5.38919996511744,42.8599899819026,1049.04240000001 -5.39067702361662,42.8596569692131,1037.9366 -5.39457896744428,42.856442006229,1030.36199999999 -5.39532202330459,42.8563499728376,1030.49890000001 -5.39562896865402,42.8543119971275,1023.1124 -5.39609097849285,42.8536219987654,1018.4409 -5.39696496021253,42.8529459982158,1014.986 -5.39731297653675,42.8520479610558,1013.8208 -5.39828795943712,42.8508019916092,1011.1844 -5.3984420187117,42.849956005779,1010.8455 -5.39940996061689,42.8495619724374,1008.296 -5.40196602243473,42.8491749802738,1004.86840000001 -5.40603702919886,42.8489589786309,1007.155 -5.40629896356269,42.8481829821571,1005.50109999999 -5.40733102721282,42.8475759645897,1005.5235 -5.41037499909578,42.8476479648576,1008.4042 -5.41154402348741,42.8488279693267,1010.173 -5.41287498537867,42.8491280414131,1017.208 -5.41342198841978,42.8498199676224,1017.0508 -5.41600503922202,42.8508559707221,1019.1142 -5.42112403586799,42.8512260315937,1029.4841 -5.42329402603123,42.8518710192569,1029.088 -5.42443103177119,42.8516349847715,1034.6646 -5.4254399611078,42.8517990186432,1032.57429999999 -5.42607497389394,42.8524669722714,1031.55680000001 -5.42629097560065,42.8524870050523,1031.9737 -5.42653497330317,42.8540260062111,1048.731 -5.42675700989195,42.8544000072369,1051.0122 -5.42690503428447,42.8546949663655,1053.51300000001 -5.42705901001576,42.8549119739469,1055.30190000001 -5.42728397960392,42.8555149675858,1062.6593 -5.42730099549204,42.8558069935826,1064.44809999999 -5.42736503279537,42.8560260123387,1065.6468 -5.42752403729561,42.8564900346478,1067.2193 -5.42794195961692,42.8567350373471,1069.7696 -5.4283459670345,42.8568979816604,1072.18489999999 -5.42851100641681,42.856975011324,1073.4961 -5.42881996399247,42.8569460103831,1074.817 -5.42919798764044,42.8569320123537,1077.4179 -5.42948297187612,42.8568600117135,1077.2512 -5.42976502311239,42.8567539808754,1075.9866 -5.43048402298773,42.8565989996347,1073.4544 -5.43072399713608,42.8566079679839,1075.74340000001 -5.4314340282316,42.856476036515,1078.3294 -5.4318610019777,42.8563249951631,1078.0321 -5.43238897780279,42.8562669919985,1081.1513 -5.43282500477035,42.8560530019229,1085.7249 -5.43304896914373,42.8557779920931,1089.0772 -5.43337997047816,42.8557059914245,1089.10679999999 -5.43397902550009,42.8557789976627,1091.78479999999 -5.43455796275125,42.8557570371256,1092.1079 -5.43489198242503,42.8557019678242,1090.97139999999 -5.43543797935303,42.8559019601948,1090.8676 -5.43632101249756,42.8560789859307,1088.32309999999 -5.43701603993119,42.8562600353818,1088.4958 -5.43768298782568,42.8564539925938,1089.1465 -5.43861497196665,42.8568600117135,1092.60340000001 -5.43934403027819,42.8571729917705,1096.4987 -5.43963102584177,42.8575449810941,1100.57670000001 -5.43990503086807,42.8580449613587,1103.4328 -5.43994098863225,42.8588809721608,1107.2105 -5.4401099680254,42.8593869878429,1112.0653 -5.44042697181106,42.8594689629307,1113.19899999999 -5.4409579650772,42.8594599943386,1112.7408 -5.44136398472101,42.8595820349042,1114.3443 -5.44170898360418,42.8595650196317,1115.88890000001 -5.44219396066987,42.859608018744,1117.07799999999 -5.44252898555847,42.8596220168253,1119.8158 -5.44289200554455,42.8596630042268,1122.41590000001 -5.44315301823689,42.8595979603785,1124.5119 -5.44346398714046,42.859513973786,1123.74649999999 -5.44363397174842,42.8594699690987,1123.1042 -5.44404803760223,42.85926100781,1123.202 -5.44427703164286,42.8591989820554,1123.8848 -5.4449899957378,42.8591880017375,1125.4341 -5.44528000964074,42.8590129873879,1125.2539 -5.44589901355021,42.8587099816625,1123.6758 -5.44632900473736,42.8586050405195,1122.4148 -5.44670702928366,42.8585010210943,1121.6173 -5.44707600060851,42.8581199791872,1119.8602 -5.44721002655396,42.857919987415,1119.0857 -5.44723701643665,42.8576800131594,1118.2129 -5.44723902866288,42.8573620040024,1120.2357 -5.44704800461267,42.8573050073567,1118.6988 -5.4469910074062,42.8571780214803,1118.0711 -5.44728697264794,42.8569379633439,1114.91469999999 -5.44751697190339,42.8566740172442,1113.21950000001 -5.44817302413178,42.8564339597827,1110.4414 -5.44881700569771,42.8563199660424,1106.84329999999 -5.44903099517819,42.8561629725858,1105.0272 -5.44892597044337,42.8558810052693,1104.1346 -5.44883502680065,42.85504499468,1101.00410000001 -5.44888498301191,42.854676022864,1099.73639999999 -5.44899201907463,42.8543000110054,1098.3064 -5.4491100370417,42.854062970986,1096.5959 -5.44945503592491,42.8538519979784,1097.3653 -5.4496990327291,42.8536299612838,1097.1539 -5.45003003406353,42.8534070031359,1098.0659 -5.45016095992293,42.8532350063568,1097.56269999999 -5.45033798552608,42.8530340082963,1097.7968 -5.45043496405089,42.8528959584419,1096.86990000001 -5.45031895831005,42.8525549823759,1096.0322 -5.4518469791336,42.8519730267331,1104.5027 -5.45504098763534,42.8513339910069,1113.7996 -5.4551330209345,42.8511279638017,1114.68090000001 -5.45698198465625,42.8511619937232,1100.63219999999 -5.45761699744239,42.8514970187215,1101.72960000001 -5.46107696386205,42.8515840225946,1091.37420000001 -5.46517202661119,42.8511060029278,1078.9656 -5.46551199672542,42.8512950146306,1081.0128 -5.46691596469979,42.8512520156568,1079.3495 -5.46768198688866,42.8509340063264,1075.5111 -5.47249202595894,42.8503389750268,1064.2901 -5.48058701717367,42.8486429807206,1043.4097 -5.48199299737431,42.8482419907034,1040.8526 -5.48291701795027,42.8477049618542,1039.3584 -5.48595797239221,42.8476919700659,1031.50440000001 -5.48613399278054,42.846726039479,1026.53290000001 -5.4891160222314,42.8462350276619,1024.5092 -5.49054999842788,42.8456040377286,1021.49490000001 -5.49271596593529,42.8452929854934,1015.7098 -5.49321896410392,42.8455499743311,1017.10769999999 -5.49468202505432,42.8451700229153,1015.2496 -5.50358695888878,42.8417470214547,998.437399999995 -5.50503401096251,42.8406220020648,995.3076 -5.50647603336899,42.8397770222867,993.092999999993 -5.50631803498186,42.839624975103,992.143200000006 -5.50664098920797,42.8391890324179,990.5288 -5.50672195885611,42.8389110043992,990.019 -5.50654903945213,42.8387090006472,990.107999999993 -5.50689001567947,42.8384889752332,989.720100000006 -5.50745001105454,42.8382270410455,988.972299999994 -5.50763399321124,42.8377989773042,988.009300000005 -5.50778796894253,42.8374399802491,987.770600000003 -5.50859196112181,42.8368819969103,986.088300000003 -5.50897199699601,42.8365079965261,985.407699999996 -5.50931397843817,42.8362589704059,985.698600000003 -5.50951103647216,42.8364639912559,985.724799999996 -5.50988897657679,42.8363499975471,985.029800000004 -5.5103809946377,42.8362370095157,984.672000000006 -5.51103503463986,42.8360589776702,984.147200000007 -5.51143401328846,42.8355549743448,983.242400000003 -5.51164196788683,42.8352320193706,982.792400000006 -5.51204999885858,42.8347639737838,981.922699999996 -5.51265299299304,42.8345960007923,981.521699999998 -5.51316998871041,42.8347229863264,981.436400000006 -5.51374699907527,42.8345980119624,981.070300000007 -5.51415997527263,42.834372035874,980.982699999993 -5.51467596577522,42.8340869677793,980.705000000002 -5.5153490320951,42.8334040103238,978.372000000003 -5.51568003342951,42.8329910339034,978.071400000001 -5.51621899026065,42.8324150291226,978.269899999999 -5.51632502110858,42.8322270235775,978.203999999998 -5.51597599867124,42.8318950160326,977.876799999998 -5.51569998231705,42.8316230232535,977.171300000002 -5.515800984396,42.8315879871457,977.279800000004 -5.51615000683334,42.8313419782065,975.785900000003 -5.51676498718864,42.8314989715077,975.577999999994 -5.51764701511836,42.8318199979728,976.724499999997 -5.51848403206244,42.8320940024543,975.930600000007 -5.51904100909815,42.83240597689,977.157500000001 -5.51950603727633,42.8327470365091,977.373900000006 -5.51975296797824,42.8331060338182,978.278300000005 -5.51977803007637,42.8337139728768,978.8177 -5.51975900286034,42.8340940085792,978.444900000002 -5.51958801213927,42.8346290253434,981.849400000006 -5.51973503041867,42.8350399902025,981.147100000002 -5.51984902483157,42.8355070297754,982.2408 -5.52153001527329,42.8349850045359,984.156000000003 -5.52382498085553,42.8340429627614,995.971799999999 -5.52533498057617,42.8335699720578,1002.51519999999 -5.5390480256963,42.8290549760427,1029.8633 -5.53984698820831,42.8285010161543,1029.8213 -5.54145698479311,42.8280069863736,1029.1747 -5.54256398231099,42.827245993811,1027.6695 -5.5436119712945,42.8272650201722,1029.1061 -5.54471502969987,42.8265259880947,1032.55929999999 -5.54560401508144,42.8264839943983,1037.6658 -5.54613299701965,42.8262120021845,1034.0978 -5.5459640176265,42.8255100177816,1029.7135 -5.54469499726903,42.8237840163511,1023.6011 -5.5444929931111,42.822871981085,1020.9417 -5.54531198895224,42.8218020312655,1019.6871 -5.54546697079664,42.8210650107199,1018.1835 -5.54458796030798,42.8197339645717,1014.7785 -5.54474302569568,42.8198359717388,1014.9448 -5.54603601849483,42.8193380029032,1021.4964 -5.54769395816636,42.8181799593347,1027.9127 -5.54900899562257,42.8176799786204,1030.6786 -5.54932901595099,42.8178590162197,1029.64999999999 -5.54987099022315,42.8175799829149,1031.31570000001 -5.55203997517157,42.8172700198446,1034.0468 -5.55181902823924,42.8172420242514,1033.8515 -5.55304798283673,42.8167599809284,1035.2439 -5.55370302895201,42.8159340282842,1035.2219 -5.55404400428105,42.815895974512,1036.0194 -5.55412497392916,42.8152809945244,1034.6309 -5.55498797464285,42.8145899902297,1032.375 -5.55535996340876,42.8140520395838,1032.1548 -5.55633100719658,42.8137389754886,1032.2102 -5.55708403705147,42.813028022399,1033.4648 -5.56287098680672,42.8108250071584,1047.2522 -5.56524901690833,42.8092699964339,1051.0831 -5.56666295977564,42.808705977798,1046.3171 -5.56679698661938,42.8082800096279,1043.7138 -5.56749201405301,42.8079559651149,1042.3124 -5.57255803614835,42.8064120189306,1034.1109 -5.57336303444075,42.8059840386798,1034.08040000001 -5.57396703379004,42.8053160010551,1032.353 -5.57702802156111,42.8040879685334,1025.86199999999 -5.57842503298193,42.8031819686731,1022.647 -5.58163999558596,42.8028470277361,1017.81939999999 -5.58228397715189,42.802379987909,1017.16439999999 -5.58294597982076,42.8022329692558,1016.9777 -5.58613697088141,42.8020209914452,1013.1593 -5.5899250038395,42.8008799628502,1013.8507 -5.59021300641453,42.8009949625192,1010.91220000001 -5.59012399055638,42.8013129718047,1007.6341 -5.59033496349414,42.8013510259813,1007.09329999999 -5.5925140059805,42.8006989976248,1002.80379999999 -5.59399399927569,42.8008509612837,999.314299999998 -5.59470201814498,42.8007239753776,997.674199999994 -5.59530501227945,42.8003300262145,999.322199999995 -5.59684401410904,42.8004379849097,995.749100000001 -5.60050598378835,42.799978991902,991.695699999997 -5.60319095834106,42.8000749644554,988.492499999993 -5.60379403601882,42.8021670041601,986.2016 -5.60485803477734,42.8017970264878,984.528300000005 -5.60555800833492,42.8017800117774,984.367499999993 -5.60927596910758,42.8024489714313,984.494500000001 -5.6180280168672,42.8013569770523,973.544099999999 -5.61817000637761,42.8013640176253,973.561199999996 -5.61871600330564,42.8013640176253,972.539999999994 -5.61899201965984,42.8012750019706,972.024999999994 -5.62371798809763,42.8004750331547,964.273499999996 -5.62473496454257,42.8014370241419,960.104099999997 -5.62615301450735,42.8017179856542,956.727899999998 -5.62699397056396,42.8016299756414,954.059099999999 -5.62690797304516,42.8024460378009,954.049199999994 -5.62866398089796,42.80326696116,952.350000000006 -5.62773199765529,42.8078459949762,956.7215 -5.62843096420146,42.807925035889,955.746599999999</coordinates>
</LineString>
</Placemark>
</Folder>
</Document></kml>
