<?xml version="1.0" encoding="UTF-8"?>

<kml xmlns:xsd="http://www.w3.org/2001/XMLSchema" xmlns:gx="http://www.google.com/kml/ext/2.2" xmlns:atom="http://www.w3.org/2005/Atom" xmlns="http://www.opengis.net/kml/2.2">
<Document>
<name>PT09a_07a_cuba-viana_do_alentejo</name>
<visibility>1</visibility>
<Schema name="PT09a_07a_cuba-viana_do_alentejo" id="kml_schema_ft_PT09a_07a_cuba-viana_do_alentejo">
<SimpleField type="xsd:string" name="id">
<displayName>id</displayName>
</SimpleField>
<SimpleField type="xsd:string" name="nombre">
<displayName>nombre</displayName>
</SimpleField>
<SimpleField type="xsd:double" name="longitud">
<displayName>longitud</displayName>
</SimpleField>
<SimpleField type="xsd:string" name="_formato">
<displayName>_formato</displayName>
</SimpleField>
</Schema>
<Folder id="kml_ft_PT09a_07a_cuba-viana_do_alentejo">
<name>PT09a_07a_cuba-viana_do_alentejo</name>
<Placemark id="kml_1">
<name>&lt;img height='20' src='https://nco.ign.es/iconos/icono_todos_caminos_azul.png' /&gt;&lt;img height='20' src='https://nco.ign.es/iconos/Camino Santiago_20.png' /&gt;&lt;img height='20' src='https://nco.ign.es/iconos/icono_todos_caminos_azul.png' /&gt;  Camino de Santiago </name>
<visibility>1</visibility>
<description><![CDATA[<!DOCTYPE html>
<html>
<head>
<style>
#nco {
  border-collapse: collapse;
  overflow:hidden;
}
#nco th, #nco td {
  padding: 4px;
  text-align: left;
}
#nco th {
  color: #364B5F;
  padding-right: 5px;
}
#nco td {
  color: rgb(51, 51, 51);
  font-size: 12px;
  padding-right: 5px;
}
</style>
</head>
<body>
<table id="nco">
<tr>
<td>Caminos Portugueses</td>
</tr>
<tr>
<th><b>Camino: </b></th>
<td>PT09a Caminho Nascente Tavira-Trancoso</td>
</tr>
<tr>
<th><b>Etapa: </b></th>
<td>07a Cuba-Viana do Alentejo</td>
</tr>
<tr>
<th><b>Longitud: </b></th>
<td>29.63 km</td>
</tr>
</table>
</body>
</html>]]></description>
<Style>
<IconStyle>
<scale>0.8</scale>
</IconStyle>
<LabelStyle>
<color>ffffffff</color>
<scale>0.75</scale>
</LabelStyle>
<LineStyle>
<color>ffff0000</color>
<width>3.0</width>
<gx:labelVisibility>1</gx:labelVisibility>
</LineStyle>
<PolyStyle>
<color>66ff0000</color>
</PolyStyle>
</Style>
<ExtendedData>
<SchemaData schemaUrl="#kml_schema_ft_PT09a_07a_cuba-viana_do_alentejo">
<SimpleData name="id">PT09a_07a</SimpleData>
<SimpleData name="_formato">kml</SimpleData>
</SchemaData>
</ExtendedData>
<LineString>
<extrude>0</extrude>
<tessellate>1</tessellate>
<coordinates>-7.8918111135762,38.1620968693941,166.6875 -7.8918977830348,38.1622262858914,166.539399999994 -7.89187967749027,38.1623900684721,166.436900000001 -7.89076589050546,38.1628586165321,167.986799999999 -7.89013942698589,38.1631436010516,170.084499999997 -7.88904106227788,38.1636329370294,174.241099999999 -7.88772828857619,38.1642322425938,177.644799999995 -7.88754908366015,38.1643179061074,178.017200000002 -7.8872433115105,38.1645520962738,178.171600000001 -7.88683075482638,38.1648786554584,177.842799999999 -7.88674559453744,38.1650529988257,177.8174 -7.88668775920281,38.1662174128255,178.961299999995 -7.8866155077045,38.1662817854968,179.006500000003 -7.88600346034862,38.166363760562,178.607000000004 -7.88536224469542,38.1664259542529,177.634300000005 -7.88536207760879,38.1664291395425,177.633000000002 -7.88217209266122,38.1672282706386,171.321899999995 -7.88192432383115,38.167267832762,170.696599999996 -7.8817897103875,38.1672478843182,170.452999999994 -7.88177680249517,38.167248051703,170.428100000005 -7.88151461660309,38.1672242470474,170.270799999998 -7.88125125661293,38.1674478763125,169.770199999999 -7.88102494584003,38.1676475329905,169.751499999998 -7.88087004753896,38.167673517028,169.901700000002 -7.88066452378176,38.1676827372592,170.266600000003 -7.88054985922562,38.1678600981205,170.916500000007 -7.87938578095797,38.1687715461998,174.339600000007 -7.87923138571344,38.1688727997704,174.891300000003 -7.87847667960224,38.1692129376551,175.614600000001 -7.87814626486767,38.1693041322751,175.941800000001 -7.87797225670558,38.1693859400929,176.519100000005 -7.87741200980222,38.1697579284437,180.923699999999 -7.8769779950609,38.1701478547203,182.186000000002 -7.87669083061403,38.170352708246,181.687399999995 -7.87655085332981,38.1705039178642,181.684299999994 -7.87635873962315,38.170723524263,181.1342 -7.87605984138205,38.1709412860364,181.573199999999 -7.87551149715621,38.1712599654871,182.530400000003 -7.87466006315014,38.171763047249,186.223700000002 -7.87419453281372,38.1720870917747,188.874500000005 -7.87418967113139,38.1721591760972,189.238299999997 -7.87420593243465,38.1722498684424,189.607199999999 -7.87429109182529,38.1723142414361,189.950500000006 -7.8745212590657,38.1723957139545,191.200599999996 -7.87589589165616,38.1730617399899,196.310200000007 -7.87610292458308,38.1731076724739,196.298899999994 -7.87639712912684,38.1731425414817,196.1878 -7.87662193162835,38.1731393557792,195.904599999994 -7.87709986769885,38.1732032258741,195.4712 -7.87732014448798,38.1733217463792,195.564599999998 -7.87778081404041,38.1738529913228,195.215100000001 -7.87829864788594,38.1744202787245,192.942299999995 -7.87893718116968,38.1749796869886,188.061300000001 -7.87954554004304,38.1754363325874,186.859200000006 -7.88011970005351,38.1758775558625,186.292600000001 -7.88102880140924,38.1766951267733,187.935899999997 -7.88146600157657,38.177099135085,190.556500000006 -7.88147203645864,38.1771071811769,190.616699999999 -7.88456177301375,38.1803848410702,196.422099999996 -7.88505731157225,38.1809118951768,196.804199999999 -7.88523634940163,38.1812408009705,196.718299999993 -7.88545377583637,38.1817748952963,197.732199999999 -7.88593757880399,38.1827322765428,200.155400000003 -7.88620026775261,38.1833543813705,198.684899999993 -7.88632784020108,38.1837892349482,198.941099999996 -7.88644988082399,38.1839285421531,198.7981 -7.88690300632466,38.1841929073635,198.246400000004 -7.88743123367804,38.1845162809008,197.185899999997 -7.88838895006032,38.1857417152699,194.698399999994 -7.88936158656114,38.1870995833702,189.875799999994 -7.89068207140125,38.1889662332051,186.663100000005 -7.89116252185624,38.1896258889147,185.746799999994 -7.89147114346198,38.1898042561479,185.877699999997 -7.89194187145065,38.190064094771,186.325700000001 -7.89242567531659,38.1902345829157,186.7978 -7.89303537447633,38.190444130211,188.148700000005 -7.89359947694889,38.1908685902774,188.837499999994 -7.89454663183837,38.1916159203797,190.731199999995 -7.89519790592777,38.1921188347753,191.653099999996 -7.89598362547587,38.1926862892014,190.688899999994 -7.8965797466001,38.1931575202067,188.8416 -7.89719179305769,38.1935804712497,188.274399999995 -7.89766989621482,38.1938605940987,188.561000000002 -7.8977879132836,38.1938334368368,188.458700000003 -7.89784591660318,38.1937300039074,188.229999999996 -7.8982718851345,38.1932036207619,187.219299999997 -7.89868192743415,38.1925600579863,187.628299999997 -7.89903279411276,38.1917735001312,185.989300000001 -7.89907487120067,38.1918092074387,186.016799999998 -7.90031338117782,38.1951753793631,190.716400000005 -7.90081797205944,38.1953762096791,190.259300000005 -7.90242947601727,38.1960209456265,188.256500000003 -7.90286064130253,38.1962092035664,188.312399999995 -7.9035172801308,38.1967557037389,189.807100000005 -7.90500808465046,38.1981015020529,190.9421 -7.90580939535861,38.1988153046741,191.874100000001 -7.90673257780645,38.1995366511581,191.007299999997 -7.90711127249592,38.1997445225901,191.070600000006 -7.90765056350035,38.1999235596943,190.4954 -7.90859201947767,38.2003661242095,190.503500000006 -7.90945803763238,38.2004192655147,188.597500000003 -7.9097396693554,38.2004412266982,187.543999999994 -7.91045330449184,38.2006936891187,186.884399999995 -7.91126299648161,38.2009399497036,185.068499999994 -7.91216120127295,38.2010992056451,183.670499999993 -7.91282504818307,38.2013146204682,184.041500000007 -7.9131143910445,38.2014170472582,184.226500000004 -7.91341613964002,38.2014006187715,184.202799999999 -7.91403958571857,38.2014613036289,184.5144 -7.91495354875663,38.2017784751455,184.350699999995 -7.91567824754409,38.202068992298,184.064799999993 -7.91601922377143,38.2021913674986,183.518400000001 -7.91699035110258,38.2022760249203,181.777000000002 -7.91701599980058,38.202285580323,181.794999999998 -7.91750131193789,38.2023606822435,180.822499999995 -7.91768940209038,38.2024590859163,180.595199999996 -7.91775494856339,38.2025985607192,181.1823 -7.91776081546054,38.2032602283445,184.858900000007 -7.91779434328187,38.2033931648459,185.583700000003 -7.91792090961719,38.2034662551818,186.054600000003 -7.91819818361279,38.2034548560873,184.785999999993 -7.91891081263611,38.2033106871774,180.362899999993 -7.91917283054324,38.2033214156752,180.405199999994 -7.91948681688785,38.2033755628693,180.683199999999 -7.92123109094639,38.2038266768569,178.335000000006 -7.92218880732868,38.2040615377277,177.147100000002 -7.92237689748118,38.2041904519219,177.134999999995 -7.92516488544077,38.2060014455528,167.241699999999 -7.92807256762379,38.2072842118611,161.894 -7.93011926131935,38.2081742024944,159.130999999994 -7.93012294890357,38.2081745377817,159.130300000004 -7.93258672589399,38.2092130555982,156.938099999999 -7.93280465538527,38.2101231626425,158.226899999994 -7.93293289797694,38.2115861401838,159.635800000004 -7.93323414441419,38.2158986291073,168.616500000004 -7.9343995638666,38.217115849438,170.494600000005 -7.93466191774364,38.2174459284764,170.662599999996 -7.9347970333455,38.2177188431707,170.130099999995 -7.93497892063097,38.2179342582161,169.655599999998 -7.93503357053959,38.2182432154848,169.637100000007 -7.93516684279851,38.2183917425842,169.350600000005 -7.93541293627062,38.2186088339509,169.685500000007 -7.93564930547976,38.2187568585047,169.332399999999 -7.93608767884683,38.2189511505082,169.401899999997 -7.93646553540814,38.2192019374804,169.817599999995 -7.93672973262816,38.2193264921996,170.366899999994 -7.93690759725779,38.2193975706492,170.283100000001 -7.93720297500129,38.2196569070305,169.9323 -7.93753171347951,38.2198693041778,169.558199999999 -7.9378205541827,38.2199879922381,168.900399999999 -7.93836722125393,38.220156468793,169.293999999994 -7.93872864942532,38.2202796823636,169.962 -7.9389150624232,38.2204396087996,170.837 -7.93914707390488,38.2207195647886,172.147500000006 -7.93949173771647,38.2209611314726,172.426800000001 -7.93979784493774,38.2211235723824,172.445600000006 -7.94077282783811,38.2216524707534,170.881599999993 -7.94140666742448,38.2220943646863,169.003800000006 -7.94154597456546,38.2222742402755,169.419999999998 -7.94156692956612,38.2222905010272,169.485700000005 -7.94152652873452,38.2224001362681,169.707599999994 -7.94145444432287,38.2225089336436,169.737099999998 -7.94141940733184,38.2226031462819,170.040500000003 -7.94145612057919,38.2227156307771,170.279899999994 -7.94148595991797,38.2228703612481,170.392300000007 -7.94143030389624,38.2231318765205,170.6823 -7.94142711936856,38.2234378159373,171.093399999998 -7.94144472095822,38.2236701625689,171.866800000003 -7.94140063254241,38.2239087109912,172.296799999996 -7.94135788441296,38.2241450808007,172.781499999997 -7.94133877365361,38.2243105399867,173.032399999996 -7.9414128693932,38.224534504239,173.027499999997 -7.94151010034461,38.2247105241601,173.374299999996 -7.94161722084899,38.2248329001073,173.297600000005 -7.94176574829805,38.2249673455243,173.246700000003 -7.94193908541865,38.2252256761853,174.2592 -7.94218886647498,38.225502446576,175.459400000007 -7.94239321703243,38.2256424241382,176.229200000002 -7.94270284475129,38.2258087211092,177.552299999996 -7.94294524974083,38.2259384725521,178.393700000001 -7.9450715710015,38.2275546713351,184.217300000004 -7.94580733433831,38.2279358800907,182.960399999996 -7.9467965663157,38.2283702303281,183.752900000007 -7.94752864206829,38.2286825403707,185.935200000007 -7.94784581294061,38.2288290561753,187.204700000002 -7.94800976266648,38.229016642859,188.153399999996 -7.94803993797518,38.2292141203507,188.544699999999 -7.94794471925004,38.2295688426218,189.484200000006 -7.94803423816473,38.2298595268762,188.679999999993 -7.94814253186885,38.2300999200485,187.563899999994 -7.94817874205962,38.2302799635465,188.163199999995 -7.94824412054771,38.230444751816,187.839800000002 -7.94837169389444,38.2306313330151,187.144899999999 -7.94842835513099,38.2308499332282,187.603099999993 -7.94845433890061,38.2310921698018,188.598400000003 -7.94851619778937,38.2313154639819,188.564899999998 -7.94852575316906,38.2314958424732,189.157999999996 -7.94845417181395,38.231682926214,189.972099999999 -7.94850714546625,38.2318830863585,190.809800000003 -7.94851519167625,38.2320185376838,191.362099999998 -7.94861694834006,38.2321979103129,191.339300000007 -7.94872591308572,38.232308719615,191.786600000007 -7.94881727534335,38.2323836536615,192.002200000003 -7.94934399442537,38.2325201109912,192.224799999996 -7.94987289192195,38.2327645273364,192.823699999994 -7.95016441499458,38.2329366915492,193.564199999993 -7.95042878019955,38.2331868072419,196.026500000007 -7.95074813038473,38.2334987818945,197.035699999993 -7.9509697483586,38.2336934099164,199.071299999996 -7.95114811514644,38.2337881252882,199.076100000006 -7.95142186774612,38.2338550130499,200.009300000005 -7.9515591635592,38.2338622209465,200.504100000006 -7.95180961475874,38.2338647357719,200.472800000003 -7.95206576576875,38.233886025699,199.114300000001 -7.95234303886602,38.2339078187257,198.132700000002 -7.9526208159182,38.2339470461573,197.0527 -7.95290781148179,38.2339924759463,195.811799999996 -7.95311551545021,38.2340310329959,196.0 -7.95334819707509,38.2341188752253,197.953699999998 -7.95351466208376,38.2341923009174,197.612099999998 -7.95361557972108,38.234237395386,197.575500000006 -7.95374164389819,38.2343327810884,197.602100000004 -7.95382965364319,38.2343787144447,197.433799999999 -7.95394314410126,38.2343884370966,197.579500000007 -7.954056300386,38.2343818995853,197.254499999995 -7.95412871986928,38.234383575418,197.078099999999 -7.95424070205595,38.2343502154031,196.308099999995 -7.95428914909755,38.2343166881424,195.742599999998 -7.95444287330055,38.234193641587,194.140100000004 -7.9546150381197,38.2341217252095,194.674700000003 -7.9548406787494,38.2340637221156,194.316300000006 -7.95503798831164,38.2340327088367,193.749299999996 -7.95522892881856,38.2340618783387,193.901199999993 -7.95523211334623,38.2340620455699,193.902600000001 -7.95534862214365,38.234091550228,194.138300000006 -7.95554341732141,38.2341079783916,193.869699999996 -7.95575832937168,38.2340957408848,194.617700000003 -7.95590182805179,38.234065901766,194.149799999999 -7.95599738095024,38.2340021993555,193.406300000002 -7.9560915935623,38.2339037952896,192.333100000003 -7.95615529669237,38.2338243348512,191.537500000006 -7.95622486582122,38.233703970937,191.063200000004 -7.95641915884077,38.2335757278533,190.345000000001 -7.95665116942415,38.2335126960601,189.527600000001 -7.95733865370432,38.2334310562306,189.026400000002 -7.95896373659602,38.2333204151658,186.305300000007 -7.95969899777461,38.2332595621204,183.904999999999 -7.96004198532989,38.2333339934886,183.972099999999 -7.96028455740604,38.2334525135172,184.385599999994 -7.96029930953965,38.2334679363129,184.448900000003 -7.96061865972483,38.2337093350627,185.553499999995 -7.96088872474029,38.2339500633798,187.240000000005 -7.96111436536995,38.2341421767894,188.410099999994 -7.96123607092128,38.2342472859932,189.293900000004 -7.96145835903834,38.2342935538648,189.765799999994 -7.96167360616019,38.2342699171821,189.533800000005 -7.96179279642874,38.2342796398486,189.499800000005 -7.96179195830058,38.2342798077849,189.501000000004 -7.9619364630938,38.2343051210045,189.448699999994 -7.96233108311665,38.2342487945982,187.967600000004 -7.96233426764432,38.2342501359725,187.955799999996 -7.96291043988105,38.2342739405979,186.204800000007 -7.96386648000699,38.2342953983415,183.625700000004 -7.96459235289256,38.234313167832,181.975300000006 -7.96461733054902,38.2343129998958,181.975900000005 -7.96520322525207,38.2343329490246,181.624899999995 -7.96526022245854,38.2343316076519,181.618799999997 -7.96580471111517,38.2343492099031,180.809899999993 -7.96647861556322,38.2343671473166,179.551800000001 -7.96650443224617,38.2343701645217,179.521800000002 -7.96651499373894,38.2343716731242,179.509399999995 -7.96710340282647,38.2344119065104,178.463000000003 -7.96775115641828,38.2345609368643,176.504300000001 -7.96940976713134,38.2350033338021,172.578399999999 -7.97242490578862,38.2358123551491,163.097200000004 -7.97438174459958,38.236357848852,164.941999999995 -7.97468097881059,38.2364703339505,165.107699999993 -7.9752905108837,38.2367487810778,164.904999999999 -7.97631612013852,38.2372711414814,162.842099999994 -7.97684602464654,38.2374904117968,161.763000000006 -7.97720041092442,38.2374852151734,161.504400000005 -7.97942429820811,38.2371650262482,147.717399999994 -7.97964893272466,38.2372128029237,146.486699999994 -7.98016877879646,38.2375749011515,141.953299999994 -7.98156620973052,38.2386699129437,141.165900000007 -7.98196217003976,38.2393087817416,143.463199999998 -7.98199536278951,38.2392085341547,143.330199999997 -7.98176988924647,38.2386886889222,141.355100000001 -7.98176687180542,38.2386903653612,141.362500000003 -7.98163628191594,38.2384985871203,140.513000000006 -7.98149378934895,38.2385141774779,140.447700000004 -7.98133503637699,38.2386311890164,140.623300000007 -7.98128575120724,38.2387248988672,140.678100000005 -7.98107452674123,38.2388046940358,140.256200000003 -7.97961624303149,38.2393206839329,139.782699999996 -7.97947291323463,38.2394309898972,139.717499999999 -7.97944223486939,38.2395364343602,139.743400000007 -7.97952001909153,38.239783365027,139.866399999999 -7.97961423170355,38.2400946693209,140.464099999997 -7.97991732148381,38.2406304401259,144.075200000007 -7.98000214580283,38.2411222908437,145.6823 -7.9800980355695,38.2416520266204,147.381200000003 -7.98019308630972,38.2421479004623,149.748099999997 -7.98026701406435,38.2426952381688,151.915900000007 -7.98038536710304,38.2430616953704,153.616899999994 -7.98046197722707,38.2435319201184,154.674599999998 -7.9804552722018,38.2439622467509,156.911600000007 -7.9804713655201,38.2446294462466,159.086200000005 -7.98054847870074,38.2452619448507,162.019499999995 -7.98059759678384,38.245704006472,164.271599999993 -7.98064487062565,38.2459397057709,164.511199999994 -7.98074662728947,38.2460889036876,164.906300000002 -7.98089263945576,38.2463489103693,166.370999999999 -7.98100646588374,38.2466084138084,167.606700000004 -7.98101518313524,38.2466127723571,167.610799999995 -7.98102842609915,38.2468754608585,168.041100000002 -7.98105943953604,38.2471217217801,169.200599999996 -7.98120528461567,38.2473559116764,169.977599999998 -7.98134559786977,38.2475074566614,170.035799999998 -7.98135330900819,38.2475076245672,170.027499999997 -7.98149144294943,38.2475919463685,169.961800000005 -7.98165103404954,38.2476184331141,169.896900000007 -7.98178581547815,38.2476028425924,169.783599999995 -7.98194792096273,38.2475538924666,169.506699999998 -7.98206509990335,38.2474906928918,169.195300000007 -7.98219770201907,38.2474710789519,168.979200000002 -7.98263657844268,38.24744744232,168.603000000003 -7.98304460941443,38.2474787906271,168.674400000004 -7.98324611051579,38.247459176684,168.885899999994 -7.98330947767594,38.2474762762726,169.1535 -7.98335909881561,38.247541319295,169.383100000006 -7.98336429556952,38.2476536368229,170.623200000002 -7.98336697704066,38.2476663778805,170.774099999995 -7.98332121236849,38.2479183378315,173.069199999998 -7.98327846423908,38.2483342474453,176.276800000007 -7.98333730568679,38.2486338169302,179.436000000002 -7.98345297545775,38.2490041292283,178.719800000006 -7.98353394510587,38.2493330349894,180.824800000002 -7.9836092140452,38.2496958037139,181.132299999997 -7.98373376995094,38.2499589960608,179.905299999999 -7.98386553304017,38.2501242871709,180.583299999998 -7.98403920613068,38.2502820344275,181.015799999994 -7.9842497595552,38.2505190747701,181.399600000004 -7.98459140592574,38.2507730459597,182.633100000006 -7.98491025305434,38.2509519158947,183.612999999998 -7.98532867843223,38.2511668282946,184.368700000006 -7.98569312314638,38.2514119149192,185.784100000004 -7.98613769938047,38.2516419140451,187.333499999993 -7.98640206458545,38.251735121073,189.123200000002 -7.98640893759567,38.2517367972111,189.179000000004 -7.98641798991879,38.2517384740547,189.252999999997 -7.98653231940331,38.2517721689375,190.199999999997 -7.9867938351522,38.2518828101416,190.413400000005 -7.98717018254385,38.2520102153193,192.389200000005 -7.98751384024232,38.2521047629196,192.699800000002 -7.98769203904524,38.2521458344335,193.427599999995 -7.98784576324821,38.2521506956298,194.0285 -7.98793259979347,38.2521270591088,194.406700000007 -7.98793444403474,38.2521270591088,194.415800000002 -7.98808632399647,38.2521074450093,195.194900000002 -7.98819394755739,38.2521473426671,195.266799999998 -7.98833493185303,38.2522581519003,195.492599999998 -7.98855453760066,38.2523806952393,196.763600000006 -7.98889568091462,38.2525371014995,198.300399999993 -7.98931410539419,38.2527525164199,203.550499999998 -7.98945844130415,38.2528287915915,206.512700000007 -7.98956908320443,38.252840861579,206.7886 -7.98965189619555,38.2528085075181,206.645199999999 -7.98978818589548,38.2527404464177,208.278999999995 -7.98979422077758,38.2527357524491,208.343200000003 -7.98979824433175,38.2527295502586,208.361900000004 -7.98996973810937,38.2526708770309,209.765599999999 -7.98996957012441,38.2526707091371,209.761499999993 -7.99004685128998,38.2526618241666,210.337 -7.9901046866246,38.2527184862041,211.677899999995 -7.99017291546708,38.2529471443983,215.169599999994 -7.99030333737158,38.2530779020409,216.392399999997 -7.99062235248517,38.253453076084,219.871299999999 -7.9912181385378,38.25405489667,226.767600000006 -7.99193663535656,38.2547381893005,233.144400000005 -7.99222011132089,38.2549720442731,234.644199999995 -7.99313994125606,38.2556534928098,237.296600000001 -7.99310825767596,38.2556648921913,237.265700000004 -7.99330422695183,38.2559250670675,237.496799999994 -7.99366347491207,38.2563188482911,238.138900000005 -7.99368694429717,38.2565703056289,238.466499999995 -7.99364201685487,38.2567134689193,238.240900000004 -7.99384284781303,38.2569109459611,237.660900000003 -7.99390336461879,38.2570643353779,237.726500000004 -7.99387369326496,38.2573439549896,237.044999999998 -7.99334378875694,38.2575479706843,234.308099999995 -7.99283232576343,38.2577731086153,233.675399999993 -7.99248430854087,38.2579606961027,234.070099999997 -7.99220954982808,38.2577162798153,233.512900000002 -7.99200100862983,38.2574477235617,233.350900000005 -7.99182532331309,38.2573481464222,233.405199999994 -7.99079418223274,38.2573805005781,229.819499999998 -7.99020644239009,38.2575293632273,227.073799999998 -7.98923917152647,38.2578049603468,221.363700000002 -7.98873491571644,38.2583425749789,219.853900000002 -7.98813041331061,38.2587930187418,214.566099999996 -7.98813778937741,38.2587905040733,214.650299999994 -7.98780502734504,38.2591225954495,211.606400000004 -7.98752758626281,38.2592821867666,210.260999999999 -7.9869960063968,38.2594142852057,208.233699999997 -7.98633500894274,38.259620312442,206.792400000006 -7.98573318890635,38.2599510626521,204.335500000001 -7.98491310340877,38.2604724169529,198.358699999997 -7.98458402985893,38.2607480141949,199.771699999998 -7.98429636325382,38.2611303961509,200.213499999998 -7.98396242802166,38.2616532591947,201.575200000007 -7.98363855122577,38.2620827477982,203.997300000003 -7.9836313422456,38.2620750369674,203.994200000001 -7.98308350107633,38.2622238991675,205.061000000002 -7.98271000403907,38.262344766735,205.108600000007 -7.98255778810743,38.2624088040344,205.095799999996 -7.98245821165484,38.2624877613565,205.278600000005 -7.98215629507436,38.2626810485075,202.685500000007 -7.9820473303287,38.2627546414354,201.159100000004 -7.98191472911132,38.2627915221593,200.621799999994 -7.98165589573187,38.2628626004479,200.488899999997 -7.98126211383718,38.2629797794552,197.088000000003 -7.98112783546511,38.2630131390283,196.355200000005 -7.98100596282716,38.263075668437,196.683099999995 -7.98090068656409,38.2631586489675,195.560100000002 -7.98079825975707,38.2631988826446,194.197499999995 -7.98037447053861,38.2633262870256,189.795499999993 -7.97996794783826,38.263492751731,187.075500000006 -7.97928448801056,38.2637297920057,183.241399999999 -7.97824747823644,38.2640712705539,180.039199999999 -7.97776702778146,38.2642511466971,179.302100000001 -7.97732328967552,38.2644214666904,176.790500000003 -7.97684401242028,38.2645589296247,174.472399999999 -7.97636523822165,38.2647257300587,172.954100000003 -7.97611746939154,38.2648345268812,173.015199999994 -7.97602895658997,38.2648677191475,173.660300000003 -7.97595502793704,38.2648727480636,173.808399999994 -7.97588914639241,38.2648635281486,173.661300000007 -7.97558018971505,38.264778870907,173.947100000005 -7.97517819362541,38.2646705768942,174.178199999995 -7.97468047575405,38.2646154236879,173.824600000007 -7.97414185489282,38.2645834049598,174.3171 -7.97364162263699,38.2646204533268,174.091499999995 -7.97318631782342,38.2646670566431,173.883700000006 -7.97279555336979,38.2647406496751,173.621100000004 -7.97236237675663,38.2648021725181,173.327799999999 -7.97206398067374,38.2648311745037,173.256500000003 -7.9718613063726,38.2649357801735,172.755999999994 -7.97151345803334,38.2651171649617,171.652000000002 -7.97115303597506,38.2653508518142,169.174700000003 -7.97099880871549,38.2654494234952,169.071400000001 -7.97082362735362,38.2654713840931,169.431899999996 -7.97024142023485,38.2655384394848,168.431599999996 -7.96981461357537,38.2656277903879,167.847899999993 -7.96951605040586,38.2656712085831,167.361300000004 -7.96916199830124,38.265724349445,167.231199999995 -7.96864097902971,38.2657530160406,166.728199999998 -7.96842740816417,38.2658004572424,166.5674 -7.96826949332038,38.265877906456,166.533599999995 -7.96801770093611,38.2660624754654,166.646800000002 -7.96777060224925,38.266217708271,167.035000000003 -7.96710575012432,38.2667715848057,169.616899999994 -7.96649336859512,38.2671925238875,173.854099999997 -7.96605516231471,38.2675175740114,175.4372 -7.96556599460819,38.2677693663935,177.358500000002 -7.96504447228011,38.2681200652026,179.5965 -7.96465739630903,38.2685130087507,181.324999999997 -7.96422505782402,38.2688699104247,182.986600000004 -7.96377511685103,38.2692657041646,184.872000000003 -7.96336725386428,38.2696690407397,187.113500000007 -7.96277817373525,38.2701005413307,189.483500000002 -7.96232202989523,38.2704425231088,189.684699999998 -7.9617679867572,38.2708319461289,190.616200000004 -7.96142147870437,38.2711856627534,192.238100000002 -7.96107212119541,38.2715975490215,194.869900000005 -7.96091336732513,38.2718168201605,195.325400000002 -7.9609106849557,38.2718220164451,195.347299999994 -7.96087984040213,38.2719405364883,195.734299999996 -7.96093616656706,38.2721284590585,195.845100000006 -7.9609366696236,38.2721413671998,195.849799999996 -7.96108972278511,38.2728409211297,195.653699999995 -7.9611100067442,38.2730197903371,195.230200000005 -7.9610139507892,38.273163456487,195.604900000006 -7.96079820061078,38.2734162547072,196.288700000005 -7.96073181511128,38.2735275660701,196.159299999999 -7.96071270525026,38.2737247089669,195.742599999998 -7.96061430109908,38.2739312386436,196.641399999993 -7.96056954164173,38.2741533589084,197.526800000007 -7.96055965119046,38.2741753196955,197.660399999993 -7.96059267595525,38.2744562810753,199.438800000004 -7.96048555545087,38.2746059818002,201.306599999996 -7.96043861668063,38.2746789046736,202.191399999996 -7.96043325194176,38.2746971769886,202.411200000002 -7.96039855092065,38.274939749116,204.095700000005 -7.96030517643676,38.2752014325355,205.437300000005 -7.96012798284865,38.2754272407173,207.701000000001 -7.9599450903484,38.2756294122699,209.604699999996 -7.95993436087063,38.2756284066356,209.708400000003 -7.95977024405811,38.2758263872617,211.806299999997 -7.95964753239367,38.2759175823279,212.685800000007 -7.95948626503724,38.2760218532761,213.2212 -7.95936003287521,38.2760880703068,213.404599999994 -7.95925626488346,38.2760969552333,213.478400000007 -7.95923883127876,38.2760976251817,213.493000000002 -7.9590606315775,38.2760537040584,213.792300000001 -7.95905744615153,38.2760538718982,213.797999999995 -7.95890992481555,38.2760493458651,214.149699999994 -7.9586888107966,38.2760739886941,214.578800000003 -7.95856090237821,38.2761323263834,215.180600000007 -7.95828949617805,38.2764225078077,211.584000000003 -7.95811297363148,38.2765457219407,209.475200000001 -7.95800501499894,38.27662467941,208.723499999993 -7.95800367381424,38.2766308823813,208.701799999995 -7.95780988385123,38.2767592927973,205.3655 -7.95764174348457,38.2769051383771,202.759000000005 -7.9576345345044,38.2769083230646,202.676200000002 -7.95748718115342,38.2770187969388,201.032600000006 -7.95734016197571,38.2770799842845,199.535199999998 -7.95723572384077,38.2771165298172,198.799100000004 -7.95711334814624,38.2771482129872,197.652000000002 -7.9570342227394,38.2771594446845,197.478300000002 -7.9570236612466,38.2771627979033,197.451100000006 -7.95683657720722,38.2772689125651,196.834499999997 -7.95662501856792,38.2774355448865,195.416200000007 -7.95648151988778,38.2775213756292,194.966199999995 -7.95632427518718,38.277664370696,194.929099999994 -7.95616351088733,38.2779247128957,195.327499999999 -7.95610282609661,38.2782299817097,197.305999999997 -7.95599101099656,38.278279435124,197.208700000003 -7.95598665237081,38.2782923428771,197.187699999995 -7.95590518056442,38.2783723061589,197.081999999995 -7.95590031888213,38.2783830348688,197.100699999995 -7.95577241136208,38.2785551996301,198.6152 -7.95568959747266,38.2787151262317,199.329899999997 -7.95557174838884,38.2789518312284,199.250799999994 -7.95539371667258,38.2792103290008,200.872300000003 -7.95529464237823,38.2793348838813,200.328599999993 -7.95520059775113,38.2795127484361,199.889500000005 -7.95512951945259,38.2796552403176,200.402499999997 -7.95508291575394,38.2797497886104,200.619500000001 -7.95510973765171,38.2799598389946,201.377800000002 -7.95509951212882,38.2800491897847,201.503100000002 -7.95507352835924,38.2801356908746,201.646999999997 -7.95504653847651,38.2802210191658,201.888900000005 -7.95501150148548,38.2803060116968,202.125199999995 -7.95492064228439,38.2804133000986,201.805699999997 -7.95483414081076,38.2805029859896,201.460399999996 -7.95479826658987,38.2805779204186,201.241099999999 -7.95480178708746,38.2806181536134,201.296700000006 -7.95503782122501,38.2810002003768,200.867499999993 -7.95527134097805,38.2814097406251,200.248999999996 -7.95534879012861,38.2815192084438,200.377600000007 -7.9554059544217,38.2816513066363,200.964099999997 -7.95547770376177,38.2818130774453,201.774000000005 -7.95551240478285,38.2819963063628,202.406499999997 -7.95550536378767,38.2821255548801,202.506299999994 -7.95548390573047,38.2822331783594,202.902900000001 -7.95548440878704,38.282236196398,202.914000000004 -7.95550368753135,38.2823922669003,203.032200000001 -7.95557359263011,38.282674569402,203.882700000002 -7.95563612166211,38.282903395623,204.923999999999 -7.95568339550393,38.2830551083286,205.393899999995 -7.95579034802335,38.2831930740161,205.857199999999 -7.95585438622501,38.2833256761574,206.492599999998 -7.95591356274434,38.2834549251284,207.342199999999 -7.95593217044715,38.2835705950622,207.804000000004 -7.95608807396301,38.2839620299348,209.339900000006 -7.95616686339996,38.284200411547,210.474700000006 -7.95627951662817,38.2845041717961,211.099700000006 -7.95632159371608,38.2846134713594,211.030199999994 -7.95634841561382,38.284710701837,210.822700000004 -7.9563400334339,38.2848796806525,210.694099999993 -7.95635813808013,38.2850089296771,210.675300000003 -7.95635512063912,38.2850191553593,210.6486 -7.95637708175286,38.2851938343559,210.5965 -7.95642737303573,38.2853160429106,210.620999999999 -7.95642938436363,38.2853252623445,210.592099999994 -7.95644547768196,38.2854494823796,210.133499999996 -7.95643692841539,38.2855939862934,210.338199999998 -7.95643558723069,38.2857297732852,210.630600000004 -7.95646794185228,38.2858875207932,210.9666 -7.95651890327835,38.286034874604,211.588399999993 -7.95658310856663,38.2862818052131,212.458700000003 -7.95663239463472,38.2864182628866,212.897299999997 -7.95666156293197,38.2865974681227,214.053199999995 -7.95667547693741,38.2867832106503,214.738299999997 -7.95671554269739,38.2869686184837,215.910199999998 -7.95675359623114,38.2871044057244,216.553100000005 -7.95679097962171,38.2871838657293,216.339300000007 -7.95679718248874,38.2871862130109,216.339399999997 -7.95685920846416,38.2872722113214,215.582200000004 -7.95688133666456,38.2873112710455,215.186100000006 -7.95683272163801,38.2873634061126,214.820600000006 -7.95677538935995,38.2874001192181,214.766000000003 -7.9567723719189,38.2874001192181,214.775999999998 -7.95663641729055,38.2874646597237,215.228199999998 -7.95660138119783,38.2874924878369,215.210200000001 -7.95659065261839,38.2875017076995,215.196500000005 -7.95650750365739,38.2875711097613,214.938200000004 -7.95650230690348,38.2875773125026,214.935599999997 -7.95646894706707,38.2876415179298,215.032099999997 -7.95643055846174,38.2876810801888,215.140299999999 -7.9564246906663,38.2876844329216,215.153200000001 -7.95631723509033,38.2877271807803,215.317200000005 -7.95620055830796,38.2877338862415,215.216100000005 -7.95610684875244,38.2877439444322,214.831200000001 -7.9559807854737,38.2877801546122,214.351800000004 -7.9559284819646,38.2878389954992,214.296700000006 -7.95594507833947,38.2879432662481,214.322 -7.95652175363274,38.2904963940167,220.690199999997 -7.9565400253656,38.2906618530631,220.953500000003 -7.95653751098113,38.2907677999296,221.247099999993 -7.95662501856792,38.2911806926372,222.096900000004 -7.95693967505573,38.2925937139764,225.096300000005 -7.9569457099378,38.2926041070966,225.160399999993 -7.95696230631267,38.2927464322715,225.781400000007 -7.95698376347157,38.2928743396862,226.183300000004 -7.95702416430314,38.2930002360883,226.421600000001 -7.95702801987234,38.2930196819214,226.459900000002 -7.95702701465756,38.2930356074632,226.477100000004 -7.95716280130095,38.2935326549263,227.203999999998 -7.95719431689606,38.293801713697,228.107999999993 -7.9571854325579,38.2940426095777,228.492199999993 -7.95716229824438,38.2941408454924,228.769100000005 -7.95718140900373,38.2942229881985,229.039199999999 -7.95732591289866,38.294716682171,229.468299999993 -7.95735122652507,38.2948658800313,229.700599999996 -7.95736379934577,38.2949751802065,229.899000000005 -7.9574377279987,38.2951059376306,230.231199999995 -7.95743722494216,38.2952138964902,230.390100000004 -7.9574296808904,38.295311965139,230.460699999996 -7.95743051901856,38.2953161557907,230.464099999997 -7.95740403219241,38.2955267096362,230.514800000004 -7.95755658319564,38.2957476562459,230.674599999998 -7.95761710000137,38.2958520947065,230.680300000007 -7.95781558366171,38.2961104251337,230.679799999998 -7.95786939544218,38.2962302866483,231.205600000001 -7.95851765209056,38.2975400427802,236.838600000003 -7.95853994827592,38.2975874843642,237.079800000007 -7.95854648531623,38.2975873165741,237.137700000007 -7.95860616489213,38.2976768353106,237.877099999998 -7.95870155070393,38.2977433872028,238.647899999996 -7.95875234504338,38.297781776478,238.810100000002 -7.95877983798264,38.2978942616676,238.712599999999 -7.95886483028663,38.2980268637403,239.213399999993 -7.95922474928836,38.2984362353057,241.074900000007 -7.95947587152939,38.2986990924335,241.447400000005 -7.95963244518849,38.2987554182327,241.905799999993 -7.95980025048356,38.2987773793324,242.027100000007 -7.95981718193002,38.2987772115451,242.0383 -7.96001549850373,38.2988539896861,242.228300000002 -7.9606689510077,38.2993480187406,241.885800000004 -7.96150915337778,38.2998336664703,243.528000000006 -7.9624185898051,38.3002442121977,245.424499999994 -7.96315988496744,38.3006671630771,246.250400000004 -7.96342425017241,38.3009742756124,246.509900000005 -7.96391056842284,38.3014191874704,246.052200000006 -7.96485219148679,38.3024228360909,249.936199999996 -7.96511907107624,38.3028070626915,253.329299999998 -7.96524010558607,38.3030018582587,254.596699999995 -7.965126615128,38.3032035272264,254.760299999994 -7.96499116355619,38.3034362082071,255.057400000005 -7.96481447302467,38.3037133145117,254.797300000006 -7.96470751960694,38.3039853907311,254.667000000001 -7.96452496217827,38.3042784222417,254.425300000003 -7.96437844605711,38.304549157675,253.777600000001 -7.96427501403528,38.3046128602732,253.459099999993 -7.9641248103299,38.3048881215131,252.9709 -7.96383328725727,38.3054188642204,252.441200000001 -7.96375449782032,38.305659256987,252.296600000001 -7.96354528558054,38.3059874924193,251.991999999998 -7.96341435972114,38.3063573015499,252.231 -7.96323414869198,38.3066969364731,252.245699999999 -7.96293709469216,38.3070659080805,252.869099999996 -7.96265261261472,38.3075091429713,254.458899999998 -7.96248648357597,38.3077991566642,255.602199999994 -7.96226687693004,38.3081340972672,256.691300000006 -7.96217886718501,38.3085302260575,257.542700000005 -7.96204928340864,38.3093581908932,257.827000000005 -7.96212673166086,38.3095814849346,257.819900000002 -7.96212555846112,38.3095948953419,257.820099999997 -7.96215388952854,38.3099030147125,257.763000000006 -7.96219462543172,38.3100532182194,257.732199999999 -7.96226939221284,38.3104179984807,257.680099999998 -7.96231113333081,38.3109420354707,257.123600000006 -7.96237114797833,38.3112578652995,256.480899999995 -7.9624589906367,38.3115175365011,256.172099999996 -7.96260802114233,38.3117575946857,256.232499999998 -7.96261589936738,38.3119976520756,256.069099999993 -7.96274229861607,38.3123304136077,257.001099999994 -7.9627523570523,38.3125391228079,257.5625 -7.96276560091451,38.3127479998673,257.719100000002 -7.96283081141764,38.3129754850856,256.935700000002 -7.96297531531253,38.3133224955507,257.364799999996 -7.96305075313515,38.3136837555898,256.414999999994 -7.96310489998723,38.31388106572,256.478300000002 -7.96317715238385,38.3141236379957,256.193799999994 -7.96333674348396,38.3143199418308,255.969299999997 -7.96342760358338,38.3145844752961,255.522100000002 -7.96357328067805,38.314874991434,255.381299999994 -7.96363262428404,38.315033074516,254.013300000006 -7.96388290839691,38.3153678477924,252.256699999998 -7.96408172712887,38.315565493066,251.3367 -7.96431994057928,38.3158506450981,251.501199999999 -7.9645626806404,38.315961286649,252.593299999993 -7.96484749778946,38.3161425030736,252.982600000003 -7.96502619964892,38.3163012564935,253.664900000003 -7.96505235140345,38.3164197765067,253.641000000003 -7.96508302887043,38.3165257238196,253.539499999999 -7.96534135919331,38.3167858977193,253.198499999999 -7.96571234274439,38.3172190747811,252.931400000001 -7.96588081908099,38.3174599704312,253.262499999997 -7.96598643041569,38.3175364137487,253.491800000003 -7.96609271279188,38.3175867051755,253.580900000001 -7.96610796798205,38.3175954222116,253.574600000007 -7.96635573771045,38.3177342264928,253.583499999993 -7.96636160460756,38.317738920489,253.590400000001 -7.96647107240976,38.3178535849938,253.635399999999 -7.96650929392849,38.3181444369097,253.245800000004 -7.9665636087655,38.3182988316996,253.030400000003 -7.9669818652601,38.3191229404509,253.814799999993 -7.96708211275423,38.3192756585778,253.9476 -7.9670906629191,38.3194419555279,254.491899999994 -7.96713776877599,38.3195730487306,255.005999999994 -7.9671443067146,38.3195814307544,255.038700000005 -7.9673033956565,38.3197373335427,255.587 -7.96746399286973,38.3201120046178,256.174499999994 -7.96754881718876,38.3202243226807,256.284 -7.96771377302773,38.3203912898132,256.359700000001 -7.96801635975141,38.3210103772169,255.220199999996 -7.96805860482428,38.3211889120552,254.766600000003 -7.96809280278882,38.3213461560862,254.4899 -7.96821098784255,38.3215282111154,253.820699999997 -7.96823294805799,38.3217164690339,253.1633 -7.9681286770097,38.3217833561855,252.903300000005 -7.96828759796661,38.3221167881421,251.575100000002 -7.96914976055211,38.323595859129,249.402900000001 -7.9698120991909,38.3247051200125,246.591499999995 -7.97025147867109,38.3254958687871,244.702099999995 -7.97046856913591,38.3257728069397,244.824800000002 -7.97079328405996,38.3261092564917,245.840500000006 -7.97154933225422,38.3273360318319,243.102799999993 -7.97171981991873,38.3276583997055,241.746499999994 -7.97181269134608,38.3279378524395,241.764599999995 -7.97173742240672,38.3284965904799,238.493000000002 -7.97176826785865,38.3292549849399,235.266600000003</coordinates>
</LineString>
</Placemark>
</Folder>
</Document></kml>
