<?xml version="1.0" encoding="UTF-8"?>

<kml xmlns:xsd="http://www.w3.org/2001/XMLSchema" xmlns:gx="http://www.google.com/kml/ext/2.2" xmlns:atom="http://www.w3.org/2005/Atom" xmlns="http://www.opengis.net/kml/2.2">
<Document>
<name>PT09a_01a_tavira-alcutim</name>
<visibility>1</visibility>
<Schema name="PT09a_01a_tavira-alcutim" id="kml_schema_ft_PT09a_01a_tavira-alcutim">
<SimpleField type="xsd:string" name="id">
<displayName>id</displayName>
</SimpleField>
<SimpleField type="xsd:string" name="nombre">
<displayName>nombre</displayName>
</SimpleField>
<SimpleField type="xsd:double" name="longitud">
<displayName>longitud</displayName>
</SimpleField>
<SimpleField type="xsd:string" name="_formato">
<displayName>_formato</displayName>
</SimpleField>
</Schema>
<Folder id="kml_ft_PT09a_01a_tavira-alcutim">
<name>PT09a_01a_tavira-alcutim</name>
<Placemark id="kml_1">
<name>&lt;img height='20' src='https://nco.ign.es/iconos/icono_todos_caminos_azul.png' /&gt;&lt;img height='20' src='https://nco.ign.es/iconos/Camino Santiago_20.png' /&gt;&lt;img height='20' src='https://nco.ign.es/iconos/icono_todos_caminos_azul.png' /&gt;  Camino de Santiago </name>
<visibility>1</visibility>
<description><![CDATA[<!DOCTYPE html>
<html>
<head>
<style>
#nco {
  border-collapse: collapse;
  overflow:hidden;
}
#nco th, #nco td {
  padding: 4px;
  text-align: left;
}
#nco th {
  color: #364B5F;
  padding-right: 5px;
}
#nco td {
  color: rgb(51, 51, 51);
  font-size: 12px;
  padding-right: 5px;
}
</style>
</head>
<body>
<table id="nco">
<tr>
<td>Caminos Portugueses</td>
</tr>
<tr>
<th><b>Camino: </b></th>
<td>PT09a Caminho Nascente Tavira-Trancoso</td>
</tr>
<tr>
<th><b>Etapa: </b></th>
<td>01a Tavira-Alcutim</td>
</tr>
<tr>
<th><b>Longitud: </b></th>
<td>65.75 km</td>
</tr>
</table>
</body>
</html>]]></description>
<Style>
<IconStyle>
<scale>0.8</scale>
</IconStyle>
<LabelStyle>
<color>ffffffff</color>
<scale>0.75</scale>
</LabelStyle>
<LineStyle>
<color>ffff0000</color>
<width>3.0</width>
<gx:labelVisibility>1</gx:labelVisibility>
</LineStyle>
<PolyStyle>
<color>66ff0000</color>
</PolyStyle>
</Style>
<ExtendedData>
<SchemaData schemaUrl="#kml_schema_ft_PT09a_01a_tavira-alcutim">
<SimpleData name="id">PT09a_01a</SimpleData>
<SimpleData name="_formato">kml</SimpleData>
</SchemaData>
</ExtendedData>
<LineString>
<extrude>0</extrude>
<tessellate>1</tessellate>
<coordinates>-7.65218473988448,37.1247461622512,22.1073000000033 -7.652252800742,37.1249833695195,21.3595000000059 -7.65191484285401,37.1254720350205,19.4498000000021 -7.65161275828858,37.125516626731,20.3123000000051 -7.65134889614018,37.1253250164132,19.9799999999959 -7.6511685180244,37.125571108973,18.7691999999952 -7.65099216256445,37.1254182231091,17.3972999999969 -7.6507179069082,37.1254955040812,14.9235000000044 -7.65079300876091,37.1255525010575,15.6508000000031 -7.6505279725144,37.1257985935938,12.8788999999961 -7.65000376871518,37.1256106711911,10.8647999999957 -7.64976337595192,37.1258093228348,9.62069999999949 -7.64980662623957,37.1256763854252,9.99090000000433 -7.65011692410163,37.1257191334174,11.3469000000041 -7.65014089654331,37.1263658811494,7.95549999999639 -7.64962524201068,37.1272397784774,4.74659999999858 -7.64835186302743,37.1268822063148,5.01880000000529 -7.64840265736687,37.1267633504135,3.87570000000414 -7.64846032471654,37.1270729782874,8.988400000002 -7.64836426786321,37.1267762590013,3.9887000000017 -7.64728266751504,37.1271965278383,9.07469999999739 -7.6470020410068,37.1269792686896,8.17059999999765 -7.64532314633465,37.1273862934418,7.85640000000421 -7.64549296385595,37.1276640698977,8.26320000000123 -7.64540193577157,37.127264420881,7.50400000000081 -7.64545440636733,37.127351760038,7.83650000000489 -7.64462979515733,37.1278818320143,8.08830000000307 -7.64341793999126,37.1282337041148,7.51059999999416 -7.64345699963812,37.1285344470952,8.63749999999709 -7.64322213870038,37.1286536375503,8.335699999996 -7.63662960405282,37.130227088234,4.50569999999425 -7.63649029691184,37.129692658129,3.85060000000522 -7.6361030529558,37.1294727168038,3.94160000000556 -7.6277434450078,37.1290118803082,4.60080000000016 -7.62568552057456,37.1286108897832,5.61930000000575 -7.62394996376755,37.1298095019219,4.56119999999646 -7.62253325408915,37.1305737641962,6.2960000000021 -7.62145869473619,37.1314134631115,4.86239999999816 -7.62165348991396,37.1331069429444,4.41629999999714 -7.6215418427989,37.1332559731879,4.46790000000328 -7.62069158289088,37.133417073395,4.64070000000356 -7.61988742272663,37.1341085804716,3.0347000000038 -7.61924352470403,37.1354087812611,3.85910000000149 -7.61855503520904,37.1361906448357,5.97539999999572 -7.61831749190184,37.1368409131059,6.25269999999728 -7.61802596972751,37.137174848175,5.60619999999471 -7.61639183361436,37.1375366111741,3.52409999999509 -7.61525675655735,37.1385592030848,3.67149999999674 -7.61340033232718,37.139453384454,9.77159999999276 -7.61252392066462,37.1397526184072,11.6230000000069 -7.61216852827359,37.1395693903673,11.8007999999973 -7.61176368182956,37.1395635225827,11.7756999999983 -7.61017011453297,37.1400783391013,15.5282000000007 -7.60994145646225,37.1402600585162,16.1659999999974 -7.60990994086715,37.1413740140099,16.7045999999973 -7.60895473886933,37.1421196680605,18.9780000000028 -7.60629868108562,37.1419847191786,18.5293999999994 -7.60485649069419,37.1416425703312,13.9572000000044 -7.60493578408602,37.1405059836358,11.4765000000043 -7.60472288336368,37.1391534797529,8.89310000000114 -7.60469321200986,37.1373027560648,8.04099999999744 -7.60442733763519,37.1359349969536,6.3234999999986 -7.60382652281362,37.1350765220656,7.26009999999951 -7.60271072360258,37.1341323848811,3.05879999999888 -7.60232448575965,37.1344757078151,5.84269999999378 -7.59657885850748,37.1361946681068,0.0 -7.59630996759013,37.1365666572007,1.28900000000431 -7.59437005932734,37.1372424064266,0.0 -7.59365173049353,37.1376915085003,3.41079999999783 -7.59358936944649,37.1379317337541,6.19120000000112 -7.59429177294696,37.1403530978684,15.1851000000024 -7.59430903946503,37.1417277303102,14.2106000000058 -7.59401516999285,37.1427986022048,15.3904999999941 -7.59398248029967,37.14427968458,17.272100000002 -7.59286517281728,37.1472666595687,26.4330000000045 -7.59094823178134,37.1472483870803,27.6592999999993 -7.58648755022002,37.1477345373057,27.9285999999993 -7.58636618063861,37.1478463517734,28.0525999999954 -7.58703354714801,37.1509506736646,33.0742000000027 -7.58697856216777,37.1514844330801,35.7660000000033 -7.58670279734186,37.1521041911994,37.3622000000032 -7.58696531920386,37.1532449682102,40.0951999999961 -7.58499272124786,37.1539342957638,41.3439000000071 -7.58290763984527,37.1553830235949,40.8864999999932 -7.57917484249741,37.1568205205742,41.540399999998 -7.57095538071689,37.1578707724958,29.9020000000019 -7.56634483142007,37.1573544476082,35.6059999999998 -7.56349632485811,37.158276791986,29.2183999999979 -7.56056785565943,37.1590232845435,22.2679999999964 -7.56062904350669,37.1596849515132,22.4104999999981 -7.56058914573167,37.1592546247632,22.3230999999942 -7.56032209815726,37.158950864577,22.4348999999929 -7.55952212953214,37.1587875850617,22.5095000000001 -7.55721526217073,37.1591339253885,25.1015000000043 -7.55334131433888,37.1585912809047,18.9026000000013 -7.55023162799795,37.1587223742456,25.8619000000035 -7.54867427089217,37.1590226137234,27.5353999999934 -7.54696369174162,37.1588516231366,22.8331999999937 -7.54618836570134,37.1591372780521,17.2587000000058 -7.54554748511979,37.1596240992615,12.0037000000011 -7.54405248906101,37.1620156241143,18.3956000000035 -7.5432717982819,37.1637086006763,25.6983000000037 -7.54074281078838,37.1664882077128,30.2158000000054 -7.53888957198418,37.1695499486712,28.4426999999996 -7.53785558054944,37.1690158543751,27.3040000000037 -7.53434741861647,37.1666474632604,19.1916999999958 -7.53301402588406,37.1663011229982,17.5418999999965 -7.53154400748177,37.1662390970597,15.4539999999979 -7.52944635236014,37.1664779817585,14.0491000000038 -7.52630783279351,37.1672990724462,11.3415999999997 -7.52470001552156,37.1673599249618,10.3804999999993 -7.52291232319041,37.1672201154324,10.3944000000047 -7.51956911799474,37.1684324732882,11.3607999999949 -7.51764580610683,37.1701993789365,16.3206999999966 -7.51578385005112,37.1705626503781,14.9277000000002 -7.51473745288231,37.1719657808642,17.0250999999989 -7.51452673237117,37.1719858977231,16.4694000000018 -7.5137472156901,37.1715545651521,15.002999999997 -7.50997267632591,37.1759116456273,6.83710000000428 -7.5085246190374,37.1762834672714,5.83909999999742 -7.50786043705567,37.1766039909666,5.56080000000657 -7.50719692521714,37.1766219285435,6.20219999999972 -7.50674162040358,37.1768767381601,7.05060000000231 -7.50637399026346,37.1769385964699,8.42859999999928 -7.5054613684101,37.1751904670234,8.3289999999979 -7.50515894967142,37.1748912330109,8.74280000000726 -7.50316590066966,37.1753161955171,10.4535000000033 -7.50169303281127,37.1746763211633,8.19719999999506 -7.49997289828107,37.1733316958378,7.59739999999874 -7.49651586665742,37.1739621826498,7.32660000000033 -7.49561732679449,37.1756645472778,6.56600000000617 -7.49505138008066,37.1763059306722,5.39939999999478 -7.49530669296248,37.1768291290432,5.19449999999779 -7.49540057050295,37.1775591930435,4.4716999999946 -7.4942924824303,37.1789075057497,5.3405000000057 -7.49459741645183,37.1817420977018,10.9934999999969 -7.49519420771923,37.1830446457493,12.7556000000041 -7.49521348646358,37.1836558538386,12.7551999999996 -7.49482640959416,37.1848626798703,15.3390999999974 -7.49438837129867,37.1855334000143,16.4787000000069 -7.49372418931694,37.185806314639,17.0979999999981 -7.49224662776123,37.1874332422393,22.3073000000004 -7.49095799358783,37.1875311429418,24.0233000000007 -7.48860469051276,37.1873980384899,26.1408999999985 -7.48636085523988,37.1881277670421,33.1606000000029 -7.48537966947249,37.1879636488484,28.5890999999974 -7.48475320595293,37.1876065799056,26.5163999999932 -7.4843294176328,37.1876111064073,22.5044000000053 -7.48418809826555,37.190288789115,16.6465999999928 -7.48459629722225,37.194186374116,23.1040000000066 -7.48445279854211,37.1952947971619,8.92089999999735 -7.48362064328035,37.1967458720219,4.56459999999788 -7.48360874150117,37.1969089836489,4.49099999999453 -7.48385449900334,37.19694552894,4.45080000000598 -7.48340623428666,37.197024821971,4.3978000000061 -7.48188341021703,37.1994049472982,5.13210000000254 -7.48027928142766,37.201261874061,4.78340000000026 -7.47674681287969,37.2034334573881,3.31329999999434 -7.47501276434404,37.2049383443816,7.46510000000126 -7.47331660225552,37.2069334045849,12.3763000000035 -7.47288342564235,37.2075172882125,15.3178000000044 -7.47230641527746,37.209662720248,15.7954000000027 -7.47041478786793,37.214317190596,5.60599999999977 -7.47014136944154,37.2147190192753,6.25729999999749 -7.46221024530767,37.2183577711645,8.88619999999355 -7.46140860042623,37.2186145924603,13.0632000000041 -7.45817972381676,37.2183550885609,6.27760000000126 -7.45620561758943,37.217709347333,6.21890000000712 -7.4485375174758,37.2178855348889,8.24409999999625 -7.4452620371677,37.2173842967017,8.68390000000363 -7.44293455077558,37.2173817821755,10.8931000000011 -7.44332313501803,37.2174310675893,9.6984999999986 -7.44315147415375,37.2183322900034,15.7376999999979 -7.44345188156457,37.2189760200432,10.9787000000069 -7.44368070762024,37.2190655388097,8.83860000000277 -7.44360309138306,37.2189674708341,9.976800000004 -7.44359035057739,37.2192147372331,9.30760000000009 -7.44422603440503,37.2205431006677,4.49899999999616 -7.44481494654913,37.2202882910433,4.34299999999348 -7.44471034042923,37.2203275182773,4.34279999999853 -7.44470095303453,37.2211053588468,4.71809999999823 -7.44448352570145,37.2213494400151,4.95040000000154 -7.44512172391361,37.2238210953105,9.59399999999732 -7.44799956675781,37.2287069068533,24.9428999999946 -7.44824280987549,37.2294299296393,25.337400000004 -7.44834423056936,37.2299653661829,26.6301999999996 -7.44738684925869,37.2345127160122,7.59249999999884 -7.44808070349258,37.2348008855237,9.0399999999936 -7.45014550183437,37.2334316181584,9.17290000000503 -7.450723685399,37.233276553021,9.47509999999602 -7.45126247424515,37.2350692742978,20.6800999999978 -7.45176555595711,37.2353904688817,24.2808999999979 -7.45277624599171,37.236547506712,34.0461000000068 -7.4527824479604,37.2367729802494,37.603099999993 -7.45239939554348,37.2373867026924,41.1376000000018 -7.45293248457915,37.2380601050138,44.8133999999991 -7.45280742651519,37.2388029090253,47.2177999999985 -7.45312510044405,37.2392987827463,49.2100000000064 -7.45401961765118,37.2399829139183,51.756899999993 -7.4542306732339,37.2405208643623,53.377999999997 -7.45419345782832,37.2410829542788,54.4685999999929 -7.45363790552063,37.2424842414498,55.4254999999976 -7.45365617815182,37.2429703916788,54.9824999999983 -7.45384678268883,37.2433531090517,54.3588000000018 -7.45440250298147,37.2438002002899,50.9091999999946 -7.4567836340674,37.2444670642425,47.8080000000045 -7.45872354143189,37.2453013987238,37.4401000000071 -7.45903802993475,37.2455458149011,36.2277000000031 -7.45950104678503,37.2463536631834,36.1739999999991 -7.45889922585031,37.2453954436003,36.7620000000024 -7.4581413343131,37.2450179225626,42.7177999999985 -7.45887760070648,37.2453785120701,36.8614999999991 -7.45977748175414,37.2466696610186,35.8200999999972 -7.46248768638993,37.2483192194713,22.6536999999953 -7.46666573011512,37.2514481836204,15.5617999999959 -7.46734483131707,37.2521705363896,14.0261000000028 -7.46829735094545,37.2539491756617,12.2688000000053 -7.46960191045219,37.2541080965695,17.1823000000004 -7.47099414463234,37.2550394939088,12.3910999999935 -7.4714771103701,37.2554570803269,14.7771999999968 -7.47117117023549,37.2568746280499,24.5008999999991 -7.47121810900572,37.2575998302138,25.2691999999952 -7.47272970143935,37.2588170499213,18.0678000000044 -7.47332951014781,37.2598572443054,10.534799999994 -7.47338566922611,37.2605814404033,6.80019999999786 -7.47165413597328,37.2650568740364,23.3147999999928 -7.47123168793955,37.2652412761459,28.0663999999961 -7.46919907623439,37.2655074854082,31.5598999999929 -7.46815133877917,37.2660310190857,34.8675999999978 -7.46805410872606,37.2663098007529,42.0964999999997 -7.46819609733818,37.2666209371899,44.4823000000033 -7.4690175240205,37.267246729935,53.5280000000057 -7.47021932164864,37.2690463245157,64.5969000000041 -7.4705995246095,37.2693143782928,64.4308000000019 -7.47285408936011,37.2699336333145,65.4667999999947 -7.4735714120808,37.2702320286861,66.8300000000017 -7.47403677533056,37.2705964735943,71.9040999999997 -7.47429611176659,37.27097047444,75.9192000000039 -7.47550964318894,37.2743178714895,82.6748999999982 -7.4752975814931,37.2753366080321,84.7960000000021 -7.47488535898223,37.2756963590473,85.0559000000067 -7.47440105295808,37.2758256078268,82.963499999998 -7.47413903505095,37.276114113285,82.0535999999993 -7.47403040537691,37.2765612038151,83.9032000000007 -7.4742124606473,37.2773636872962,85.2244000000064 -7.47390937086709,37.2783948292801,91.4903000000049 -7.47384550065039,37.2793850673416,95.3286999999982 -7.47362874435885,37.2797523620782,95.8705000000045 -7.47143972697955,37.2813274889874,97.827099999995 -7.46623540295805,37.284645549619,93.8163999999961 -7.46512329222956,37.2867447134944,89.3831999999966 -7.46519034697393,37.2871527442739,89.8019000000058 -7.46564011996197,37.2878573273101,88.3524000000034 -7.4654723146669,37.2883619176273,83.8920000000071 -7.46469497640039,37.2890138624205,78.7587000000058 -7.46428124561819,37.2903200977858,71.8337000000029 -7.46423615108927,37.2909745569792,70.1157999999996 -7.46328078200482,37.2922036793984,56.5605000000069 -7.4631979690137,37.2927082698682,56.0592999999935 -7.46397614451004,37.2932918179274,45.9989999999962 -7.46398134126398,37.2938592726742,41.0815000000002 -7.46253663648807,37.2951019738635,40.9856 -7.46140474485702,37.2954573662077,40.0268999999971 -7.46104717225481,37.2957656530153,34.171199999997 -7.46112847697454,37.2963388074971,27.1569000000018 -7.46222348916991,37.2969374429336,25.1303999999946 -7.46231451635596,37.2972549493177,29.3790000000008 -7.46215660151217,37.2977922291952,28.1631000000052 -7.46235391107444,37.2980805668346,32.5988999999972 -7.46314097180727,37.2984116522465,43.1512999999977 -7.46404571453722,37.2992040770668,36.3626999999979 -7.46533803629487,37.2998080769774,32.7957000000024 -7.46570684053305,37.3001783897604,31.5424999999959 -7.46566023683443,37.3006026815614,30.8931000000011 -7.46587380769996,37.3009562300326,33.1435000000056 -7.46654301845068,37.3014807698086,35.7688999999955 -7.46721960616645,37.302421219174,50.2492999999959 -7.46862575435205,37.3027516337998,44.0338000000047 -7.4690235589026,37.3031710642516,54.1073999999935 -7.46908240035031,37.3038238467793,69.6171000000031 -7.4696835502435,37.3039587957913,71.0350000000035 -7.46991405255553,37.3043130144486,79.8475000000035 -7.47068787032441,37.3044348878605,81.0769 -7.47162630796239,37.3049243909612,72.2970999999961 -7.4718102065758,37.3052576548767,68.8438000000024 -7.47154248885818,37.3055198412686,67.9174999999959 -7.47053246986509,37.3059769898626,79.7841999999946 -7.46982889226659,37.3069186134042,95.8892999999953 -7.46911559220177,37.3075814537672,102.077499999999 -7.46894661370692,37.3079921674096,105.312600000005 -7.46920024943413,37.3083716998975,107.232099999994 -7.47012745633443,37.3087552559785,110.255999999994 -7.47047295827418,37.3090655538985,112.977100000004 -7.47316505736541,37.3134881814282,112.373900000006 -7.47348826401809,37.3137309209366,115.149000000005 -7.47498460126157,37.3141748265508,119.440600000002 -7.47693859061644,37.3156927894451,124.362200000003 -7.47790636453666,37.3170027130201,127.705700000006 -7.47836653103252,37.3174089000648,127.492299999998 -7.4800306744694,37.3181636065734,126.176800000001 -7.48039478411193,37.31849821205,127.317500000005 -7.47949574119243,37.3197570065635,120.208499999993 -7.47733170146962,37.3213775636172,117.566900000005 -7.47340762944156,37.3223134871624,123.4182 -7.47188111778768,37.3232743882508,122.123900000006 -7.47174147557507,37.3238720177482,121.254700000005 -7.47292935829947,37.3253874660395,118.603000000003 -7.47282525523614,37.3260640531557,112.267600000006 -7.47144794117451,37.3275347419803,106.545599999998 -7.47140100240431,37.3278680063838,103.878800000006 -7.47166452948109,37.3283622035442,99.0051999999996 -7.47143268598437,37.3288393018294,97.4722000000038 -7.46963309097568,37.3302032051488,101.963600000003 -7.46936554124306,37.3305852519577,100.678599999999 -7.4690155126926,37.3317282085904,106.969299999997 -7.46866447892732,37.3320385066756,107.108500000002 -7.46748480949959,37.3324968289863,101.605899999995 -7.46717618789384,37.3327430891903,100.468299999993 -7.46681425756418,37.3348414148941,108.916299999997 -7.46658878402114,37.3351854078011,108.003599999996 -7.46575579063123,37.3357263764087,105.894799999995 -7.46526125818584,37.3365127661604,106.648000000001 -7.46485440041387,37.3367038733999,103.191900000005 -7.46278876394392,37.3370186977468,99.6064000000042 -7.46141446732334,37.3377155691749,92.2543000000005 -7.46102236168498,37.3379452336743,89.8843999999954 -7.46070535879764,37.3386893791964,82.6619000000064 -7.45875991870932,37.339750025067,75.0197000000044 -7.45835138468104,37.3401181577552,77.4168999999965 -7.45768669964274,37.3407830107752,78.7608999999939 -7.45739400426866,37.3414617775102,79.2801999999938 -7.45678413622564,37.3417997351992,84.0120000000024 -7.45592985276348,37.3418693049981,83.2311000000045 -7.45491178666213,37.3437634476505,81.8307999999961 -7.45119240116144,37.346679846962,62.6916000000056 -7.45091496007921,37.3470310491551,60.4878000000026 -7.45081353938531,37.3477948082566,56.9024999999965 -7.45053408697515,37.3481227082234,55.5681999999942 -7.45006017356048,37.3484946968473,50.2206000000006 -7.44847331218748,37.3491134486013,33.959600000002 -7.44827281719924,37.3496393297743,25.7069999999949 -7.44864329679545,37.3506900848944,13.4003999999986 -7.44841799123737,37.351032569153,8.89389999999548 -7.44676524742145,37.3513515844566,3.87279999999737 -7.44507344395863,37.351493071378,10.5280000000057 -7.44168195880803,37.3540470374834,8.53889999999956 -7.44033867472602,37.3561758727856,8.05830000000424 -7.43956267854257,37.3601653233242,14.2655999999988 -7.43942923829866,37.3625405874062,8.49510000000009 -7.4387080591105,37.364412433782,14.9492999999929 -7.43926327634657,37.3690749510164,9.39999999999418 -7.44007397444946,37.3719824662281,7.70909999999276 -7.4405706862077,37.376504334902,11.3319000000047 -7.44122296551192,37.3778903668516,9.52850000000035 -7.44197381695227,37.3824041888554,15.097299999994 -7.44240816676518,37.3829387870582,19.8681999999972 -7.44220884497668,37.3850820396926,15.1180000000022 -7.44228964663986,37.3862539971304,16.0169000000024 -7.44342824419447,37.3875491687212,15.773000000001 -7.44360258832652,37.3891524592858,11.9850000000006 -7.44393484640402,37.3901192276996,13.9514000000054 -7.44413685056196,37.3904642270292,15.8089999999938 -7.44490815304804,37.3909617770495,25.9860999999946 -7.4449876135265,37.3912885034708,26.510500000004 -7.44455745435438,37.3918574671059,18.1701999999932 -7.44461461864751,37.3925717726939,10.5997999999963 -7.44527746034284,37.39418394834,9.23799999999756 -7.44609285124476,37.3953136607044,9.98410000000149 -7.44690807506002,37.3970549176342,13.7321999999986 -7.44976395768881,37.3995223819848,9.3582000000024 -7.45219353581633,37.40106264107,7.83819999999832 -7.45633536935075,37.4027733875554,8.88610000000335 -7.45855422696713,37.4035619563511,8.01489999999467 -7.45962291942298,37.4036251563859,8.69289999999455 -7.46013253907355,37.4039666347462,7.99030000000494 -7.46298456523483,37.4062681381792,13.7765000000072 -7.46412668418537,37.408710121495,22.7964999999967 -7.46402291619365,37.4096088289419,26.5274000000063 -7.46412031333338,37.4110127978197,19.3306000000011 -7.46367858745364,37.411482184865,20.3960999999981 -7.46321389434708,37.4125760227928,23.1867999999959 -7.46262833471565,37.4131998042799,16.885500000004 -7.4622533285087,37.414233125258,12.6714999999967 -7.46132176388098,37.4148621035864,12.2053000000014 -7.46116301001069,37.4152059287696,12.9989999999962 -7.45994126439338,37.415765001725,12.0739999999932 -7.45949937052871,37.4162895416676,14.8956999999937 -7.4594586346255,37.4173347649305,29.3304999999964 -7.45914481536752,37.4177853760468,31.6744000000035 -7.45844157373893,37.4182664970366,23.1453000000038 -7.45841642809751,37.4184505632787,23.5074000000022 -7.45889436416802,37.4190693159385,40.2495999999956 -7.45852623097129,37.4202761422048,46.7885999999999 -7.4553340676092,37.4226254216706,61.7670000000071 -7.45534412604543,37.4229692475973,55.4551000000065 -7.45734052755982,37.4241826121439,51.1456999999937 -7.45769759620716,37.4247071516268,42.5436999999947 -7.45839161842597,37.4251933018098,43.6276999999973 -7.45876276906371,37.4257500280609,35.6533999999956 -7.45991393943907,37.4257944522394,34.931700000001 -7.46064199163749,37.426181863602,25.5948000000062 -7.46034275742644,37.4264804269229,20.2130000000034 -7.45989885223388,37.4265437938146,18.2304000000004 -7.45924472779006,37.4269008634565,12.6858999999968 -7.45924372257527,37.4272768750699,12.4995000000054 -7.46031409128744,37.4281093661824,18.0158999999985 -7.46067971009965,37.428601886714,19.5534999999945 -7.46093334672516,37.4310797447383,9.40670000000682 -7.46207412359269,37.4334580260589,18.4943000000058 -7.46223606199062,37.4361725888383,22.0834000000032 -7.46202349633991,37.440113257175,9.2158000000054 -7.46092010286292,37.4435570455047,15.6128000000026 -7.46132310506571,37.4441630573605,17.5222000000067 -7.46117994145719,37.4446498785555,15.539300000004 -7.46013807089908,37.4455713850552,13.1432999999961 -7.45949601711775,37.4473929399833,14.0397999999986 -7.45916543529656,37.4506164523531,16.719299999997 -7.46025608886618,37.451940289886,16.1206999999995 -7.46101817104418,37.4521530227773,19.9107999999978 -7.46141262308207,37.4524794138527,18.7875000000058 -7.46129896463908,37.4533786250091,17.1546999999991 -7.4618087522746,37.454455364328,25.8763000000035 -7.46509278184924,37.4583264623344,20.2090000000026 -7.46683487659489,37.459721546305,14.0604000000021 -7.46791027497433,37.4596531497255,15.502800000002 -7.46819442108186,37.4599151683473,15.5350000000035 -7.46774196662272,37.4607610697778,15.468200000003 -7.46940694728943,37.4649882308858,17.5445000000036 -7.46983760951812,37.4651553665158,15.3831000000064 -7.47037036348221,37.4650526040336,14.8834999999963 -7.47065283333339,37.4653828511072,15.4064999999973 -7.47006140680484,37.4667348523896,25.0380000000005 -7.47075660132513,37.467797509672,25.7369999999937 -7.47166084099854,37.468288857073,30.2709000000032 -7.47228747250307,37.4691708009444,27.2563999999984 -7.47271310506447,37.4692403709299,36.7632000000012 -7.47311795150851,37.469043731477,43.821100000001 -7.47472409162581,37.4688739137594,52.3320999999996 -7.47593041496635,37.4696740502098,37.1781999999948 -7.47653793571153,37.4696085039256,34.5629000000044 -7.47684018646529,37.4701171174567,26.3787000000011 -7.47679056622392,37.4705095581703,18.1619000000064 -7.47629469259384,37.4704984944126,21.7636000000057 -7.47535726017068,37.4701164472681,26.7021999999997 -7.4747430344002,37.4700949891105,26.5059999999939 -7.47395899110842,37.470508720439,19.1916999999958 -7.47354861373719,37.4709598341795,12.9465999999957 -7.47308509383037,37.4711708902774,9.95260000000417 -7.47251898092821,37.471433244263,7.681700000001 -7.47226450617454,37.4714484993381,7.32330000000366</coordinates>
</LineString>
</Placemark>
</Folder>
</Document></kml>
