<?xml version="1.0" encoding="UTF-8"?>

<kml xmlns:xsd="http://www.w3.org/2001/XMLSchema" xmlns:gx="http://www.google.com/kml/ext/2.2" xmlns:atom="http://www.w3.org/2005/Atom" xmlns="http://www.opengis.net/kml/2.2">
<Document>
<name>PT09a_16a_alpalhao-nisa</name>
<visibility>1</visibility>
<Schema name="PT09a_16a_alpalhao-nisa" id="kml_schema_ft_PT09a_16a_alpalhao-nisa">
<SimpleField type="xsd:string" name="id">
<displayName>id</displayName>
</SimpleField>
<SimpleField type="xsd:string" name="nombre">
<displayName>nombre</displayName>
</SimpleField>
<SimpleField type="xsd:double" name="longitud">
<displayName>longitud</displayName>
</SimpleField>
<SimpleField type="xsd:string" name="_formato">
<displayName>_formato</displayName>
</SimpleField>
</Schema>
<Folder id="kml_ft_PT09a_16a_alpalhao-nisa">
<name>PT09a_16a_alpalhao-nisa</name>
<Placemark id="kml_1">
<name>&lt;img height='20' src='https://nco.ign.es/iconos/icono_todos_caminos_azul.png' /&gt;&lt;img height='20' src='https://nco.ign.es/iconos/Camino Santiago_20.png' /&gt;&lt;img height='20' src='https://nco.ign.es/iconos/icono_todos_caminos_azul.png' /&gt;  Camino de Santiago </name>
<visibility>1</visibility>
<description><![CDATA[<!DOCTYPE html>
<html>
<head>
<style>
#nco {
  border-collapse: collapse;
  overflow:hidden;
}
#nco th, #nco td {
  padding: 4px;
  text-align: left;
}
#nco th {
  color: #364B5F;
  padding-right: 5px;
}
#nco td {
  color: rgb(51, 51, 51);
  font-size: 12px;
  padding-right: 5px;
}
</style>
</head>
<body>
<table id="nco">
<tr>
<td>Caminos Portugueses</td>
</tr>
<tr>
<th><b>Camino: </b></th>
<td>PT09a Caminho Nascente Tavira-Trancoso</td>
</tr>
<tr>
<th><b>Etapa: </b></th>
<td>16a Alpalhao-Nisa</td>
</tr>
<tr>
<th><b>Longitud: </b></th>
<td>14.36 km</td>
</tr>
</table>
</body>
</html>]]></description>
<Style>
<IconStyle>
<scale>0.8</scale>
</IconStyle>
<LabelStyle>
<color>ffffffff</color>
<scale>0.75</scale>
</LabelStyle>
<LineStyle>
<color>ffff0000</color>
<width>3.0</width>
<gx:labelVisibility>1</gx:labelVisibility>
</LineStyle>
<PolyStyle>
<color>66ff0000</color>
</PolyStyle>
</Style>
<ExtendedData>
<SchemaData schemaUrl="#kml_schema_ft_PT09a_16a_alpalhao-nisa">
<SimpleData name="id">PT09a_16a</SimpleData>
<SimpleData name="_formato">kml</SimpleData>
</SchemaData>
</ExtendedData>
<LineString>
<extrude>0</extrude>
<tessellate>1</tessellate>
<coordinates>-7.61724745826126,39.415694978128,324.957500000004 -7.61721828996397,39.4159985707949,325.0769 -7.61727344203083,39.4162243790115,325.575500000006 -7.61744996547574,39.4166488387105,325.733699999997 -7.61748231919903,39.4168169797451,326.103600000002 -7.61744376260871,39.4171626495556,326.328299999994 -7.6174325309727,39.4175106660944,326.133900000001 -7.61742180239327,39.4176556732246,326.288199999995 -7.61748684580974,39.4178865102071,326.770900000003 -7.61745784459911,39.4180398991261,326.701300000001 -7.61744745109126,39.4181952995477,326.732799999998 -7.61767677930521,39.4183934478204,326.533800000005 -7.61789571490961,39.4185609184323,326.823000000004 -7.61801674941943,39.4186903346787,326.877399999998 -7.61831849801495,39.4186464138493,326.884000000005 -7.61850709122399,39.4185939432416,326.712199999994 -7.61856945227103,39.4186400438729,326.473899999997 -7.61868193751428,39.4188775869026,326.010800000004 -7.61882510022447,39.4192356615644,325.827600000004 -7.61910103303534,39.4196428544833,325.378800000006 -7.61941954509239,39.420132022329,324.656300000002 -7.61941317424038,39.4202128239746,324.423500000004 -7.61918904278037,39.4203759356444,324.063299999994 -7.61893222072885,39.4205469267789,322.948199999999 -7.61892668890333,39.4205487706143,322.928100000005 -7.6185096056085,39.4207499364391,321.347399999999 -7.61851497034736,39.4207464160213,321.372099999993 -7.61769723124929,39.4210676102117,317.987999999998 -7.61769756632088,39.4210669398573,317.991399999999 -7.61791834616658,39.4213772376256,317.25 -7.61788817085788,39.4214273619917,317.007899999997 -7.61755088311309,39.4216587020835,315.867700000003 -7.61745801168574,39.4217747077092,315.252299999993 -7.61744409768033,39.4217825867221,315.176500000001 -7.61700957988243,39.4222923737556,312.373000000007 -7.61659517895704,39.4227364472767,310.934800000003 -7.61644514233829,39.4230014830201,310.474600000001 -7.61630868555169,39.4231563803854,310.290900000007 -7.61603359176728,39.4233728015822,310.448799999998 -7.61593166711851,39.4237156215583,310.044099999999 -7.61590216285131,39.4238730334931,309.562600000005 -7.61580644196789,39.4239546732207,309.547000000006 -7.61566596072883,39.4242173616665,309.492299999998 -7.61555599076839,39.4246049411658,308.507299999997 -7.61544719310936,39.4251566383445,307.775200000004 -7.61540126045227,39.425520747555,308.087100000004 -7.61538315580604,39.4256069137667,308.067800000004 -7.61531459189198,39.4256634078955,308.133300000001 -7.61508308346684,39.4257718696943,308.532900000006 -7.6145453007338,39.4260132687044,309.422600000005 -7.61414665715679,39.4261351416247,310.031700000007 -7.6137999820173,39.4262826628422,310.272299999997 -7.61333931246487,39.4264658915895,310.453299999994 -7.61280287091653,39.426671918403,311.219899999996 -7.61227112306556,39.4268625228821,313.514500000005 -7.6117467503831,39.4270442422836,314.437300000005 -7.61133017014481,39.4272350150529,315.099400000006 -7.61094393230188,39.4274120407355,315.817899999995 -7.61057579910519,39.4275496714017,316.004400000005 -7.61056305829949,39.4277771560867,316.290200000003 -7.61049248305753,39.4281234966467,316.387100000007 -7.61039894058867,39.4286185313454,316.038499999995 -7.61032987361807,39.4289920292611,315.125499999995 -7.61017447315875,39.4291640261818,314.494200000001 -7.61017397010218,39.4291688874212,314.486900000004 -7.60991463456448,39.4294419697437,313.832399999999 -7.60955639181907,39.4298357517551,313.430699999997 -7.60936478116898,39.4300704451113,313.487500000003 -7.6091408167956,39.4304109181316,313.641300000003 -7.6090018447262,39.4306945615779,313.584300000002 -7.60886119640048,39.4310665503455,312.453099999999 -7.60870646698269,39.4314757549849,311.464000000007 -7.60857705029295,39.4317528608778,310.514200000005 -7.60829240112888,39.4321235083561,309.479500000001 -7.60805670206295,39.4324321298519,308.981799999994 -7.60778831330384,39.4327679093526,308.532999999996 -7.60773131609737,39.4328716767333,308.333199999994 -7.60771404957929,39.4330193661666,308.117499999993 -7.6076729786045,39.4332349484242,307.404699999999 -7.60757859800748,39.4334049338777,307.009000000005 -7.60748958214937,39.4336927683151,306.455300000001 -7.60725086564239,39.434079676921,306.328899999993 -7.60698566230925,39.4345473871372,306.8649 -7.60672666094485,39.4349951485667,307.707999999999 -7.60652985443915,39.43528365359,308.318199999994 -7.6063374056609,39.4355917719555,308.638800000001 -7.60623380565411,39.4357781857531,308.967600000004 -7.60621570010958,39.4358864798655,309.155799999993 -7.60607505178386,39.4362145478061,309.443899999998 -7.60587505985215,39.4366071558001,309.953200000004 -7.60549418584976,39.4372386483411,310.059099999999 -7.60514264902795,39.4377127291715,310.876199999999 -7.60484660024291,39.4381578082282,312.267800000001 -7.6045393198219,39.4385940020512,313.143200000006 -7.60412139839888,39.4390823320053,313.598299999998 -7.60394319869766,39.439243934966,313.424299999999 -7.60369962050838,39.4395597650461,312.768599999996 -7.60357925704009,39.4397455084571,312.543699999995 -7.60344095511389,39.4400105440278,311.8122 -7.60326074408474,39.440371468978,311.448099999994 -7.6031802783915,39.4405134578834,311.204599999997 -7.60313350670789,39.4408809209159,311.467199999999 -7.60306997246111,39.4410473856644,311.242199999993 -7.60292228314021,39.4411816635667,311.468800000002 -7.60281398853775,39.4413607010608,311.448099999994 -7.60273855161346,39.4415234774083,310.706300000005 -7.60271927376745,39.4418907727766,308.884900000005 -7.60268691914586,39.4421410561548,307.815600000002 -7.6025323568147,39.4424523596541,307.083700000003 -7.60246295477251,39.4426149690353,307.213699999993 -7.60233102369829,39.4428225048313,307.982499999998 -7.60226028047134,39.4430414400725,308.268200000006 -7.60222289708079,39.443439915971,308.012400000007 -7.60223295551703,39.4436662270225,307.694699999993 -7.60224267798335,39.4438353739804,307.973299999998 -7.60219154857232,39.4440222901695,307.3989 -7.60214477778707,39.4441171736688,307.3802 -7.60211594366307,39.444225132238,307.815199999997 -7.60192165154185,39.4444537910471,308.730100000001 -7.60180564580101,39.4446589800799,308.349799999996 -7.60172501212278,39.444779847107,308.556800000006 -7.60153641891374,39.4449870476332,308.309299999994 -7.60134648541827,39.4451573679132,307.732399999994 -7.60110693078313,39.4453209824037,307.924700000003 -7.60078338905882,39.445519968545,307.270600000003 -7.60058607949655,39.4456264189081,307.7114 -7.60056998617825,39.4456346330578,307.708100000003 -7.60051315605841,39.4456959890702,307.459600000002 -7.60059228146528,39.445863794335,306.409599999999 -7.60055808350074,39.4459427521156,305.919500000004 -7.60046068546268,39.4460158424904,305.8226 -7.60024091262842,39.4462724958381,306.194099999993 -7.6000560079019,39.4464560597912,305.146599999993 -7.59997436811058,39.4466174951118,305.497700000007 -7.5999834204337,39.4467906652553,305.185500000007 -7.5997195582853,39.4472206568565,305.330600000001 -7.59934706646283,39.4477358086339,305.236900000004 -7.59910633772961,39.4481307643043,303.610100000005 -7.59877240249749,39.4485917687639,302.233999999997 -7.59857861343281,39.4487527010761,302.039499999999 -7.59842907987063,39.4488246182766,301.772100000002 -7.5984049403423,39.4488336706987,301.757100000003 -7.59819958367172,39.4488904997666,301.679300000003 -7.59819958367172,39.4489474966564,301.601299999995 -7.59826026846245,39.4490328243823,301.471600000004 -7.59835381093127,39.449084121966,301.3891 -7.5985512884785,39.4490745666658,301.299700000003 -7.59920356778272,39.4490665194026,301.127099999998 -7.59922049922921,39.4490665194026,301.128299999997 -7.5992407831883,39.4490698726024,301.1299 -7.59984344225118,39.4490502590862,301.028699999995 -7.60048482588931,39.4489682838927,300.482600000003 -7.60171981536887,39.4489272123255,300.419099999999 -7.60222993807601,39.448843393207,300.218500000003 -7.60246127851616,39.4488737358034,299.998699999996 -7.60266948464282,39.4489169869174,299.881500000003 -7.60288288842173,39.448883794043,299.717999999993 -7.6032138053145,39.4488682037709,299.463699999993 -7.60350918395634,39.448898714225,299.244600000005 -7.60375678569981,39.4488740715405,299.243600000002 -7.60413615053248,39.4489205072992,299.210300000006 -7.60439548607017,39.448993429455,299.187600000005 -7.60468499691657,39.4490713813342,299.250899999999 -7.60492119903907,39.4491245226624,299.3226 -7.60522563000403,39.4491246898367,299.357399999994 -7.60568227600229,39.4491982832498,299.777499999997 -7.60593809194069,39.4492391867893,299.838600000003 -7.60611159704625,39.4492857901722,299.610000000001 -7.60645642884279,39.4493258557103,299.903200000001 -7.60668089627272,39.4493712860445,300.000499999995 -7.60693285574361,39.4495082462567,299.975000000006 -7.60708859217284,39.4495992738307,300.308999999994 -7.60733820524418,39.449619390099,301.058199999999 -7.60751137527815,39.4496690106651,301.111099999995 -7.60774523010281,39.4498007747595,301.194699999993 -7.60793784596772,39.4499125889056,301.626399999994 -7.60811353128446,39.4500493815745,301.174400000004 -7.60840304213086,39.4502728431043,300.570500000002 -7.60854955735368,39.4503657148062,300.259999999995 -7.60878676558931,39.45045506608,300.074999999997 -7.60904224555779,39.4504973104112,299.941500000001 -7.60926973042876,39.4505720774248,299.927599999995 -7.6094791106535,39.4506627692669,299.847399999999 -7.6096180827229,39.4507053492004,299.826000000001 -7.60982427752163,39.450734853746,299.709700000007 -7.61029148501271,39.4508929364398,299.362999999998 -7.61091275177836,39.4510939341971,300.217999999993 -7.6114418172599,39.451293591247,301.148499999996 -7.6114505345114,39.4512910767742,301.140599999999 -7.61209107912307,39.4514887223799,301.117800000007 -7.61271905181233,39.4516293706957,302.109899999996 -7.6132191160832,39.4518013672175,303.081699999995 -7.61381037552512,39.4519586116524,303.347999999998 -7.61452786623077,39.4521911252831,302.460000000006 -7.61497914749016,39.4523507167995,302.685200000007 -7.61586008576343,39.4527317583686,303.298899999994 -7.61624766479106,39.4529059343322,301.479900000006 -7.61639703036831,39.452938120911,300.925399999993 -7.61704947765749,39.4532061741959,301.330499999996 -7.61729741447251,39.4532670268992,301.325100000002 -7.61770745767049,39.4533852112966,302.198799999998 -7.61779261795942,39.453427791646,302.353600000002 -7.61789571490961,39.4535412827022,301.993000000002 -7.61796595507999,39.453591071105,301.834799999997 -7.61810559819092,39.4537323900694,301.581600000005 -7.61818421964289,39.4538314643834,301.512700000007 -7.61830776943552,39.4538778996105,301.513999999996 -7.61846199669506,39.4539944085705,301.303400000004 -7.6187660916901,39.4541040435652,301.542799999996 -7.61899022404844,39.4542103261286,301.671499999997 -7.61919340140612,39.4543419220969,301.587299999999 -7.61929482210002,39.4544071331882,301.667100000006 -7.61949146151909,39.4544818994713,301.898499999996 -7.61970704461085,39.4546160099726,302.068499999994 -7.61997174488741,39.454786498138,302.617199999993 -7.62017693357303,39.4549197701698,303.304300000003 -7.62030953568878,39.4549794491729,303.842699999994 -7.62039754543377,39.4550453310816,304.026800000007 -7.62041984161913,39.4551641866483,304.458499999993 -7.62058178001709,39.4553475828907,305.357799999998 -7.62089073669442,39.4556080922716,306.480100000001 -7.62132793686175,39.455932974549,307.834600000002 -7.62170059577085,39.4561988488067,308.9715 -7.62201139668946,39.456362966568,309.566099999996 -7.62235790474232,39.4565155168491,310.465100000001 -7.62288076825513,39.4567126593335,310.717499999999 -7.62331260368356,39.4568569960234,311.280299999999 -7.62391878324403,39.4571040940542,310.546100000007 -7.62437693751366,39.4572886635919,309.881999999998 -7.62448841664379,39.4573520311422,309.607799999998 -7.62486929064615,39.4576212576233,309.119500000001 -7.62525502633086,39.4578214175285,308.804199999999 -7.62556347995165,39.4579515050671,308.749100000001 -7.62588668570604,39.4580202361668,309.086299999995 -7.62645665597401,39.4581325538292,310.178199999995 -7.62665647992076,39.4582388364846,310.482399999994 -7.62681439476455,39.4583811614109,310.579800000007 -7.62693543017268,39.4584539162162,310.886299999998 -7.62745158776189,39.4585601983808,311.342600000004 -7.62790286902128,39.4587063789205,311.250799999994 -7.62830905575172,39.4588788788311,311.693899999998 -7.62889595746618,39.4591065310067,313.374899999995 -7.62921078104066,39.4592181776225,313.976599999995 -7.62921296035355,39.4592139870803,313.978199999998 -7.62975895817987,39.4592495262267,313.767900000006 -7.62976163965098,39.4592495262267,313.767099999997 -7.63025114332741,39.4593514501865,313.441800000001 -7.63035088776499,39.459396880221,313.330799999996 -7.63069605463312,39.4594937749186,312.820399999997 -7.63101959635742,39.4596775065367,312.450599999996 -7.63122327587335,39.4599254427813,312.650899999993 -7.63124724831502,39.4599928333593,312.734299999996 -7.6313719713074,39.4600962661107,312.890400000004 -7.63149786749952,39.460124261652,312.929000000004 -7.63149199970408,39.4601212439739,312.923299999995 -7.63160331174758,39.4602769798541,313.138500000001 -7.63174630737111,39.4607337938915,313.270099999994 -7.63189047619446,39.4612385520397,312.706000000006 -7.63207068632528,39.4618495926855,312.013099999996 -7.63233002276127,39.4626276008112,310.2163 -7.63252599203714,39.4632912798549,308.405899999998 -7.63276487563075,39.464040286869,306.909 -7.63298984611725,39.4648850148474,305.817999999999 -7.63327365715316,39.4656531329546,306.332999999999 -7.63342738135616,39.4662103616428,306.429300000003 -7.63382216936396,39.4675181061035,308.060800000007 -7.63418745220626,39.4688292032009,310.867599999998 -7.63424579059743,39.4689413529372,310.5 -7.63440772899539,39.4695031085938,309.282099999997 -7.63481458676736,39.4707691111578,307.297500000001 -7.63527777070427,39.4723090339995,306.049400000004 -7.63566300243408,39.4735535794563,306.803100000005 -7.63597430640926,39.4743750061488,306.421900000001 -7.63597665370711,39.4743681329928,306.421400000007 -7.63607019527763,39.4744150711152,306.180099999998 -7.63618385461895,39.474462177706,305.743400000007 -7.63676287631174,39.4751494938684,303.233699999997 -7.63722253975106,39.4757640548192,303.113400000002 -7.63745672964733,39.4759161028503,302.929199999999 -7.63799317209397,39.4764149936003,300.175099999993 -7.6385948250437,39.4768458228948,299.116099999999 -7.63890059629505,39.4770478274008,299.336299999995 -7.63929136074872,39.4771780821647,299.166599999997 -7.63947257789096,39.4772776590949,299.201000000001 -7.63966687001221,39.4773381759548,299.271500000003 -7.639904748391,39.4777472134089,299.211200000005 -7.64014765643711,39.478058013784,299.087 -7.64041688332438,39.4783847403508,299.269499999995 -7.64042224716495,39.4786771017384,298.885399999999 -7.64025745931089,39.4793625734998,299.742700000003 -7.64022426656114,39.4795404373992,299.604800000001 -7.6402841132237,39.4796483965053,299.846799999999 -7.64026785281874,39.4797540084067,299.585900000005 -7.64031915021473,39.479880240066,297.782900000006 -7.64024823900282,39.4803028551741,295.010800000004 -7.64029869827065,39.4804798811741,294.913100000005 -7.64029165727546,39.4806458428565,293.519199999995 -7.64050640134077,39.481059405776,290.055500000002 -7.64070807042709,39.4814967736844,286.9035 -7.6410309411099,39.4820421004733,282.718099999998 -7.64126379071973,39.4824472816579,280.905899999998 -7.64175999942143,39.4828937013114,280.676600000006 -7.64206090899046,39.4831612516547,280.467900000003 -7.64243641825396,39.4836589693345,280.592099999994 -7.6425261051536,39.4838732106186,280.687099999996 -7.64268435506902,39.4840651561215,281.271900000007 -7.64277940580923,39.4842505637882,282.568799999994 -7.64287177507831,39.4845464454456,283.035000000003 -7.64310915040056,39.4849814660574,284.260200000004 -7.64319196339165,39.4853640164909,283.799899999998 -7.64338256792865,39.4856267048857,284.452999999994 -7.64357334045058,39.4862238317699,283.528900000005 -7.64389939566106,39.4869475252454,282.825700000001 -7.64399562049935,39.4871790331874,283.155100000004 -7.64415018283051,39.4873552208318,282.6878 -7.64431597679765,39.4877525230839,283.376900000003 -7.64437951104443,39.4879518448026,282.815100000007 -7.64462258707549,39.48825761698,283.095600000001 -7.64499809633898,39.488695822852,283.183199999999 -7.645188532891,39.4891878403717,283.4035 -7.64560796348367,39.4899921675409,282.532000000007 -7.64585422314408,39.4905938206423,283.812699999995 -7.64603359604508,39.4910219686548,284.289699999994 -7.64619285207357,39.4915941173145,284.140100000004 -7.64631858117906,39.4920049981397,282.250400000004 -7.64658328145562,39.4924085025661,279.925600000002 -7.64675494321823,39.4926785681008,279.540200000003 -7.64687547467148,39.4931526485243,279.047099999996 -7.64696834609881,39.4938216917071,279.595000000001 -7.64696935221192,39.4944302181977,280.244999999995 -7.6469490673545,39.4951369798584,279.719299999997 -7.64693079472331,39.4956258122682,279.501199999999 -7.64682216594756,39.495946504465,279.875899999999 -7.64681898052156,39.4965587181847,280.972399999999 -7.64690665519497,39.4969538411319,281.254000000001 -7.6467690243103,39.4972150217245,281.4758 -7.64678562068518,39.4974131697836,281.452999999994 -7.6469276101956,39.4976195322243,280.736499999999 -7.64741426351764,39.4984811916119,279.491599999994 -7.64761526156246,39.4988665915788,279.845600000001 -7.64799831397938,39.4994147683186,279.375599999999 -7.64814700941343,39.5000192712583,279.082999999999 -7.64839427518695,39.5006923379713,280.762499999997 -7.64866316700264,39.501183517138,281.5052 -7.64879057146612,39.5019927065476,283.053100000005 -7.64884203684706,39.5029472373217,284.385899999994 -7.64899056429615,39.5041186918257,283.616699999999 -7.64909969612844,39.5044879989252,283.762000000002 -7.64910874845155,39.5050676914803,283.261199999994 -7.64913406207793,39.5053875444269,284.421400000007 -7.649447545366,39.505820721287,289.645699999994 -7.6497040314476,39.5066880809054,291.688399999999 -7.64989463598461,39.5073167232621,297.342300000004 -7.65002589691559,39.5077202282165,299.878500000006 -7.65002120321822,39.5077177137035,299.8897 -7.65021197484185,39.5082233098815,301.085399999996 -7.65027115136121,39.5083523910861,301.062600000005 -7.65045840248722,39.5084219609204,300.2497 -7.65049880331881,39.5084878428197,300.058499999999 -7.65031071406465,39.509016070523,301.584300000002 -7.65010368113772,39.5096877963494,302.755499999999 -7.64981819294717,39.5104418323099,304.167700000005 -7.6495367292091,39.511494766576,303.903099999996 -7.6491647404432,39.5125047865741,306.401899999997 -7.64883264855403,39.5134076851211,306.804300000003 -7.64879912163099,39.5135149734619,306.844700000001 -7.64893440521784,39.5140653292539,306.800700000007 -7.64896122711558,39.5152830515567,305.482900000003 -7.6490299590146,39.5145548324356,306.695000000007</coordinates>
</LineString>
</Placemark>
</Folder>
</Document></kml>
