<?xml version="1.0" encoding="UTF-8"?>

<kml xmlns:xsd="http://www.w3.org/2001/XMLSchema" xmlns:gx="http://www.google.com/kml/ext/2.2" xmlns:atom="http://www.w3.org/2005/Atom" xmlns="http://www.opengis.net/kml/2.2">
<Document>
<name>PT09a_14a_alter_do_chao-crato</name>
<visibility>1</visibility>
<Schema name="PT09a_14a_alter_do_chao-crato" id="kml_schema_ft_PT09a_14a_alter_do_chao-crato">
<SimpleField type="xsd:string" name="id">
<displayName>id</displayName>
</SimpleField>
<SimpleField type="xsd:string" name="nombre">
<displayName>nombre</displayName>
</SimpleField>
<SimpleField type="xsd:double" name="longitud">
<displayName>longitud</displayName>
</SimpleField>
<SimpleField type="xsd:string" name="_formato">
<displayName>_formato</displayName>
</SimpleField>
</Schema>
<Folder id="kml_ft_PT09a_14a_alter_do_chao-crato">
<name>PT09a_14a_alter_do_chao-crato</name>
<Placemark id="kml_1">
<name>&lt;img height='20' src='https://nco.ign.es/iconos/icono_todos_caminos_azul.png' /&gt;&lt;img height='20' src='https://nco.ign.es/iconos/Camino Santiago_20.png' /&gt;&lt;img height='20' src='https://nco.ign.es/iconos/icono_todos_caminos_azul.png' /&gt;  Camino de Santiago </name>
<visibility>1</visibility>
<description><![CDATA[<!DOCTYPE html>
<html>
<head>
<style>
#nco {
  border-collapse: collapse;
  overflow:hidden;
}
#nco th, #nco td {
  padding: 4px;
  text-align: left;
}
#nco th {
  color: #364B5F;
  padding-right: 5px;
}
#nco td {
  color: rgb(51, 51, 51);
  font-size: 12px;
  padding-right: 5px;
}
</style>
</head>
<body>
<table id="nco">
<tr>
<td>Caminos Portugueses</td>
</tr>
<tr>
<th><b>Camino: </b></th>
<td>PT09a Caminho Nascente Tavira-Trancoso</td>
</tr>
<tr>
<th><b>Etapa: </b></th>
<td>14a Alter do Chao-Crato</td>
</tr>
<tr>
<th><b>Longitud: </b></th>
<td>13.48 km</td>
</tr>
</table>
</body>
</html>]]></description>
<Style>
<IconStyle>
<scale>0.8</scale>
</IconStyle>
<LabelStyle>
<color>ffffffff</color>
<scale>0.75</scale>
</LabelStyle>
<LineStyle>
<color>ffff0000</color>
<width>3.0</width>
<gx:labelVisibility>1</gx:labelVisibility>
</LineStyle>
<PolyStyle>
<color>66ff0000</color>
</PolyStyle>
</Style>
<ExtendedData>
<SchemaData schemaUrl="#kml_schema_ft_PT09a_14a_alter_do_chao-crato">
<SimpleData name="id">PT09a_14a</SimpleData>
<SimpleData name="_formato">kml</SimpleData>
</SchemaData>
</ExtendedData>
<LineString>
<extrude>0</extrude>
<tessellate>1</tessellate>
<coordinates>-7.65616916163165,39.1980127619268,270.826799999995 -7.65622347557035,39.1996014678745,274.394400000005 -7.65645498399549,39.2011501081665,278.796300000002 -7.65649789921156,39.2014112884596,279.046000000002 -7.65641860671806,39.2016193267495,279.308699999994 -7.65641139863622,39.2016184886109,279.323600000003 -7.65599833799723,39.2021986842091,281.6345 -7.65566322956533,39.2028735948874,283.380999999994 -7.65548033616674,39.2033050956846,284.614199999996 -7.65533600025678,39.2035074348847,285.103300000002 -7.65510063626246,39.2038383521366,285.790999999997 -7.6549775895264,39.2042252609534,286.488899999997 -7.65489075298115,39.2045020315008,287.437900000004 -7.65494339156187,39.2049464397391,289.130900000004 -7.65498010480921,39.2051004994174,289.234400000001 -7.65519350768978,39.2054770142246,289.831399999995 -7.65530833933255,39.2056763358907,290.462599999999 -7.65534622577967,39.2058731427275,290.389599999995 -7.65537740630315,39.2062612250682,291.509099999996 -7.6554994469261,39.2066662387663,292.628299999997 -7.65542786557098,39.2071133292059,293.801200000002 -7.65538327409859,39.2074781100069,294.678899999999 -7.65543239218172,39.207915813005,295.597299999994 -7.65549274190083,39.2081989533021,295.918900000004 -7.65573011722308,39.208617713435,297.962799999994 -7.65613077212799,39.2091005108791,298.565199999997 -7.6561493798308,39.2091256565318,298.515400000004 -7.65643067648223,39.2091640459898,299.1443 -7.65642749105622,39.2091618666458,299.128200000006 -7.65648314707796,39.209252391153,299.444699999993 -7.65638792925112,39.2100481691759,302.852899999998 -7.65623621637605,39.21115441246,304.484899999996 -7.65591904550373,39.2118154091099,303.222299999994 -7.65540221687299,39.212775807572,299.577000000005 -7.6553986963754,39.2138037641401,297.339999999997 -7.65535108746196,39.2145105264463,294.249400000001 -7.65480006086668,39.2154972438347,287.727499999994 -7.65431122823178,39.2167815190154,279.565100000007 -7.65391392673784,39.2178000881849,273.948699999994 -7.65367906580006,39.2185784315799,271.584700000007 -7.65364637610685,39.2193200624905,269.2935 -7.6535575282337,39.2200566643187,266.773799999995 -7.6533781553327,39.2206284774132,266.150800000003 -7.65331395004439,39.2214346490068,264.969800000006 -7.65322661044259,39.2218441891956,263.941200000001 -7.65301102735083,39.2220354640409,262.633100000006 -7.65300331621241,39.2222369649699,262.469899999996 -7.65323281330962,39.2223923653393,262.585999999996 -7.65335217156313,39.222663603406,261.958899999998 -7.65348410263731,39.2234919031943,258.985799999995 -7.65332048798303,39.2236675879535,257.882599999997 -7.65336105590128,39.2239093222761,257.085200000001 -7.6535245034689,39.22405499992,256.482600000003 -7.65371074938012,39.2248353547013,252.098299999998 -7.6538455299104,39.2255478166483,250.167199999996 -7.65365492537343,39.2261244917018,248.4182 -7.65361519558337,39.2267982288334,247.020799999998 -7.65312485377878,39.2272037454949,247.620500000005 -7.65311814875351,39.2278744654199,249.536600000007 -7.65282562046606,39.2285292597089,251.933799999999 -7.65253024182423,39.2287143322309,254.329500000007 -7.65215490054569,39.2287570795845,256.924499999994 -7.65146238749654,39.2287545654443,260.991200000004 -7.65116617072655,39.2288844843715,263.190000000002 -7.65089107694214,39.2292102050806,265.123999999996 -7.65070516610253,39.229589905649,266.354600000006 -7.65081228660688,39.23036808144,269.883900000001 -7.65092812436277,39.2308560761493,274.419599999994 -7.65121361255332,39.2314572259501,278.911200000002 -7.65134889614018,39.2316875607931,281.489700000006 -7.65156313804724,39.231791160813,282.172500000001 -7.65200704323984,39.2318094332891,279.674799999993 -7.65236662716995,39.2319004609052,279.3416 -7.65265613801635,39.2321532590313,282.241299999994 -7.65272554005857,39.2326008530856,285.926500000001 -7.65257818580925,39.2329322733864,287.814799999993 -7.65235606567718,39.2332923596834,290.314100000003 -7.65228901093277,39.233499560398,291.125400000004 -7.65244625473507,39.2339305578008,291.729000000007 -7.65272235463256,39.2345558478596,293.016499999998 -7.65294263142173,39.2350450157835,293.538 -7.65295654542713,39.235662594201,294.112099999998 -7.65285126826573,39.2362818495902,291.3802 -7.65284623949678,39.2367622998813,292.413799999995 -7.6529310647141,39.2372848280544,292.159299999999 -7.65295268985796,39.2377111314975,293.069900000002 -7.65294531379116,39.2380326616788,292.441399999996 -7.65291664765211,39.2380284703755,292.767900000006 -7.65273056882752,39.2388720249405,290.713399999993 -7.65265060619082,39.2394161781278,284.8269 -7.65271816399177,39.2403286323338,274.676699999996 -7.65277096965911,39.2412645557451,266.578599999993 -7.65276761714648,39.2412660640994,266.563899999994 -7.65315435804598,39.2413748617222,267.160900000003 -7.65340598334359,39.241508804362,267.207699999999 -7.65354311117168,39.2417203632209,267.559200000003 -7.65366414568151,39.2419032567146,268.099300000002 -7.65378249782186,39.2421677897977,267.391499999998 -7.65398852553397,39.2427761477488,262.407399999996 -7.65421416616367,39.2431707682954,254.600000000006 -7.65460710993019,39.2434798925387,251.915500000003 -7.65503156929182,39.2437511311977,250.614400000006 -7.65534136409734,39.2439519617272,250.215599999996 -7.65539936741693,39.2441412248604,249.886700000003 -7.65569105757618,39.2446412888224,249.130900000004 -7.65592491240084,39.2449086715994,248.130600000004 -7.65626035590436,39.245112351869,247.879100000006 -7.65659663843433,39.2453438600458,247.305500000002 -7.65720130882511,39.2459103092705,247.315400000007 -7.65785694154029,39.2465523628709,247.342699999994 -7.65857912594328,39.2472918142909,247.626600000003 -7.65929795783362,39.2476148533002,247.897400000002 -7.65991184853248,39.2478062958245,246.273300000001 -7.66086570934556,39.2478847500223,243.097699999998 -7.66189936570871,39.2480458502508,241.299299999999 -7.66236204658908,39.2482233789682,242.021299999993 -7.66277192180206,39.2485531233575,242.580700000006 -7.6631633563989,39.2489666861992,244.123099999997 -7.66335781650508,39.2494241709341,245.009999999995 -7.66340710257316,39.2497941482176,245.995800000004 -7.66346175248178,39.2500147596056,245.961200000005 -7.66359200729965,39.2501825651518,246.047399999996 -7.66386089821704,39.2503227107394,245.577600000004 -7.66420522695701,39.2504248022142,244.814100000003 -7.66452675645508,39.2504147438892,244.543000000005 -7.66489388443696,39.2503889278164,244.726500000004 -7.66545614266824,39.2505889198719,246.1299 -7.665659152041,39.2506655302877,246.238500000007 -7.66578286892022,39.2507047575373,246.662299999996 -7.66612250396286,39.2507377824263,247.726800000004 -7.66658568789977,39.2508123815823,248.675399999993 -7.66705239233426,39.2509642613451,249.596300000005 -7.66732849223179,39.2511099391689,249.923899999994 -7.66756519651251,39.2514866218181,251.017099999997 -7.66771154464871,39.2523419111274,253.910199999998 -7.66773484604886,39.2525204459712,253.593999999997 -7.66801614270029,39.2529687100445,256.1109 -7.66839366419005,39.2537146993411,257.6345 -7.66862416650204,39.2541545813611,259.334900000002 -7.66886690656319,39.2543549090884,260.0334 -7.66892759135388,39.2546328530367,260.176399999997 -7.668910994979,39.2548973861044,259.521800000002 -7.66893781687677,39.2553119549249,257.075100000002 -7.6691574235227,39.2558566107777,258.075800000006 -7.66939865441416,39.2563142627166,261.141300000003 -7.6692990770632,39.256557672914,262.539499999999 -7.66918525063525,39.2567517982288,263.274000000005 -7.6690184514533,39.2569214476339,264.841799999995 -7.66870396205211,39.2571177518834,269.472699999998 -7.66842434165699,39.2572786848295,270.613200000007 -7.66817925519632,39.2574094419676,269.962400000004 -7.66796451023272,39.257521424623,270.390400000004 -7.66780190169156,39.2576914095184,267.772299999997 -7.66762219371898,39.257925935287,265.407399999996 -7.66753150160452,39.2581192214358,264.838799999998 -7.66738062685761,39.2584204672022,263.747499999998 -7.66727484753796,39.2587245627837,262.6014 -7.66734324436539,39.2588752693865,262.110100000005 -7.66744516811583,39.2591076154881,261.053599999999 -7.66756771089699,39.2593490148726,260.011100000003 -7.66761314139586,39.2594779284071,259.9041 -7.66769411014568,39.2595935983658,259.779599999994 -7.667698971828,39.2597852085061,258.420899999997 -7.66769276896094,39.2599516732984,257.207899999994 -7.66775043720895,39.2602416871473,255.241200000004 -7.66790751392458,39.2606284283748,256.499100000001 -7.66799099705887,39.2607940544281,256.671799999996 -7.66802938656253,39.2610357888196,256.559200000003 -7.66793550902209,39.2612352782379,257.397500000006 -7.66779318444006,39.261447005031,259.216 -7.66770668296639,39.2615596579916,259.580300000001 -7.66747182202861,39.2618417924702,261.091400000005 -7.6672389733171,39.2620236799194,261.197700000004 -7.66693722472158,39.2621599694799,262.101699999999 -7.66647202855845,39.2622925710926,262.747900000002 -7.66602359675511,39.2624302024943,261.2408 -7.66534449555315,39.2626191305931,257.779699999999 -7.66481593222986,39.2627954852362,254.450299999997 -7.66430111582538,39.2630008419201,249.899900000004 -7.66380809254969,39.2632323501596,247.052800000005 -7.66334708792564,39.2634420657497,242.048899999994 -7.66299135956474,39.2635894195708,238.343200000003 -7.66280595178164,39.2637025754216,237.535300000003 -7.66265910148723,39.2638502639315,236.536999999997 -7.66254711930052,39.2639962773425,235.8943 -7.66241015855906,39.2643087546318,235.942599999995 -7.66231209037779,39.2647244967525,236.699299999993 -7.66213774714408,39.2649972438492,236.569399999993 -7.66213405866153,39.2650037815485,236.560200000007 -7.66193624604272,39.265202767957,235.387600000002 -7.6617372593258,39.2653774469089,235.311499999996 -7.66164002927272,39.2655864918839,234.309200000003 -7.66156811284602,39.2657485974626,234.113200000007 -7.66148613798306,39.2658009005654,234.232499999998 -7.66134968029817,39.2658458279418,234.301900000006 -7.66131866686128,39.2658532036291,234.274799999999 -7.66107257428753,39.2659598216933,233.784 -7.6608192736319,39.2660778386645,232.476200000005 -7.66048634451289,39.2661866360468,231.319499999998 -7.66009809444374,39.2662136258503,228.258400000006 -7.65978293489931,39.2662280426171,227.672500000001 -7.65957120827506,39.2662267017167,227.672500000001 -7.65922872377636,39.2661841211616,225.512799999997 -7.65878347650073,39.2661113661059,223.092499999999 -7.6584818958902,39.2660065927116,221.728400000007 -7.65811158338062,39.2659437280435,219.544299999994 -7.65783498042655,39.2659402081657,218.586299999995 -7.65757799128838,39.2659098652954,216.892999999996 -7.65724422404118,39.2658706382069,214.870200000005 -7.65676779714036,39.2658201789049,211.977799999993 -7.65624677786883,39.2658572270471,209.193700000003 -7.65578258781881,39.2658570594336,206.641600000003 -7.65541847817628,39.265770725944,205.098400000003 -7.65510600100133,39.2656476793422,203.831900000005 -7.65485504674525,39.2655020018181,201.761799999993 -7.65472831242494,39.2654885912833,201.760800000004 -7.65454055734407,39.2655070309418,201.168300000005 -7.65442337840345,39.2655014989752,200.186499999996 -7.65411408575617,39.2654337737308,198.415999999997 -7.65393806626614,39.2653784525963,197.975300000006 -7.65374008566237,39.2652897726055,198.089300000007 -7.65361754198289,39.2651705816972,198.498000000007 -7.65348963446284,39.2651003412089,199.023300000001 -7.65337798734774,39.2651335338875,199.246499999994 -7.65322677752922,39.2652758584902,199.428700000004 -7.6530908237992,39.2654103042272,199.886100000003 -7.65298085294043,39.2654124832156,200.128200000006 -7.65261657531291,39.2653824760415,201.140199999994 -7.65210142383685,39.2653548161549,203.183000000005 -7.65118511350094,39.2653444226559,204.399799999999 -7.65086827770024,39.2654091309256,204.108300000007 -7.65024231723721,39.2655033434278,202.348199999993 -7.64969514710944,39.2655739187404,200.922099999996 -7.64918636558703,39.2656862361001,199.260399999999 -7.64869719788055,39.2658399600795,199.882700000002 -7.64814650635685,39.2661041580585,200.407300000006 -7.64793310347628,39.2662629115817,200.302599999995 -7.64790996916276,39.2664952575386,199.297999999995 -7.6479091310346,39.2667012849562,198.684500000003 -7.64779865711929,39.2669064737136,197.539999999994 -7.64760553819781,39.2671740240508,196.460600000006 -7.64733597623893,39.2674293371662,195.342699999994 -7.6470672524082,39.2676336878326,195.663199999995 -7.64687061298916,39.2677926082819,194.956999999995 -7.64671940317063,39.2680145616281,194.540200000003 -7.64655444733166,39.2681946046733,194.748900000006 -7.64633232719955,39.2682839555919,194.914900000003 -7.64602739407635,39.2682990430586,196.083700000003 -7.64560343687297,39.2683831973197,197.284799999994 -7.64508996165319,39.2684425414385,198.2353 -7.64477798753481,39.2684524323519,199.044800000003 -7.64440432161426,39.2686946688837,197.385399999999 -7.64382798229091,39.2689392531495,198.376399999994 -7.64316681775023,39.2693189528727,201.531600000002 -7.64254957453874,39.2696823922295,202.752099999998 -7.6420298964519,39.2699787764808,203.016099999993 -7.64169629629137,39.2701561376975,202.637700000007 -7.64138415418803,39.2702126317591,202.421400000007 -7.64136487634202,39.2702127993621,202.415999999997 -7.64108408274716,39.2702436445692,201.758199999997 -7.64072902542772,39.2703464066558,200.793600000005 -7.64064336208224,39.2705427108642,199.199600000007 -7.64067336940598,39.2709049769236,196.973199999993 -7.64089247209704,39.2713879418744,196.155899999998 -7.64108156746435,39.2717627811633,196.530100000004 -7.6409677419347,39.2721733266355,196.878299999997 -7.64094745707727,39.272422771612,197.781000000003 -7.64099406077589,39.2726445573003,198.241299999994 -7.64125239109877,39.273252077127,199.535699999993 -7.64144081632288,39.2736161873268,201.094800000006 -7.64149328691864,39.2738076297868,201.469599999997 -7.64140594731681,39.2741211133993,202.541899999997 -7.64123948320647,39.2744699681371,204.160999999993 -7.64107972412137,39.2747464032768,205.399600000004 -7.64097478203158,39.2749534363257,207.228499999997 -7.64096321532399,39.2752439527649,209.117199999993 -7.64087889316321,39.2755488863258,209.866299999994 -7.64079909761314,39.275634549231,210.131999999998 -7.64073807775083,39.2757369765768,210.173999999999 -7.64075668545364,39.2758960650143,210.156400000007 -7.64076607284834,39.2761386374173,209.930300000007 -7.64079323071603,39.276361092823,209.522500000006 -7.64083178730635,39.2765486802162,209.3753 -7.64093941086727,39.276767614986,209.442500000005 -7.64119304749278,39.2772388460445,209.638800000001 -7.6415439132731,39.2777781377817,209.347500000003 -7.64186192317188,39.2782666349928,207.4179 -7.64228956795951,39.2788711375704,203.526299999998 -7.6424436272341,39.2797809095721,199.965500000006 -7.64241311685381,39.2800092326053,202.157300000006 -7.64246022360897,39.2800813168212,202.903399999996 -7.64259450108271,39.2801919580839,203.975099999996 -7.64290127934551,39.280324224493,205.437999999995 -7.64307964613336,39.2804224603852,207.077999999994 -7.64326723322931,39.2806695591056,211.903099999996 -7.64356378507092,39.2809198423159,218.708400000003 -7.64396963672974,39.2811826991491,223.732399999994 -7.64435470137292,39.2814064958364,229.956699999995 -7.64453323524743,39.2815017138426,232.291599999997 -7.64468897167666,39.2816079965877,233.146200000003 -7.64470456193842,39.2816282809001,233.146200000003 -7.6447821781756,39.2818269322345,235.457800000004 -7.64479123049872,39.2819456199009,237.626699999993 -7.64456223735639,39.2820639722167,240.736099999995 -7.64456860731007,39.2820716834323,240.846699999995 -7.64495350396827,39.2822255751982,241.984200000006 -7.64546798530116,39.2826374618332,239.683600000004 -7.64557812324656,39.282890595787,240.704100000003 -7.64558147665752,39.2830679563046,241.172900000005 -7.64550754800459,39.2832297273229,242.713600000003 -7.64542004131614,39.2837079987749,246.056899999996 -7.64533672437014,39.2838127728192,248.115300000005 -7.64490019524434,39.2841007744342,253.842600000004 -7.64430072160751,39.2844298480569,260.809099999999 -7.64429669805334,39.2844596878493,261.061799999996 -7.64453625268848,39.2846764438417,260.915800000002 -7.64484571332068,39.2848653717619,262.206099999996 -7.64521669597347,39.2851243729511,263.420700000002 -7.64554090784097,39.2853733150063,264.856700000004 -7.64598716033142,39.2857613971323,266.031300000002 -7.64631606679459,39.2860346470873,266.463900000002 -7.64620173731007,39.2862614618179,266.898100000006 -7.64609394576418,39.2865110749546,267.901500000007 -7.6459640260179,39.2868458483083,268.805699999997 -7.64580627915906,39.287232924549,270.111300000004 -7.64566278047896,39.2876075956312,271.719700000001 -7.645467147173,39.2879976893125,272.417799999996 -7.64582220449241,39.288489036072,272.273400000005</coordinates>
</LineString>
</Placemark>
</Folder>
</Document></kml>
