<?xml version="1.0" encoding="UTF-8"?>

<kml xmlns:xsd="http://www.w3.org/2001/XMLSchema" xmlns:gx="http://www.google.com/kml/ext/2.2" xmlns:atom="http://www.w3.org/2005/Atom" xmlns="http://www.opengis.net/kml/2.2">
<Document>
<name>FR05a_07a_pouzols_miniervois-rieux_minervois</name>
<visibility>1</visibility>
<Schema name="FR05a_07a_pouzols_miniervois-rieux_minervois" id="kml_schema_ft_FR05a_07a_pouzols_miniervois-rieux_minervois">
<SimpleField type="xsd:string" name="id">
<displayName>id</displayName>
</SimpleField>
<SimpleField type="xsd:string" name="nombre">
<displayName>nombre</displayName>
</SimpleField>
<SimpleField type="xsd:double" name="longitud">
<displayName>longitud</displayName>
</SimpleField>
<SimpleField type="xsd:string" name="_formato">
<displayName>_formato</displayName>
</SimpleField>
</Schema>
<Folder id="kml_ft_FR05a_07a_pouzols_miniervois-rieux_minervois">
<name>FR05a_07a_pouzols_miniervois-rieux_minervois</name>
<Placemark id="kml_1">
<name>&lt;img height='20' src='https://nco.ign.es/iconos/icono_todos_caminos_azul.png' /&gt;&lt;img height='20' src='https://nco.ign.es/iconos/Camino Santiago_20.png' /&gt;&lt;img height='20' src='https://nco.ign.es/iconos/icono_todos_caminos_azul.png' /&gt;  Camino de Santiago </name>
<visibility>1</visibility>
<description><![CDATA[<!DOCTYPE html>
<html>
<head>
<style>
#nco {
  border-collapse: collapse;
  overflow:hidden;
}
#nco th, #nco td {
  padding: 4px;
  text-align: left;
}
#nco th {
  color: #364B5F;
  padding-right: 5px;
}
#nco td {
  color: rgb(51, 51, 51);
  font-size: 12px;
  padding-right: 5px;
}
</style>
</head>
<body>
<table id="nco">
<tr>
<td>Voie des Piemonts</td>
</tr>
<tr>
<th><b>Camino: </b></th>
<td>FR05a Voie des Piemonts</td>
</tr>
<tr>
<th><b>Etapa: </b></th>
<td>07a Pouzols Miniervois-Rieux Minervois</td>
</tr>
<tr>
<th><b>Longitud: </b></th>
<td>22.91 km</td>
</tr>
</table>
</body>
</html>]]></description>
<Style>
<IconStyle>
<scale>0.8</scale>
</IconStyle>
<LabelStyle>
<color>ffffffff</color>
<scale>0.75</scale>
</LabelStyle>
<LineStyle>
<color>ffff0000</color>
<width>3.0</width>
<gx:labelVisibility>1</gx:labelVisibility>
</LineStyle>
<PolyStyle>
<color>66ff0000</color>
</PolyStyle>
</Style>
<ExtendedData>
<SchemaData schemaUrl="#kml_schema_ft_FR05a_07a_pouzols_miniervois-rieux_minervois">
<SimpleData name="id">FR05a_07a</SimpleData>
<SimpleData name="_formato">kml</SimpleData>
</SchemaData>
</ExtendedData>
<LineString>
<extrude>0</extrude>
<tessellate>1</tessellate>
<coordinates>2.82515600330975,43.2870529779416,69.5442000000039 2.82421974498463,43.2870601859756,66.3006000000023 2.82380115252015,43.2870134151513,64.8926999999967 2.82282566656321,43.2868162730342,63.8160999999964 2.82164633310539,43.2864871992127,62.402900000001 2.82114140715219,43.2860957646308,60.930600000007 2.82065810634281,43.2861274483001,60.6762000000017 2.81968228531429,43.2863428630716,60.8598999999958 2.81956678262999,43.2864317112579,61.7045999999973 2.81831804623165,43.2866887000694,64.8252000000066 2.81803574436539,43.2864712737727,64.2473000000027 2.81776433816524,43.2864871992127,64.0803000000014 2.81708104542416,43.2862639052521,63.5829999999987 2.81673822585384,43.2860957646308,63.9704999999958 2.81634729341525,43.2856176604258,63.4802000000054 2.81613003496547,43.2853844759051,63.5384000000049 2.81578034148663,43.2851593383945,64.0063999999984 2.81452305582171,43.2842777298506,63.6294000000053 2.8134099389801,43.2832858155393,65.436400000006 2.81267702599769,43.2826375588967,66.942200000005 2.81222088305596,43.2824913786164,68.2136000000028 2.8116400171219,43.2825901169823,70.5258000000031 2.8109570594524,43.2826343734767,72.9510000000009 2.81028265104949,43.2825901169823,74.6854000000021 2.80970714985429,43.2826335357589,76.135500000004 2.80890902547044,43.2826850007741,78.8221000000049 2.8087407162205,43.2823529094714,79.2167999999947 2.80747018759167,43.2824043740699,81.7687000000005 2.80645882741388,43.2825949784952,86.8793000000005 2.8057708400771,43.2825901169823,90.0320999999967 2.80467046404119,43.2823976690324,93.7804000000033 2.80293624841889,43.2814508492398,102.157399999996 2.80197031784167,43.2811236193706,103.881999999998 2.80185095958816,43.2810287364136,103.491599999994 2.80137319150261,43.2811908424569,106.695200000002 2.80125617964866,43.2813324964653,108.087499999994 2.80143287018022,43.2817363366919,108.623900000006 2.80136464133774,43.2820821737197,109.638399999996 2.80030349293365,43.2823805699737,116.231400000004 2.7998366205142,43.282305467989,119.943700000003 2.79955431774965,43.2823410074143,122.043300000005 2.79856072714647,43.2825465314157,130.117899999997 2.79827557492586,43.2825161891097,134.001999999993 2.79773544489497,43.2824596950152,138.973400000003 2.79681226244714,43.2821611317353,147.445800000001 2.79395118396277,43.2821078227589,173.237200000003 2.79313679827566,43.2821078227589,175.418699999995 2.79243640610313,43.2825426756849,185.801399999997 2.79165454212425,43.28257419183,191.557499999995 2.79068827647542,43.2825161891097,202.829100000003 2.78905933711618,43.2827086373386,210.4709 2.78897250057093,43.2825820707002,206.427200000006 2.78775092204024,43.2824318671355,206.870500000005 2.78727851779526,43.2823963277633,203.919899999994 2.78683880324349,43.2822422686442,195.962100000004 2.78657276178219,43.2821078227589,191.271599999993 2.78651844694516,43.2809695602986,172.658800000005 2.78693100452761,43.2801947367994,157.161500000002 2.78743660062401,43.2795967723283,148.367899999997 2.78753919541598,43.2794043234118,144.507599999997 2.78732813893493,43.2791233624264,141.586500000005 2.78737625090494,43.2790366931407,139.555300000007 2.78776181860466,43.2789852283094,138.050399999993 2.78824495142908,43.2791158186071,137.087 2.78844041764838,43.2785346173309,123.971799999999 2.7884459494739,43.2781907914739,120.669200000004 2.78811469661118,43.277933802734,116.7736 2.78797354522892,43.2776414414554,112.028300000005 2.78811469661118,43.2773725499824,105.459600000002 2.78808703658529,43.2767955400121,100.282600000006 2.78809843620622,43.2763368820602,97.1187000000064 2.78787028029375,43.2760458623663,96.5703999999969 2.78820689789533,43.2755226641004,93.0749000000069 2.78839699937573,43.274870384808,90.9401999999973 2.78822332628525,43.2748861425805,91.6857000000018 2.78681952539747,43.2749935985378,93.2949999999983 2.78577983415226,43.2749317402262,93.4844000000012 2.7848886694578,43.2747617552841,94.1680999999953 2.78395341724583,43.274434357977,93.6420000000071 2.78362937246498,43.2743193579263,93.5595999999932 2.78115034118271,43.2743098029755,94.8990000000049 2.77792951078327,43.2744527980971,92.9866000000038 2.77695352176979,43.2746227832481,91.1977999999945 2.77542583601783,43.2748390360308,91.1459000000032 2.77340043329281,43.2749806904383,90.0160999999935 2.77207357849905,43.274978008227,90.0139999999956 2.7717765236009,43.2752715425609,91.3496000000014 2.77060959497883,43.2755804995153,89.7030999999988 2.76960678406758,43.2759670730022,87.8494000000064 2.7667344730489,43.2770718074103,84.9375 2.76478350203339,43.2773480748623,78.1821999999956 2.76275927160981,43.2779438607009,72.9973999999929 2.76039389877057,43.2788868248252,68.6928999999946 2.75887643943983,43.2798732075083,67.7099000000017 2.75649195494291,43.2803072223069,69.4756999999954 2.75410747134432,43.2807412372794,67.2244000000064 2.75134446104121,43.2812803612941,59.1110999999946 2.74906743301859,43.2822010292395,53.8105000000069 2.74754997368782,43.2826744393911,52.6833999999944 2.7448402721086,43.2827138343211,52.2152999999962 2.74180535254877,43.282871581852,50.1244000000006 2.73898718838214,43.282871581852,50.3331000000035 2.73752387590345,43.2831082864142,49.3701000000001 2.73584380713322,43.2837790062457,48.2816000000021 2.73405544465883,43.2839761490509,49.213499999998 2.73299463132636,43.2840938309712,50.0991999999969 2.73163458288451,43.2842150328181,51.7252000000008 2.73123778444711,43.2843174598665,53.4719000000041 2.73081131285922,43.2843303679472,53.8375999999989 2.73022474711467,43.284123334793,53.8215000000055 2.72970942765362,43.2842269351624,53.8916000000027 2.72981604599976,43.2838775777281,53.6543999999994 2.72942511356113,43.2836965288379,53.1454999999987 2.72903418202087,43.2836834525588,53.1552999999985 2.72855423372413,43.284032810454,53.9817000000039 2.72821661090773,43.2839164696513,54.0273000000016 2.72733533756288,43.2840157112008,53.9135999999999 2.72560112194057,43.2840157112008,51.3773999999976 2.72416731372908,43.283730055918,51.5871000000043 2.7222518809645,43.2835077680698,52.4149000000034 2.72091932636025,43.2834068502775,52.957899999994 2.72000636943531,43.2832953703887,52.8309000000008 2.71855982041812,43.2832854800634,54.5146999999997 2.71847818062681,43.2829332725278,54.5920999999944 2.71849595020143,43.2826226388875,54.0228000000061 2.71810501776284,43.2826226388875,54.539499999999 2.71774945738685,43.282661530959,55.4481999999989 2.71762507036439,43.2824674064871,55.3138999999937 2.71750068334197,43.2820664158488,54.8512999999948 2.71680766723624,43.2820793244071,55.206600000005 2.71565247330675,43.2822345571438,55.023199999996 2.71536815921427,43.2822734488094,55.1401000000042 2.71517269299497,43.2820793244071,55.4412000000011 2.71501276682324,43.2818593828375,55.7955999999976 2.71465737353392,43.2815618256837,56.2274999999936 2.71433752029217,43.2809279858503,55.4777999999933 2.7141065149236,43.2804492119023,54.6110999999946 2.71362673461182,43.280436303652,55.724000000002 2.71336002300732,43.280358687328,55.8650000000052 2.713004629718,43.2798800802443,55.8334999999934 2.71136965637503,43.2802939785342,57.0570000000007 2.70945053512791,43.2807727530498,58.1097000000009 2.70815318460131,43.2808114775782,59.8282000000036 2.70744239892096,43.2811479268632,59.2575999999972 2.70436791665769,43.2820017075633,60.3733000000066 2.70328396901167,43.2822474650125,61.7978000000003 2.70246639879689,43.2825968226525,63.2862000000023 2.70116921535692,43.2827909480194,65.7920000000013 2.70077828291833,43.2824674064871,65.1444999999949 2.70033387466919,43.2822605409463,65.4703000000009 2.70001402142743,43.2821698483832,65.3787000000011 2.69878791628604,43.2818077503629,64.2027999999991 2.69855691091744,43.2816912418136,63.7972000000009 2.69814804181757,43.2816654258374,63.7663999999932 2.69679754965371,43.2814065925384,64.4554999999964 2.69589113066741,43.2814325766945,65.4619999999995 2.69518034498706,43.2814454847334,65.9367999999959 2.69430963313499,43.2813031600144,67.1592999999993 2.69350983159653,43.2812126354027,69.3417999999947 2.69217710900729,43.2812513596511,69.851999999999 2.69215933943267,43.2810961270217,69.8521000000037 2.69119961172248,43.2812642677285,70.3375999999989 2.69047105646748,43.2813547922633,70.764599999995 2.68992019785716,43.2814065925384,71.2311000000045 2.68885385269913,43.2812513596511,71.9198999999935 2.68789429207557,43.2810572346034,73.2992999999988 2.68652586235213,43.2811350187611,76.3439999999973 2.68503304560624,43.2811995592438,78.0151999999944 2.68348708722309,43.2810443264822,77.3456000000006 2.68224304542041,43.2809020021327,77.6306000000041 2.68064361032842,43.280513919877,71.7299999999959 2.68007498214344,43.280358687328,72.7767000000022 2.67957743225704,43.2799964209181,75.155700000003 2.67868878284536,43.2797117715614,77.0436999999947 2.67774699269475,43.2797117715614,77.1165000000037 2.67660956833988,43.279867004453,77.0136000000057 2.67572108691318,43.2800482210418,76.3810999999987 2.67426380931656,43.2802681626191,75.7954000000027 2.67323317039446,43.2803975788848,77.1247000000003 2.67294885630197,43.2803457790586,77.6227000000072 2.67206020689032,43.2799188046869,79.0864000000001 2.67079856259966,43.2795178142547,79.2333000000071 2.66930574585376,43.2790390403279,78.2697000000044 2.66809724230203,43.2787027585766,78.6098999999958 2.66715545215141,43.2785215412504,80.8675999999978 2.66630250987399,43.2783016005534,83.614499999996 2.66576925285336,43.2781463675921,84.8015000000014 2.66360118957639,43.2776806689479,87.5053000000044 2.66285486474674,43.2775641603436,88.9290999999939 2.66185959788728,43.2774347439372,90.9946000000054 2.66146866634699,43.277615960576,91.198000000004 2.66042025785027,43.2778617180824,91.1407000000036 2.65951383886397,43.2779135180615,91.5751000000018 2.65877438704458,43.2776659171116,91.5550999999978 2.65832880469733,43.2775269451678,91.5396000000037 2.65788322324842,43.2771252843031,89.1609999999928 2.6577559858716,43.2768936080972,85.7565000000031 2.65731023643773,43.2769948617396,84.533500000005 2.6569193039991,43.2770982943936,84.6558999999979 2.6559242051246,43.2773700359578,82.0633999999991 2.6553198698054,43.2773700359578,76.3551000000007 2.6550177861383,43.2773053272555,70.8421999999991 2.65478678076974,43.2773700359578,70.4208999999973 2.65421815258476,43.2771113701259,61.8312000000005 2.65343628860588,43.2768396287147,59.0550999999978 2.65276087408984,43.2768267210067,58.7099000000017 2.65100151282612,43.277059570118,58.3804999999993 2.64989979560548,43.2769430616325,57.4997000000003 2.64878014082523,43.2767620123807,57.3018000000011 2.64815820391637,43.2766455039795,57.7057000000059 2.64833590056105,43.2772924189923,58.0267000000022 2.64856690503128,43.2778746262248,60.0157000000036 2.64860244507888,43.2781463675921,60.9060000000027 2.64878014082523,43.2787414824604,64.5200999999943 2.64814043434172,43.2786638659363,61.7026000000042 2.64718087371819,43.2786249739253,60.3353999999963 2.64602752402994,43.2787517083712,58.8576999999932 2.6453623359351,43.2788323423252,58.1796999999933 2.64469714873855,43.2789937779895,58.0354999999981 2.64420932131847,43.2787678019475,58.2514999999985 2.6424796323069,43.2788807897464,58.9406000000017 2.64048390093571,43.2791714741173,59.6820000000007 2.63946684094744,43.2792723923952,59.007500000007 2.6380668956289,43.2793005559099,59.1674999999959 2.63682503224079,43.2796234262875,59.9587000000029 2.63394232861256,43.2799623908281,64.071299999996 2.63219051050226,43.2802852616176,67.7810000000027 2.6301947791311,43.2808825561916,72.1918000000005 2.62866474697962,43.2809310032882,75.2979999999952 2.62649165493367,43.2811086996441,82.2685000000056 2.62540502491825,43.281092438616,86.5164999999979 2.62478409322417,43.2813023216243,86.8730999999971 2.62400809704073,43.2817220874307,85.315300000002 2.6230322760122,43.2818996160232,85.2782000000007 2.62223398274507,43.2822224869957,85.1416000000027 2.62163534723639,43.2824162767685,85.1934999999939 2.62092573565408,43.2830135713483,86.9563000000053 2.61926259833035,43.2831426521832,90.6132000000071 2.61819826450025,43.2832071931519,90.2180999999982 2.61655725537688,43.2831750063817,90.5351999999984 2.61480543726658,43.2832232862035,93.2826000000059 2.61414025007007,43.2831910994419,92.9713000000047 2.6143176107448,43.2834331690543,93.3332999999984 2.61236630375937,43.2833847219884,93.4462000000058 2.61134622633007,43.2834816167357,94.9355000000069 2.60954998473235,43.2838529345455,97.6526000000013 2.60813092775613,43.2841434512945,99.3315000000002 2.60757654864822,43.2841918990642,99.3782000000065 2.60768735763515,43.2846762052696,102.578999999998 2.60691119346671,43.284869827013,102.546100000007 2.60482678220732,43.285031263006,98.8530000000028 2.60371802399147,43.2852572386722,98.6766000000061 2.60267581746347,43.2856446504798,98.093200000003 2.60207718195476,43.2861450498229,98.9464000000007 2.60158935543297,43.2862742992631,98.7872000000061 2.6000814514819,43.2864679211512,97.8573000000033 2.59919447832656,43.2866778039243,98.1347999999998 2.59892826888031,43.2870491218425,99.3521000000037 2.59852912314506,43.2872750985136,99.6821999999956 2.59739823672883,43.2866617104786,99.7896000000037 2.59604556525212,43.286225851844,99.0503999999928 2.59458208478844,43.2860644164055,100.020499999999 2.59314073252519,43.2857576385864,100.2595 2.59243112094292,43.2856930977078,101.124400000001 2.59127793834133,43.285418674291,102.290399999998 2.59011587140159,43.2850954684669,102.670700000002 2.58819574493964,43.284999076547,104.835500000001 2.58733089998471,43.2851120645448,105.522100000002 2.58693175424946,43.2851281577465,105.603099999993 2.58624426996926,43.2849021816008,107.036500000002 2.58631082255542,43.284401781843,109.500700000004 2.58646605502975,43.2839820162152,112.811400000006 2.58651969972358,43.2838951799019,114.2932 2.58649304491247,43.2836172360331,117.639899999995 2.58642179862898,43.2836108652954,117.871700000003 2.58625198110767,43.2835832053525,117.739000000001 2.58613346188066,43.2832071931519,120.691699999996 2.58606439491002,43.2830274848297,120.714699999997 2.58600035670836,43.2829973101754,120.736999999994 2.58603774009891,43.2829057796887,120.686600000001 2.58582349909018,43.2828521358865,120.758799999996 2.58573431524711,43.2827874271288,120.743600000002 2.5857230836111,43.2826863413829,120.729900000006 2.58564412618918,43.2826781270469,120.802299999996 2.58557908277274,43.2825938052972,120.873399999997 2.58554136341225,43.2823386603545,121.001499999998</coordinates>
</LineString>
</Placemark>
</Folder>
</Document></kml>
