<?xml version="1.0" encoding="UTF-8"?>

<kml xmlns:xsd="http://www.w3.org/2001/XMLSchema" xmlns:gx="http://www.google.com/kml/ext/2.2" xmlns:atom="http://www.w3.org/2005/Atom" xmlns="http://www.opengis.net/kml/2.2">
<Document>
<name>FR05a_10a_carcassone-montreal</name>
<visibility>1</visibility>
<Schema name="FR05a_10a_carcassone-montreal" id="kml_schema_ft_FR05a_10a_carcassone-montreal">
<SimpleField type="xsd:string" name="id">
<displayName>id</displayName>
</SimpleField>
<SimpleField type="xsd:string" name="nombre">
<displayName>nombre</displayName>
</SimpleField>
<SimpleField type="xsd:double" name="longitud">
<displayName>longitud</displayName>
</SimpleField>
<SimpleField type="xsd:string" name="_formato">
<displayName>_formato</displayName>
</SimpleField>
</Schema>
<Folder id="kml_ft_FR05a_10a_carcassone-montreal">
<name>FR05a_10a_carcassone-montreal</name>
<Placemark id="kml_1">
<name>&lt;img height='20' src='https://nco.ign.es/iconos/icono_todos_caminos_azul.png' /&gt;&lt;img height='20' src='https://nco.ign.es/iconos/Camino Santiago_20.png' /&gt;&lt;img height='20' src='https://nco.ign.es/iconos/icono_todos_caminos_azul.png' /&gt;  Camino de Santiago </name>
<visibility>1</visibility>
<description><![CDATA[<!DOCTYPE html>
<html>
<head>
<style>
#nco {
  border-collapse: collapse;
  overflow:hidden;
}
#nco th, #nco td {
  padding: 4px;
  text-align: left;
}
#nco th {
  color: #364B5F;
  padding-right: 5px;
}
#nco td {
  color: rgb(51, 51, 51);
  font-size: 12px;
  padding-right: 5px;
}
</style>
</head>
<body>
<table id="nco">
<tr>
<td>Voie des Piemonts</td>
</tr>
<tr>
<th><b>Camino: </b></th>
<td>FR05a Voie des Piemonts</td>
</tr>
<tr>
<th><b>Etapa: </b></th>
<td>10a Carcassone-Montreal</td>
</tr>
<tr>
<th><b>Longitud: </b></th>
<td>24.81 km</td>
</tr>
</table>
</body>
</html>]]></description>
<Style>
<IconStyle>
<scale>0.8</scale>
</IconStyle>
<LabelStyle>
<color>ffffffff</color>
<scale>0.75</scale>
</LabelStyle>
<LineStyle>
<color>ffff0000</color>
<width>3.0</width>
<gx:labelVisibility>1</gx:labelVisibility>
</LineStyle>
<PolyStyle>
<color>66ff0000</color>
</PolyStyle>
</Style>
<ExtendedData>
<SchemaData schemaUrl="#kml_schema_ft_FR05a_10a_carcassone-montreal">
<SimpleData name="id">FR05a_10a</SimpleData>
<SimpleData name="_formato">kml</SimpleData>
</SchemaData>
</ExtendedData>
<LineString>
<extrude>0</extrude>
<tessellate>1</tessellate>
<coordinates>2.35737808024413,43.2099270631494,100.331699999995 2.3571879787637,43.2093730194754,100.672000000006 2.35384292932673,43.20588195729,102.678100000005 2.35297707825868,43.2054920309661,105.872900000002 2.35172264294815,43.2052729278218,110.056599999996 2.35095603415941,43.2054036853844,109.464200000002 2.35008364515272,43.2052967326009,104.252299999993 2.34892694295184,43.2054050263854,102.5435 2.3484771699638,43.2056236268365,103.195300000007 2.34836200235112,43.2057780212693,103.687600000005 2.34665058597074,43.2063665983743,104.711500000005 2.34385203562004,43.2072349637412,107.527900000001 2.34293807258198,43.2072849197477,104.769199999995 2.34132204201341,43.207625057674,103.506899999993 2.33962202435567,43.2076919448306,104.160600000003 2.33806198488045,43.2073980755561,104.656099999993 2.33637202565891,43.2064819336648,104.917400000006 2.33511306373767,43.2055049387358,105.183999999994 2.3341630584938,43.2040580545812,105.874100000001 2.33358772438527,43.20416064923,108.036300000007 2.33326250730294,43.2045162099456,110.944199999998 2.33340499897164,43.2048219815067,110.3704 2.33301373235972,43.2050392404189,111.7984 2.33260704167442,43.2050021924136,113.230899999995 2.33238693287024,43.2049280963356,113.293099999995 2.33192944874382,43.2048293577371,113.868300000002 2.3313195815991,43.2050145974084,113.404699999999 2.33089612835058,43.2050762884016,113.373999999996 2.33060812577555,43.2050516454061,113.553199999995 2.3302693288611,43.204495925697,113.683399999994 2.32958201346415,43.2035279830817,114.700599999996 2.32649797582122,43.2041720486248,115.221300000005 2.32630066536065,43.2041953502933,115.278200000001 2.32621734931299,43.2036335953071,116.817500000005 2.32602305719177,43.2035475971313,117.144899999999 2.32561334996371,43.2035881655977,118.708499999993 2.32483584461057,43.2036791926126,120.076000000001 2.32471078654661,43.2036285664071,120.722599999994 2.32453024044587,43.2036842221632,120.410099999994 2.32365550503963,43.2038208468891,121.340200000006 2.32330832594527,43.2038411313623,121.498500000002 2.32311403382405,43.2036285664071,122.2215 2.32326675191393,43.2030971533981,125.923999999999 2.32335694097182,43.2026872786787,128.932700000005 2.32352357396545,43.202130552581,135.468099999998 2.32353061406234,43.2019079288211,138.6391 2.32335694097182,43.2017560489432,138.485700000005 2.32319734987171,43.2017206772611,138.424700000003 2.32310011981861,43.2017409617777,138.136299999998 2.32292661471305,43.2017359320668,138.113700000002 2.32278764264365,43.2015131411955,140.348299999998 2.32266962557488,43.2013108024616,140.861199999999 2.32249192893023,43.2011570784021,140.325899999996 2.32212698115951,43.1997170672101,141.225900000005 2.32161199677008,43.1993120536618,139.290800000002 2.32133002907711,43.1982819177806,135.983399999997 2.32157494845112,43.1973679552667,133.744399999996 2.32141518936605,43.197149354703,133.743400000007 2.32038672975684,43.1968730875151,131.797699999996 2.31938526003032,43.1967153398318,134.439599999998 2.31866810439629,43.1967153398318,135.834199999998 2.31761248781773,43.1967153398318,137.439899999998 2.31750436120023,43.1968040208501,136.073600000003 2.3169900478523,43.1968139114711,136.078800000003 2.31691796344064,43.1969299164239,134.506099999999 2.31677496781707,43.1975099444286,129.654200000004 2.31654697988956,43.1977280414167,127.424199999994 2.31473011926112,43.1977905708049,128.737899999993 2.31441898237257,43.1976623273377,130.189100000003 2.31346294314493,43.1976519339149,131.675099999993 2.31285475225652,43.1974941862805,134.682499999995 2.31266012416538,43.197482284007,135.495999999999 2.31265207795538,43.1973719781447,135.5288 2.31257094032231,43.1968439186219,136.722200000004 2.31262005840541,43.1963379869579,137.391399999993 2.31270069298193,43.1960576957517,137.632599999997 2.31300881153114,43.1956498327165,138.061300000001 2.31304937944936,43.1954842061388,137.998099999997 2.31291007230837,43.1948369557926,137.674100000004 2.31261972333379,43.194325491883,136.859700000001 2.31240497926851,43.1936480666353,132.1639 2.31217363882833,43.1934091818388,128.962899999999 2.31209132799549,43.1934202459615,128.801699999996 2.31202762576375,43.1932909971828,128.321899999995 2.31141474117797,43.1929664502444,125.429499999998 2.31105465419128,43.1927292419991,124.292799999996 2.31099782496981,43.1926169247908,123.516399999993 2.31161775055073,43.1925223767739,123.395000000004 2.31208445498523,43.1924159266586,123.2353 2.31215737752504,43.1921262480364,121.952600000004 2.31192000220279,43.1897020337365,117.191800000001 2.31126705185707,43.1891129539753,117.865699999995 2.31103839378632,43.1889691205513,118.308300000004 2.31076262896041,43.1889337486612,118.489199999996 2.3103029655211,43.1885820439636,118.810899999997 2.30742998435922,43.1887619196838,131.399000000005 2.30664007327201,43.1881879272644,136.216700000004 2.30638207891905,43.1878600272318,137.300700000007 2.30641292437095,43.1875780596445,135.078500000003 2.30691198252874,43.1871380098192,129.909700000004 2.30701692372023,43.1868699566652,126.438099999999 2.3067731784443,43.186138886682,124.6152 2.30650194022909,43.1856720148232,123.640700000004 2.30644997179158,43.1852019580469,123.182400000005 2.3068409042302,43.1843035854313,120.853199999998 2.30681793790164,43.1841780247226,120.813399999999 2.30645198401784,43.1832550094756,120.472699999998 2.30573113990123,43.1822315786585,121.316999999995 2.30520006309179,43.1812450287213,120.9375 2.30500040533337,43.1810572742183,121.152100000007 2.30447016665209,43.180759549422,121.539799999999 2.30374194646868,43.1801198424602,124.787700000001 2.30339007457528,43.1799225324259,129.428 2.30279462449257,43.179823793322,132.832699999999 2.30225332126191,43.1796363744258,136.334300000002 2.30177974291886,43.1794093923399,138.274999999994 2.30110315610138,43.1792316959798,140.513000000006 2.30035884349799,43.1791626290025,141.029399999999 2.29988794752437,43.1780399565541,137.4378 2.29851851258612,43.1761528548597,141.329899999997 2.29836696769601,43.17610206104,141.6976 2.29796363042163,43.1762810983226,141.428100000005 2.29707699233792,43.1765330583861,142.206699999995 2.29651574021975,43.1766363236179,140.444000000003 2.29582993309419,43.1764519214829,142.859800000006 2.29376865524999,43.1768041290833,140.145699999994 2.29360621379549,43.1769422630546,138.852299999999 2.29305149961596,43.1769521536189,142.754400000005 2.29251991974994,43.177009988298,142.579299999998 2.29198247208849,43.1772088072412,141.905400000003 2.29156287351086,43.1774456801308,142.951100000006 2.29041807308919,43.1788449546195,143.340100000001 2.28859936821947,43.1792613678655,146.292100000006 2.28673188033825,43.1796559876392,150.3554 2.28444999063333,43.1801999735638,160.393899999995 2.28344349213786,43.1804158908179,163.6973 2.283159345132,43.1804948483332,164.725900000005 2.28283496617787,43.1805649212737,166.274799999999 2.28196308022772,43.1794999169614,168.918900000004 2.2811570767205,43.1789800713108,168.709400000007 2.27996567260021,43.1785212460063,165.554999999993 2.27849297182849,43.178119920067,161.846900000004 2.2780711948363,43.1774357889914,157.931599999996 2.27773290097839,43.1771397405961,158.623099999997 2.27762326608953,43.1767273508768,159.933999999994 2.27660972659888,43.177011329923,162.635200000004 2.275377921647,43.1772750241775,164.601299999995 2.27474223781932,43.1777613421752,164.954800000007 2.27411694839783,43.1780969536674,166.499500000005 2.27270996208408,43.1786330605087,169.492400000003 2.27148100748659,43.1792119142779,174.440300000002 2.27069612606665,43.1795673072512,172.590599999996 2.26938351945162,43.1798928602065,174.192500000005 2.26885562806815,43.180100061046,174.371599999999 2.2682061973217,43.1809389221893,176.255300000004 2.26775960975967,43.1813828277446,178.496400000004 2.2665958665636,43.1817776152528,183.613299999997 2.265951968541,43.1820850630236,184.782000000007 2.26589497223286,43.1823569724069,184.791800000006 2.26640626813975,43.182942029346,186.154299999995 2.26656870959425,43.1834648923519,188.565600000002 2.26664984632902,43.1837510500937,189.592199999999 2.26697472833973,43.1843332574722,190.445600000006 2.26713800792242,43.1847230157486,188.989799999996 2.2678469493615,43.1852629780457,185.157399999996 2.26793294777859,43.18570705128,180.434099999999 2.26786790436212,43.1858922913672,178.632599999997 2.26711001282491,43.1861093825418,179.898400000005 2.2667987088497,43.1864743309521,177.331399999995 2.26646795904355,43.1871180610387,168.381200000003 2.26579003014304,43.187667075534,163.798999999999 2.26583797502639,43.1879445168466,162.929999999993 2.26650115089501,43.1887436474881,159.956000000006 2.26632496342002,43.1887550464885,160.151199999993 2.26562155380644,43.1888226047124,160.751499999998 2.26510724045854,43.1889114530814,161.399399999995 2.26474178963128,43.1889706289288,161.779899999994 2.26434951690625,43.1890495865145,163.383900000001 2.2639570761963,43.1889805195095,163.902199999997 2.2635569234496,43.1887949442829,164.471600000004 2.26253617587711,43.1886844707656,164.745200000005 2.26091226528686,43.1887436474881,167.694000000003 2.2600868159487,43.1887436474881,168.624800000005 2.25956194110796,43.1887049227022,169.208100000003 2.25942363918176,43.1882898510564,169.3992 2.25925700708647,43.1882050259199,169.781499999997 2.25860808029488,43.1882030145063,170.480800000005 2.2568700091034,43.1882799603638,172.609800000006 2.25217295833291,43.1888249514469,180.517900000006 2.24867703414906,43.1893620637616,185.930099999998 2.24696042011641,43.1892862916441,189.719100000002 2.24660301549915,43.1893230040295,190.451100000006 2.24462203715989,43.1879369728668,193.313699999999 2.24328696727284,43.1866020706658,194.839300000007 2.2427520339959,43.185902014113,198.965899999996 2.24157454477935,43.184718154282,213.783299999996 2.24122267198762,43.1848562880345,212.190799999997 2.24091153599736,43.1848956833678,211.775800000003 2.24042437961878,43.1849055739539,210.620500000005 2.24025003638507,43.1852700186597,206.998999999996 2.24026696783156,43.1858379765332,200.286999999997 2.23999992025715,43.1866679525417,205.089000000007 2.23932819422367,43.1874808295464,212.070300000007 2.23911797587077,43.1881570814247,210.991500000004 2.23853794896316,43.188815060841,209.6149 2.23726507303652,43.1888829543396,214.872700000007 2.23620224747778,43.1892468965244,218.384900000005 2.23520798583311,43.1895129383492,223.070099999997 2.23450792963049,43.1897830030475,223.906400000007 2.23354987817662,43.1902730089806,217.820500000002 2.23279215372604,43.1906381250511,214.605899999995 2.2318448308516,43.1909045020362,212.435800000007 2.23092466584481,43.1910721399187,211.265400000004 2.23057497326427,43.1912399456597,212.639800000004 2.22894301646405,43.1926279890571,210.741899999994 2.22827699024102,43.1929349342173,211.122099999993 2.22593206934586,43.1930420547185,213.373800000001 2.22487293226971,43.1929419746013,214.742599999998 2.22072137537067,43.1933412887906,219.966 2.21976298794685,43.1935179793953,221.150299999994 2.21889294713631,43.1936950048029,223.780100000004 2.21690794434455,43.1944230568666,221.790599999993 2.21584696302712,43.1949130628759,209.769799999995 2.21529493121703,43.1953735646336,207.074500000002 2.21453703967982,43.1957485711091,208.856499999994 2.21374193183869,43.1961349768314,207.905799999993 2.21321085502922,43.1965279204031,206.005099999995 2.21258841416549,43.1968730875151,199.8992 2.21271011971681,43.1971790270483,197.885399999999 2.21260199309935,43.1976524368542,189.684500000003 2.21195239616456,43.1985107438502,187.406099999993 2.21143808191833,43.198767230223,189.881399999998 2.21108637711152,43.1987771205259,191.713900000002 2.21091035762149,43.1988066250911,192.527400000006 2.21042320124291,43.1986981630826,193.967799999999 2.21004433946678,43.1987179443639,195.684999999998 2.20900230092375,43.1987080533966,195.695999999996 2.20892116418898,43.1992998158043,192.072 2.2088670173369,43.19968454555,188.487099999998 2.20871195194919,43.1998330725372,187.632800000007 2.20852872347899,43.2000298801266,185.987999999998 2.20827156635586,43.1997339989239,187.105100000001 2.20802295939763,43.1996979561611,186.468099999998 2.20768198406859,43.1998500042189,185.724400000006 2.20620995344007,43.2009550744168,181.785099999994 2.20526900141761,43.2012903501656,177.772800000006 2.20425562901359,43.2016487603871,175.504499999995 2.20329305184731,43.2017520256994,174.835000000006 2.20260154491127,43.2019830311004,174.6489 2.20173552675656,43.2022197358337,173.699399999998 2.20099121325485,43.2022296262317,174.100999999995 2.19981389112496,43.2024269361934,175.621100000004 2.19843355962232,43.2024071554598,177.940700000006 2.19590691852831,43.2022849473418,183.4954 2.19421159456794,43.2023972644358,187.943400000004 2.19315597798938,43.2025255077733,189.253400000001 2.19112202509949,43.2020579649982,193.868199999997 2.19063906026003,43.2020028119715,194.362099999998 2.18948872801283,43.2020817697221,193.047300000006 2.18860913092427,43.2018153930677,194.349499999997 2.18762123923328,43.2018055019478,199.4234 2.18678707264362,43.2018219308319,204.135800000004 2.1847100365527,43.2019050790305,208.343800000002 2.18327740243925,43.202200122012,202.759999999995 2.1821813841308,43.2024269361934,201.952799999999 2.18138292467533,43.2024170458274,203.9997 2.1807370144265,43.2020849547729,208.367899999997 2.17980192930116,43.2005969993259,219.615600000005 2.17875804741514,43.1997180730547,231.209099999993 2.1780370362119,43.1985900361689,235.579599999997 2.17695778226325,43.1981654091888,241.438399999999 2.17533001700212,43.1973900833844,248.938599999994 2.17385295760465,43.1970449165774,251.183300000004 2.17300303276824,43.1966080515802,253.744399999996 2.17269524929065,43.1965376434193,254.873099999997 2.1719645147228,43.1965081390667,256.479800000001 2.17146378030869,43.1963996775566,256.970400000006 2.17112548645078,43.1964192912784,254.690700000006 2.17046231058217,43.1965772060666,250.011100000003 2.17002930105567,43.1965279204031,251.564100000003 2.16965043927954,43.1964291819617,254.854300000006 2.1693800391925,43.1961269302572,258.126199999999 2.1689602735282,43.1956597228697,265.854800000001 2.16836297920422,43.1951179166705,276.063899999994 2.16771522561241,43.1948902645536,280.384399999995 2.16695699810529,43.1948029252627,277.413 2.16568496120507,43.1943030279976,283.210200000001 2.16517115001538,43.1947026771042,280.266699999993 2.16443706293489,43.1949400531917,276.803899999999 2.16346610358869,43.1948803736208,268.836899999995 2.16311423079696,43.1946139969615,271.153200000001 2.1628399751407,43.1942679918905,273.965100000001 2.1605369633485,43.1943400766058,275.169999999998 2.15958243239222,43.1951269692981,268.183099999995 2.15801300462393,43.1960969234087,266.732499999998 2.15678706746749,43.1966549900907,262.452699999994 2.15602196784844,43.1968380509189,260.099300000002 2.15523306287434,43.1968720816236,260.814799999993 2.15473786028579,43.1968040208501,261.924199999994 2.15454842894856,43.1967054491948,262.262799999997 2.15362809595681,43.196498249051,263.167300000001 2.15284321453688,43.1960937380453,256.327600000004 2.15255906842935,43.1959951672073,255.8698 2.1523560581583,43.196064233478,257.645499999999 2.15202698460847,43.1962387452583,262.266699999993 2.15158073211805,43.1961393357468,262.225200000001 2.15135391828858,43.1959851088026,259.167000000001 2.15073231645134,43.196113519516,261.922900000005 2.14923011141241,43.1961430234046,257.190499999997 2.14858554324661,43.1962607054804,253.246700000003 2.14812420265265,43.1963324545064,250.046199999997 2.14814683390959,43.1964372284961,250.107099999994 2.14802596738476,43.1967072933341,249.020699999994 2.147768643175,43.1971870734837,243.412899999996 2.14717118086606,43.1980638208077,238.6103 2.14698962865217,43.1981850229978,238.987299999993 2.14684847726991,43.1981555187868,238.784499999994 2.14671319368306,43.1982443666666,239.483900000007 2.14674018356575,43.1984120046882,240.574800000002 2.14617205753906,43.1993100419593,246.521699999998 2.14560359733904,43.1996057556123,249.749899999995 2.14484570580183,43.1999608131057,247.197 2.1438983829274,43.2002962567185,253.062300000005 2.14339781559995,43.2005131801,253.4764 2.14291065922136,43.2004638949963,255.417000000001 2.14258577631233,43.2003948278118,255.195399999997 2.1422069145362,43.2002469707847,254.805999999997 2.14181447382625,43.2001779040096,254.692800000004 2.14142203311627,43.2000989464145,252.027799999996</coordinates>
</LineString>
</Placemark>
</Folder>
</Document></kml>
