<?xml version="1.0" encoding="UTF-8"?>

<kml xmlns:xsd="http://www.w3.org/2001/XMLSchema" xmlns:gx="http://www.google.com/kml/ext/2.2" xmlns:atom="http://www.w3.org/2005/Atom" xmlns="http://www.opengis.net/kml/2.2">
<Document>
<name>FR05a_27a_lhopital_sainte_blaise-mauleon_licharre</name>
<visibility>1</visibility>
<Schema name="FR05a_27a_lhopital_sainte_blaise-mauleon_licharre" id="kml_schema_ft_FR05a_27a_lhopital_sainte_blaise-mauleon_licharre">
<SimpleField type="xsd:string" name="id">
<displayName>id</displayName>
</SimpleField>
<SimpleField type="xsd:string" name="nombre">
<displayName>nombre</displayName>
</SimpleField>
<SimpleField type="xsd:double" name="longitud">
<displayName>longitud</displayName>
</SimpleField>
<SimpleField type="xsd:string" name="_formato">
<displayName>_formato</displayName>
</SimpleField>
</Schema>
<Folder id="kml_ft_FR05a_27a_lhopital_sainte_blaise-mauleon_licharre">
<name>FR05a_27a_lhopital_sainte_blaise-mauleon_licharre</name>
<Placemark id="kml_1">
<name>&lt;img height='20' src='https://nco.ign.es/iconos/icono_todos_caminos_azul.png' /&gt;&lt;img height='20' src='https://nco.ign.es/iconos/Camino Santiago_20.png' /&gt;&lt;img height='20' src='https://nco.ign.es/iconos/icono_todos_caminos_azul.png' /&gt;  Camino de Santiago </name>
<visibility>1</visibility>
<description><![CDATA[<!DOCTYPE html>
<html>
<head>
<style>
#nco {
  border-collapse: collapse;
  overflow:hidden;
}
#nco th, #nco td {
  padding: 4px;
  text-align: left;
}
#nco th {
  color: #364B5F;
  padding-right: 5px;
}
#nco td {
  color: rgb(51, 51, 51);
  font-size: 12px;
  padding-right: 5px;
}
</style>
</head>
<body>
<table id="nco">
<tr>
<td>Voie des Piemonts</td>
</tr>
<tr>
<th><b>Camino: </b></th>
<td>FR05a Voie des Piemonts</td>
</tr>
<tr>
<th><b>Etapa: </b></th>
<td>27a L'Hopital Sainte Blaise-Mauleon Licharre</td>
</tr>
<tr>
<th><b>Longitud: </b></th>
<td>16.48 km</td>
</tr>
</table>
</body>
</html>]]></description>
<Style>
<IconStyle>
<scale>0.8</scale>
</IconStyle>
<LabelStyle>
<color>ffffffff</color>
<scale>0.75</scale>
</LabelStyle>
<LineStyle>
<color>ffff0000</color>
<width>3.0</width>
<gx:labelVisibility>1</gx:labelVisibility>
</LineStyle>
<PolyStyle>
<color>66ff0000</color>
</PolyStyle>
</Style>
<ExtendedData>
<SchemaData schemaUrl="#kml_schema_ft_FR05a_27a_lhopital_sainte_blaise-mauleon_licharre">
<SimpleData name="id">FR05a_27a</SimpleData>
<SimpleData name="_formato">kml</SimpleData>
</SchemaData>
</ExtendedData>
<LineString>
<extrude>0</extrude>
<tessellate>1</tessellate>
<coordinates>-0.769770350091981,43.2515725493646,157.273199999996 -0.76995978142921,43.2516828553414,158.014599999995 -0.770206209074577,43.2516967694432,156.278399999996 -0.770480967787371,43.2516622354297,156.134900000005 -0.770935937529318,43.2515586352344,155.876000000004 -0.771305411910742,43.2514481621883,156.312399999995 -0.771580338608493,43.2514552030156,157.620999999999 -0.771855097321286,43.2513447291276,160.284599999999 -0.771949812989917,43.251054882825,166.287400000001 -0.771741438878295,43.2506337761682,180.985100000005 -0.771836154546892,43.2505233027531,186.017300000007 -0.771892983768405,43.2503300159971,192.428599999999 -0.771637167830005,43.2499504836091,199.081399999995 -0.771532896781716,43.2497434506108,205.893299999996 -0.771703552431177,43.2495846972454,209.705700000006 -0.771779324427083,43.2493774968081,219.570000000007 -0.771419238338724,43.2492395307325,215.057799999995 -0.771134924246238,43.2490462438283,214.955499999996 -0.770784225552581,43.2490739037654,210.259300000005 -0.769865065760612,43.2490117102748,205.070999999996 -0.769950394034508,43.2482316902463,207.835999999996 -0.769732464543193,43.2477140241019,200.567800000004 -0.769467093225101,43.2466993106831,190.325100000002 -0.77026303829609,43.2461333648403,198.386700000003 -0.771078095024726,43.2454430313125,199.341 -0.770575851440959,43.2450081783165,216.327099999995 -0.770215764454269,43.2446698841757,223.222800000003 -0.770073607857192,43.2443178444706,223.099100000007 -0.770300924743208,43.2438276706202,225.495999999999 -0.770566296061266,43.2435170376192,227.243199999997 -0.770879108307839,43.2428957707918,229.467900000003 -0.77114431164094,43.2424195108818,229.659100000004 -0.771201308847409,43.2419087181754,233.191500000001 -0.770926382149659,43.2413702643077,239.1538 -0.770983211371171,43.2411079110674,241.422099999996 -0.771305411910742,43.2408938373784,241.922699999996 -0.77182676625386,43.2407972772869,241.978900000002 -0.77258482577606,43.2408661769989,242.355299999996 -0.773200727802819,43.2409905641898,245.034499999994 -0.773750413213397,43.2409077513272,247.638300000006 -0.774669573005365,43.2410525904901,252.834499999997 -0.775200314743219,43.2411216574404,251.597299999994 -0.775465686061311,43.2411699372483,248.650800000003 -0.775911100423565,43.2410939971643,246.042199999996 -0.776545945224751,43.2407972772869,243.121700000003 -0.777578931444669,43.240224290767,244.134999999995 -0.778052676874383,43.2398720833644,245.542300000001 -0.778810735498252,43.2391817495619,254.425300000003 -0.779597293174505,43.2387400229199,258.9666 -0.780004821987972,43.2383464088949,261.774799999999 -0.780526008346166,43.2381462492448,263.068899999998 -0.780933536261303,43.2381117160563,265.078500000003 -0.781473666292188,43.2380634357883,266.544299999994 -0.781625379167255,43.238028902553,267.154800000004 -0.781833753278877,43.2380771821938,267.056100000002 -0.78229811041556,43.237883895865,265.222299999994 -0.782686695556335,43.2376768624305,260.237699999998 -0.783880781147724,43.2369104216788,250.228099999993 -0.784373469351832,43.2368690147793,245.008799999996 -0.78477144278564,43.2367102612382,242.376600000003 -0.785396900192091,43.2361649348051,237.621899999998 -0.785842314554379,43.2358266412982,235.656400000007 -0.786117073267173,43.2356816346052,232.141399999993 -0.786590985783514,43.2354813071671,228.221099999995 -0.786742530673623,43.2351638002944,230.700700000001 -0.786297116311369,43.234528619931,240.936400000006 -0.78625922986425,43.2343973593483,241.815600000002 -0.78601297020384,43.234169539014,245.751999999993 -0.785861257328773,43.2339071855291,249.134900000005 -0.785965528377063,43.2336724919547,252.044299999994 -0.785614829683406,43.233189191622,257.520999999993 -0.785880201001464,43.2330096510815,260.3073 -0.786041300372969,43.2326782305593,261.828099999999 -0.786344558138146,43.2322779113248,264.554999999993 -0.786808915274828,43.2320707102724,267.309200000003 -0.787396487132491,43.2320016435347,276.460099999997 -0.78775657322085,43.2319739830455,276.036600000007 -0.788438860747144,43.2317185028642,285.061100000006 -0.788789559440801,43.2316910104539,285.086500000005 -0.789187531976278,43.2314906829876,290.864400000006 -0.78934863224608,43.2313802095451,292.222899999993 -0.790011976099649,43.2311455160568,299.886799999993 -0.79074170455439,43.2310005093517,304.0242 -0.791281834585275,43.2309037817354,308.354399999997 -0.791490208696898,43.2309176960019,307.9323 -0.791755579116659,43.2308072221753,307.254700000005 -0.792418922970228,43.2300821877209,315.301999999996 -0.792921166553995,43.2291432469733,325.301999999996 -0.793252922473259,43.2286529058787,327.658800000005 -0.793688781455854,43.2281213253768,330.104300000006 -0.794067811216938,43.2278864642127,331.483999999997 -0.794627052007174,43.2277137971494,336.407699999996 -0.795252509413659,43.2275412978159,334.388399999996 -0.795735642238074,43.2272789439437,338.072700000004 -0.796057842777645,43.2267403228311,338.699999999997 -0.796285327648619,43.2266159353514,332.847800000003 -0.79675924016496,43.2261326353529,331.577699999994 -0.79721404282028,43.2259530949711,328.152499999997 -0.797640513509843,43.2256285476663,322.171000000002 -0.797829944847072,43.22504164626,325.474100000007 -0.797953158669755,43.2242958250249,323.061400000006 -0.797811001174347,43.223460316962,316.298800000004 -0.797678399956928,43.2226730886382,314.671900000001 -0.79741302863887,43.2220171206577,316.785799999998 -0.79715721270047,43.2217545996508,315.550199999998 -0.797195099147555,43.2216027194385,312.899699999994 -0.797394085864476,43.2216994467588,314.603300000002 -0.797564741513937,43.2215267791904,312.019899999999 -0.797716286404047,43.2214163060179,312.449500000002 -0.799147244261145,43.221519905758,322.0524 -0.800758246060769,43.2215267791904,336.101299999995 -0.802445020754597,43.2216166332098,353.280899999998 -0.802805106842989,43.2216303793974,348.4283 -0.803440119629132,43.2214853723127,349.9084 -0.803752764789011,43.2210433111941,361.226899999994 -0.804056022554221,43.2206842300363,369.400099999999 -0.804861523004868,43.2201318630489,398.994600000005 -0.805559400792888,43.2197897137992,422.781000000003 -0.805761740022443,43.2197588682227,427.574900000007 -0.805828124623614,43.2200973294721,413.397899999996 -0.806083939663717,43.2206428238956,401.680699999997 -0.806358866361467,43.2211745717337,412.962700000004 -0.80687049733997,43.2217961739257,420.304600000003 -0.807372741822067,43.2220516538018,425.192500000005 -0.808254014268587,43.2223485408907,433.558999999994 -0.80870278204184,43.2224615293208,433.420199999993 -0.809371489735945,43.2228816301793,431.600999999995 -0.810224767983317,43.223200980881,429.819900000002 -0.811354816271384,43.2232177443917,426.790099999998 -0.811737868688303,43.2229510319317,427.757299999997 -0.812123771459645,43.2227465137965,423.371199999994 -0.812322590191575,43.2220392489991,417.864799999996 -0.812182277835772,43.2214426247584,421.7693 -0.812158975537297,43.2209484282031,411.157000000007 -0.812357794269261,43.2205903532961,400.689199999993 -0.812766999339045,43.2201216371112,388.142099999997 -0.813246443680911,43.2199682478382,374.348100000003 -0.814217067955527,43.2199342175788,354.554399999994 -0.815409980347173,43.2199598659639,334.406499999997 -0.81607650962675,43.22005357609,319.389899999995 -0.815901160279888,43.2194740511154,318.539499999999 -0.815421715039724,43.2190564648125,317.695000000007 -0.815094318644542,43.2187240381734,309.051099999997 -0.814684946488097,43.2186729085959,312.743000000002 -0.814567934634141,43.2182298411858,301.169899999994 -0.81413526107752,43.2180422541398,306.408800000005 -0.813784394398905,43.2176075689283,309.212299999999 -0.813726056007736,43.2173093409271,310.541299999997 -0.813971478438318,43.2169257848496,310.007100000003 -0.814170297170248,43.2164315876899,316.443799999994 -0.814675558195065,43.2161764430235,320.3649 -0.815252065503379,43.2158738564099,312.024699999994 -0.815782472169615,43.2153193096259,308.569799999997 -0.816797017773416,43.2149664312687,308.788199999995 -0.817001369229169,43.2147967817158,310.494000000006 -0.817798487499933,43.214420266726,312.045499999993 -0.819126181320154,43.2140588387719,304.737099999998 -0.820348429994045,43.2140756028322,299.061900000001 -0.821017138586514,43.2141597569571,295.244600000005 -0.822101086232503,43.2146470806445,288.070500000002 -0.822308622215967,43.2149496674533,282.287500000006 -0.82436101482368,43.2150841130444,280.3891 -0.826182738032775,43.2148655131091,263.400099999999 -0.827151350979456,43.2150336540829,257.060800000007 -0.827427953035193,43.2151513357288,253.849799999996 -0.827843025002121,43.2153530046466,248.232000000004 -0.827866159315638,43.2150671816628,250.926200000002 -0.827658623332174,43.2145293986802,256.537700000001 -0.827773958031516,43.2138739342727,241.657300000006 -0.827681589660735,43.2134705971173,238.652100000007 -0.828027594657024,43.2135715149666,236.157699999996 -0.828442666623952,43.214042074707,228.504799999995 -0.828281231282565,43.2144958714592,237.013200000001 -0.828558001323294,43.214579858059,235.128599999996 -0.828926972648143,43.2141597569571,218.426000000007 -0.829249844229246,43.2138067108349,207.216899999999 -0.829526447183314,43.2132017050713,198.107099999994 -0.829733982268447,43.2137394879777,198.426900000006 -0.829526447183314,43.2149831950795,199.412800000006 -0.829987786878946,43.2158066332126,193.861999999994 -0.83044895858962,43.2160924560039,189.504100000006 -0.830679461799941,43.2161427478032,186.883600000001 -0.830981880538662,43.2162599264869,185.928599999999 -0.83118690213765,43.2164620977961,185.409100000004 -0.831011384805831,43.2168840429333,185.712400000004 -0.830524228427282,43.2172283714807,186.099100000007 -0.83045029977432,43.217540346333,185.044299999994 -0.830907951885733,43.2180135883195,187.290599999993 -0.831144154008207,43.2182395646714,188.658800000005 -0.831719991173319,43.2189065961362,192.168300000005 -0.832369588108106,43.2195628993696,194.352499999994 -0.832709055165754,43.2205633631992,196.929600000003 -0.832989513689031,43.2205849886635,198.037599999996 -0.833668615789317,43.2207031734738,204.047500000001 -0.834096763633528,43.2194338179135,205.894199999995 -0.834273956323301,43.218637705147,200.847800000003 -0.834746360568282,43.218357917035,202.201100000006 -0.83549922333654,43.2183041050611,204.718200000003 -0.836547463848336,43.2184009999668,215.354500000001 -0.837108380894889,43.218185752593,211.103600000002 -0.837448015937494,43.2181750235587,210.388099999996 -0.837639961659198,43.2180673998952,208.152100000007 -0.83761045739203,43.217863049335,203.997700000007 -0.837728474460771,43.2175618039684,200.995500000005 -0.838023685117649,43.2176048868082,201.623999999996 -0.838245135106555,43.2176801563383,203.323499999999 -0.838629025651633,43.2175832615963,203.042000000001 -0.839559082008027,43.2173143700085,208.818799999994 -0.840991045978241,43.21701312455,216.6731 -0.841655395944926,43.2167871482356,217.967699999994 -0.842186975810938,43.2165935266273,215.339099999997 -0.842806901391862,43.2166042552852,218.857499999998 -0.843072607781572,43.2164859027911,217.413100000005 -0.842570700167686,43.2159695774222,212.408800000005 -0.842821653525464,43.2143126429823,217.0435 -0.843102280033698,43.2140221262102,215.613700000002 -0.843825638534787,43.2139468567476,220.483800000002 -0.844239033347067,43.2138392328231,218.139500000005 -0.844711437592048,43.2136025280021,218.037100000001 -0.844947639714521,43.2133980092794,218.118799999997 -0.844947639714521,43.2131829301805,218.527100000007 -0.844224114126805,43.2131074927329,215.249899999995 -0.843618940679482,43.2129031419187,212.953500000003 -0.843353234289806,43.212720249104,211.520199999999 -0.843249801369675,43.2125480844577,211.937900000004 -0.843471251358548,43.2123759199801,212.4038 -0.844150353458834,43.2116550764916,216.387499999997 -0.844770446126418,43.2111171259274,216.125899999999 -0.845641493948408,43.2109987732595,225.344500000007 -0.846025217406859,43.2106866313758,223.1829 -0.846468117384638,43.2104284685848,220.027600000001 -0.847014449384251,43.2103101165448,220.011799999993 -0.84778206428611,43.2105037384615,227.822100000005 -0.848416909985593,43.2112891224212,234.8079 -0.849036835566551,43.2118486987215,240.846799999999 -0.849240012025934,43.2119864967427,242.647700000001 -0.849376469710859,43.2123973781233,245.064899999998 -0.849819369688638,43.2127740607679,248.404200000004 -0.849656928234136,43.2130429520807,248.606799999994 -0.850291773933619,43.2132151166394,250.926399999997 -0.851443279380555,43.2136132565316,259.348199999993 -0.851930435759138,43.2135594449534,264.077399999995 -0.852535777191452,43.2137423378701,269.257500000007 -0.852875244249099,43.2141081246769,273.1829 -0.852993428404535,43.2145277226797,271.411999999997 -0.853421576248712,43.2149044052598,279.381099999999 -0.853879228360092,43.2152809205338,290.762600000002 -0.855493582672351,43.2158991693464,304.900599999994 -0.856093559365766,43.2159910349557,303.5484 -0.85665464439731,43.2162815521681,308.304900000003 -0.857156552011163,43.2166473381468,314.489199999996 -0.85752569132097,43.2167442330667,317.247600000002 -0.858145616901895,43.2167011496188,316.537100000001 -0.858677197666237,43.2168516888533,319.747199999998 -0.859027225318362,43.2169970310156,322.053 -0.859267618081663,43.2169807705384,321.064599999998 -0.859611443765094,43.2169561271151,319.830100000006 -0.859917215914747,43.21701312455,319.800399999993 -0.860301107358155,43.2171852883749,318.098599999998 -0.860994960693711,43.217400368415,309.750100000005 -0.8617035670612,43.2173465562507,308.469400000002 -0.862456429829457,43.2173358277234,303.948300000004 -0.863194540464114,43.2167871482356,314.646399999998 -0.86378512886453,43.2165289857363,318.666599999997 -0.864390302311854,43.2166149839412,321.284799999994 -0.864656176686487,43.2167011496188,320.752699999997 -0.864921883076196,43.2172067461352,315.212299999999 -0.86557148001095,43.217647802026,304.639800000004 -0.866604801302485,43.2176156152881,314.545800000007 -0.867830068315724,43.2176586987445,309.750799999994 -0.868177916654991,43.2180948925584,294.578999999998 -0.868346896048168,43.2184548118553,283.429199999999 -0.868686363105816,43.2192292997631,279.420700000002 -0.86893731736189,43.2193154656744,278.884399999995 -0.869247448137327,43.2199932265235,271.902799999996 -0.869867372819954,43.2205957172737,267.204199999993 -0.870733055903078,43.2205621901149,261.591 -0.871151816352555,43.220638633005,257.987999999998 -0.871683229131906,43.2210689597673,249.531900000002 -0.872524771788397,43.2213272902648,236.899999999994 -0.873115361087077,43.2215316409978,234.286300000007 -0.873296410244389,43.2217936589153,231.791100000002 -0.873498748575613,43.2219105027084,230.372399999993 -0.874030329339956,43.2218736227116,231.812699999995 -0.874224286389561,43.221775218557,231.592000000004 -0.874629299920255,43.2217261011922,231.925000000003 -0.874916296382174,43.2219081559371,224.495800000004 -0.875122994237479,43.2221663185727,218.686100000006 -0.875380151360578,43.222254831019,211.814199999993 -0.87572833566976,43.2222846711695,205.812699999995 -0.876342393455277,43.2221597803706,200.599499999997 -0.876953601784702,43.2219512389788,197.194900000002 -0.877927746556908,43.2216276974541,185.966100000005 -0.878415238007074,43.2215101827956,180.680800000002 -0.878712292905227,43.2214310577372,181.105599999995 -0.879094340107361,43.2212627491475,176.994699999996 -0.879423413657191,43.2212850453442,174.096799999999 -0.879848711146978,43.221298959188,171.386199999994 -0.880217347400244,43.2214159702011,167.407699999996 -0.880567039980786,43.2214986157872,165.534499999994 -0.88095629616306,43.2214432957373,162.480100000001 -0.881260056086481,43.2212895713533,159.290599999993 -0.881493240767938,43.2212092729367,157.034799999994 -0.882239900669171,43.2212231867979,152.672000000006 -0.882684141831683,43.221064768906,156.684800000003</coordinates>
</LineString>
</Placemark>
</Folder>
</Document></kml>
