<?xml version="1.0" encoding="UTF-8"?>

<kml xmlns:xsd="http://www.w3.org/2001/XMLSchema" xmlns:gx="http://www.google.com/kml/ext/2.2" xmlns:atom="http://www.w3.org/2005/Atom" xmlns="http://www.opengis.net/kml/2.2">
<Document>
<name>FR05a_21a_bagneres_de_bigorre-lourdes</name>
<visibility>1</visibility>
<Schema name="FR05a_21a_bagneres_de_bigorre-lourdes" id="kml_schema_ft_FR05a_21a_bagneres_de_bigorre-lourdes">
<SimpleField type="xsd:string" name="id">
<displayName>id</displayName>
</SimpleField>
<SimpleField type="xsd:string" name="nombre">
<displayName>nombre</displayName>
</SimpleField>
<SimpleField type="xsd:double" name="longitud">
<displayName>longitud</displayName>
</SimpleField>
<SimpleField type="xsd:string" name="_formato">
<displayName>_formato</displayName>
</SimpleField>
</Schema>
<Folder id="kml_ft_FR05a_21a_bagneres_de_bigorre-lourdes">
<name>FR05a_21a_bagneres_de_bigorre-lourdes</name>
<Placemark id="kml_1">
<name>&lt;img height='20' src='https://nco.ign.es/iconos/icono_todos_caminos_azul.png' /&gt;&lt;img height='20' src='https://nco.ign.es/iconos/Camino Santiago_20.png' /&gt;&lt;img height='20' src='https://nco.ign.es/iconos/icono_todos_caminos_azul.png' /&gt;  Camino de Santiago </name>
<visibility>1</visibility>
<description><![CDATA[<!DOCTYPE html>
<html>
<head>
<style>
#nco {
  border-collapse: collapse;
  overflow:hidden;
}
#nco th, #nco td {
  padding: 4px;
  text-align: left;
}
#nco th {
  color: #364B5F;
  padding-right: 5px;
}
#nco td {
  color: rgb(51, 51, 51);
  font-size: 12px;
  padding-right: 5px;
}
</style>
</head>
<body>
<table id="nco">
<tr>
<td>Voie des Piemonts</td>
</tr>
<tr>
<th><b>Camino: </b></th>
<td>FR05a Voie des Piemonts</td>
</tr>
<tr>
<th><b>Etapa: </b></th>
<td>21a Bagneres de Bigorre-Lourdes</td>
</tr>
<tr>
<th><b>Longitud: </b></th>
<td>32.82 km</td>
</tr>
</table>
</body>
</html>]]></description>
<Style>
<IconStyle>
<scale>0.8</scale>
</IconStyle>
<LabelStyle>
<color>ffffffff</color>
<scale>0.75</scale>
</LabelStyle>
<LineStyle>
<color>ffff0000</color>
<width>3.0</width>
<gx:labelVisibility>1</gx:labelVisibility>
</LineStyle>
<PolyStyle>
<color>66ff0000</color>
</PolyStyle>
</Style>
<ExtendedData>
<SchemaData schemaUrl="#kml_schema_ft_FR05a_21a_bagneres_de_bigorre-lourdes">
<SimpleData name="id">FR05a_21a</SimpleData>
<SimpleData name="_formato">kml</SimpleData>
</SchemaData>
</ExtendedData>
<LineString>
<extrude>0</extrude>
<tessellate>1</tessellate>
<coordinates>0.14987697824619,43.0650371498021,553.913100000005 0.150208734165454,43.0641702937094,554.744200000001 0.150363128511657,43.0637567303471,555.040500000003 0.149977225740314,43.0631929638742,555.430200000003 0.149948391616313,43.0627445317938,555.428599999999 0.150032713777093,43.0625780671374,555.460000000006 0.149965155976146,43.062436412831,555.493799999997 0.149079356020588,43.0619494247606,555.594299999997 0.148902163330782,43.0619802699843,556.034499999994 0.148834772616495,43.0619063417075,556.433099999995 0.148876849704406,43.0617707220735,556.297600000005 0.148767213917217,43.0613638646529,557.188299999994 0.148497316886748,43.0608029476444,558.533299999996 0.148151479875416,43.0602235908323,561.024399999995 0.147771779072801,43.0596504362857,563.773300000001 0.14721505356537,43.0587443523002,570.774600000004 0.146936606369995,43.0585470423182,570.855500000005 0.14655690646571,43.0581339818674,579.874899999995 0.146371330697691,43.0578997919657,584.183399999994 0.146236382182456,43.0574867317493,584.895000000004 0.146118198027021,43.0572216957116,583.151100000003 0.14605918859432,43.0567040297128,575.418799999999 0.146202687274461,43.0564141829705,575.071200000006 0.146405026503983,43.0561245048621,574.233699999997 0.146641395713117,43.0556621587685,571.027400000006 0.14655690646571,43.0553602425821,571.031199999998 0.146590769358662,43.0549594202151,574.598899999997 0.146826971481136,43.0547991584065,575.472999999998 0.147501211899097,43.0542861856046,580.718399999998 0.147780161252717,43.0540595388882,587.052200000006 0.147932041214444,43.0535355026154,589.926800000001 0.147974286287313,43.0533013122183,590.847899999993 0.147864650500124,43.0531348475239,590.741500000004 0.147864650500124,43.0528820493613,591.267300000007 0.147518646402131,43.0523457751206,591.548299999995 0.147240367191746,43.0520683339845,590.205700000006 0.146944988549911,43.0517231674508,593.466199999995 0.146784726408267,43.0513655956042,593.1014 0.147240367191746,43.0510450711653,595.803599999999 0.148016363375191,43.0507243796276,599.738899999997 0.14771277053843,43.0507305823625,598.975399999996 0.147425942061469,43.0508169157818,596.384600000005 0.146835353661052,43.0508539640767,605.456999999995 0.146219450735963,43.050989582912,613.817500000005 0.146000180059949,43.0509525353554,620.388000000006 0.145679656674992,43.0509649401221,623.135500000004 0.145637411602124,43.0508662014707,623.921900000001 0.145932622259002,43.0507121422054,626.081300000005 0.146470908048613,43.0504194463907,626.464500000002 0.146751031500306,43.050280641864,629.037200000006 0.146649777893033,43.0502251535755,635.595000000001 0.146540143004174,43.0502373910949,637.379199999996 0.146329253609779,43.0502497966627,635.932700000005 0.146118198027021,43.0502928793723,641.071899999995 0.145856682278138,43.0503421648258,646.976299999995 0.145662725228533,43.0504162606541,647.806200000006 0.145991798778363,43.0501819027674,645.784400000004 0.146219450735963,43.0501079747072,642.928100000005 0.146666541354569,43.0498860219404,646.686900000001 0.146725717873897,43.0498243311254,648.933000000005 0.146582220092086,43.0498367361203,652.801900000006 0.146430339232061,43.0498860219404,654.757500000007 0.146126747293598,43.0499785580465,651.441699999996 0.145789291563851,43.0500895343629,656.670299999998 0.145375895853241,43.0502127486592,656.160099999994 0.145426523106026,43.0500709266181,667.691800000001 0.145831368651762,43.0498489737172,672.685200000007 0.146362949416071,43.0495839381487,676.197100000005 0.146185755827968,43.0495592954505,683.952000000005 0.145848300098222,43.049688711683,675.387000000002 0.145426523106026,43.0498551765407,690.624500000005 0.145358964406781,43.0497750452557,691.394100000005 0.145578403067753,43.049645628549,688.159700000004 0.145991798778363,43.0493928304462,694.420800000007 0.145755428670899,43.0494483188311,695.694300000003 0.145578403067753,43.049460723902,703.103700000007 0.145131312449148,43.0496023779886,704.274999999994 0.144878178880181,43.049645628549,712.406300000002 0.14507213592982,43.0495162122256,716.190700000006 0.145266260964416,43.049460723902,719.085699999996 0.145426523106026,43.0493990333158,715.796900000001 0.145232398071463,43.0493681876711,728.601699999999 0.145434905285942,43.0492510084785,722.656900000002 0.145038441021825,43.0493126998701,734.294999999998 0.144785307452858,43.0493804253615,732.429999999993 0.145392827299734,43.0489982107187,737.746199999994 0.145822987370143,43.0487886630815,744.573900000003 0.145510845266806,43.048831746161,747.067800000004 0.145232398071463,43.0489304848053,750.905799999993 0.145274643144332,43.0488565565498,754.948600000003 0.145434905285942,43.0487393776926,758.095600000001 0.145654343048617,43.0486592462629,756.185800000007 0.145772360117392,43.0485544729396,762.546799999996 0.14465874021921,43.0488811995303,768.079500000007 0.143165588401733,43.0493373426675,770.085200000001 0.14251599056865,43.0494853666399,772.166500000007 0.141697749312303,43.0495284498864,778.156499999997 0.141064915839051,43.0495346520859,783.092499999999 0.140364691651513,43.0495038071659,791.755499999999 0.140179115883494,43.0495222470299,793.076300000001 0.140024051394089,43.0496987698803,791.666100000002 0.139942914659317,43.049725760003,792.844200000007 0.139841661052044,43.0498675815293,791.728300000002 0.139546450395166,43.0500647238164,790.843099999998 0.139124672504673,43.0502682363024,799.375599999999 0.138998106169322,43.0504593439032,795.105200000005 0.138998106169322,43.0507614279785,785.148400000005 0.138669032619525,43.0510573091775,791.218500000003 0.13828095053529,43.0513471549815,788.730800000005 0.137833859916718,43.0515629050622,790.718699999998 0.137386769298113,43.051846381091,796.965700000001 0.136948059961127,43.0520312857666,800.055900000007 0.136079192350326,43.0522470360664,808.272599999997 0.135378968162788,43.052425906329,807.900699999998 0.134864318844938,43.0523826557599,803.723899999997 0.134467855479118,43.052339572549,800.489700000006 0.135598238838802,43.0519203096815,814.596999999994 0.136543214415424,43.0515134518858,815.6927 0.1365685280418,43.0514457261239,816.573499999999 0.136087573631945,43.051451928786,819.882100000003 0.135547611586017,43.0514827740391,821.613899999997 0.135117452413905,43.051273058965,825.692999999999 0.134923327379309,43.051014225692,825.336299999995 0.135598238838802,43.0503916182903,840.855500000005 0.135961007296627,43.0499106645073,849.549799999993 0.13607081017041,43.0492696164721,868.665699999998 0.136872119980264,43.048486579137,892.838000000003 0.137344524225245,43.0481598524137,889.575200000007 0.13753864925984,43.0479378998185,888.538 0.137597657794211,43.0476851018985,892.1924 0.137083008476362,43.0480118285248,896.685599999997 0.137192812248508,43.0477097446932,905.539499999999 0.136695094377118,43.047907054752,910.462400000004 0.136374403007204,43.0480242332297,914.076700000005 0.136247835773589,43.0479503051948,914.807199999996 0.136290080846457,43.0475865306205,919.168399999995 0.136382952273781,43.0475556847209,919.525200000004 0.136104505078405,43.0472966841136,918.762900000002 0.136129818704814,43.0470316486769,915.115099999995 0.136214140865594,43.0468713865028,917.517000000007 0.136484037896063,43.0467418021739,922.652199999997 0.136610605129711,43.0465630998075,923.457599999994 0.136754102911522,43.0462856587732,926.406199999998 0.136905982873216,43.0458479562315,931.461500000005 0.137007068495532,43.0453485624718,934.736199999999 0.136956610126001,43.0450711211964,937.031799999997 0.137099939922855,43.0448121206026,947.086299999995 0.137580894332709,43.0445655249764,959.551699999996 0.138390753409106,43.0442201901695,979.217900000003 0.139065663970269,43.0438010950167,998.234700000001 0.139293316826199,43.043486606494,1006.0877 0.139546450395166,43.0430364979655,1024.56540000001 0.139942914659317,43.0426727237949,1032.1545 0.140347928189977,43.0424261281039,1035.0843 0.140837262983121,43.0421671268479,1032.4473 0.141090229465461,43.0420006627919,1033.4703 0.141225345067322,43.0418157580787,1035.7994 0.141883325080355,43.0410511605766,1043.7463 0.142473746394078,43.0405517665051,1057.3063 0.142887141206358,43.0401447413827,1067.1648 0.14308964842087,43.0398302525009,1066.8991 0.143081266240954,43.0393308589969,1074.99159999999 0.142963081187221,43.0389732864755,1077.20819999999 0.142608861995973,43.0385909045619,1095.3884 0.142431669306167,43.0383505115529,1101.6802 0.142473746394078,43.038066867444,1100.2466 0.14250760928703,43.0377585811508,1105.1744 0.142161604290741,43.0375119860627,1106.9749 0.14193395143481,43.0374316869826,1109.8778 0.14166388641935,43.037326913524,1111.765 0.141351744316013,43.0374440925138,1112.7766 0.140761323002257,43.0375921169522,1113.2132 0.140550434506159,43.0374933777854,1116.0319 0.139782652517673,43.037524223492,1114.0959 0.138896852562082,43.0374933777854,1117.2631 0.137133635729147,43.0374378897485,1109.5321 0.136399715735283,43.0375304262485,1102.34880000001 0.135935693670218,43.0375366283479,1105.4733 0.135294646002008,43.037203699608,1122.51179999999 0.134999267360172,43.0370556748892,1125.44899999999 0.134628116722431,43.0369631389865,1128.94869999999 0.134290661891015,43.0370124246444,1126.8042 0.134105086122995,43.0370310324109,1127.3259 0.133641064057931,43.0371728537404,1119.00440000001 0.133278295600105,43.037308473277,1112.5457 0.132890213515904,43.0374440925138,1106.21000000001 0.132468435625378,43.037413246767,1109.0061 0.131911710117947,43.0372097343104,1109.2384 0.13135481662556,43.0368830079321,1109.3052 0.131051223788765,43.0365006254677,1107.2911 0.130410008135598,43.0360875649233,1097.8802 0.129912291162538,43.0357668733238,1095.0554 0.129422955471064,43.0357977185849,1089.7452 0.128908306153215,43.0359024926847,1087.69010000001 0.128225013412136,43.0360937678251,1084.53909999999 0.127474162870109,43.0363774112058,1081.84080000001 0.12681618375544,43.0366548524008,1081.3495 0.126284770976054,43.0367782341933,1081.98299999999 0.125592928070102,43.0368952454869,1083.7138 0.124960262581808,43.0369939843029,1086.7187 0.124201029859865,43.0368337221703,1083.61470000001 0.123610440561152,43.0366610552452,1085.5603 0.123053715053722,43.0365807563647,1088.9283 0.122623387896652,43.0366424473665,1089.98910000001 0.122311245793281,43.0366794950302,1093.8607 0.121560394352958,43.0368706022875,1091.4672 0.121324193128781,43.0370310324109,1090.28780000001 0.12101205102541,43.0370186267961,1086.0094 0.120691526742157,43.0370987576733,1083.01880000001 0.120345689730824,43.0371420085139,1078.2175 0.120033547627453,43.037308473277,1073.32090000001 0.119645465543252,43.0374440925138,1070.3888 0.119594838290467,43.0375550685263,1069.504 0.119358636167994,43.0376289972702,1066.8106 0.118548777091597,43.037326913524,1065.4235 0.117477234281326,43.0369693411432,1064.1505 0.116684306651388,43.036790471769,1061.50109999999 0.114254727625536,43.0362848749367,1051.7221 0.11152138957456,43.0357915163098,1034.3349 0.111251324559134,43.0355016698864,1033.0699 0.11109106241749,43.035464789603,1034.2475 0.110812615222148,43.035310562962,1035.2442 0.110568031818055,43.0353291705879,1037.2259 0.110247507534801,43.0354770274405,1038.59390000001 0.109985992684215,43.0355387182387,1037.97809999999 0.109648536954469,43.0355449205394,1041.6007 0.109066329835672,43.0355819688656,1044.87360000001 0.108509604328241,43.0357298257658,1045.74310000001 0.107919015029528,43.0359827911395,1044.3104 0.10754786439182,43.0361430535247,1042.0604 0.10715726792311,43.0362270397798,1043.3453 0.106872953830657,43.0362971126107,1043.0386 0.106678995882688,43.0365314710166,1041.43090000001 0.106628369528234,43.036815114344,1032.21339999999 0.106442793760214,43.0369569361725,1029.6458 0.106012467501442,43.0370679124095,1032.7767 0.105312243313903,43.0372529850728,1037.2614 0.104375817003858,43.0374625327201,1036.2996 0.103911794938793,43.0375921169522,1034.10030000001 0.10372621917074,43.0377092954355,1032.766 0.103203188571305,43.0380853081196,1030.81969999999 0.102452338029279,43.0382826176187,1027.08869999999 0.101330335951214,43.038424439995,1020.0058 0.100680739016427,43.0384614878959,1015.6627 0.0996262956376062,43.038424439995,1004.9195 0.0984283535786776,43.0383813568285,995.171400000007 0.0973316651270219,43.038338106205,986.281799999997 0.0962011146806774,43.0383012256566,980.497099999993 0.0957793367901844,43.038375154158,983.812300000005 0.0955347533860913,43.0382579749765,982.460200000001 0.0954081861524427,43.0378819626939,974.023199999996 0.0953322461715791,43.0377153307448,968.740600000005 0.0948935377329237,43.0373331156439,959.297500000001 0.0949019190145095,43.0372097343104,953.765799999994 0.0945054556486892,43.0368028767732,951.219299999997 0.0938052314611508,43.0362910778186,947.490699999995 0.0927761008104089,43.0360012317849,946.306599999996 0.092067327356294,43.0357422309844,947.760599999994 0.0914346609696694,43.0354153365803,938.157999999996 0.09126601754644,43.0352921227656,936.161600000007 0.0910298154239662,43.0353414077959,935.532200000001 0.0905657933589016,43.0359519459714,921.949299999993 0.0904645397516287,43.0361861362929,915.735199999996 0.0907176733205953,43.0368952454869,915.050900000002 0.0906248018932723,43.0371173660702,905.355800000005 0.0905319304659493,43.0375488664289,891.890899999999 0.0905067848244973,43.0378449150996,890.455799999996 0.0906584968012674,43.0381039155608,889.149600000004 0.0907850640349159,43.038338106205,894.529399999999 0.0907850640349159,43.0385540241655,889.8318 0.0906584968012674,43.0389177984636,881.854900000006 0.090616419713356,43.0392939783886,887.411399999997 0.0902957283434421,43.0395652169777,891.209700000007 0.0898908827977054,43.0396453478121,884.223499999993 0.0894352420142601,43.0397563244395,883.204100000003 0.0891737271636742,43.0400584080435,898.630099999995 0.0889544564876598,43.0399043485523,890.119200000001 0.0886170007579467,43.0397933721928,887.6005 0.0881023514400971,43.0397070383591,882.297200000001 0.0879083943904585,43.0395405741941,877.264899999995 0.0877565144287313,43.0391459541164,857.577099999995 0.0874443723253939,43.0387944170336,848.445900000006 0.0869887324402456,43.0386896432757,842.159599999999 0.0865163281952646,43.0386896432757,846.095300000001 0.0853269363012096,43.0388499051571,835.445399999997 0.0841373764221973,43.0391027033752,821.019899999999 0.0833865258801711,43.0393555012082,817.809500000003 0.0823067688749747,43.0396453478121,811.211800000005 0.0809230839613666,43.0400892531171,792.492599999998 0.0798180142280916,43.0406441354844,786.061900000001 0.0788393428451774,43.0412114228554,794.944399999993 0.0795395670327158,43.0401263013259,762.186400000006 0.0788732057381296,43.0403915044729,759.729699999996 0.0783754887650699,43.0405702070905,760.613700000002 0.0779367794280505,43.0406811833581,756.597399999999 0.0773545723092871,43.0406194924775,738.002800000002 0.0768654046027705,43.0406441354844,732.764200000005 0.0761145540607442,43.0407983625078,729.741299999994 0.0750938055899187,43.0409339812532,725.8606 0.0745538435439904,43.0410018748799,718.653000000006 0.0744272772086723,43.0409586241338,711.490900000004 0.0738452371765357,43.0410080772849,700.843999999997 0.0736341815937774,43.0410080772849,694.714000000007 0.0730774551880165,43.0409586241338,683.219500000007 0.0732715802226123,43.0407552790386,680.642800000001 0.0737354343027198,43.0406256949211,687.8505 0.0742670150670622,43.0405640046412,692.596799999999 0.0739210100707391,43.0405455640539,685.178499999995 0.073381215111471,43.0405640046412,677.582999999999 0.0732799615042317,43.0404469931217,671.653200000001 0.0731197002608851,43.040434587541,668.656700000007 0.0728412530655428,43.040335849009,664.535999999993 0.0726809909238992,43.0402248727734,661.492899999997 0.072571356035074,43.040046170463,654.815199999997 0.0725121795157125,43.0398550632475,651.537700000001 0.0724131052213315,43.0398656240124,650.660699999993 0.0723688488205618,43.0398981460357,650.056800000006 0.0722169688588345,43.0399289911899,648.052500000005 0.0721240974315115,43.0401016587676,645.981 0.0720716268357492,43.0401086990306,644.644899999999 0.0720230118092294,43.0400708130437,643.407099999997 0.0720567067172244,43.0398056098236,643.033299999996 0.0721326466980546,43.0396761930934,643.685200000007 0.0722929088396981,43.0395467767468,645.152600000001 0.0725966687631192,43.0394171920467,645.809599999993 0.0727906267110883,43.0393308589969,645.908899999995 0.0727451962122121,43.0391950719097,645.320900000006 0.0728710924043288,43.0389536727769,645.070200000002 0.0730756109467421,43.0388271063938,644.828500000003 0.0729812312480592,43.0385282076778,645.013300000006 0.0732170974006185,43.0385052413685,644.983699999997 0.0732801294891889,43.0382407083127,646.770699999994 0.0732015071388923,43.0377118101478,653.143800000005 0.0730598535983557,43.0378957095288,650.511599999998 0.0730417480537899,43.0376072039399,656.208700000003 0.0728402469524269,43.0375188591937,660.510500000004 0.0729007646564882,43.0376807971069,655.968399999998 0.0728082283007491,43.0377922762898,655.557499999995 0.0725180473111531,43.0380340109077,653.841899999999 0.0722260211819522,43.0381143091996,656.430200000003 0.0721958467715822,43.0380268023223,659.455700000006 0.0723676756207858,43.0378497764281,659.184399999998 0.0724382508627835,43.0377376263224,659.814899999998 0.072269942511138,43.0377032607823,664.201700000005 0.0721158832365524,43.0376427435052,668.433600000004 0.0718642588372762,43.0375393104963,674.275899999993 0.0718433038366171,43.0377248859933,673.608399999997 0.0717226043984092,43.0377463437682,675.047600000005 0.0715613361436832,43.0378279831762,674.937999999995 0.0712490269536857,43.0379310808424,681.070000000007 0.0713497775043839,43.0377765183206,678.937600000005 0.0714552217524161,43.0375738442138,678.761400000003 0.0709046982137132,43.0376197768645,697.283100000001 0.0704658217900671,43.0376786179074,705.205199999997 0.0703109243873229,43.0378459209823,706.206300000005 0.0700708666956067,43.0379877423982,705.159700000004 0.0696147237539172,43.0378497764281,724.201100000006 0.0691666270221962,43.0377279036473,736.153900000005 0.0689538942848237,43.0376313439004,741.263200000001 0.0682617163072538,43.0375622771672,761.100300000006 0.0677846183649387,43.0375629475399,769.279699999999 0.0675328259806719,43.0375703236088,774.400200000004 0.0671400501991033,43.0374893548881,782.851699999999 0.0667573328537682,43.0376072039399,786.902400000006 0.0660322980963953,43.0376881731616,799.694900000002 0.0656495798527297,43.0376881731616,807.227899999998 0.0652869793798951,43.0375409874136,825.643599999996 0.0648237954429891,43.0377396380913,829.181599999996 0.0642699193916183,43.0380782669679,834.373900000006 0.0635951759170824,43.0383433030047,846.959300000002 0.06344396609859,43.0383800154445,852.056299999997 0.0635951759170824,43.0388291181269,848.034499999994 0.0630109574703844,43.0385272018062,865.624100000001 0.0631217655589856,43.0381149795662,867.816800000001 0.0633230995737218,43.0378353598698,866.402100000007 0.0635145422388847,43.0376072039399,878.020999999993 0.0636555256361864,43.0373936332264,877.341700000004 0.063786450597288,43.0372907034001,873.837700000004 0.0640885342643919,43.0371066367454,876.954700000002 0.0638972595842197,43.0370771328982,878.847299999994 0.0636756416103564,43.0372023581982,882.237500000003 0.0631318239952191,43.0373936332264,887.288100000005 0.0623764468424855,43.0377322620428,900.323099999994 0.0621650552898463,43.0379089527632,907.965100000001 0.0619937294971504,43.0380561389418,906.128200000006 0.0619534957522164,43.0388437025339,897.5245 0.0622555803176508,43.0393075568264,889.502699999997 0.0621449384173458,43.03980812445,896.396599999993 0.0621751137260798,43.0401982179098,898.312399999995 0.0620944800478486,43.040389492791,899.942899999995 0.0614802542773739,43.0403380281142,899.044299999994 0.0605939512652415,43.0403380281142,893.870599999995 0.0601104833692417,43.0402644348514,890.192200000005 0.059496257598767,43.0400582406212,886.710000000006 0.0591940059467059,43.0399772712442,887.474700000006 0.0585192624721699,43.039940558447,884.950500000006 0.0579251535741957,43.0400436558464,873.589399999997 0.0573308766912307,43.0400803685819,864.963199999998 0.0567870590760935,43.0399846470228,868.7785 0.0560316819233598,43.039734363785,867.746799999994 0.055115204500824,43.0394399912473,863.078599999993 0.0545311531407528,43.0392928051054,867.456999999995 0.0539370442427785,43.0391749553516,869.093299999993 0.0536347925907174,43.0391749553516,873.971000000005 0.0535239836037857,43.0393663982205,872.1351 0.0535744428716134,43.0396976508425,858.170499999993 0.0534636338846817,43.0399626864501,853.436400000006 0.0533830002064505,43.0402644348514,850.414399999994 0.0531816670900448,43.0404630859038,843.345100000006 0.0530708581031131,43.0407428741768,839.140599999999 0.0524363483735447,43.0409269404284,846.048699999999 0.0519631060003717,43.0410151181004,859.831900000005 0.0514090619640772,43.0411624721258,871.848100000003 0.0509961693100416,43.0414125880284,876.009000000005 0.0507142025154047,43.0416702478749,883.639800000004 0.0503618266670999,43.0420162529158,890.483600000007 0.0502711345526352,43.0422739128533,899.631699999998 0.0504825261053078,43.0425166526907,902.005099999995 0.0511270951694403,43.0427302232989,903.209199999998 0.0512379032580415,43.0430467240112,913.954500000007 0.0515904461929731,43.0432453752464,915.729699999996 0.0516809712207776,43.0433851850723,919.925300000003 0.052245072795042,43.0436133405258,911.532999999996 0.0526479070128441,43.043760694876,901.012700000007 0.0527788328722428,43.0440698189245,897.692999999999 0.0525572148983794,43.0442243813495,907.2601 0.0524061730648107,43.044570219019,904.119000000006 0.0519126467325774,43.0447395332242,920.247600000002 0.0516507959120771,43.0448572153846,923.815799999997 0.0514796372060414,43.0451884679043,924.0288 0.0512883625258692,43.0455933141287,920.871400000004 0.051187611975171,43.0456080663043,921.671700000006 0.0509358195909376,43.0453577823726,925.376199999999 0.050522926936902,43.0451443791289,934.083199999994 0.050110034282833,43.0449014717753,938.289799999999 0.0497977250928689,43.0446954441261,945.090700000001 0.0493948908750668,43.0444230327105,946.342300000004 0.0491935577586277,43.044238965787,950.065700000006 0.0488208979512291,43.044040315143,949.104999999996 0.0485791640031957,43.0436428451692,947.436000000002 0.0483273716189623,43.0433851850723,946.632800000007 0.0479748286840307,43.0431129411611,948.592399999994 0.0475015863108912,43.0431496540296,948.999100000001 0.0470281768510914,43.0432012863876,948.057799999995 0.0465145336463577,43.0433189682162,944.578200000004 0.0459908320053904,43.0432086624352,944.486199999999 0.045034121736251,43.0428700336422,945.127399999998 0.0444198959657763,43.0427669363964,938.684899999993 0.042878966351575,43.0423106255673,941.423200000005 0.0423351487364712,43.0421708152622,936.354900000006 0.0413581545081712,43.0418248104365,928.2785 0.0411367045192985,43.041596654897,932.244699999996 0.0406934694699023,43.0414199642911,927.491099999999 0.040089302135661,43.0413316191256,928.743900000001 0.0391728247131252,43.0413832517006,921.664199999999 0.0388303402144271,43.0415156855805,918.088799999998 0.038044787752993,43.041596654897,912.200500000006 0.0374003875721148,43.0416850003374,909.881699999998 0.036282409048216,43.041773344994,905.175399999993 0.0355875495995436,43.0418838188034,903.654399999999 0.0347919387018424,43.0419352834966,893.591400000005 0.0343891044840404,43.0420529657841,892.833199999994 0.0337646531907054,43.0422665366933,887.936600000001 0.0332510099859716,43.0426271258182,879.734200000006 0.0329791007292378,43.0428700336422,868.6103 0.0329992176017048,43.0432527512888,862.742800000007 0.0331705433944006,43.0435251633054,863.640499999994 0.0334121102557738,43.0439005048406,855.2693 0.0333819349470398,43.0442832226237,855.563699999999 0.0333718765108063,43.0444525369645,852.431400000001 0.0332510099859716,43.0446070990817,846.825100000002 0.0333014692537993,43.0448719670807,848.184800000003 0.0332208346772711,43.0451074987326,846.927500000005 0.0330295599970655,43.0452620611692,847.443799999994 0.0328180004594691,43.0453799103914,843.0288 0.0325561505372992,43.0455933141287,842.314400000003 0.032415166241667,43.0455933141287,839.919299999994 0.0325460921010657,43.0453430301368,836.285999999993 0.0325762665114357,43.0452253482518,834.856400000004 0.032435283114134,43.0452032201773,830.860499999995 0.0322641244080983,43.0454092474341,835.986600000004 0.0320726817429354,43.0454754640035,829.920199999993 0.0318007733845321,43.0455785619496,828.542300000001 0.0309548712039939,43.0457109959643,821.981599999999 0.0302397277961943,43.0456521547465,806.995200000005 0.0294845177300873,43.0456228184764,796.7546 0.0288902408471559,43.045666906908,791.151899999997 0.0285276394759908,43.0457552523956,782.147299999997 0.0281551476535159,43.0458581818086,777.0478 0.0276515628850491,43.0462925322343,768.709600000002 0.0271178037061454,43.0466531219857,758.706399999995 0.0266847941796428,43.0469843746549,743.604399999997 0.026493016442896,43.0471660942967,742.107900000003 0.0263825434258788,43.0473449642783,739.712100000004 0.0263322521430083,43.0475804956258,734.856400000004 0.0264631771041099,43.0477938989289,736.241399999999 0.026608687112119,43.0478929727326,738.512000000002 0.0265920907372436,43.0479834971303,733.467199999999 0.026497207981986,43.047962375111,730.5046 0.0264105385233904,43.0478688328706,731.104500000001 0.0262536297927117,43.0478024482013,727.828599999993 0.0261206926053784,43.0477717704679,726.212400000004 0.0259771939252704,43.0476909688251,728.630799999999 0.0258945489191381,43.0477181265761,724.660600000003 0.0259294170268757,43.0477938989289,724.369000000006 0.0262113847198431,43.048007302146,718.581900000005 0.0266142189376452,43.0485298298278,714.208799999993 0.026855952885645,43.0488977955766,708.930600000007 0.0271580365527824,43.0494424514161,703.919800000003 0.0272789039759476,43.0500164444795,703.872199999998 0.0271781534252494,43.0499356425114,698.890599999999 0.0270472284641477,43.0496927350934,695.517999999996 0.0267350863608103,43.0493395214529,694.622499999998 0.026422944257473,43.0490156450351,694.429600000003 0.0261206926053784,43.0488096180744,695.299199999994 0.0255466996815741,43.0486917682201,689.941600000006 0.0245194132721066,43.0485960469674,681.4035 0.0241972136308327,43.0484931168967,676.263900000005 0.0238245538234341,43.0484121481482,670.674599999998 0.0237083809959335,43.0483318495478,670.691999999995 0.0234108230412065,43.0483494514533,660.909499999994 0.0231613779548221,43.0483494514533,656.305500000002 0.0229682590333421,43.0484730007614,654.082200000004 0.0228074938351573,43.0484964701323,649.274799999999 0.0226304682320116,43.0485375413458,644.7019 0.0225017216854712,43.0485316738436,641.820500000002 0.0224051626738964,43.048572913089,641.128800000006 0.0223568827189605,43.0486493559504,643.156900000002 0.0222361832807526,43.0487375336829,640.867199999993 0.021978859070993,43.0490431376515,637.440400000007 0.0216328540747034,43.0494546890917,638.295899999997 0.0215443412731305,43.0495604685374,637.701799999995 0.0213029423967146,43.0497780629735,636.575500000006 0.0210778039252596,43.0499426836152,644.339099999997 0.0205869599624258,43.0501307732172,642.236600000004 0.0200560502396153,43.0502719248862,629.986699999994 0.0195975600000768,43.0503129962237,621.977400000003 0.0190182032357036,43.0503777042353,610.261199999994 0.0186884586443415,43.0503777042353,601.730299999996 0.0185918996327667,43.0503601022555,598.993499999997 0.0184712001945587,43.0503953062101,596.631500000003 0.0183263603297175,43.0503307656112,592.157900000006 0.0181493347265718,43.0502365528098,591.784499999994 0.0178517776701753,43.0502601902133,585.5766 0.0177391244419692,43.0502895268913,582.162299999996 0.0174413994006154,43.0502484555381,573.320900000006 0.0172321871608346,43.0502306854703,572.980100000001 0.01713579523592,43.0502013487641,571.445999999996 0.0170392353260147,43.0501249058675,569.242599999998 0.0167495573929934,43.0500073920176,564.661399999997 0.0165805779998495,43.0500308608015,563.842799999999 0.0162266938801847,43.0501483752629,562.419699999999 0.0159933421121011,43.0502836595568,560.880999999994 0.015727802809052,43.0505129880234,558.338000000003 0.0155105443592692,43.0504952186887,559.539600000004 0.0152129864045422,43.0504600147914,562.912500000006 0.0151083802846685,43.0503542349278,563.831300000005 0.0149152613631885,43.0503188635553,565.573000000004 0.0146740304717632,43.050177879389,567.249299999996 0.0143843516403779,43.0501720120439,568.619200000001 0.0135396235579128,43.0501954814212,566.127399999998 0.0130409004717373,43.0501896140777,565.360199999996 0.0120271929961283,43.0502777922218,563.723800000007 0.0110698116854236,43.0503188635553,564.590800000005 0.010844506127342,43.0503071288914,564.544999999998 0.0103377368311646,43.0503483675994,564.989300000001 0.00969417388014795,43.0504541474732,563.395399999994 0.00930793603722133,43.0505716611237,560.242100000003 0.00895405191755652,43.0506893432551,556.625899999999 0.00811737004509329,43.0510008146119,540.8747 0.00787597116867735,43.0510479214283,539.888000000006 0.00747364000744991,43.0510420541664,531.757299999997 0.00708756925115002,43.050959743735,533.494900000005 0.00689445032966998,43.0509009023005,537.677100000001 0.00636354060689287,43.0508422295152,532.4522 0.00580027716078701,43.0510244517208,525.116899999994 0.00553490584272856,43.0511302317414,527.658200000005 0.00548662588775919,43.0512772503195,521.502500000002 0.00539006687618441,43.0514536053229,513.384399999995 0.00512452757316874,43.0515828541063,513.569900000002 0.00474650392520123,43.0516475627475,515.205400000006 0.00432003323563762,43.0517709439298,515.443199999994 0.00391786916103692,43.0517828463604,516.892000000007 0.00347530425484201,43.0517533423499,520.779399999999 0.00327413912336007,43.0518239179989,519.900200000004 0.00312946724350959,43.0520825830911,510.873999999996 0.00301681491360053,43.0522530712585,505.748099999997 0.00292025500372873,43.0524824002384,504.496100000004 0.0027432294005495,43.0526351185795,499.315700000006 0.00236520575258199,43.0526763570351,498.968999999997 0.00254206337077054,43.0527469329349,495.867400000003 0.00265471659897661,43.0528644474437,496.233300000007 0.00241348480922086,43.052976093994,496.768899999995 0.00195482748302217,43.0530466695488,495.782099999997 0.00152852388011876,43.0531878210713,492.492599999998 0.00123884504876691,43.0533112024371,492.087199999994 0.000900887160776189,43.0535110269211,491.414999999994 0.000394116966301787,43.0535640008,492.037400000001 7.2252396611877e-05,43.0536287093202,490.1967 -6.43732732701782e-05,43.0538873746774,495.194199999998 -0.000265538404718651,43.0539931543551,496.8367 -0.000233351768083562,43.0541929785862,505.280599999998 -0.000362098314623918,43.0542987583932,506.697100000005 -0.00059545008270748,43.0544105729974,513.911900000006 -0.000901054247436383,43.0545632911319,512.409299999999 -0.001367758681934,43.0545515566236,521.673599999995 -0.00266293079393573,43.0546103978376,518.082899999994 -0.00348351934809815,43.0546221323346,518.0334 -0.00415122092912048,43.0547691510753,525.129700000005 -0.00486737134833296,43.0549748429462,528.8511 -0.00619472919867275,43.0553099516263,540.265199999994 -0.0068382921496894,43.055498041178,552.857099999994 -0.00732913611252319,43.0555627496266,566.250100000005 -0.00820588284666618,43.0556743965158,571.9277 -0.00910693799239959,43.0557273698387,564.709000000003 -0.00940466303375333,43.0557860432016,561.955900000001 -0.0102493911162184,43.0560799126224,565.2359 -0.0107239746740912,43.0564091537663,570.958299999998 -0.0110223707569768,43.056795392429,576.677200000006 -0.0111224502661432,43.0570949615714,583.020499999999 -0.0110223707569768,43.0575626718794,596.804999999993 -0.0110924429423999,43.0579718760905,599.910900000003 -0.0111625160261199,43.058213107184,608.028099999996 -0.0112424786628193,43.0584322100882,614.200800000006 -0.0115524414532983,43.0586806501246,615.342999999993 -0.0120424481862705,43.0587611163306,614.817999999999 -0.012272615426677,43.0590095556906,630.146299999993 -0.0124726073583829,43.059148360152,640.153300000005 -0.0128925401093046,43.0593967999121,647.552299999996 -0.0131825540122738,43.0593822151405,646.993400000007 -0.0134026628164468,43.059279956242,642.396399999998 -0.0144926462428339,43.0593237093064,630.506699999998 -0.0147927176837061,43.0595283954688,637.3992 -0.0149828191641358,43.0596086938498,634.752999999997 -0.0154027528133879,43.0596598240308,624.201000000001 -0.0157628398000773,43.0598060043536,621.307100000005 -0.0160427952667796,43.0600764046743,622.450299999997 -0.0160728025905563,43.0602882988887,626.130699999994 -0.0163829324676621,43.0607997624472,625.083400000003 -0.0163928229189384,43.0611796306651,636.798200000005 -0.016312860282239,43.0614354458954,648.847200000004 -0.0167229025818844,43.0616912620272,640.597800000003 -0.0171730106415066,43.0619103649727,644.086899999995 -0.0177929362224312,43.0622684397711,655.747499999998 -0.0183230078170832,43.0625240876916,660.578099999999 -0.018623080156286,43.0627141890357,664.004000000001 -0.0190530713434411,43.0628236570674,665.848499999993 -0.0196330991493462,43.0629187076768,666.823499999999 -0.0198532079535191,43.0628895384932,662.5 -0.0201732291802317,43.0629698370664,664.036800000002 -0.0203732211119376,43.0630868489398,662.276599999997 -0.0205232577306875,43.0631891080522,665.943899999998 -0.0207532569861367,43.0636128972044,659.748800000001 -0.0207431985499032,43.063868544769,659.256299999994 -0.0206732934511404,43.064387384776,665.556500000006 -0.0205432066181973,43.0647818372261,671.783200000005 -0.0205532650544308,43.0650959907986,671.563200000004 -0.0206831839024167,43.0653663914149,671.463300000003 -0.0209032927065896,43.0655637011089,672.3753 -0.0211632992857821,43.0656513760911,669.078599999993 -0.0214333643012416,43.0657462589019,663.790099999998 -0.0216732549062641,43.065833933623,665.857000000004 -0.0217632759792304,43.0659216082187,664.352799999993 -0.0218333490629505,43.0661993843826,666.201700000005 -0.0218134001754407,43.0664624088504,667.197899999999 -0.021883305274237,43.0668714453801,667.811900000001 -0.0220033336709131,43.0671125088925,669.644400000005 -0.0221133045296863,43.0673902855663,665.720799999996 -0.0219932761329767,43.0675948037016,665.924400000004 -0.021573342483758,43.0679600871174,661.341400000005 -0.0212533212570454,43.0682670324955,654.6057 -0.0209731978053525,43.0685738103046,641.320500000002 -0.0210732782128493,43.0686760694518,641.171100000007 -0.021373350552052,43.0689025486104,633.202799999999 -0.0214833205124947,43.0690341441075,630.861799999999 -0.0216933708804341,43.0691581964282,631.550499999998 -0.0221233629659198,43.0692532470597,638.3459 -0.0224033184326221,43.069399427477,646.043999999994 -0.0220333409946564,43.0699107238076,645.052200000006 -0.0216432475825208,43.070276007203,636.240999999995 -0.0212332043845784,43.0705464072814,626.291700000002 -0.0212031979591322,43.0707363413465,623.778099999996 -0.0213932994395618,43.0708971061684,623.314799999993 -0.0216833133425311,43.0714229870091,613.163 -0.021883305274237,43.0717225562089,616.158100000001 -0.0220232825584229,43.0719855799443,612.1639 -0.0222033265009161,43.0721171760404,616.265499999994 -0.0222633402501057,43.0724385379032,617.621700000003 -0.0223334133338592,43.0727599000494,620.080300000001 -0.0224534426288658,43.0731251835253,619.890400000004 -0.0225134563780554,43.0733151174732,619.779699999999 -0.0225934199130517,43.0736658162663,625.162100000001 -0.0227934118447576,43.0739214645584,635.084199999998 -0.0232634696902201,43.0742356178795,647.000400000004 -0.0233933885381725,43.0744109678459,643.998699999996 -0.0235035273819028,43.0743817982251,648.846000000005 -0.0236034389061119,43.0745571477733,651.983600000007 -0.0236735119898655,43.074820171811,655.432799999995 -0.0238334390598916,43.0750464832498,665.229699999996 -0.023933518569058,43.0751489100795,664.115699999995 -0.0240734967515744,43.0752146247125,667.0815 -0.024193525148284,43.0754702724492,673.486399999994 -0.0242936055557473,43.0756602063471,677.762499999997 -0.024513546374963,43.0759084781424,676.364000000001 -0.0247836113904225,43.0762372164782,684.568599999999 -0.0249836033221284,43.0766318367672,680.1685 -0.0251435303921546,43.076982367631,686.723800000007 -0.0250935741809016,43.0773184819934,689.057100000005 -0.0250136106458717,43.0777055580703,699.429999999993 -0.025043617969615,43.0778371543508,700.282099999997 -0.02452360481123,43.0781511406208,701.504799999995 -0.0240235405403213,43.0783922037317,693.614700000006 -0.0237834828486386,43.0786771888663,696.724300000002 -0.0234534031856925,43.0790277198402,688.562099999996 -0.0232034550427335,43.0793053283453,677.193700000003 -0.0230234119985374,43.0797217413692,669.839000000007 -0.0229633973510173,43.0798823389277,668.092300000004 -0.0230733682097904,43.080152738614,668.294099999999 -0.0231434403952135,43.0804741009868,662.862699999998 -0.0231835061551903,43.0807371252162,653.676300000006 -0.0233434323269194,43.081029150757,648.870699999999 -0.0235434251569224,43.081124201349,644.487599999993 -0.0239834747803445,43.0812556295387,640.784 -0.02446359016371,43.0814455638754,638.730800000005 -0.0248535164891854,43.0816940031589,641.650399999999 -0.0252536683375545,43.0820737031864,639.489000000001 -0.0250736252933918,43.0820810798075,630.838399999993 -0.0251636463663246,43.0821979233207,632.156799999997 -0.0253835880838374,43.0823075586373,638.831000000006 -0.0256135873392866,43.082417026451,639.058300000004 -0.0257736814959729,43.0826143363686,637.365900000004 -0.0259036012422558,43.08286998407,641.021800000002 -0.0260536369627087,43.0831913466247,639.298599999995 -0.0261936151452251,43.0834324095884,642.530100000004 -0.0263837166256213,43.0836587213682,655.633199999997 -0.0262336809052019,43.084396496466,640.918300000005 -0.0261337684826623,43.08487862377,626.145499999999 -0.0262336809052019,43.0852876600769,628.521299999993 -0.0264936874843944,43.0854993871016,636.178400000004 -0.0265837085573272,43.0856381912834,630.174799999993 -0.0272136925745188,43.0860033074541,641.727100000004 -0.0273737867312052,43.0860837732224,642.762100000007 -0.0274938160262118,43.0862589554468,645.703299999994 -0.0279539825220675,43.0864854345773,641.967600000004 -0.0286939364997017,43.0868579263365,632.0772 -0.0290838628251771,43.0870624444557,631.275099999999 -0.0298040359002587,43.0874714812699,632.190100000007 -0.0301639549019908,43.0877271296959,629.512799999997 -0.030614062961613,43.0877928433039,637.248900000006 -0.0308541206532957,43.0879462327324,642.628599999996 -0.0308340046791592,43.0882164649639,639.875400000004 -0.0309640915120688,43.0885524114205,634.429799999998 -0.0312740543025479,43.0886766315389,638.230100000001 -0.0320542420251161,43.0886766315389,653.609100000001 -0.0325841456348109,43.0886107496213,660.157800000001 -0.0331043267781866,43.0884063987134,663.274000000005 -0.0331742318769494,43.0882748028286,661.772400000002 -0.0332142967386292,43.0881214142228,660.795499999993 -0.0332743113861158,43.0879462327324,658.750100000005 -0.0334042311323986,43.0878220124449,656.273300000001 -0.0336543472603149,43.0879023111568,655.767200000002 -0.0340142662620805,43.0879899856731,656.438299999994 -0.0343243961391862,43.0879608166121,656.4522 -0.0344243085617258,43.0878074278761,654.246199999994 -0.0345944611546122,43.0876977925615,650.4378 -0.0347944530863182,43.0876686240174,649.362200000003 -0.0349243728326011,43.087442312618,645.705300000001 -0.0350643510151175,43.087040483683,638.919099999999 -0.0352044962842941,43.0865146030287,634.509999999995 -0.0355444663985164,43.0859158000155,632.810400000002 -0.0358944949489722,43.0854482574793,625.039199999999 -0.0364346240815272,43.0849808826108,608.787700000001 -0.0367345284357728,43.0848055333678,598.094500000007 -0.0371546300699487,43.0845790545873,598.605599999995 -0.0375046577221075,43.0845061317846,585.122600000002 -0.0378846935963066,43.0842942373059,584.521200000003 -0.0382347221467624,43.0840531737969,580.768299999996 -0.0385047871621884,43.083848655472,578.649300000005 -0.0387547353051809,43.0835272930849,573.616099999999 -0.0388848221380905,43.0832862298384,574.460999999996 -0.0391148213935398,43.0830451662995,566.297600000005 -0.0394147266461158,43.0831548014121,560.606899999999 -0.0395548719152589,43.0834030730216,551.261400000003 -0.0394847988315388,43.0837463960535,540.775399999999 -0.039384719322339,43.0843891201237,519.249800000005 -0.0391947849285696,43.0855870617769,505.197899999999 -0.0393047557873427,43.0858646707407,497.8897 -0.0397147980869881,43.0855139715639,484.268100000001 -0.0403248332166364,43.0850831419368,466.350399999996 -0.0404849273733228,43.084893207724,463.668399999995 -0.0406148471196057,43.0847178588862,458.596000000005 -0.0408448463750549,43.0846083912471,451.800900000002 -0.0409449267825517,43.0845279248529,449.1685 -0.0410849040667376,43.0842431073338,452.468099999998 -0.0412949544346771,43.0839654988946,458.891399999993 -0.0414649399409367,43.0838560312233,458.854099999997 -0.0417049976326529,43.0837829409132,448.373800000001 -0.0424850173702639,43.083760980277,434.125799999994 -0.0432950444316182,43.0837318111705,423.182499999995 -0.0440251079579761,43.0837026427061,415.1394 -0.0440748970826025,43.0836099383611,416.854900000006 -0.0443543494927636,43.0834991296572,415.837599999999 -0.0445060614695002,43.0834991296572,413.981199999995 -0.044467672864171,43.0837168916778,412.363500000007 -0.044488124808222,43.0838738007313,411.185400000002 -0.0446721914065843,43.0838738007313,411.084000000003 -0.0449124161849273,43.0838774892616,410.666700000002 -0.0453365404749389,43.0838699455542,409.277400000006 -0.0454644488933206,43.0839447120651,409.089600000007 -0.0455053518831255,43.0840977653722,408.542600000001 -0.0455206070733012,43.0842843468364,408.211500000005 -0.0456178371263744,43.0843180420029,407.598599999998 -0.0457608327499412,43.085254971205,404.955100000006 -0.0458119621609702,43.0856060051483,403.8842 -0.0459960287593326,43.0864906312338,404.025800000003 -0.046088062058497,43.0870470219243,403.711500000005 -0.0460769984074447,43.0878813564034,404.424899999998 -0.0461190754953561,43.0889135038175,404.206999999995 -0.0461769108299843,43.0902100166967,406.258100000006 -0.0462349132512393,43.0921971987334,406.465800000005 -0.0462541919955477,43.0941136365671,405.478000000003 -0.0462734698415591,43.0949310399698,407.754499999995 -0.0463313051761874,43.0955652149319,405.635299999994</coordinates>
</LineString>
</Placemark>
</Folder>
</Document></kml>
