<?xml version="1.0" encoding="UTF-8"?>

<kml xmlns:xsd="http://www.w3.org/2001/XMLSchema" xmlns:gx="http://www.google.com/kml/ext/2.2" xmlns:atom="http://www.w3.org/2005/Atom" xmlns="http://www.opengis.net/kml/2.2">
<Document>
<name>FR05a_12a_fanjeaux-mirepoix</name>
<visibility>1</visibility>
<Schema name="FR05a_12a_fanjeaux-mirepoix" id="kml_schema_ft_FR05a_12a_fanjeaux-mirepoix">
<SimpleField type="xsd:string" name="id">
<displayName>id</displayName>
</SimpleField>
<SimpleField type="xsd:string" name="nombre">
<displayName>nombre</displayName>
</SimpleField>
<SimpleField type="xsd:double" name="longitud">
<displayName>longitud</displayName>
</SimpleField>
<SimpleField type="xsd:string" name="_formato">
<displayName>_formato</displayName>
</SimpleField>
</Schema>
<Folder id="kml_ft_FR05a_12a_fanjeaux-mirepoix">
<name>FR05a_12a_fanjeaux-mirepoix</name>
<Placemark id="kml_1">
<name>&lt;img height='20' src='https://nco.ign.es/iconos/icono_todos_caminos_azul.png' /&gt;&lt;img height='20' src='https://nco.ign.es/iconos/Camino Santiago_20.png' /&gt;&lt;img height='20' src='https://nco.ign.es/iconos/icono_todos_caminos_azul.png' /&gt;  Camino de Santiago </name>
<visibility>1</visibility>
<description><![CDATA[<!DOCTYPE html>
<html>
<head>
<style>
#nco {
  border-collapse: collapse;
  overflow:hidden;
}
#nco th, #nco td {
  padding: 4px;
  text-align: left;
}
#nco th {
  color: #364B5F;
  padding-right: 5px;
}
#nco td {
  color: rgb(51, 51, 51);
  font-size: 12px;
  padding-right: 5px;
}
</style>
</head>
<body>
<table id="nco">
<tr>
<td>Voie des Piemonts</td>
</tr>
<tr>
<th><b>Camino: </b></th>
<td>FR05a Voie des Piemonts</td>
</tr>
<tr>
<th><b>Etapa: </b></th>
<td>12a Fanjeaux-Mirepoix</td>
</tr>
<tr>
<th><b>Longitud: </b></th>
<td>24.59 km</td>
</tr>
</table>
</body>
</html>]]></description>
<Style>
<IconStyle>
<scale>0.8</scale>
</IconStyle>
<LabelStyle>
<color>ffffffff</color>
<scale>0.75</scale>
</LabelStyle>
<LineStyle>
<color>ffff0000</color>
<width>3.0</width>
<gx:labelVisibility>1</gx:labelVisibility>
</LineStyle>
<PolyStyle>
<color>66ff0000</color>
</PolyStyle>
</Style>
<ExtendedData>
<SchemaData schemaUrl="#kml_schema_ft_FR05a_12a_fanjeaux-mirepoix">
<SimpleData name="id">FR05a_12a</SimpleData>
<SimpleData name="_formato">kml</SimpleData>
</SchemaData>
</ExtendedData>
<LineString>
<extrude>0</extrude>
<tessellate>1</tessellate>
<coordinates>2.0349460466063,43.1853385828924,333.560299999997 2.0344404505099,43.1853856892357,334.959799999997 2.03459098928689,43.1851739625803,332.349700000006 2.03435428410784,43.1849855369901,331.072700000004 2.03422520338805,43.1844757498789,329.242199999993 2.03422520338805,43.1837304307777,335.385999999999 2.03410685034936,43.1832283546046,337.243499999997 2.03411757982713,43.1828910669367,340.807700000005 2.03404230998946,43.1824674455852,346.055699999997 2.03389177121247,43.1821772644977,348.506599999993 2.03320311373249,43.1809456272623,349.171300000002 2.03291276475794,43.1808279457875,348.010200000004 2.03269751763609,43.18066315741,347.515599999999 2.03237481403994,43.1798864904083,348.993900000001 2.03215235883625,43.179542329042,349.725699999995 2.03174935663349,43.1791661493339,350.082399999999 2.03102834543025,43.1780900805814,349.148000000001 2.03024011149768,43.1764024682403,346.664300000004 2.02963644632169,43.1753139941274,353.155499999993 2.02911660114823,43.1734796986796,344.296000000002 2.02898248986285,43.172880392301,339.227400000003 2.02787574387323,43.1717919183035,329.956300000005 2.02698692647662,43.1708502954312,328.933199999999 2.02552797262368,43.1690158324982,336.118799999997 2.02510887800092,43.1683798137041,352.717099999994 2.02462255975049,43.1677437948391,357.357300000003 2.02413624150007,43.1670098750426,361.099300000002 2.02369870626116,43.1658845208237,365.218099999998 2.02348949402138,43.1648161632442,367.347899999993 2.02317567566172,43.1638240815631,371.719599999997 2.02371966126181,43.1630762478338,373.333499999993 2.02346853902075,43.1623589244211,375.155100000004 2.02332202379792,43.1620231458438,375.614600000001 2.02296629543698,43.1618704275871,377.645399999994 2.0227570831972,43.1616873667315,377.617100000003 2.02189927923745,43.1612903996877,381.660499999998 2.02110400430967,43.1612141242198,386.105500000005 2.02016254923067,43.1607257944987,389.589300000007 2.01968125974923,43.1603593377452,389.379199999996 2.01882328870282,43.1600235586627,389.608699999997 2.01832104511905,43.1598404981708,392.018400000001 2.01802818086169,43.1593825106769,395.971099999995 2.01794452974245,43.1591535176084,398.602799999993 2.01792357474182,43.1587262081064,403.785199999998 2.01871868258295,43.1580851602704,401.663199999995 2.01932553228659,43.157657682749,393.307499999995 2.01995316900593,43.1571540979769,388.6253 2.01884424280515,43.1566503458828,392.241200000004 2.01765149839843,43.1564518623752,395.0484 2.01639605697482,43.156329821746,394.486399999994 2.01529886546655,43.1560748444916,391.026299999998 2.01442915972763,43.1554443575281,378.878899999996 2.01378040002267,43.1548643295702,372.219200000007 2.01321546032028,43.1543605776044,366.630099999995 2.01269242882251,43.1539637779091,362.6872 2.01258782270264,43.153704274177,361.2883 2.01262956471893,43.1531240789733,357.994300000006 2.01246226248044,43.1520250437585,357.665399999998 2.01252495859906,43.1511397471999,355.248800000001 2.01246226248044,43.1504222561247,353.672300000006 2.0114787294152,43.1491398254844,353.221999999994 2.01085662452138,43.1479779259261,357.108500000002 2.00999312075115,43.1476284004963,356.553400000004 2.0085075120871,43.1463919019866,370.542000000001 2.0071498118414,43.1459439734193,376.120899999994 2.00624758349589,43.1455064379733,378.444900000002 2.00518040020973,43.1452010011021,389.229500000001 2.00461545960901,43.144865221966,393.5674 2.00486658185008,43.1443919802601,391.045899999997 2.0047829298325,43.1442392618529,388.346799999999 2.004029564906,43.1443765570954,388.475000000006 2.00277412348236,43.1439797581239,382.765100000004 2.00243935012204,43.1431093811504,379.232000000004 2.00149772705809,43.1422696818784,384.949099999998 2.0011000895942,43.1419796683398,385.088199999998 2.0013302568346,43.1414299828716,385.122000000003 2.0017278942985,43.1406970697475,387.4948 2.00149772705809,43.1402238272391,391.3851 2.00149772705809,43.1395061687018,392.296900000001 2.00206266676048,43.1383305229763,397.608399999997 2.00191615153765,43.1374754013374,397.182000000001 2.00135121093693,43.1368494409464,397.057100000005 2.00116295369778,43.1356126070751,399.8652 2.00063975511338,43.1342535651452,402.943100000004 2.00028402765074,43.1336733701803,404.191800000001 2.00061896809768,43.1330624966452,402.431500000006 2.0013302568346,43.132360093066,402.456300000005 2.00156042317671,43.1310468165963,406.462599999999 2.00171783586226,43.1300577524548,402.362800000003 2.00157182279764,43.1296614558388,406.765100000004 2.00114468106658,43.1294276009309,413.100300000006 2.00098441892494,43.1291742992821,414.079199999993 2.00113127011771,43.1287357580992,415.103300000002 2.00129153225933,43.1286284697208,414.928100000005 2.00154516888487,43.1286090236944,414.0147 2.00154516888487,43.1284628436098,413.123699999996 2.00122464460161,43.1284433975307,413.764800000004 2.00089087735441,43.1282289887084,410.450400000002 2.00157182279764,43.1279951335686,407.4185 2.00163871045539,43.1275274232292,396.828399999999 2.00153175703767,43.1268744730593,394.297099999996 2.00106455044493,43.1262604147292,399.239199999996 2.00094435406329,43.1256465239799,404.622300000003 2.00090428830328,43.1253638862736,406.585699999996 2.00110461530661,43.124915622036,405.107399999994 2.00123805555048,43.1244088524675,400.828200000004 2.00153175703767,43.1239800339811,395.553 2.00143687428241,43.1236001662791,394.498900000006 2.00045032467445,43.1231223978258,394.024000000005 2.00042350187839,43.1227423621918,390.849900000001 2.00061058591776,43.122313544482,388.755699999994 2.00031671644562,43.1220894120889,387.665200000003 1.99968924771123,43.1216703168715,384.441300000006 1.99963577100239,43.1214364615741,383.284599999999 1.99984934186792,43.121231775657,384.671400000007 2.00016986615117,43.1207152831051,388.281099999993 2.00029006253284,43.1202474049808,388.2405 2.00016986615117,43.1197406354291,382.385899999994 1.99971590162405,43.1184639039716,379.246299999999 1.99946226589684,43.1176255455891,389.282399999996 1.99927534894408,43.1173722449053,397.569300000003 1.99938213437685,43.1171675585065,396.100399999996 1.99902154523192,43.1166996807942,407.530100000004 1.99880797436638,43.1165632230826,412.032399999996 1.99852751584311,43.1160953453396,418.881399999998 1.99846079617032,43.1155495158017,424.830300000001 1.99868777798472,43.1150816381771,429.242400000003 1.99906161099189,43.1146821565726,429.339000000007 1.99899489042081,43.1139510869159,426.177899999995 1.99855416975589,43.1133273055657,427.105899999995 1.99832718794149,43.112908042784,430.717499999999 1.99806014036708,43.1120113468608,435.778900000005 1.9981670937848,43.1114655176205,430.858900000007 1.99831394497758,43.11109503734,433.897400000002 1.99851410489424,43.1106077132587,436.7071 1.99860764646476,43.110217787062,440.392699999997 1.99852751584311,43.1097011267787,448.569699999993 1.99843414135921,43.1094573813039,448.796000000002 1.99815368283593,43.109242972179,448.284 1.99788663526152,43.109116237398,445.973800000007 1.99747273739267,43.1092039123674,443.183499999999 1.99724575467994,43.109184466069,442.674400000004 1.99688516553501,43.1089115515847,441.8851 1.99637772519733,43.1087750942141,441.355899999995 1.99599064922625,43.1087457573251,440.449099999998 1.99563005918298,43.1086191907171,439.635800000004 1.99509596493249,43.1086289139568,435.261700000003 1.99464200040537,43.1086678055889,434.095799999996 1.99408125134374,43.1085801311632,434.057700000005 1.99353374524608,43.1086093002407,434.534799999994 1.99307978161725,43.1088042631986,435.099199999997 1.99269253766118,43.1089018283897,436.989199999996 1.99215844251239,43.1088238768523,437.7212 1.99102353344033,43.1089309973139,432.285799999998 1.99051609220429,43.1090870685621,427.970199999996 1.99027569944102,43.1093306469669,424.888900000005 1.99028911038989,43.1094964409538,422.662400000001 1.98986180157217,43.1096719575657,422.2696 1.98938118313223,43.109740186273,424.674199999994 1.98884708798341,43.1098084149043,427.758799999996 1.98747178524975,43.1097596323949,431.639999999999 1.98655044704322,43.1099545956236,432.299299999999 1.98548225674559,43.1102080640746,428.193100000004 1.98456091764076,43.110266569862,428.640400000004 1.98398675763026,43.1102080640746,431.661800000002 1.98350613919032,43.1102469566707,434.7111 1.98319902675427,43.1103250755935,438.072 1.98267834255435,43.1101301128891,438.245200000005 1.98237123011826,43.1099934877249,439.384099999996 1.98211742550776,43.1100228240158,439.856499999994 1.98116943249012,43.1091455741095,434.590800000005 1.98035504680302,43.1084631195875,432.2304 1.97970075527257,43.1084436737096,429.3658 1.97931351131652,43.1083072166076,426.974400000006 1.97881948192768,43.1078197247347,424.054600000003 1.97844564892051,43.1076638214276,420.843099999998 1.97763109614674,43.1075662562307,415.695500000002 1.97674982280189,43.1074297984843,416.309399999998 1.97612235316918,43.1073712932645,414.589600000007 1.97512088344269,43.107439521913,410.630999999994 1.97435980647948,43.1074494125784,407.585600000006 1.97381230038179,43.1074297984843,405.497000000003 1.97349177699683,43.1074688581164,404.016199999998 1.97345187922181,43.1072738954959,406.141000000003 1.97353184185851,43.1070594859366,407.417700000005 1.97289096217526,43.1069619210881,405.769 1.9724504094953,43.1068254633062,406.447100000005 1.97230355830252,43.1066792829838,407.294299999994 1.97176946315374,43.1063575858816,413.119999999995 1.97118189219437,43.1063088032454,412.982999999993 1.97063438609668,43.1064647060685,412.656400000007 1.97002032741287,43.1063964776451,414.076400000005 1.96920577463911,43.1064062005821,412.799100000004 1.96863161373031,43.1066305006039,413.533200000005 1.96696260950943,43.106649946402,413.259900000005 1.96554690594418,43.106445763246,416.632700000002 1.9647460991909,43.1063867547065,414.995899999994 1.96343751613,43.1063770317664,407.272400000002 1.96250293406123,43.1060845033565,404.602700000003 1.96192877405073,43.1056360716356,404.896900000007 1.9615547730586,43.1051487473775,406.288400000005 1.96131454738196,43.10419337836,405.758499999996 1.96088690349265,43.1047180853798,406.315000000002 1.96001937616825,43.1054313853341,408.650999999998 1.95948528101947,43.106289356683,403.921199999997 1.95899125163062,43.1065622717095,403.171499999997 1.95825682947852,43.106737788865,406.570000000007 1.9568013961232,43.1067181751987,400.719200000007 1.95601366434884,43.106854632564,394.209099999993 1.95470508218627,43.1075955930292,378.7883 1.95426452860801,43.1079270128789,376.795400000003 1.95406420160469,43.1082974933167,374.544899999994 1.95342332102314,43.109437935086,367.762600000002 1.95316951731097,43.1098473070985,365.732900000003 1.95200795342776,43.1103347985623,359.358200000002 1.95099307185408,43.1106564964037,355.474499999997 1.95017868616694,43.1107929535147,356.802800000005 1.94919062738933,43.111182712098,356.031499999997 1.94797541971062,43.111787214765,350.944900000002 1.946987360933,43.1119625641398,349.001199999999 1.94595923639538,43.1120210702174,347.160199999998 1.94486439218496,43.1119333953488,350.561499999996 1.94327551858574,43.1116604806617,348.678899999999 1.94212719766648,43.1114946866345,344.407800000001 1.94000406183181,43.1111144830314,338.711500000005 1.93964363977351,43.110900074465,338.880399999995 1.93908289071191,43.1109097973425,337.657500000001 1.9385888613231,43.1108512915141,336.346900000004 1.93796122460376,43.1105979903332,336.157200000001 1.93745378426608,43.1104030271865,336.412200000006 1.93677283792452,43.1104516426089,336.415299999993 1.93598510704849,43.1101983410857,336.904299999995 1.93486344094034,43.1097302959778,337.908800000005 1.93367505426107,43.1092624178031,335.666899999997 1.93351496010442,43.1091650204202,335.946899999995 1.93296745400674,43.1095549461098,331.792300000001 1.93233981728739,43.1098570301431,329.597099999999 1.93195274131631,43.1098766441152,329.456699999995 1.93125838402588,43.1103054617651,330.257299999997 1.93080442039705,43.1110073624563,336.703299999994 1.92974947396165,43.1104615327876,335.589399999997 1.92895453410548,43.110245950664,336.017200000002 1.92769322578473,43.1103445215295,332.275200000004 1.92647818519268,43.1104224730978,330.313500000004 1.92595750099277,43.1098084149043,326.207399999999 1.92534327522229,43.1091747435733,325.551300000006 1.92510288245902,43.109223525893,327.651800000007 1.92480918007351,43.1091259605589,329.893599999996 1.92444859092857,43.1088336000596,330.2402 1.9240747579214,43.1087263115369,331.127399999998 1.92366085915421,43.1088724915616,333.523700000005 1.92328702614707,43.1093697060418,337.589399999997 1.92253919304606,43.1101592818837,344.358300000007 1.9224324076133,43.1103639674594,346.957500000004 1.92239234185332,43.1105198711029,348.683799999999 1.92248588432218,43.1106662193199,348.549599999998 1.92264614646379,43.1107247246694,346.905799999993 1.92269945518771,43.1109879167309,344.699699999997 1.92008245705086,43.112430442003,350.240600000005 1.91930796913877,43.1128300911026,348.307000000001 1.9182263687906,43.1130056086471,351.806100000002 1.91745204886347,43.1135123782381,360.544800000003 1.91699808433631,43.1134538722746,361.683699999994 1.91598320366093,43.1135319916946,353.276800000007 1.91510193031608,43.1135514379233,341.579299999998 1.91454118125448,43.1135903297062,337.640599999999 1.91331272971353,43.1140484845517,323.976999999999 1.91336620642241,43.114321399738,316.046300000002 1.91184405249597,43.1148868427603,339.859500000006 1.91124306968944,43.1151206975164,344.632800000007 1.91030848762067,43.1154423951203,351.820600000006 1.90928036308304,43.1156762503764,355.809500000003 1.9086527263637,43.1160271165038,358.0815 1.90833237006537,43.1162805853796,361.736499999999 1.90709050757559,43.1165923922899,371.485000000001 1.9061959903685,43.116826414954,376.611699999994 1.90528806311084,43.1169140900259,384.367599999998 1.90467383734036,43.1169238126037,391.660799999998 1.90432665914429,43.1165923922899,400.094299999997 1.9040862654827,43.1160661765511,405.884000000005 1.90417980795155,43.1156665276005,398.677899999995 1.90403295675881,43.1154618413977,398.145000000004 1.90353875938501,43.115266878007,396.024399999995 1.90275102850902,43.1149745173324,394.324099999998 1.90224358817131,43.1146040373092,382.3416 1.90209673697856,43.1144384106062,377.437399999995 1.9018965770619,43.1142142788741,375.670400000003 1.90166942816084,43.1142531708916,375.565000000002 1.90120222066977,43.1139705330114,374.338300000003 1.90006714271442,43.1135319916946,380.167300000001 1.89939960822006,43.1133564750039,380.818799999994 1.89921269216564,43.1131420657668,383.069499999998 1.89905243002399,43.112732693495,383.542700000005 1.89889216788235,43.1124597790932,381.762900000002 1.89877197150072,43.1121965868033,379.670800000007 1.89881203726069,43.1119236719782,379.816800000001 1.89869200796569,43.111787214765,377.108900000007 1.8982378763519,43.111787214765,372.578399999999 1.89765047247919,43.1120113468608,366.051900000006 1.89696952703596,43.1123134305745,354.878299999997 1.89674254522153,43.1122452021126,353.892200000002 1.89650215245826,43.1118163836257,348.894899999999 1.89650215245826,43.1114849631942,345.941399999996 1.89648874061107,43.1111926028144,344.193700000003 1.89688939641431,43.110900074465,345.112800000003 1.89715644309038,43.1108903509302,349.392099999997 1.89728988333426,43.1105783765922,345.352700000003 1.89728988333426,43.1100325470326,339.865099999995 1.89731670523203,43.1093697060418,335.3514 1.89696952703596,43.1092039123674,331.495500000005 1.89672913427266,43.1090773453951,327.850000000006 1.89672913427266,43.1088627690163,327.3177 1.8963685442294,43.1085507941808,326.954599999997 1.89598146825831,43.1084339504404,326.915099999998 1.8958077951678,43.1082974933167,326.539900000003 1.89578114035669,43.1078879535392,326.362899999993 1.89571442068394,43.107439521913,328.001600000003 1.89554074759343,43.1070204266992,330.599900000001 1.89516691458625,43.1066011639988,337.764200000005 1.89506012915349,43.1062600205702,337.532000000007 1.89523363515734,43.1059773825043,334.194399999993 1.89516691458625,43.1056263485763,334.919399999999 1.89497999853183,43.1054509987569,336.348100000003 1.89471295095742,43.1052560356122,340.853400000007 1.89469954000855,43.1048659421823,343.662500000006 1.89493993277182,43.1045833042385,345.747000000003 1.89524704610621,43.1041739324373,344.738400000002 1.89469954000855,43.1043395587159,346.698000000004 1.89413879094692,43.1043201128397,350.3177 1.89375154699088,43.1043980642098,351.096799999999 1.89339112493261,43.1044662928929,354.335099999997 1.89268335669328,43.1050999650896,356.204100000003 1.89213585149392,43.105285204962,357.137900000002 1.89132146580678,43.1057726966883,352.969500000007 1.89096087576355,43.1063088032454,347.612800000003 1.8905469778947,43.1064744296505,343.975300000006 1.89002629369478,43.106649946402,339.741800000003 1.88967911549872,43.1065914404369,339.133499999996 1.8889180385355,43.1065134892363,336.384000000005 1.88878443120497,43.1058506481763,335.145099999994 1.88806342000172,43.106289356683,338.4712 1.88732899695132,43.1065525487973,343.358200000002 1.88682172459857,43.1069034154211,348.197 1.88652785512642,43.1070594859366,349.356899999999 1.88583366582095,43.1070398723734,353.5334 1.88557986210878,43.1071081013913,354.490600000005 1.88525950581045,43.107361569825,356.650999999998 1.88519261815274,43.1076540986904,357.739400000006 1.88369728612404,43.1090870685621,366.004199999996 1.88348354727355,43.1090382861336,368.065700000006 1.88294945302307,43.1082778794944,360.097999999998 1.88245542363426,43.1073518470397,349.340400000001 1.88214831029984,43.1068936919072,346.940799999997 1.88192132848544,43.1061235631911,344.609599999996 1.8815340845294,43.1054898910963,338.728799999997 1.88145395390774,43.1052072534098,336.830199999997 1.8817610663438,43.1050220133015,335.937699999995 1.88184119786378,43.1048464958175,335.606299999999 1.88158756123824,43.1046808695988,335.829899999997 1.88126804306811,43.1043310088012,335.920700000002 1.88090661579501,43.1036864404411,342.475099999996 1.88054602575175,43.1028869749671,353.752299999993 1.88021225850458,43.102526217475,354.016099999993 1.88038576361014,43.1021460145699,354.938200000004 1.88017219274457,43.1017757021975,351.083899999998 1.88005199636294,43.1013369934831,346.220300000001 1.88011871693403,43.1009956823228,346.805399999997 1.8797983597374,43.1010833571169,339.709499999997 1.87897056310143,43.1016099082875,331.640199999994 1.87814259937876,43.1011224168631,323.382899999997 1.87774211156048,43.1005764196819,319.182700000005 1.8774616530372,43.1000403127737,315.350999999995 1.87724808217167,43.0993967500266,309.245500000005 1.87695421269953,43.099201787279,307.181100000002 1.87654031483067,43.099094498929,303.926300000006 1.87608635030354,43.0988215840629,301.227199999994 1.87528520847865,43.0981195160901,296.2546 1.87504481481705,43.0977686496293,295.541200000007 1.87484465579868,43.0972615443776,295.249400000001 1.87457760822427,43.0965596434964,296.196800000005 1.87460426213709,43.0964426325585,295.9427</coordinates>
</LineString>
</Placemark>
</Folder>
</Document></kml>
