<?xml version="1.0" encoding="UTF-8"?>

<kml xmlns:xsd="http://www.w3.org/2001/XMLSchema" xmlns:gx="http://www.google.com/kml/ext/2.2" xmlns:atom="http://www.w3.org/2005/Atom" xmlns="http://www.opengis.net/kml/2.2">
<Document>
<name>ES10a_06a_alquife-guadix</name>
<visibility>1</visibility>
<Schema name="ES10a_06a_alquife-guadix" id="kml_schema_ft_ES10a_06a_alquife-guadix">
<SimpleField type="xsd:string" name="id">
<displayName>id</displayName>
</SimpleField>
<SimpleField type="xsd:string" name="nombre">
<displayName>nombre</displayName>
</SimpleField>
<SimpleField type="xsd:double" name="longitud">
<displayName>longitud</displayName>
</SimpleField>
<SimpleField type="xsd:string" name="_formato">
<displayName>_formato</displayName>
</SimpleField>
</Schema>
<Folder id="kml_ft_ES10a_06a_alquife-guadix">
<name>ES10a_06a_alquife-guadix</name>
<Placemark id="kml_1">
<name>&lt;img height='20' src='https://nco.ign.es/iconos/icono_todos_caminos_azul.png' /&gt;&lt;img height='20' src='https://nco.ign.es/iconos/Camino Santiago_20.png' /&gt;&lt;img height='20' src='https://nco.ign.es/iconos/icono_todos_caminos_azul.png' /&gt;  Camino de Santiago </name>
<visibility>1</visibility>
<description><![CDATA[<!DOCTYPE html>
<html>
<head>
<style>
#nco {
  border-collapse: collapse;
  overflow:hidden;
}
#nco th, #nco td {
  padding: 4px;
  text-align: left;
}
#nco th {
  color: #364B5F;
  padding-right: 5px;
}
#nco td {
  color: rgb(51, 51, 51);
  font-size: 12px;
  padding-right: 5px;
}
</style>
</head>
<body>
<table id="nco">
<tr>
<td>Caminos Andaluces</td>
</tr>
<tr>
<th><b>Camino: </b></th>
<td>ES10a Camino Mozárabe de Almería</td>
</tr>
<tr>
<th><b>Etapa: </b></th>
<td>06a Alquife-Guadix</td>
</tr>
<tr>
<th><b>Longitud: </b></th>
<td>22.82 km</td>
</tr>
</table>
</body>
</html>]]></description>
<Style>
<IconStyle>
<scale>0.8</scale>
</IconStyle>
<LabelStyle>
<color>ffffffff</color>
<scale>0.75</scale>
</LabelStyle>
<LineStyle>
<color>ffff0000</color>
<width>3.0</width>
<gx:labelVisibility>1</gx:labelVisibility>
</LineStyle>
<PolyStyle>
<color>66ff0000</color>
</PolyStyle>
</Style>
<ExtendedData>
<SchemaData schemaUrl="#kml_schema_ft_ES10a_06a_alquife-guadix">
<SimpleData name="id">ES10a_06a</SimpleData>
<SimpleData name="_formato">kml</SimpleData>
</SchemaData>
</ExtendedData>
<LineString>
<extrude>0</extrude>
<tessellate>1</tessellate>
<coordinates>-3.11608297727644,37.1798940559169,1194.81110000001 -3.11624407754621,37.179906964026,1195.37300000001 -3.11636695629731,37.179927919032,1196.9212 -3.11689401045091,37.1798839978252,1199.03969999999 -3.11705092007992,37.1798469497098,1198.34480000001 -3.11708595617261,37.1798080578652,1198.2788 -3.11728091933537,37.1797740272162,1197.4811 -3.11741402360933,37.1797299384398,1197.8214 -3.11747604958475,37.1796799821032,1197.0849 -3.1175850143304,37.1796799821032,1197.26880000001 -3.11765005774684,37.1797130071976,1197.4414 -3.11794208387604,37.1798050403627,1198.6358 -3.11822002711655,37.1798769572317,1199.8386 -3.11848204592197,37.179990950779,1199.9189 -3.11870500418224,37.1801339459826,1199.2795 -3.11884297013852,37.180246934268,1198.447 -3.11897892476687,37.1804259719645,1196.8887 -3.11900692076272,37.1805560590643,1196.599 -3.11901194953167,37.1808799356551,1194.9954 -3.11908805749749,37.1811409483149,1193.7461 -3.11914706603186,37.1813419462287,1193.07520000001 -3.11922602345377,37.181591056476,1192.65240000001 -3.1191690262473,37.1818230676572,1192.3159 -3.1191629913652,37.1819499696061,1192.20239999999 -3.11920892492065,37.1820069662684,1192.07640000001 -3.11929894599359,37.1820399910613,1191.8211 -3.11946893149985,37.1820029432876,1191.4835 -3.11975207149426,37.1819290144453,1191.3971 -3.11996094866242,37.1819020251573,1191.28019999999 -3.12015205625597,37.1819129210726,1191.2144 -3.12049102025707,37.1819699184786,1191.3082 -3.12077902283211,37.182026077035,1191.4145 -3.12097096855381,37.1820790506631,1191.1594 -3.12111396327905,37.1821880152153,1190.85830000001 -3.12124606233822,37.1823390571961,1190.8058 -3.12136491753512,37.1825199385886,1190.34699999999 -3.12151193581453,37.1828429772653,1189.4865 -3.12160598133996,37.183103989583,1189.27589999999 -3.1216790709664,37.1832429617041,1189.0325 -3.12181402037996,37.1834340688871,1188.6542 -3.12198601631582,37.1836389225625,1188.2414 -3.12222305656649,37.1839059703856,1187.71520000001 -3.12234207974838,37.1840980835765,1187.5999 -3.12247199949466,37.18434099121,1187.1718 -3.12259605144551,37.1845109758478,1187.0803 -3.12273099996074,37.1847159976498,1186.49219999999 -3.12277106572072,37.184822950203,1186.26089999999 -3.1228230332599,37.1851639260291,1185.2268 -3.12286091970702,37.18556793385,1183.3319 -3.12289897324077,37.1858410165322,1182.542 -3.12297105765242,37.186122983943,1182.037 -3.12308806950641,37.1862019412422,1181.87729999999 -3.12326593323772,37.1862649734789,1181.5049 -3.12349207692396,37.1864359643033,1180.9405 -3.12379499871922,37.1866139954224,1180.6995 -3.12402198053365,37.1868049351991,1180.5257 -3.12419397736785,37.186980955164,1180.33100000001 -3.12461106066268,37.1873190815275,1179.40059999999 -3.12501205153753,37.18763507913,1179.049 -3.12545998028426,37.1880250055147,1178.3842 -3.12567304809325,37.188203036466,1178.33960000001 -3.12596607943724,37.188478969334,1178.0431 -3.12624804713021,37.1886710823427,1177.77439999999 -3.12652498515589,37.1888559869306,1177.2309 -3.12679806761237,37.1890670433682,1176.91220000001 -3.12698900722096,37.1892620066935,1176.0794 -3.12723493180975,37.189589068451,1175.3269 -3.12738798586955,37.1897510068749,1174.94 -3.12758998912919,37.1898629889093,1174.768 -3.12788000303213,37.1900029669344,1173.9947 -3.12810899707279,37.190094999727,1176.03230000001 -3.12831703611279,37.19024403001,1174.66280000001 -3.12856597814264,37.1903759615436,1174.4072 -3.12872506708454,37.1904700062201,1174.5105 -3.12878591896189,37.1905350500937,1174.66740000001 -3.1294189204201,37.1905249912721,1175.4244 -3.13062993835631,37.1904820759559,1177.2565 -3.13206994943482,37.1904140149582,1179.0716 -3.13370391756301,37.1903739499183,1180.5799 -3.13549194496578,37.1903310345163,1182.209 -3.13745699797169,37.190265990467,1184.43889999999 -3.13822796538618,37.1902329664086,1184.9893 -3.13873892622145,37.1902120113991,1182.32580000001 -3.13891293438358,37.1902539206966,1179.0934 -3.13899306590357,37.1902379951233,1177.7436 -3.13926799260132,37.1901119315044,1175.1002 -3.13934108222776,37.1901109253305,1174.4112 -3.1395410750578,37.1901080756968,1173.49980000001 -3.13972396755805,37.1900909764613,1172.55929999999 -3.13986998062267,37.1900519167092,1171.6651 -3.14018698440833,37.1899099278528,1169.9298 -3.1404119539965,37.1898039800943,1168.6012 -3.14067598412986,37.1896329897395,1166.32580000001 -3.14089994850324,37.1895109491229,1164.2885 -3.14106892789638,37.1893739887374,1162.37699999999 -3.14131904402433,37.1892340109776,1159.6992 -3.14154501972561,37.1891180054086,1158.4126 -3.14166504902062,37.1890879979798,1157.41039999999 -3.14175708231979,37.1890289892749,1156.15270000001 -3.14181407952626,37.1889160012451,1154.889 -3.14184308073688,37.1887810528795,1153.33500000001 -3.14184207462377,37.1885979923203,1150.7303 -3.14190896228151,37.1884570083574,1147.7889 -3.14207492423361,37.188189960882,1142.5843 -3.14214097376319,37.188168000537,1141.1133 -3.14229503303778,37.188188955398,1138.3734 -3.14256006838596,37.188281994453,1135.02830000001 -3.1427820214314,37.1883319501099,1134.814 -3.14296407580354,37.1883879414844,1134.9857 -3.1431709416438,37.1885190346637,1134.4491 -3.14335299691419,37.1886279992281,1134.03479999999 -3.1434750366388,37.1886420809298,1133.8407 -3.14373303189009,37.1885840780708,1133.53449999999 -3.14426997649497,37.1883569282837,1133.6358 -3.14468203102085,37.1882249975164,1134.071 -3.14491203027633,37.1881990138152,1134.34540000001 -3.14508503322364,37.1881829203471,1134.7821 -3.14524697162157,37.188062053197,1135.28909999999 -3.14550697820079,37.1880429425265,1134.82919999999 -3.14566506102955,37.188094072004,1134.4743 -3.14574602977936,37.1881099973137,1136.2055 -3.14583906919164,37.1880360694396,1137.63499999999 -3.14596194794274,37.1879410183916,1137.4705 -3.14610192522693,37.1878280301652,1136.183 -3.14623905305505,37.1878209895966,1137.2812 -3.14664792305325,37.1878310480627,1141.83839999999 -3.14690105572389,37.1878250129832,1144.4846 -3.14725007905956,37.1878010408382,1148.0089 -3.14746499021149,37.1877990291443,1149.8982 -3.14788693518865,37.1878169662098,1155.17140000001 -3.14825406317055,37.1878179724143,1159.77860000001 -3.14856100851998,37.1878169662098,1163.9935 -3.14865404703396,37.1878040580212,1165.10490000001 -3.14892193273653,37.1877450497442,1168.4912 -3.14922602862987,37.1876540224412,1172.29949999999 -3.1495329739793,37.187549918618,1176.6507 -3.14972894235684,37.1874530241492,1179.63219999999 -3.15005801590667,37.1872689577371,1184.0696 -3.15030092395274,37.1871160713475,1186.53449999999 -3.15047493211487,37.1870089509994,1189.61870000001 -3.15078003322302,37.1868349428194,1193.4446 -3.15100098015535,37.1867050232634,1196.1776 -3.15114699321994,37.1866059492356,1197.3609 -3.15134899647958,37.1864850817086,1197.7418 -3.15148293978003,37.1863890253474,1199.4178 -3.15162492929045,37.1863259932142,1201.3342 -3.15180798977569,37.1862649734789,1200.9354 -3.1519830040509,37.1862220578887,1200.5249 -3.15222607918364,37.1861930562511,1202.1799 -3.15238902369471,37.1861809865454,1202.7772 -3.1525290009789,37.1861660663397,1204.37420000001 -3.15263997795079,37.1861350536579,1204.439 -3.15293401450959,37.186020053851,1205.3214 -3.15306594558381,37.1859660746107,1207.0768 -3.15322604063879,37.1858559360865,1208.0448 -3.15335495427196,37.1858089974857,1209.61990000001 -3.15360205206053,37.185724005244,1211.28569999999 -3.1540920587935,37.1855230068249,1213.5496 -3.1546219624032,37.1853079276971,1215.84669999999 -3.15488398031032,37.1852049979256,1216.4198 -3.15509403157656,37.1851550416316,1217.2403 -3.15533693872434,37.1851189994793,1218.7316 -3.15555201875956,37.1850360182287,1219.58040000001 -3.15572502080854,37.1849449912388,1219.8656 -3.15602492516278,37.1847629362142,1220.8358 -3.15613808144753,37.1846849843726,1221.90399999999 -3.15629901373237,37.1845879216214,1223.0858 -3.15642993869348,37.1845309247596,1224.7914 -3.15655600287055,37.1844410708802,1225.03140000001 -3.15668793394473,37.184312995817,1225.526 -3.1569249741954,37.1841730179802,1226.55809999999 -3.15717894589252,37.1840489653345,1227.2019 -3.15740006080981,37.1839549205341,1227.7113 -3.15765704994799,37.1838600375459,1228.39509999999 -3.15785603576658,37.1838560139481,1229.9863 -3.1579629891843,37.1837959999067,1230.7188 -3.15809693158642,37.1838129309493,1231.5874 -3.1582149486552,37.1838260072912,1232.0184 -3.15834403027332,37.1838779748313,1232.46309999999 -3.15852105587647,37.183872945693,1233.1102 -3.15876195169631,37.183890044905,1233.3665 -3.15896797940841,37.1839120050626,1233.69349999999 -3.15918607598635,37.1838850157675,1234.2283 -3.15946703756617,37.1838390829151,1234.8784 -3.15962998207725,37.1838660722266,1234.768 -3.15957801453806,37.1840469542564,1233.87880000001 -3.15967507660621,37.1842000071725,1233.38679999999 -3.15981002512144,37.1842990814937,1233.1808 -3.15960802096351,37.1846680528097,1232.0854 -3.15941004125803,37.1849669518054,1231.23050000001 -3.15918892634074,37.1851369364657,1230.22530000001 -3.15889807430961,37.1854319797063,1228.2932 -3.15881392013383,37.1856549380185,1226.9856 -3.15856397109254,37.1858680058441,1225.8392 -3.1588559972217,37.1860649805804,1226.01669999999 -3.15919998999179,37.18629095713,1225.91160000001 -3.15953694266497,37.1865680627984,1224.58379999999 -3.15972302148956,37.186678033535,1223.63890000001 -3.16012099402504,37.186910044119,1221.68489999999 -3.16018302000046,37.1872610783679,1218.45299999999 -3.16020397500108,37.1876429577446,1215.1778 -3.16025694865339,37.1879160400802,1211.29029999999 -3.16045392314404,37.1882280146825,1205.16650000001 -3.16052500144258,37.1883959881969,1202.4829 -3.1605340537657,37.1888539752648,1198.27899999999 -3.16060999374656,37.1890509500852,1197.1216 -3.16073806925157,37.1892150680628,1196.5288 -3.16083697645929,37.1893550458576,1195.83289999999 -3.16085005143825,37.1895540317337,1194.3333 -3.16083295290516,37.1897320633742,1194.15670000001 -3.16078150908378,37.1897814176566,1194.43210000001 -3.16072920557468,37.1898818450703,1195.4449 -3.16073859386771,37.1899235119523,1196.06600000001 -3.16075468718601,37.1899961612951,1196.5067 -3.16076273339601,37.1900613315276,1196.84570000001 -3.16076139221131,37.1901393229044,1196.8505 -3.16073591149828,37.1901895356743,1197.0747 -3.16070238367691,37.1902258602264,1197.3829 -3.16065410372197,37.1902824842423,1197.9195 -3.16061387087534,37.1903348337781,1198.39109999999 -3.16059509518757,37.1903946622856,1199.0971 -3.16062459945477,37.1904908151705,1200.65640000001 -3.16066751556917,37.1905784212324,1200.96950000001 -3.16068629035861,37.1906275659996,1202.0183 -3.16071104613119,37.1906825072838,1202.5434 -3.16078078324503,37.190733788833,1202.98729999999 -3.16086661457546,37.1908149840709,1203.7 -3.16094171642817,37.190861991838,1203.89200000001 -3.16100608880311,37.1909175469545,1204.1526 -3.16107046207638,37.1909645546577,1204.53569999999 -3.16112947061075,37.1910158360154,1204.7334 -3.16119920862288,37.1910842106276,1205.1522 -3.16123675910009,37.1911483115021,1205.1972 -3.16127967431616,37.1912124130377,1205.3131 -3.16128503905502,37.1912701040154,1205.2861 -3.16130113237336,37.191329931782,1205.57249999999 -3.16130917858336,37.1913705294491,1205.7301 -3.16131186095279,37.1914068534331,1205.6591 -3.1613360004811,37.1914559976611,1205.553 -3.16136550564659,37.1915307823567,1205.825 -3.16141378470323,37.1915991565027,1205.628 -3.16146742939707,37.191712401001,1205.7277 -3.16149693366424,37.1917935959022,1206.2009 -3.16153716651087,37.1918982935578,1206.26089999999 -3.16158008172695,37.1920008542544,1206.0028 -3.16161226836358,37.1920777752221,1205.7357 -3.16172223922235,37.1922123863692,1206.0851 -3.16184562102999,37.1923405868637,1206.2886 -3.16187398533508,37.1924080700613,1206.4344 -3.16185202422134,37.1925269251276,1206.39599999999 -3.16186292078573,37.1926469543141,1206.22809999999 -3.16192695898738,37.1927409990245,1205.9765 -3.16199200240385,37.1928439292587,1205.7856 -3.1620669362716,37.1929460206672,1205.5683 -3.16218495334034,37.1930140815295,1205.2999 -3.16232392540974,37.1930829810143,1204.912 -3.16246407067892,37.1931260637338,1204.5796 -3.16240003337557,37.1932110562319,1204.2828 -3.16238896882622,37.1933309175965,1204.2749 -3.16237807316012,37.1934589931091,1204.4206 -3.16236700861077,37.1935790215296,1204.11599999999 -3.16235695017454,37.1936899982009,1203.958 -3.16228201630679,37.1938090215605,1203.6295 -3.16219568281811,37.1938733941939,1203.178 -3.1621205809654,37.1939929203255,1202.69990000001 -3.16212594480597,37.194061316572,1202.9072 -3.16214203812427,37.1941255222576,1204.85060000001 -3.16211521622654,37.1941895597249,1203.9387 -3.1621044876471,37.1942708643098,1204.21249999999 -3.16210985148767,37.1943989396592,1204.77159999999 -3.16203491761992,37.1945189687321,1204.4281 -3.16201295740448,37.1946470436606,1204.3659 -3.1619809378545,37.1947840045,1204.0866 -3.16199703117281,37.1949930486087,1204.15609999999 -3.16203491761992,37.1951600167104,1204.4788 -3.16192695898738,37.1953650375089,1204.0831 -3.16187398533508,37.1955440751458,1204.8224 -3.16176703191736,37.1957070190624,1204.6943 -3.16166996984921,37.1959120405222,1205.92909999999 -3.16147701801439,37.1961170621408,1205.26149999999 -3.16122991932752,37.1963220832026,1204.84080000001 -3.16099405317493,37.1965359896296,1204.5594 -3.16079003768909,37.1966890429941,1204.1339 -3.16053304855091,37.1969029490969,1205.09209999999 -3.1603070719513,37.197158932509,1206.37940000001 -3.16041503058384,37.1972189473798,1207.8545 -3.16069398083576,37.1972449308394,1211.30130000001 -3.1608649715568,37.1972529773237,1211.3471 -3.16101601339037,37.1973820587002,1211.95570000001 -3.16100494973932,37.1975099670555,1213.36350000001 -3.16087603610619,37.1976890038989,1215.7282 -3.16077897313971,37.197835016722,1217.7442 -3.1607259994874,37.1979969553495,1219.3376 -3.16066095607097,37.1981419622256,1220.01489999999 -3.16061904696801,37.1982789224491,1220.505 -3.16062893741929,37.198457960331,1221.98020000001 -3.16064000107031,37.1986120194374,1223.393 -3.16062893741929,37.1987660789449,1224.1369 -3.16062893741929,37.1989290230627,1225.6134 -3.16058602220322,37.1990740295794,1226.5405 -3.16056506720259,37.1992359684112,1228.4008 -3.1604790687855,37.1994160115043,1230.2945 -3.16038200671735,37.1995519662302,1230.8658 -3.16036105171672,37.19974005622,1232.3912 -3.16032903306504,37.199937030547,1233.8058 -3.1603070719513,37.2000989689584,1235.1241 -3.16034998716737,37.2002530282934,1236.4526 -3.16038200671735,37.2003980351289,1236.7046 -3.1603930703684,37.2005519271351,1237.52280000001 -3.16041503058384,37.2007150391247,1238.2248 -3.16046800423615,37.2009110077396,1239.77469999999 -3.16060798241866,37.2010310364762,1241.2098 -3.16060798241866,37.2012360577873,1240.0125 -3.16056506720259,37.2014239804418,1239.76149999999 -3.16051695523258,37.201573010544,1239.5107 -3.1604790687855,37.2016799635489,1239.4509 -3.16046800423615,37.2017830611909,1239.5618 -3.16043095681552,37.2019069458926,1238.4947 -3.16043598558447,37.2020309978217,1238.4458 -3.16048393046782,37.2021250430063,1239.3844 -3.16051695523258,37.2022019887191,1239.85769999999 -3.16055400265324,37.2022779283416,1240.47 -3.16059205708529,37.2023600713825,1240.9808 -3.16062407573696,37.2024370168557,1241.2412 -3.16067201972198,37.2025310622499,1244.073 -3.16058602220322,37.2026889767949,1244.7553 -3.16056003753531,37.2028470598693,1246.0034 -3.16056992888492,37.2030649889846,1248.15330000001 -3.16058099253594,37.2033080645657,1249.2922 -3.16058602220322,37.2034150172587,1250.05439999999 -3.16059691786931,37.2035350463063,1250.8446 -3.16060194753656,37.2036589309945,1251.29730000001 -3.16061301118761,37.2037350387245,1251.7206 -3.16059205708529,37.2038339450304,1251.35980000001 -3.16057596376698,37.2039150818187,1251.2233 -3.16056003753531,37.2039920278532,1251.7071 -3.16054897388426,37.2040729970455,1251.4765 -3.16054897388426,37.2041579893826,1252.02129999999 -3.16054897388426,37.2042439876098,1252.53539999999 -3.16056003753531,37.2043209340244,1253.44749999999 -3.16057596376698,37.2044149785022,1254.287 -3.16058099253594,37.2045090235783,1254.644 -3.16062893741929,37.204619999923,1256.07309999999 -3.16062407573696,37.2047480756016,1255.57490000001 -3.16067201972198,37.2048419528382,1257.36079999999 -3.16073102915469,37.2049400212879,1259.474 -3.16080596302243,37.2050219961539,1261.3848 -3.16089196143953,37.205097935801,1262.8167 -3.16103998583205,37.2051569448257,1264.5174 -3.16113805401328,37.2052280233292,1264.10219999999 -3.16135900094565,37.2055460323258,1258.2755 -3.16162705463314,37.2060849890017,1247.9154 -3.16187599666301,37.2065260444189,1241.1303 -3.1620749833799,37.2067729759727,1237.7441 -3.16229894775328,37.2069560361076,1234.67140000001 -3.16251201556227,37.2070720421712,1231.9182 -3.16282499579377,37.2072110138236,1227.9808 -3.16318994356445,37.2074220704633,1222.7334 -3.16355908287429,37.2076559254416,1217.77099999999 -3.16386703433684,37.2078820691802,1213.0273 -3.1641250286898,37.2080979869127,1209.38370000001 -3.16424991966713,37.2082899326643,1205.8652 -3.16424002831752,37.208649012943,1201.30989999999 -3.16425722656362,37.2088424017889,1198.0912 -3.16438403005421,37.2088139690385,1197.4914 -3.164549991108,37.2086169942678,1197.5916 -3.16468235606848,37.2085059479626,1197.1347 -3.16474404697229,37.2085198334996,1195.4904 -3.16480037313723,37.208533719034,1194.44530000001 -3.16484731190746,37.2085732385617,1195.1281 -3.16488486328296,37.2086501426433,1196.1097 -3.16491436755016,37.2086971393049,1196.1577 -3.164976058454,37.2087612259398,1196.2202 -3.16505652414724,37.208816767169,1196.27159999999 -3.16520672785265,37.2089107602556,1196.29240000001 -3.16536766103579,37.2090047532251,1196.23330000001 -3.16552322858174,37.2090773842059,1196.1591 -3.16566270370772,37.2091414705178,1196.13619999999 -3.16580217883366,37.2091970114672,1196.1865 -3.1659792044368,37.2092610976775,1196.21120000001 -3.16616695861942,37.2093294557649,1196.2363 -3.16633862038199,37.2093807246476,1196.24920000001 -3.16656392594008,37.2094191762867,1196.1859 -3.16680532481649,37.2094618998302,1196.2077 -3.16699307899907,37.2094618998302,1196.19839999999 -3.16715937602278,37.2094661724694,1196.186 -3.16737395300146,37.2094661724694,1196.2071 -3.16757243666181,37.2094747170316,1196.2378 -3.16776555558326,37.2094747170316,1196.3075 -3.16803377635744,37.2094832615929,1196.39449999999 -3.16825908191552,37.2094832615929,1196.387 -3.1684307436781,37.2094747170316,1196.34020000001 -3.16861313402014,37.2094704443929,1196.2709 -3.16877406630496,37.2094618998302,1196.15210000001 -3.16899937186307,37.2094576271908,1196.00750000001 -3.16913348225015,37.2094448107019,1195.982 -3.16926759263722,37.2094362654208,1196.4583 -3.16939003750202,37.2094449587991,1196.98050000001 -3.16902408361823,37.2095780630166,1194.8554 -3.16883297602468,37.2096280196066,1193.97139999999 -3.16840901971959,37.2097160291494,1191.8879 -3.16794801509558,37.2098010222859,1189.7283 -3.16759295777614,37.209836058192,1188.3125 -3.16729607086294,37.2098390759252,1187.3434 -3.16674001549871,37.2098189591322,1185.25079999999 -3.16614406146113,37.209827005707,1182.9466 -3.16592898232424,37.2098699214733,1182.2025 -3.16590802732358,37.2100129166164,1182.2262 -3.1660010667359,37.2102000003865,1182.3254 -3.16630801208533,37.2106209394987,1182.1753 -3.16656500122347,37.210989073194,1181.86840000001 -3.16679902403308,37.2113749755906,1181.07490000001 -3.16707294461775,37.2118259222901,1180.5741 -3.16700605696001,37.2120150176219,1179.7849 -3.16684395057709,37.2121880205516,1178.7041 -3.16662099231682,37.2123719196126,1177.4163 -3.16631304085428,37.2125650385058,1176.0022 -3.16602705050547,37.2127710658345,1174.5147 -3.16577006136733,37.2129779310634,1173.2255 -3.16554391768106,37.2132280465398,1172.08 -3.16539505516038,37.2134449705772,1171.2062 -3.16537292695998,37.2136169672291,1170.83 -3.1653489545183,37.2138399260103,1169.74370000001 -3.16527200842432,37.2139710186324,1168.9258 -3.1651040351443,37.2141790574053,1167.6152 -3.16502004895346,37.2143679858748,1166.3315 -3.16494595231554,37.214656993551,1164.4322 -3.16495601075178,37.2148720734865,1164.1057 -3.16498199452139,37.2150730717477,1163.9448 -3.16500999051723,37.2153069266221,1163.94349999999 -3.16513605379597,37.2153989600427,1164.04150000001 -3.16531794108144,37.2155340761581,1164.5059 -3.16543595904852,37.2156319769043,1165.4838 -3.16547501869541,37.2157060730551,1165.76579999999 -3.1654820587923,37.215990051468,1165.5649 -3.16551106090122,37.2161060572353,1165.35490000001 -3.16566495219085,37.2164289278908,1165.4117 -3.16581398269652,37.2166450136027,1165.4834 -3.16597994375028,37.2168609312979,1165.5128 -3.16609695560427,37.2170530443317,1165.3841 -3.16616602257487,37.2172669506657,1165.40640000001 -3.16625906198719,37.2174290564872,1165.1207 -3.16641898815888,37.217628043475,1164.9685 -3.16649895169391,37.2177539395299,1164.81020000001 -3.16667497118394,37.2183549216841,1160.63529999999 -3.16678896559685,37.2186060437278,1160.348 -3.16695995631793,37.2189639510888,1162.8431 -3.16717403024003,37.2192970476318,1163.44839999999 -3.16739598328548,37.219583038396,1163.3848 -3.1674910340257,37.2197010552047,1163.5061 -3.16725499898985,37.2198219224869,1162.239 -3.1669659912,37.220029961578,1161.0836 -3.16678091848855,37.2201779856456,1160.3864 -3.16651303278598,37.220444027215,1159.1963 -3.16631807052156,37.2206949813526,1158.2078 -3.16617691913927,37.2208859214842,1157.69 -3.16604297583885,37.2211680562953,1157.3916 -3.16597407685317,37.2212719914352,1157.3532 -3.16588103744089,37.2214139813865,1155.9353 -3.16570300572463,37.2217609916993,1154.2886 -3.16558599476897,37.2218300587968,1153.57520000001 -3.16517192891516,37.2219879737288,1152.4589 -3.16484905823239,37.2220810133303,1151.41869999999 -3.1644700284713,37.2221720406084,1151.1489 -3.16427607052337,37.222221996728,1150.3293 -3.16399091830272,37.222354933909,1149.51519999999 -3.16383602089994,37.2224290298941,1149.1667 -3.16358607275699,37.2226149405091,1147.9832 -3.16320804910902,37.22289891938,1146.7525 -3.16307008225444,37.2230060395868,1145.9215 -3.16297000274524,37.2231649606513,1145.1398 -3.16289205143647,37.2233109735415,1144.4225 -3.16277001081353,37.2233570740821,1144.069 -3.16261595153895,37.2233949599385,1143.8072 -3.16238192872933,37.2234150766883,1143.2573 -3.16229894775328,37.2234320081447,1142.8986 -3.16220607632596,37.2235210237657,1142.32580000001 -3.16247597335643,37.223768960504,1142.1211 -3.16265501118581,37.2239900752609,1141.0895 -3.16208805925718,37.2242090105492,1139.5877 -3.16130703340646,37.2246230768493,1137.7513 -3.16068392239953,37.2249239871488,1136.5117 -3.16080596302243,37.2251360493019,1136.28810000001 -3.16043900302548,37.2254170101536,1135.6456 -3.16003901916211,37.2257980520246,1134.53389999999 -3.15955202987015,37.226370032524,1133.7395 -3.15938707403117,37.2265670074379,1133.4656 -3.15931297829158,37.2267510738713,1133.3202 -3.15929889719952,37.2269882822496,1133.086 -3.15937399905222,37.2273128294251,1133.018 -3.15939545621109,37.2276544759473,1132.53690000001 -3.15944910090489,37.2279022445983,1132.2533 -3.1594866513821,37.2281285558204,1131.9059 -3.1595242027576,37.2284148821745,1131.3576 -3.1595778465531,37.2286966812581,1130.9311 -3.15962076176917,37.2289102527316,1130.6437 -3.15965294840581,37.2291836699985,1130.3155 -3.15973877883795,37.2293972408079,1130.20600000001 -3.15984606732729,37.2295851634225,1129.7822 -3.15996408439603,37.2297645361529,1129.4084 -3.16003918624873,37.2299182602647,1129.1338 -3.16017866137471,37.2301489298865,1128.49800000001 -3.16028594986402,37.2303113713678,1128.6951 -3.16033959365952,37.2304820270992,1128.51489999999 -3.16030740702289,37.2306615672091,1128.2464 -3.16037178029616,37.2308749707573,1127.9917 -3.16037178029616,37.2310714425337,1127.74249999999 -3.16037178029616,37.2312595319177,1127.383 -3.16042542498999,37.231438737591,1127.0143 -3.16044688214886,37.231660857652,1126.4789 -3.16044688214886,37.2318660467844,1126.04459999999 -3.16048979736493,37.2320368699374,1125.76210000001 -3.1605005268427,37.2323272189155,1125.22749999999 -3.16056489921764,37.2326348351826,1124.68889999999 -3.16067218770694,37.232976481194,1124.2392 -3.16072583240078,37.2332668301297,1123.8325 -3.16079020477572,37.2335231493556,1123.3906 -3.16082239141235,37.2336939723302,1123.1955 -3.16084921331009,37.2337538186772,1123.0457 -3.16088139994672,37.233864795633,1122.88009999999 -3.16090285800392,37.2339373826529,1122.7013 -3.16091895132222,37.2340228777567,1122.4942 -3.16095113795886,37.2341296638933,1122.3349 -3.1609994170155,37.2342320906715,1122.2095 -3.16104233223157,37.234321776569,1122.11500000001 -3.16107988360707,37.2344072719522,1121.88 -3.16113889214147,37.2345311567281,1121.69409999999 -3.16121399399414,37.2346763315605,1121.4843 -3.16125690921021,37.2348129565549,1121.27680000001 -3.16132128248348,37.2349326495704,1121.2249 -3.16139101959729,37.235035076688,1121.2231 -3.16155195278047,37.235299945128,1120.8126 -3.16166996984921,37.2354878673347,1120.5282 -3.16183090213405,37.235709820269,1120.2246 -3.16194891920283,37.2359062916047,1119.91620000001 -3.1620454791127,37.2360685654848,1119.63989999999 -3.16219568281811,37.2362735867098,1119.37910000001 -3.16234588652352,37.2364700587217,1119.1594 -3.1624746321717,37.2366494315221,1118.7509 -3.16259264924047,37.2368373532255,1118.484 -3.16274285294588,37.2370252758909,1118.24860000001 -3.16283941285575,37.2371960987972,1117.948 -3.16293597186733,37.2373241742423,1117.7497 -3.16303253177723,37.2374951652536,1117.5393 -3.16313982026657,37.2376403400995,1117.458 -3.16323637927815,37.2377940638873,1117.1113 -3.16330075255138,37.2379221397468,1116.9372 -3.16341876962016,37.2380160164681,1117.0393 -3.1635046009506,37.238152809197,1116.572 -3.16362261801937,37.2384944559486,1115.9195 -3.16371917703095,37.2386823780588,1115.6047 -3.16380500836142,37.2388361018671,1115.3049 -3.16388011021409,37.2390154747588,1115.0374 -3.16396594064623,37.2392119467761,1114.6819 -3.16411614435164,37.2395450432813,1114.19749999999 -3.16421270336321,37.2397244166315,1113.9281 -3.16427707663648,37.2398866901593,1113.6581 -3.16435217848915,37.2400831620512,1113.4515 -3.16441655176242,37.2402539851794,1113.1486 -3.164513110774,37.2403906100771,1113.0334 -3.16454529741063,37.2405272347271,1112.837 -3.16436290706859,37.2409885748562,1112.2056 -3.16411614435164,37.2414668460045,1111.2666 -3.16397666922566,37.2417913937898,1110.8704 -3.16390156737299,37.2420988419991,1110.5583 -3.16384792357749,37.2422696648498,1110.355 -3.16374063508815,37.2426540591863,1109.8803 -3.16367626181488,37.2430639343874,1109.22629999999 -3.1635797028033,37.2434825261348,1108.792 -3.16351532953006,37.2438156230753,1108.3322 -3.16326856591475,37.2450112182269,1106.753 -3.16313982026657,37.2454554585209,1106.26850000001 -3.16306471841387,37.2458056548093,1105.80740000001 -3.16296815850396,37.2462069803361,1105.2058 -3.16287159949239,37.2464376501751,1104.8777 -3.16256046260384,37.246984149923,1104.1253 -3.16227078467081,37.2475222684957,1103.3143 -3.1620991229082,37.2478468159474,1102.6909 -3.1619918344189,37.2482395918642,1101.764 -3.16193819062339,37.2485983375117,1100.9434 -3.16183090213405,37.2491961341999,1099.2645 -3.16174507170191,37.2494608348927,1098.4901 -3.16159486799654,37.2497513520142,1097.24189999999 -3.16142320623393,37.2500075029215,1095.7766 -3.16133737580179,37.250173967437,1094.9216 -3.16114962072091,37.2504728658442,1093.2311 -3.16104769697043,37.2505754606189,1092.308 -3.16085457804899,37.2507035362107,1090.7988 -3.16068207815822,37.2507970780983,1089.7804 -3.16039692593761,37.2509630396183,1088.38159999999 -3.16011797658399,37.2511900216891,1087.1205 -3.15971899793539,37.2515789418133,1085.6967 -3.1595020745572,37.2517569737013,1085.29670000001 -3.15936796327182,37.2518310693937,1085.2531 -3.1591139915747,37.2518699613086,1085.17200000001 -3.1588559972217,37.2519279641459,1085.3204 -3.15865801661793,37.2520199979207,1085.08100000001 -3.15852206198958,37.25215796364,1084.9201 -3.15836699660185,37.2523639907759,1083.9608 -3.15822601320454,37.2526119277637,1083.5689 -3.15799400172286,37.2528590259161,1082.9412 -3.15776903213466,37.2530960663424,1082.4722 -3.15747600079068,37.2533429970203,1081.96829999999 -3.15729796907442,37.2535039298641,1081.6917 -3.15723996575483,37.2536400516735,1081.47629999999 -3.15727802018691,37.2538700516612,1081.1076 -3.15730601528442,37.2540559619714,1080.81080000001 -3.15724097186795,37.2541890668247,1080.4872 -3.15707601602897,37.2544100137125,1080.2208 -3.15696403384226,37.2544950058175,1079.9124 -3.15677192103393,37.2547330521288,1079.2513 -3.15649900566408,37.2551040350417,1078.6713 -3.15628593785509,37.2553310167921,1078.3688 -3.15613891957569,37.255498990369,1078.0981 -3.15602207570669,37.2556019200732,1077.9663 -3.15575804557333,37.2558089530989,1077.567 -3.15555704752851,37.2559630123452,1077.27860000001 -3.15545193835206,37.2560679541494,1077.09880000001 -3.15530106450348,37.2562550380729,1076.96189999999 -3.15510995690994,37.256485037227,1076.42879999999 -3.15494902462509,37.2566699422325,1076.1388 -3.15478691824217,37.2568689286232,1075.91099999999 -3.15463302695255,37.2570860202712,1075.68429999999 -3.15455993642777,37.257228009269,1075.4953 -3.15454602242233,37.2574060406776,1075.2757 -3.15454199886817,37.2575659674322,1075.14079999999 -3.15446103011835,37.257714998153,1074.9969 -3.15438492215253,37.2579999823534,1074.6263 -3.15428802717104,37.2582259586921,1074.249 -3.15414704377374,37.2584529410455,1074.02439999999 -3.15404796947936,37.2585929183751,1073.79029999999 -3.15396297717538,37.258782014409,1073.549 -3.15394503961577,37.2589290329262,1073.3939 -3.15381495278286,37.2592770495593,1072.9078 -3.15373800668888,37.2595189508943,1072.68120000001 -3.15366893971827,37.2596540673129,1072.52740000001 -3.15363993850761,37.2597900221463,1072.3521 -3.15363004805634,37.2599420699149,1072.2684 -3.15358394741429,37.2601050141566,1072.06819999999 -3.15358797096846,37.2601940293735,1071.93769999999 -3.15361898350699,37.2603080238641,1071.8002 -3.15367598071346,37.2604469953702,1071.5947 -3.15369106791864,37.2606050782209,1071.4853 -3.15374404157095,37.2607519294543,1071.202 -3.1538779848714,37.2609660028035,1070.9617 -3.15398493739082,37.2611939907054,1070.7242 -3.15411804256308,37.2614739463559,1070.41039999999 -3.1541780572106,37.2616120799335,1070.3544 -3.15418694154876,37.2616880197979,1070.2525 -3.15414100889164,37.2617629543672,1070.1783 -3.15403405547392,37.2617820649547,1070.21580000001 -3.15392592885642,37.2618159277885,1070.20879999999 -3.15381797022391,37.2618970644033,1070.2694 -3.1538000326643,37.2619989887289,1070.1539 -3.15374605379721,37.2621019181307,1070.1306 -3.15361496085115,37.2621679676637,1070.18489999999 -3.15347196522759,37.2622110509685,1070.12820000001 -3.15339501913361,37.2622430697675,1070.1918 -3.15316703210439,37.2624189223309,1069.9234 -3.15309193025172,37.2624569758716,1069.8089 -3.15298497683399,37.2624730692262,1069.3976 -3.15281197388668,37.2624519469656,1067.0808 -3.15267501404352,37.2624249571635,1064.3605 -3.1524939648862,37.2623290682547,1061.06389999999 -3.15227000051282,37.2621959634856,1057.0916 -3.1521469537768,37.2621399725465,1055.2564 -3.15193405395277,37.2620890104963,1052.6136 -3.15173406112273,37.2620229608939,1050.2123 -3.15160095684877,37.2619669698263,1048.99099999999 -3.15145008300019,37.2619309279003,1047.7044 -3.15130993683272,37.2619009201169,1046.6246 -3.1508920154097,37.2618890183798,1043.03690000001 -3.15047493211487,37.2619019260485,1039.4785 -3.15020905774024,37.261935956841,1037.5113 -3.14996900004852,37.2619740106258,1036.061 -3.14968200358663,37.2619979827987,1034.9019 -3.14963305348846,37.2620300016882,1034.6054 -3.14963506571469,37.2622330112118,1033.855 -3.14968099837182,37.2625639290533,1033.258 -3.14978392823537,37.2630519236719,1032.0745 -3.14993798750999,37.2637139258623,1030.716 -3.14999297249019,37.2642039319803,1029.8319 -3.15003706180434,37.264706007785,1028.5304 -3.14999397860331,37.2651359994754,1027.69160000001 -3.14991703250936,37.2657269240373,1026.651 -3.14982298788227,37.2662620248056,1025.25049999999 -3.1496719460487,37.2667560542536,1024.08409999999 -3.14949106397805,37.2672200762261,1023.02280000001 -3.14931906804215,37.2674889679273,1022.4437 -3.14905101435462,37.2679850088901,1021.476 -3.14865203570603,37.2687040082694,1019.5816 -3.14834106680244,37.2693289630237,1018.4638 -3.14804904157157,37.2698709367118,1017.18180000001 -3.14782692143946,37.2703899442525,1016.26119999999 -3.14766598825632,37.2708680480735,1015.3986 -3.14760697972194,37.2710549644153,1015.03230000001 -3.14756792007508,37.2713939285315,1014.2775 -3.14744001255503,37.2720500642313,1013.0028 -3.14735300802482,37.2724790496557,1011.9615 -3.14724002062333,37.2728790342966,1010.89999999999 -3.14720900718647,37.2731410526075,1010.265 -3.14718503474479,37.2734419629354,1009.63069999999 -3.14722694474604,37.2739289513433,1009.1673 -3.14725292851565,37.2743740304547,1008.7748 -3.14720699585853,37.2749520464266,1006.9865 -3.14711194511832,37.2754060104158,1006.3496 -3.14699007158204,37.27594496673,1005.0257 -3.14696593205373,37.276347968757,1004.3983 -3.14704304523434,37.2766659780481,1003.3847 -3.14732199548626,37.276947945539,1002.4963 -3.14765593071841,37.2772210276957,1001.3725 -3.14793504805696,37.2775430604777,1000.5689 -3.14814493043994,37.2777849624664,1000.56449999999 -3.14831105947869,37.2781639919126,999.529200000004 -3.148484062426,37.2786080652938,998.097899999993 -3.14865404703396,37.2788839970001,997.058099999995 -3.1489440609369,37.2791750167824,996.107300000003 -3.14962299505223,37.279854956802,993.949299999993 -3.15017905041646,37.2804440368122,992.238899999997 -3.15041106189817,37.2807459536479,991.503299999997 -3.15057601773715,37.2811390647831,990.196800000005 -3.15086703775324,37.2815759294016,988.532000000007 -3.15134296159751,37.2824759782275,985.983900000007 -3.15193405395277,37.2835530524276,982.649600000004 -3.15223496442013,37.2838779349432,981.458499999993 -3.15284701087771,37.2843679413443,979.630799999999 -3.15307097525106,37.2846700254102,978.656099999993 -3.15340692181115,37.2852740248023,976.845600000001 -3.1535589697578,37.2856909411179,975.613500000007 -3.15368000426762,37.2862190008307,974.089500000002 -3.15385200110182,37.2867299616424,972.918799999999 -3.15395493096538,37.2870070671424,971.863700000002 -3.1541450324458,37.287394981824,970.729500000001 -3.15435105925958,37.2878439164562,969.360199999996 -3.15455507474545,37.2881880773009,968.193499999994 -3.1547689806826,37.2885089367984,967.306400000001 -3.15488498642344,37.2887479883666,966.351599999995 -3.15506905302177,37.2893779724925,964.529500000004 -3.15527206329282,37.2900520449988,962.714300000007 -3.15545696801934,37.2904220220297,961.4568 -3.15575301680438,37.2908169779333,960.058399999994 -3.15601302338357,37.2911980192918,958.905299999999 -3.15626498285446,37.2916809843142,957.108699999997 -3.15648207421762,37.2922620175938,955.372900000002 -3.15656304386573,37.2928049974839,953.834300000002 -3.15663596640555,37.2933509942771,952.334400000007 -3.15674107558199,37.2936869415183,950.975900000005 -3.15699705860705,37.2940579240422,949.552899999995 -3.15662205240014,37.2942349500562,952.297000000006 -3.15607907291316,37.2944649496856,955.180699999997 -3.15568193760751,37.2947289795887,957.850099999996 -3.15539795948497,37.2948909180902,959.928700000004 -3.15483301888425,37.2951029798694,963.3511 -3.15425299107835,37.2952719588244,967.519799999995 -3.15375292680744,37.2954050637151,971.811499999996 -3.15357707440403,37.295474968754,973.120999999999 -3.15335193683091,37.2956159527702,975.025699999998 -3.15294792851503,37.2959369792561,973.532099999997 -3.15279705466642,37.2960410828354,972.904500000004 -3.1526349482835,37.2961230572637,971.544800000003 -3.15246295144934,37.2961369716833,969.975900000005 -3.15222004430157,37.2961490416595,967.619900000005 -3.15204301869842,37.2961949740113,966.911999999997 -3.15164001649566,37.2963429985511,964.473700000002 -3.15133005370518,37.2964559871498,963.895300000004 -3.15109904833662,37.2965160008846,963.443899999998 -3.15095404138512,37.296519018721,963.419999999998 -3.15081104665988,37.2965099659262,962.608699999997 -3.15060300761988,37.2964829761855,961.416599999997 -3.15040905057024,37.2964749295706,960.608200000002 -3.15020302285813,37.2965119775791,959.964500000002 -3.14948502909594,37.2967270576187,957.528399999996 -3.14930096249762,37.2967570650985,956.978600000002 -3.14888203496148,37.2968269695956,956.0478 -3.14842807133265,37.2968779317132,955.071599999996 -3.14790302850698,37.2969359348992,953.310800000007 -3.14770102524734,37.2969770059614,951.484100000001 -3.1474990210894,37.2970370199951,949.454899999997 -3.14733406525043,37.2971310653005,947.445099999997 -3.14714698121105,37.2972720490713,947.133900000001 -3.14698906636725,37.297412026406,947.979500000001 -3.1468470768568,37.2974349932718,948.773799999995 -3.14652202686114,37.2974370048999,949.044399999999 -3.14627492817424,37.2974650004692,949.5959 -3.14598793171232,37.2973969395461,950.0386 -3.14576195511271,37.2973930835066,950.170100000003 -3.14535208079802,37.2973610646503,949.679999999993 -3.14506893990531,37.2973069178364,949.399600000004 -3.14453400662836,37.2971780039421,947.905899999998 -3.14439704678519,37.2972180694125,947.002500000002 -3.1437590156597,37.2970930114211,946.282200000001 -3.14345894421883,37.2969729826805,947.638200000001 -3.14311796799149,37.2968130560183,949.882599999997 -3.14262293248954,37.2965450022654,947.043399999995 -3.14281404008308,37.2963180204086,947.814199999993 -3.14299408312728,37.2961069646707,948.739000000001 -3.14318100008003,37.2959279271059,949.403900000005 -3.14324201994234,37.2957929779762,950.412800000006 -3.14318502363416,37.2956070678043,951.524799999999 -3.14302392336439,37.2952300492834,955.189899999998 -3.14290305594123,37.2949940154839,957.135699999999 -3.14279392321061,37.2948759979492,957.565000000002 -3.14262494471577,37.2948040813698,957.586899999995 -3.14248597264637,37.2946800291464,956.096000000005 -3.14238606022386,37.2945849781403,954.839999999997 -3.14219495263032,37.2945630180435,954.553199999995 -3.14183905718272,37.2945519540227,954.273499999996 -3.14181307341314,37.2947899994789,954.110700000005 -3.14172606888293,37.2949640080154,953.894 -3.14135206878909,37.2953889702539,951.931500000006 -3.14115593242659,37.295294925629,950.752999999997 -3.14096901547388,37.2952109386106,948.508700000006 -3.14024498682959,37.2952850351396,944.8033 -3.13930906357611,37.295847963421,937.562399999995 -3.13922893295446,37.2960459444196,936.705799999996 -3.1392079779538,37.2967240397907,934.216700000004 -3.13881302285937,37.2969629244773,933.072 -3.1383089350343,37.2972229309206,931.974600000001 -3.13765699080169,37.2974279522156,930.856499999994 -3.13773997087944,37.2979699258141,931.355599999995 -3.1375629452763,37.298170924,932.7117 -3.1373909484421,37.2982309385103,932.315300000002 -3.13694201448055,37.2983199543839,934.416200000007 -3.13661193481761,37.2984109817541,934.326000000001 -3.13633700811986,37.2987020017676,932.765400000004 -3.13610902019231,37.2989970445424,931.192800000004 -3.13596401324084,37.2989539615665,927.547900000005 -3.13584599617207,37.2990709729851,924.145699999994 -3.13565908011764,37.2992300616308,921.535999999993 -3.13531408123447,37.299441956111,917.422500000001 -3.13493102791922,37.2996219993142,914.4764 -3.13456406792227,37.2997700235411,912.406700000007 -3.13437899610912,37.2999579457035,911.164099999995 -3.13447304073622,37.300001028819,912.401100000003 -3.13454193972187,37.300058025604,913.719299999997 -3.13456406792227,37.3001990096052,913.5052 -3.13452299694748,37.3003019389425,913.754000000001 -3.1347300298744,37.3004060421972,914.107399999994 -3.13478803229565,37.3005550724399,914.122799999997 -3.13581297140727,37.301012053992,916.574099999998</coordinates>
</LineString>
</Placemark>
</Folder>
</Document></kml>
