<?xml version="1.0" encoding="UTF-8"?>

<kml xmlns:xsd="http://www.w3.org/2001/XMLSchema" xmlns:gx="http://www.google.com/kml/ext/2.2" xmlns:atom="http://www.w3.org/2005/Atom" xmlns="http://www.opengis.net/kml/2.2">
<Document>
<name>ES38a_04b_variante-fontanars_dels_alfonsins</name>
<visibility>1</visibility>
<Schema name="ES38a_04b_variante-fontanars_dels_alfonsins" id="kml_schema_ft_ES38a_04b_variante-fontanars_dels_alfonsins">
<SimpleField type="xsd:string" name="id">
<displayName>id</displayName>
</SimpleField>
<SimpleField type="xsd:string" name="nombre">
<displayName>nombre</displayName>
</SimpleField>
<SimpleField type="xsd:double" name="longitud">
<displayName>longitud</displayName>
</SimpleField>
<SimpleField type="xsd:string" name="_formato">
<displayName>_formato</displayName>
</SimpleField>
</Schema>
<Folder id="kml_ft_ES38a_04b_variante-fontanars_dels_alfonsins">
<name>ES38a_04b_variante-fontanars_dels_alfonsins</name>
<Placemark id="kml_1">
<name>&lt;img height='20' src='https://nco.ign.es/iconos/icono_todos_caminos_azul.png' /&gt;&lt;img height='20' src='https://nco.ign.es/iconos/Camino Santiago_20.png' /&gt;&lt;img height='20' src='https://nco.ign.es/iconos/icono_todos_caminos_azul.png' /&gt;  Camino de Santiago </name>
<visibility>1</visibility>
<description><![CDATA[<!DOCTYPE html>
<html>
<head>
<style>
#nco {
  border-collapse: collapse;
  overflow:hidden;
}
#nco th, #nco td {
  padding: 4px;
  text-align: left;
}
#nco th {
  color: #364B5F;
  padding-right: 5px;
}
#nco td {
  color: rgb(51, 51, 51);
  font-size: 12px;
  padding-right: 5px;
}
</style>
</head>
<body>
<table id="nco">
<tr>
<td>Caminos del Sureste</td>
</tr>
<tr>
<th><b>Camino: </b></th>
<td>ES38a Camino del Alba</td>
</tr>
<tr>
<th><b>Etapa: </b></th>
<td>04b Variante-Fontanars dels Alfonsins</td>
</tr>
<tr>
<th><b>Longitud: </b></th>
<td>5.45 km</td>
</tr>
</table>
</body>
</html>]]></description>
<Style>
<IconStyle>
<scale>0.8</scale>
</IconStyle>
<LabelStyle>
<color>ffffffff</color>
<scale>0.75</scale>
</LabelStyle>
<LineStyle>
<color>ffff0000</color>
<width>3.0</width>
<gx:labelVisibility>1</gx:labelVisibility>
</LineStyle>
<PolyStyle>
<color>66ff0000</color>
</PolyStyle>
</Style>
<ExtendedData>
<SchemaData schemaUrl="#kml_schema_ft_ES38a_04b_variante-fontanars_dels_alfonsins">
<SimpleData name="id">ES38a_04b</SimpleData>
<SimpleData name="_formato">kml</SimpleData>
</SchemaData>
</ExtendedData>
<LineString>
<extrude>0</extrude>
<tessellate>1</tessellate>
<coordinates>-0.785676855658827,38.7840081000657,626.539499999999 -0.786295775126636,38.7839023204811,626.261199999994 -0.786968171303323,38.7838402944697,625.541400000002 -0.787313171084827,38.7837398792586,625.315600000002 -0.78790811811096,38.7835264760707,624.850399999996 -0.789440162488704,38.7831057046959,623.597200000004 -0.791122075500207,38.7827092404044,623.003100000002 -0.792721844765491,38.7823112676386,621.941600000006 -0.79384451698679,38.7818505982534,621.610199999996 -0.794792677989387,38.7812794554826,621.645900000003 -0.795280169439553,38.7809996677272,621.559999999998 -0.795702785458238,38.7814900089818,620.308999999994 -0.796265378761109,38.7823258520553,619.101899999994 -0.796922351762697,38.7832062874611,619.542499999996 -0.797633808484541,38.7840984572464,623.434500000003 -0.797620061565759,38.7845376685685,625.286500000002 -0.797373130863817,38.7849939798148,618.632400000002 -0.797140114167351,38.7854397293098,620.106400000004 -0.797642524837745,38.7860065134454,606.6345 -0.798595380436039,38.78706397412,594.257599999997 -0.799271799268562,38.7877626898031,595.837799999994 -0.799623169003751,38.7883480816452,598.444000000003 -0.800290200441538,38.7889073225109,603.232399999994 -0.800841898078347,38.7892072267152,604.135399999999 -0.802300348874713,38.7889564401354,601.001600000003 -0.80389559242762,38.7887081684997,599.698799999998 -0.805472228277718,38.7886201586398,596.566500000001 -0.807376597391243,38.7885598088187,593.973700000002 -0.809321031366447,38.78853231602,592.640400000004 -0.811281725746613,38.788419328236,588.628700000001 -0.813227835978135,38.7883381912396,584.832899999994 -0.815159865117554,38.7882674480162,584.149300000005 -0.816967170366302,38.7882480018799,584.854300000006 -0.81807894602321,38.7881405459865,584.044599999994 -0.818622093495112,38.7878295774668,579.486399999994 -0.819146968335856,38.7872182012295,576.161900000006 -0.819776784368057,38.7867588729603,577.651400000002 -0.820608437471568,38.7864103537763,576.671199999997 -0.821120571506645,38.7862165642283,574.7592 -0.82170931656405,38.7862063381183,574.066800000001 -0.822231509035361,38.7861305658469,574.416400000002 -0.822680443895207,38.7857642766315,576.105599999995 -0.823425426641792,38.7855641167085,576.012100000007 -0.824160352748806,38.7852459392242,572.596699999995 -0.824988149384778,38.7850258308609,574.158500000005 -0.825800522845684,38.7848590311038,573.486399999994 -0.826937612128934,38.7848161154863,573.546600000001 -0.827885773131564,38.7846840171225,570.804300000003 -0.828676019290366,38.7843453878601,571.867100000003 -0.829477999243421,38.7840712995463,569.503800000006 -0.830751043155055,38.7840630856407,567.072100000005 -0.832272526039957,38.7839844631809,564.768599999996 -0.833286568587183,38.7839392012031,562.868100000007 -0.833769366340015,38.784259054605,558.967799999999 -0.833942201302368,38.7848731122272,556.839699999997 -0.834167338875492,38.785113170129,557.796000000002 -0.835720505340488,38.7853458516461,559.535600000003 -0.837151464095917,38.7855439997117,553.424799999993 -0.837815478092687,38.7857600857487,554.544500000004</coordinates>
</LineString>
</Placemark>
</Folder>
</Document></kml>
