<?xml version="1.0" encoding="UTF-8"?>

<kml xmlns:xsd="http://www.w3.org/2001/XMLSchema" xmlns:gx="http://www.google.com/kml/ext/2.2" xmlns:atom="http://www.w3.org/2005/Atom" xmlns="http://www.opengis.net/kml/2.2">
<Document>
<name>ES38a_01a_javea-pego</name>
<visibility>1</visibility>
<Schema name="ES38a_01a_javea-pego" id="kml_schema_ft_ES38a_01a_javea-pego">
<SimpleField type="xsd:string" name="id">
<displayName>id</displayName>
</SimpleField>
<SimpleField type="xsd:string" name="nombre">
<displayName>nombre</displayName>
</SimpleField>
<SimpleField type="xsd:double" name="longitud">
<displayName>longitud</displayName>
</SimpleField>
<SimpleField type="xsd:string" name="_formato">
<displayName>_formato</displayName>
</SimpleField>
</Schema>
<Folder id="kml_ft_ES38a_01a_javea-pego">
<name>ES38a_01a_javea-pego</name>
<Placemark id="kml_1">
<name>&lt;img height='20' src='https://nco.ign.es/iconos/icono_todos_caminos_azul.png' /&gt;&lt;img height='20' src='https://nco.ign.es/iconos/Camino Santiago_20.png' /&gt;&lt;img height='20' src='https://nco.ign.es/iconos/icono_todos_caminos_azul.png' /&gt;  Camino de Santiago </name>
<visibility>1</visibility>
<description><![CDATA[<!DOCTYPE html>
<html>
<head>
<style>
#nco {
  border-collapse: collapse;
  overflow:hidden;
}
#nco th, #nco td {
  padding: 4px;
  text-align: left;
}
#nco th {
  color: #364B5F;
  padding-right: 5px;
}
#nco td {
  color: rgb(51, 51, 51);
  font-size: 12px;
  padding-right: 5px;
}
</style>
</head>
<body>
<table id="nco">
<tr>
<td>Caminos del Sureste</td>
</tr>
<tr>
<th><b>Camino: </b></th>
<td>ES38a Camino del Alba</td>
</tr>
<tr>
<th><b>Etapa: </b></th>
<td>01a Jávea-Pego</td>
</tr>
<tr>
<th><b>Longitud: </b></th>
<td>32.57 km</td>
</tr>
</table>
</body>
</html>]]></description>
<Style>
<IconStyle>
<scale>0.8</scale>
</IconStyle>
<LabelStyle>
<color>ffffffff</color>
<scale>0.75</scale>
</LabelStyle>
<LineStyle>
<color>ffff0000</color>
<width>3.0</width>
<gx:labelVisibility>1</gx:labelVisibility>
</LineStyle>
<PolyStyle>
<color>66ff0000</color>
</PolyStyle>
</Style>
<ExtendedData>
<SchemaData schemaUrl="#kml_schema_ft_ES38a_01a_javea-pego">
<SimpleData name="id">ES38a_01a</SimpleData>
<SimpleData name="_formato">kml</SimpleData>
</SchemaData>
</ExtendedData>
<LineString>
<extrude>0</extrude>
<tessellate>1</tessellate>
<coordinates>0.182129535946695,38.7954587853247,3.38730000000214 0.18096881019165,38.7952448795088,5.48510000000533 0.179664920828115,38.794953021519,7.87170000000333 0.178428423077197,38.7946046698208,10.5625 0.17733978083551,38.7944434019224,13.8395000000019 0.176633354679244,38.7942444153096,15.860400000005 0.176005046918369,38.7942345250219,16.4707000000053 0.175415128661188,38.7943052679249,19.0267000000022 0.174685903262989,38.7943800344992,20.8309000000008 0.174127165529327,38.7943679646741,21.8718999999983 0.173040870585488,38.7942610116099,23.9909999999945 0.172059181761524,38.7941513761157,26.0198999999993 0.171457193740174,38.7939493724388,28.2099000000017 0.170956291341107,38.7936628793213,26.9572000000044 0.170378442848094,38.7932146151622,23.7998999999982 0.169576965053283,38.7932364075723,26.4419000000053 0.168633665732978,38.7932074063365,30.920299999998 0.167690366412706,38.7931784050889,33.3981000000058 0.166750587590026,38.7930707815876,37.3451000000059 0.165873169814351,38.792920074945,40.8301000000065 0.166106186510851,38.7926342519479,40.2896000000037 0.166287738724704,38.7921925257896,38.8920000000071 0.166217666539281,38.7916176947269,39.5026000000071 0.165904015266253,38.7910846058006,39.956600000005 0.165283586628754,38.790682274234,42.7391000000061 0.164638515406377,38.7902281426673,45.2180999999982 0.164172649100038,38.7897865843487,48.0295000000042 0.163669902459697,38.7895208779712,50.9002999999939 0.16312474365986,38.7893084800633,52.0586999999941 0.163357090213158,38.7890052230309,49.3595000000059 0.163551047262796,38.7888429495792,45.1310999999987 0.162993650713834,38.7883514349301,43.8972999999969 0.162264760387252,38.7880218585818,41.0651000000071 0.161513574773608,38.7876929522134,35.9195999999938 0.161090120626765,38.787704687067,35.2722000000067 0.160804297364622,38.7878000733804,35.1034999999974 0.160210858609849,38.7885153843886,37.8018000000011 0.15948884219179,38.7883428854188,39.2173999999941 0.158782247152236,38.7880128055808,38.9578000000038 0.1581041511651,38.787821698695,38.2433000000019 0.157823692641823,38.7875323548871,36.7259999999951 0.157062448591945,38.7879900067736,39.165599999993 0.157112739874816,38.7886181469566,42.4777000000031 0.156935379200053,38.7891475481807,41.1414999999979 0.156575627284981,38.789594303092,41.9962999999989 0.15597431030513,38.7896281658383,42.0354999999981 0.15522228566503,38.789788427953,48.3432999999932 0.15475725748685,38.789871241656,51.3081999999995 0.154251996462033,38.7900596662258,53.5917000000045 0.153656043322784,38.7902157374496,57.9986000000063 0.153104681655889,38.7903704674761,58.3521000000037 0.152371097631939,38.790949656715,61.672900000005 0.151889641063841,38.7911724480762,62.0197999999946 0.15116142088046,38.791366908225,63.1870999999956 0.150606371629347,38.7914346341178,64.6570999999967 0.150145702076917,38.7916218859657,65.773199999996 0.149611271856515,38.7916539041928,67.5108000000037 0.149102155262488,38.7917551582667,69.0264000000025 0.148730166496588,38.7919227960978,73.3276000000042 0.148045197499192,38.7920813817505,77.5237000000052 0.147636160414365,38.7919177667725,78.0700999999972 0.147250089658065,38.7917709156403,79.1597000000038 0.14660267203617,38.7917710836815,83.0577000000048 0.146108139590788,38.7916971552781,83.7698999999993 0.145504474414824,38.7916785474842,86.8454000000056 0.145166851598417,38.7916178620684,88.7860999999975 0.145114045931071,38.7914272577702,87.7185000000027 0.144816487976377,38.7912606256284,88.321299999996 0.144302174628442,38.7912398387689,86.2869999999966 0.14376623523835,38.7912368210048,83.4064999999973 0.143124181457023,38.791359196486,75.7725000000064 0.142661165505075,38.7914941454965,72.8497999999963 0.14238053899684,38.7917115718339,71.8782999999967 0.141411590978576,38.7920175116061,69.4701000000059 0.140751097479397,38.7922277295228,68.4208000000071 0.140629726999657,38.7920039325152,68.3892000000051 0.140186995006835,38.7920860756832,71.3806999999942 0.139320306708926,38.7921794501529,74.1563000000024 0.138296875868667,38.792259580838,74.2391000000061 0.137468744161044,38.7922121395903,74.045100000003 0.136689897623209,38.7922682979197,75.6178999999975 0.136220175747661,38.7922461698334,75.6276999999973 0.136034264908024,38.7920766878174,75.1913000000059 0.135338399346236,38.7919908568438,77.9602000000014 0.134914610127809,38.7920022563088,80.1429999999964 0.134629290820537,38.7921149093348,82.1304999999993 0.133645757755298,38.7920890927111,82.8983000000007 0.133004542102131,38.7922289030036,82.6701999999932 0.132227874877154,38.7923373651752,82.4989999999962 0.131486747699744,38.7922351057876,82.2035999999935 0.130748637065087,38.7922027517411,83.0728999999992 0.129992086712577,38.7922582400177,81.9290000000037 0.129463188317701,38.7924124670926,81.863400000002 0.128848124419068,38.7926389458443,83.7918000000063 0.128881316270522,38.7923759219324,80.039300000004 0.129163954106657,38.7921938666111,77.5442000000039 0.129313654755493,38.7915259964393,72.7391000000061 0.129178706240258,38.7909880461797,70.7033999999985 0.128945186487217,38.7902428949098,66.2951999999932 0.128737986473668,38.7895845802055,62.0822000000044 0.128416288990638,38.7888593776885,58.2844000000041 0.128207411822475,38.7886729644287,57.0807000000059 0.127587653328177,38.7887946700174,56.2580000000016 0.126985665306828,38.7888110981378,54.4556000000011 0.126620549551153,38.7886287081178,53.1080999999976 0.126123167649711,38.7884850424414,54.5730999999942 0.125692673405981,38.7883393647844,55.0338000000047 0.124742836147068,38.7885745607063,56.7030999999988 0.123681686844648,38.7888129424675,59.4538999999932 0.122663620743255,38.7890152813918,56.2286000000022 0.121690147012581,38.7892162795645,55.4879999999976 0.121138114304187,38.7893535747867,57.0344000000041 0.12065129389552,38.7894539904939,59.3304999999964 0.120085347181684,38.789276964224,60.0179999999964 0.119455531149483,38.7891715201488,58.1301999999996 0.118700992124908,38.7892791439358,56.8926000000065 0.117904376012421,38.7894405789615,56.2768000000069 0.117109101084635,38.7896367158956,57.9391000000032 0.116656981697078,38.7900160808569,60.3234999999986 0.115797836552629,38.7902837984253,61.5651000000071 0.115267261901402,38.790403157043,61.4040999999997 0.114710535495642,38.7904355112061,61.4976000000024 0.114153809988211,38.7904678653546,62.6386000000057 0.11359708358245,38.7905002194885,64.1756000000023 0.113148819764102,38.79045981883,66.0424999999959 0.112277939927069,38.7909724559761,69.9072000000015 0.111708138542355,38.7912150279834,70.2807999999932 0.110586639520831,38.7916119953141,69.4616999999998 0.109327677599597,38.7919254784511,68.424199999994 0.108075421601963,38.7923960384018,68.6918000000005 0.107324906131554,38.7925910014312,67.2743000000046 0.106662735477727,38.7927661829457,67.9315000000061 0.105563700626553,38.7931626473263,69.4167000000016 0.104405489255984,38.7932286967357,70.383600000001 0.103224981700089,38.7932952487968,69.914300000004 0.101959146768629,38.7934514872753,70.0724000000046 0.100763887079134,38.7936932218653,71.4657000000007 0.0999417902536113,38.7937852548383,72.537599999996 0.0991141607042658,38.7942618496865,75.1330000000016 0.0982872021964187,38.7947558791047,77.2648000000045 0.0975599881261539,38.7944608362505,78.0656000000017 0.0965068859320331,38.7948909953197,82.4407000000065 0.0960311291744178,38.7957601987577,85.4063000000024 0.0954153951325831,38.7964932802969,89.1413999999932 0.0946472771741829,38.7973178919243,91.4014000000025 0.0938523373180137,38.7980382322343,93.2433000000019 0.093054380020794,38.7986888356306,96.5813999999955 0.0925915311555054,38.7988236167414,101.078599999993 0.0913907405388141,38.7989429750612,101.409400000004 0.0908333439898518,38.7989580629489,99.3643000000011 0.0900704227853604,38.7988734052321,102.934399999998 0.0893390180742693,38.7989979603187,106.069199999998 0.0886796977748662,38.7992427117248,109.728600000002 0.0878312812098523,38.7992477412333,108.676500000001 0.0867131355992934,38.7992076759796,111.509399999995 0.0857673209961822,38.7990232738679,113.395099999994 0.0846704654578662,38.7989649358444,117.750599999999 0.0834861023327627,38.7989439811071,119.190900000001 0.0822936929976908,38.7992552847953,118.498600000006 0.0810127708610125,38.7995865377412,114.130399999995 0.0802413003899446,38.7998168722124,110.250899999999 0.0794244003183644,38.8000309463297,108.494699999996 0.0785391034193144,38.8002118278863,108.025899999993 0.0776973927778997,38.8003739333386,102.6584 0.0768514905973281,38.8004314336047,96.4991000000009 0.07600257187407,38.8004190280625,89.5969999999943 0.0754190235705399,38.8003472789011,86.8941999999952 0.0744651627574603,38.8004948005481,81.2997000000032 0.073694195342967,38.8002181979969,76.5037000000011 0.0729663111295009,38.7999055529381,68.6774000000005 0.0722399351873947,38.799627776841,67.2808999999979 0.0716355998681963,38.7995915665253,66.045299999998 0.0713890042378716,38.8000874401426,64.477899999998 0.0711298357868377,38.8008109658407,63.2375000000029 0.0706907922765648,38.8015043172057,62.4487999999983 0.0700800870036816,38.802359606644,61.6912000000011 0.0699808447243768,38.8026420765309,61.2146999999968 0.069451276186266,38.8038272778392,59.8502000000008 0.068967640305309,38.8045218025348,59.8962999999931 0.0683054696514823,38.8052210205286,57.4239999999991 0.0671413913838365,38.806195668228,55.6912000000011 0.0663254965270417,38.8074757524968,53.8540999999968 0.0655072552706948,38.8087033658582,51.2252000000008 0.0645983218999167,38.8098984580538,49.9336999999941 0.0637815889149633,38.8111611078505,47.784599999999 0.0629306588637706,38.8126691797206,46.0400999999983 0.0622699964813374,38.8139276387749,44.2649999999994 0.0616948303577236,38.8150964115693,41.5466000000015 0.0600953961640232,38.8158202727086,42.9193999999989 0.0582148324055475,38.816761225127,38.7752999999939 0.0566457397088773,38.8176763612591,36.6502999999939 0.0549651678820741,38.8185945148359,35.7675000000017 0.0537984072449619,38.8195166914956,35.545299999998 0.0527878851953605,38.8204346778678,34.4890000000014 0.0522534549749583,38.8209907330249,34.0754000000015 0.0516891854157367,38.821372780292,33.665599999993 0.0504122859349276,38.821808471794,33.3543999999965 0.049083921971472,38.8220880923641,31.8650999999954 0.0476685534778034,38.8224223626737,31.2247000000061 0.0462733018566019,38.8227036591169,31.3254000000015 0.0448780511337309,38.8229849558484,29.5972000000038 0.0438606551755396,38.8232214931434,27.4458000000013 0.0428201258021615,38.8234410986208,26.1775999999954 0.0416235249279327,38.8236647283081,26.9167000000016 0.0405591910978358,38.8238499680564,27.1934999999939 0.039407182594358,38.8240724235032,29.3113000000012 0.0380766393180106,38.8242995735649,26.4689000000071 0.0377041474955693,38.8244668758882,26.4428000000044 0.038329939973604,38.8249925892506,26.0133999999962 0.038960259062413,38.8256230759653,25.8730000000069 0.039513129898965,38.8265351946175,24.7906999999977 0.0400289524165571,38.8276229978472,23.6131000000023 0.0397806805299152,38.8280841705698,24.6141999999963 0.0394291428097689,38.8276915619542,23.3994999999995 0.038769487438782,38.8268874023116,23.9674999999988 0.0383366458972032,38.8272132906953,24.2063999999955 0.0377661734709904,38.8274553600278,24.4845999999961 0.0375065019633819,38.8281787183419,23.4533999999985 0.0369851476202636,38.8290489271892,23.1002000000008 0.0366490330752168,38.82954731519,21.6083000000071 0.0357696039716408,38.8304091426899,21.0399000000034 0.0348271427795279,38.8313601534545,20.3139999999985 0.0341525672899492,38.8323042909321,19.1640999999945 0.0335961768541027,38.8334026556996,18.5311999999976 0.0325688904446352,38.8339364153676,19.7250000000058 0.0311607309311404,38.8344451968641,20.9882999999973 0.0296638906310821,38.8349737593866,21.1376000000018 0.0285487624615736,38.8355447349492,19.6242000000057 0.0270095091036895,38.8361267743584,18.9519 0.0253579393858442,38.8366942287232,19.3429999999935 0.0238156694852737,38.8372063631824,20.1692000000039 0.0224919992191521,38.8381322283876,20.1912000000011 0.0211274250649287,38.8391466063641,19.3620999999985 0.0194315980479833,38.8402568730153,19.2780000000057 0.0178517776701753,38.841468896297,19.6377000000066 0.0163329762563756,38.8425396007932,19.7651999999944 0.0150165149704613,38.8436399765539,19.3303000000014 0.0135526994351967,38.8444295522419,18.5020999999979 0.0116654297530884,38.8452474583534,18.0151999999944 0.0108126554606213,38.845689184375,19.2749999999942 0.0107662197469598,38.8467040654036,18.3513999999996 0.00977631672803611,38.8476037789513,17.4376000000047 0.00889135490063698,38.8483433979616,16.1698000000033 0.00732460950181582,38.8493452032672,14.7715999999928 0.00608827883752467,38.8502336849571,13.5803000000014 0.0048861470361002,38.8514009487919,11.9530999999988 0.00333281258614689,38.852192702881,9.71150000000489 0.00210804862948264,38.85229445925,13.0099000000046 0.000619757595967405,38.8525076949459,13.5215999999928 -0.00155920134706341,38.8527737365486,14.0616000000009 -0.00297976659464067,38.8530027300272,14.3093999999983 -0.00473862480182606,38.8536947400976,16.9174999999959 -0.00484960177371497,38.8531735536703,15.2292000000016 -0.0043367966971398,38.8520768652356,17.6232000000018 -0.00418357555071279,38.851461465749,20.2307000000001 -0.00378694419993525,38.8507873931787,21.2155000000057 -0.00337539273063289,38.8499381387099,22.1877999999997 -0.00406723473825495,38.8499562436647,23.9131000000052 -0.00518269797938092,38.8500025117061,24.2891999999993 -0.00551294562728419,38.8511821809336,28.8637000000017 -0.00606061881159694,38.8525073598494,20.6604999999981 -0.00678615662554453,38.853854499209,15.0706000000064 -0.00814134248676927,38.8540467798104,17.8337999999931 -0.00967439297759539,38.8542610218135,10.2842999999993 -0.0116575506297466,38.8543994907541,6.03710000000137 -0.0136048349593416,38.854327238428,5.30969999999797 -0.015377272100352,38.8541631207282,4.61590000000433 -0.0170826535986593,38.8539973272026,4.5908999999956 -0.018776301302713,38.8541108174972,3.34159999999974 -0.0206595474306551,38.8539669844628,3.03569999999308 -0.0216080435048688,38.8537292733363,3.02049999999872 -0.0224638361366833,38.8530347493478,7.5286000000051 -0.0236197002094034,38.852644990617,3.26720000000205 -0.024894252392397,38.8526253766661,2.7948999999935 -0.0260078722905456,38.8532483200159,2.3521999999939 -0.0275501421911496,38.8537772178736,5.06729999999516 -0.0289350003045002,38.8537953232504,-0.102899999998044 -0.030289012965949,38.8534804984875,-0.0782999999937601 -0.0318849275603548,38.8532592164828,2.60379999999714 -0.0329479202057519,38.852954450573,4.38529999999446 -0.0333014692537993,38.8525092039293,4.04809999999998 -0.0337019561737524,38.8520126599172,2.34880000000703 -0.0344291702440171,38.8517167789654,1.57760000000417 -0.0352212597457962,38.8514750446994,1.83629999999539 -0.0361997631437532,38.8515875295187,1.82270000000426 -0.0372438130147229,38.8517365596675,2.56739999999991 -0.038141514749525,38.8521791247671,1.57039999999688 -0.0391315857533724,38.8525541306247,1.44960000000719 -0.0401763057675769,38.8526857267826,2.23119999999471 -0.0411040148260888,38.852412141323,1.45530000000144 -0.042246300863281,38.8523538029567,1.69659999999567 -0.0433884189155159,38.8522956331405,2.11650000000373 -0.0444116817708172,38.8524091240516,2.21080000000075 -0.0454419847230046,38.8528899095529,1.2164000000048 -0.0467165369059982,38.8528699605749,2.05299999999988 -0.0480804409170202,38.8528523586541,1.57510000000184 -0.0495336949594767,38.8528369358954,2.52439999999478 -0.0502515207367428,38.8527680371317,2.66319999999541 -0.050976723479073,38.8525242909632,2.98820000000705 -0.0517508763195739,38.8521769448812,4.25860000000102 -0.0532120094853721,38.8519694090743,4.51959999999963 -0.055215451994981,38.8516182076746,4.30030000000261 -0.0577777993248788,38.8512636528183,3.42309999999998 -0.0603408176962749,38.8508914965871,2.85060000000522 -0.0629038360677045,38.8505193398079,3.50280000000203 -0.0654668544391341,38.8501471831805,3.98829999999725 -0.0680312139952634,38.8497399906311,5.74950000000536 -0.0705955735513927,38.8493327978496,7.41240000000107 -0.0731599331075221,38.8489254369297,8.65429999999469 -0.0759252907084732,38.8485231060025,11.9535000000033 -0.0787345696386435,38.8481393826418,15.1420000000071 -0.0815436805838231,38.8477554914009,18.6034999999974 -0.0843750868160311,38.8473721032181,22.5038000000059 -0.0871640817870742,38.8469350702684,26.5843000000023 -0.0899530758597868,38.8464980381321,28.9719000000041 -0.0927419028458727,38.8460610054101,28.534799999994 -0.0955307298319251,38.8456238055873,29.7550999999949 -0.098319556818011,38.8451866051768,32.577099999995 -0.101108383804063,38.8447492376616,35.7201999999961 -0.103897209891819,38.8443118702563,38.7988000000041 -0.106685869791245,38.8438745022615,45.2507999999943 -0.10906565969247,38.843601587474,48.9789000000019 -0.109802093172513,38.8436200277804,48.4593000000023 -0.110313389079398,38.8436852390913,48.2039999999979 -0.110681690261046,38.8434150067912,51.7645000000048 -0.111158285146854,38.8432346281607,53.0169000000024 -0.112056154866579,38.8431345478287,55.1781000000046 -0.112953856601348,38.8430346359759,58.4689000000071 -0.11385155833615,38.8429347232833,61.5809000000008 -0.114634763499769,38.84290186611,64.3098999999929 -0.115186460238247,38.8430728574415,66.0252999999939 -0.116187594893147,38.8431850071127,71.7943999999989 -0.117389392521285,38.8433023537233,77.4008999999933 -0.117485448476285,38.8431301896013,78.3620999999985 -0.117367934464085,38.8421661031211,79.5399999999936 -0.117642861161835,38.8419647694476,81.0185000000056</coordinates>
</LineString>
</Placemark>
</Folder>
</Document></kml>
