<?xml version="1.0" encoding="UTF-8"?>

<kml xmlns:xsd="http://www.w3.org/2001/XMLSchema" xmlns:gx="http://www.google.com/kml/ext/2.2" xmlns:atom="http://www.w3.org/2005/Atom" xmlns="http://www.opengis.net/kml/2.2">
<Document>
<name>FR35a_01a_bergerac-aiguillon</name>
<visibility>1</visibility>
<Schema name="FR35a_01a_bergerac-aiguillon" id="kml_schema_ft_FR35a_01a_bergerac-aiguillon">
<SimpleField type="xsd:string" name="id">
<displayName>id</displayName>
</SimpleField>
<SimpleField type="xsd:string" name="nombre">
<displayName>nombre</displayName>
</SimpleField>
<SimpleField type="xsd:double" name="longitud">
<displayName>longitud</displayName>
</SimpleField>
<SimpleField type="xsd:string" name="_formato">
<displayName>_formato</displayName>
</SimpleField>
</Schema>
<Folder id="kml_ft_FR35a_01a_bergerac-aiguillon">
<name>FR35a_01a_bergerac-aiguillon</name>
<Placemark id="kml_1">
<name>&lt;img height='20' src='https://nco.ign.es/iconos/icono_todos_caminos_azul.png' /&gt;&lt;img height='20' src='https://nco.ign.es/iconos/Camino Santiago_20.png' /&gt;&lt;img height='20' src='https://nco.ign.es/iconos/icono_todos_caminos_azul.png' /&gt;  Camino de Santiago </name>
<visibility>1</visibility>
<description><![CDATA[<!DOCTYPE html>
<html>
<head>
<style>
#nco {
  border-collapse: collapse;
  overflow:hidden;
}
#nco th, #nco td {
  padding: 4px;
  text-align: left;
}
#nco th {
  color: #364B5F;
  padding-right: 5px;
}
#nco td {
  color: rgb(51, 51, 51);
  font-size: 12px;
  padding-right: 5px;
}
</style>
</head>
<body>
<table id="nco">
<tr>
<td>Chemins vers Via Turonensis</td>
</tr>
<tr>
<th><b>Camino: </b></th>
<td>FR35a Chemin Bergerac - Montreal du Gers</td>
</tr>
<tr>
<th><b>Etapa: </b></th>
<td>01a Bergerac-Aiguillon</td>
</tr>
<tr>
<th><b>Longitud: </b></th>
<td>117.7 km</td>
</tr>
</table>
</body>
</html>]]></description>
<Style>
<IconStyle>
<scale>0.8</scale>
</IconStyle>
<LabelStyle>
<color>ffffffff</color>
<scale>0.75</scale>
</LabelStyle>
<LineStyle>
<color>ffff0000</color>
<width>3.0</width>
<gx:labelVisibility>1</gx:labelVisibility>
</LineStyle>
<PolyStyle>
<color>66ff0000</color>
</PolyStyle>
</Style>
<ExtendedData>
<SchemaData schemaUrl="#kml_schema_ft_FR35a_01a_bergerac-aiguillon">
<SimpleData name="id">FR35a_01a</SimpleData>
<SimpleData name="_formato">kml</SimpleData>
</SchemaData>
</ExtendedData>
<LineString>
<extrude>0</extrude>
<tessellate>1</tessellate>
<coordinates>0.483756512145794,44.8487866109098,21.5212999999931 0.482156071838978,44.8467602019722,32.0687999999936 0.483013372742186,44.8447337930809,31.425900000002 0.483413524590521,44.8418561184069,32.0562999999966 0.482899044155959,44.8414913378434,31.6248000000051 0.485128462366851,44.8368705622596,32.4131000000052 0.486843400143148,44.8353707046979,32.8276000000042 0.486729070658625,44.8320466096563,32.8494999999966 0.487071890228907,44.8293711057748,35.6756000000023 0.48724338400656,44.8287225140092,40.6894000000029 0.487300548299656,44.827344026645,46.3435000000027 0.488100852894692,44.8247087561939,45.3717999999935 0.488843992298333,44.8231275936957,45.5994999999966 0.489529967408845,44.822154455204,46.5455999999976 0.488501004743061,44.8214651269134,46.8796000000002 0.487357713491083,44.8210597783008,46.2915999999968 0.486214589325732,44.8211813162157,45.5432000000001 0.485242791851375,44.8206542618061,47.2353000000003 0.484728310518482,44.8198433967642,48.0237999999954 0.484613981033959,44.8188702576376,47.7491000000009 0.485014132882295,44.8182214980163,46.8184999999939 0.485757272285936,44.8177348451316,46.790399999998 0.485585778508317,44.8162750530054,48.8429999999935 0.486589260461066,44.8147465291171,49.2480999999971 0.48765812090187,44.811359904612,50.4624999999942 0.48765812090187,44.8103488792766,52.7152999999962 0.486945490980216,44.80792248612,56.4017000000022 0.487230476114233,44.8072147183799,60.2482000000018 0.487586874618374,44.804131016258,75.3833000000013 0.488085597704549,44.8022098839843,79.2795999999944 0.489938166365513,44.8017547466677,90.3889000000054 0.491719487844684,44.7997325283147,109.743499999997 0.492503196064844,44.799934700115,111.922399999996 0.492988508202152,44.7990941627569,123.986300000004 0.493100322403902,44.798618406026,129.703299999994 0.49321213750395,44.7981624308303,133.549100000004 0.493435598820757,44.7973891164482,142.189799999993 0.493146423045946,44.7965262833013,147.973299999998 0.49254141758358,44.7954857534905,150.334900000002 0.492262132260046,44.7946131977597,163.387199999997 0.491632148242887,44.7938398829862,167.727199999994 0.489998851156235,44.7932846660944,162.319699999993 0.488294474872713,44.7926898857871,159.9323 0.487959031369231,44.7921941803794,159.797000000006 0.487037021222839,44.7919958645113,157.4764 0.485891383571343,44.7902904822291,160.429399999994 0.485416464941886,44.7891403173971,155.835900000005 0.484801736114837,44.7886248303957,154.708400000003 0.483628269554159,44.788882657671,152.579500000007 0.48245463500849,44.7887834160338,150.987599999993 0.481057539146014,44.7884265150138,148.474199999997 0.48047080631484,44.7883472220777,148.296000000002 0.479017887343968,44.7883867844032,146.815300000002 0.479269344656617,44.788882657671,146.128700000001 0.479129701545685,44.78939814492,146.274300000005 0.478962064235571,44.7901714592839,145.748699999996 0.47826351630435,44.7906871141659,146.410399999993 0.477285515962934,44.7900326548672,142.938800000004 0.476447324920781,44.7895568980173,143.125799999994 0.474882591748191,44.7889817321021,144.467999999993 0.473206043475554,44.7885653188303,141.891900000002 0.472898763054541,44.7883867844032,141.545299999998 0.472731124846097,44.7877324928373,139.507500000007 0.472060404925727,44.7873953731939,140.277900000001 0.471082571670972,44.7873358616359,144.959900000002 0.469573661606779,44.7871573272314,142.976999999999 0.468344203952747,44.7873159124385,144.162100000001 0.467925109329984,44.7877125444145,146.847599999994 0.466919280977717,44.78749444699,148.352400000003 0.466779470780158,44.7872763500166,147.868799999997 0.466248728143974,44.7871573272314,146.837599999999 0.466360375259064,44.7865425980701,145.001900000003 0.466081089935563,44.78598738111,143.448799999998 0.466667823665067,44.7857691158606,143.022200000007 0.467114914283639,44.7856898230995,139.899699999994 0.468204561740145,44.7857493350793,129.260299999994 0.468958932779763,44.7853527030027,120.063800000004 0.469350200289972,44.7844999283063,119.240600000005 0.470076576232078,44.7843016127795,121.614799999996 0.470914933462561,44.7839644922268,125.993300000002 0.471920761814829,44.7835678606388,129.092199999999 0.472898763054541,44.7829729132482,139.1973 0.474072228716922,44.7822589427818,145.556899999996 0.473178047479745,44.7815251908213,144.8459 0.472144224029966,44.7812078523404,142.9908 0.472758952856982,44.7808310015027,144.723800000007 0.471753124504715,44.7797401810226,146.512000000002 0.471361856994506,44.7794624043607,146.953299999994 0.471278037890301,44.7784510438439,146.652199999997 0.471166390775211,44.7776378319033,135.897500000006 0.470970757469255,44.7770031544643,124.140499999994 0.4706354810524,44.7762295042678,116.241200000004 0.470858942369207,44.7753172181682,111.863200000007 0.470998752566767,44.7744047639703,107.928599999999 0.471613481393782,44.7736510634978,104.194000000003 0.471194218786062,44.771945178776,95.5095000000001 0.470691305059094,44.7706557062206,100.2546 0.468735471462956,44.7705366836074,98.2814999999973 0.467394199607173,44.7705169020713,96.3473999999987 0.466136913942257,44.769624229769,98.4039000000048 0.465270727802591,44.7692671605565,100.013699999996 0.464544184773825,44.7689498216714,98.7820000000065 0.463398713310659,44.7686125336735,96.8221999999951 0.461805984142227,44.7672040388678,101.163799999995 0.463817808831719,44.7661328313844,104.164799999999 0.465969275733813,44.7651013545255,112.0524 0.466919280977717,44.7646450437431,120.351299999995 0.468092746640098,44.7642680254954,124.169999999998 0.470380503242159,44.7638762559043,124.388000000006 0.472707487476039,44.7633383049845,127.931599999996 0.474439188713838,44.7623777391877,130.160000000003 0.475683733573088,44.7618397883465,137.185100000002 0.477794129500386,44.7614171727282,149.458799999993 0.480066965983889,44.7608792225106,148.698199999999 0.481798667221721,44.760072380282,153.097099999999 0.483692641929098,44.7593807058757,150.061499999996 0.48390906314902,44.7588043660857,146.340400000001 0.484666786701305,44.7585736960094,145.297999999995 0.485478490917307,44.7581126911711,143.523400000005 0.486290194234979,44.7568445095782,146.792199999996 0.487318318772605,44.7570367905329,150.249299999996 0.488941725407981,44.7563835049776,152.786999999997 0.490132290501779,44.7563451155102,154.846000000005 0.492080412959532,44.756498671951,157.149099999995 0.493433252421238,44.7562681700067,154.988200000007 0.494623817515036,44.7562681700067,154.493000000002 0.49456967066299,44.7550769333988,152.352299999999 0.495381373980661,44.7548848207117,152.891499999998 0.496463645370367,44.754692707386,154.072100000005 0.497383643290494,44.7545005940595,156.234800000006 0.498898755323415,44.7538856977513,156.712299999999 0.498952903073791,44.7531170767776,152.309399999998 0.49841176692979,44.7526942940116,144.827000000005 0.499086678389283,44.7521092369676,142.187900000004 0.500339269458502,44.7516797483349,143.799700000003 0.501419194448689,44.7518331372709,147.165900000007 0.50150552793737,44.7511582260974,140.694399999993 0.50150552793737,44.7505139931528,133.885699999999 0.50150552793737,44.7495017945939,132.149399999995 0.501548778225024,44.7480599396454,138.679499999998 0.500771272871922,44.7470475730614,143.150500000003 0.500425602947216,44.7454830072023,145.999599999996 0.500987191035269,44.7443479299898,154.846000000005 0.500857606360603,44.7424457405559,173.822899999999 0.501332692975017,44.7414332067372,174.376699999993 0.503406040583389,44.7407889738726,167.101699999999 0.502110198328152,44.7406969408405,164.751799999998 0.502110198328152,44.7387332280937,151.558099999995 0.502023864839471,44.7376286608947,143.474100000007 0.501980613653487,44.7364627384686,146.106299999999 0.502283033290505,44.73535817129,145.020300000004 0.502758119006622,44.7346524147186,146.778900000005 0.503665209034423,44.7327805679927,146.702799999999 0.505177136539666,44.7317680346688,151.455799999996 0.506040975381516,44.7307553330068,152.432000000001 0.50720723386035,44.7297426314818,158.587199999994 0.508373491440888,44.7291289083879,161.244300000006 0.509064663305342,44.7278707847576,168.437099999996 0.510317254374595,44.7276251947942,170.391199999998 0.510921925663674,44.7274104508676,171.196200000006 0.511569846342144,44.7278094293272,172.720499999996 0.513729695424154,44.7275331618716,182.250100000005 0.515586957782485,44.727471806083,177.115099999995 0.518111083593681,44.7274359317823,171.304399999994 0.521595776141555,44.7269053571481,160.215700000001 0.527196060472339,44.7246653774054,145.187699999995 0.527942888358529,44.7251959515233,141.191399999996 0.528274644277793,44.7256970220338,138.122300000003 0.528896916258236,44.7259032167644,134.690300000002 0.52960217011309,44.7256970220338,135.157200000001 0.530431810990336,44.7258148713901,130.278200000001 0.531717929880957,44.7261980920333,122.198999999993 0.5328793266775,44.7274359317823,122.906400000007 0.53358457963399,44.7271117192536,122.971000000005 0.535451397372014,44.7232800163088,116.132400000002 0.536073669352491,44.7227201049901,116.026800000007 0.537857506114434,44.7206568156258,112.698399999994 0.538230836065068,44.7198313657865,116.638300000006 0.539019070895935,44.7190355882426,122.851899999994 0.540097653803058,44.7176795638994,130.076700000005 0.541176237608512,44.7166184152781,141.640599999999 0.541756935557619,44.7161466816699,145.233099999998 0.543416384398839,44.7147906572906,156.369099999996 0.544080063323992,44.7140537202373,158.118000000002 0.544951279130939,44.7131102533234,152.9905 0.54619582399019,44.7126975280745,138.380699999994 0.548104047774593,44.7128450496641,129.006099999999 0.548394396749146,44.7122259623186,127.896699999998 0.548809300731116,44.7119310873342,125.068199999994 0.549970865512617,44.7114593538191,119.587400000004 0.550510156517013,44.7110171246154,114.565700000006 0.550344195463217,44.7100443204504,113.207699999999 0.55109085536445,44.7100443204504,110.653200000001 0.551173836340497,44.7091008539313,124.505600000004 0.552293993278991,44.7090125084366,124.8609 0.553496964106871,44.7077741659641,119.900800000003 0.554741508966121,44.7067421857915,122.205799999996 0.555114838916721,44.7063589652458,120.772299999997 0.555488168867354,44.7059167360178,120.448199999999 0.555986053825338,44.7056218608121,118.116999999998 0.555654130819448,44.7045898812146,122.417199999996 0.555986053825338,44.703499060409,118.115300000005 0.556359383775971,44.7024080715568,115.729900000006 0.555986053825338,44.702024683126,119.398100000006 0.557603929533518,44.7006683240295,95.7198000000062 0.557147618606838,44.699960723505,90.6364000000031 0.557147618606838,44.6989875847429,81.9510000000009 0.556483771696728,44.6969824657556,80.7271999999939 0.557977259484118,44.6950951962811,96.3840999999957 0.557272005629298,44.6946823036227,92.8914999999979 0.556069034801418,44.6946527992724,87.6242999999959 0.557064637630792,44.6942694112134,97.0385999999999 0.557935684554485,44.6937091649127,102.872499999998 0.559429172341875,44.6935911473536,103.8364 0.560424775171249,44.6928538752488,103.420899999997 0.562001243036422,44.6920870989568,107.513999999996 0.563785079798366,44.6898162734751,106.840200000006 0.56581769150356,44.6888726388619,106.849600000001 0.565402954608216,44.6881056949028,104.934800000003 0.56486366360382,44.6860707363792,107.886400000003 0.563950873765536,44.6825608986347,98.3420999999944 0.56486366360382,44.6820298212081,90.6971999999951 0.56569330358277,44.6812630446948,88.7544000000053 0.566315576461543,44.6799356862416,86.4023000000016 0.567103810394147,44.6796996516006,81.5148999999947 0.567518547289457,44.6784017980796,73.0022000000026 0.5681408192699,44.6763958411445,66.7942000000039 0.572704095623228,44.6755108794573,66.1261999999988 0.575566515292328,44.6749504657646,67.6680999999953 0.578802264912029,44.6742718664402,68.9829000000027 0.579424537790802,44.6729445088105,65.5960999999952 0.580005235739909,44.6719413624748,65.1514000000025 0.581249780599159,44.6707908623542,65.3781000000017 0.581913460422643,44.6694928405987,66.1946000000025 0.58282624936263,44.6692863107324,66.5886000000028 0.5843611431964,44.6689617634993,67.1315000000031 0.58606199898233,44.6691977977986,67.792300000001 0.587223563763831,44.6693453190669,66.9608000000007 0.587596893714431,44.667958617226,65.9517999999953 0.587928648735397,44.6669554708414,66.7498000000051 0.588758457597634,44.6659228206958,69.7532999999967 0.589837040504758,44.6651852130474,71.9339000000036 0.590459313383531,44.6645656231132,74.2002000000066 0.590500719429911,44.6632969381976,79.0016000000032 0.590459313383531,44.6618215553227,85.193299999999 0.592201575215808,44.6609364266762,87.0175000000017 0.592077188193382,44.6599922890844,85.0601000000024 0.593446120973389,44.6591364965006,85.8227000000043 0.594483129849175,44.6583397127401,85.420299999998 0.595935210691856,44.6573955750372,87.5645999999979 0.596018023682945,44.6570708602689,87.7713999999978 0.594981014807192,44.656067546563,91.4842999999964 0.593860856970368,44.6551529129611,95.8202000000019 0.592491925088692,44.6540019102767,115.723800000007 0.591537896290655,44.6542381122057,117.033100000001 0.590749662358085,44.6537953801763,122.343900000007 0.591703690257791,44.652408342788,130.618199999997 0.592242982160518,44.6515820546801,134.362800000003 0.593529101051105,44.652142804233,127.737200000003 0.599129386280219,44.6507557669421,106.357900000003 0.599419735254773,44.649663772457,106.209499999997 0.60024954411701,44.6491030232207,102.814100000003 0.600788835121406,44.6473912708057,97.3426999999938 0.601825844895523,44.6457385270809,96.7502999999997 0.60273846585052,44.6450005846728,94.8785999999964 0.606181752352014,44.6441741290341,98.3119000000006 0.608504712133431,44.6437313968761,101.297000000006 0.610247142848995,44.6434068491129,99.084400000007 0.610703453775675,44.642698411063,99.039300000004 0.611201338733692,44.6413407101145,99.3956000000035 0.612196940664735,44.6406322717621,102.415200000003 0.612902026534632,44.6406027673716,105.140499999994 0.612777639512172,44.6397763117215,104.912400000001 0.614063590417802,44.6401010268065,106.5524 0.615308136175383,44.6401010268065,103.264999999999 0.614934806224749,44.6393925880183,104.557100000005 0.615017786302499,44.6386251413082,105.841 0.615059193247209,44.6367358602493,108.267300000007 0.614519901344482,44.6357322113781,104.799499999994 0.615059193247209,44.6348760838034,102.238100000002 0.615432691182766,44.6331639959642,104.549799999993 0.615764446203732,44.6324850621992,107.792100000006 0.616013389131872,44.6317764556301,108.676399999997 0.615806021133366,44.6293555948301,101.7405 0.617340914967169,44.6289128621138,96.0512000000017 0.617963186947646,44.6285584754512,93.5038999999961 0.619083177697777,44.6275548264432,88.9829999999929 0.619912985661717,44.6267280353509,86.2225000000035 0.620286315612317,44.6256947142148,83.6634000000049 0.623107161250081,44.6251633018152,81.1042000000016 0.622152965365384,44.6239822915866,81.9747999999963 0.622360501348847,44.6224763987671,84.5966999999946 0.62140630546415,44.6212658842326,98.0121999999974 0.622567869347354,44.6205276062745,112.3851 0.623231549170837,44.6201143785943,117.688699999999 0.624476094030088,44.6194056050131,124.257400000002 0.625471695961131,44.6189627049707,127.271599999993 0.626882202772508,44.6185788142282,126.354000000007 0.627711843649788,44.6180177293793,129.990600000005 0.628458671535945,44.6173091233127,133.680900000007 0.629122350461132,44.6168662232647,135.395699999994 0.630034972314459,44.6164823320895,139.118600000002 0.630781799302319,44.6160984409342,141.529800000004 0.631984770130232,44.6156850455286,139.152600000001 0.633229314989449,44.6150352808389,131.581399999995 0.634266324763566,44.6145333722965,131.182700000005 0.635676830676579,44.6141789854569,135.975600000005 0.63725329944005,44.6137360858345,141.180900000007 0.638788193273854,44.6135292205419,144.746700000003 0.639659241095844,44.6134112027672,141.832800000004 0.640323088005954,44.6130863204403,143.710699999996 0.641567632865204,44.612761437575,144.472500000003 0.642563234796281,44.6123775467615,147.305300000007 0.643392875673561,44.6114325707998,145.150299999994 0.642977971691591,44.6102807300975,152.152900000001 0.643309894697514,44.6093652582117,154.039799999999 0.644015148552335,44.6080953997358,147.428599999999 0.644222516550841,44.6069730629592,147.597800000003 0.644886363460952,44.6057917178972,146.122700000007 0.645798985314278,44.6046103724745,145.306400000001 0.646047759359198,44.6039014307618,147.648000000001 0.646047759359198,44.6030152961396,148.544699999999 0.646130740335245,44.6019816399622,146.499800000005 0.646421257294755,44.6009773204454,146.313599999994 0.645342674387632,44.6005934291386,144.271500000003 0.644181109606131,44.5988801683477,144.720400000006 0.643641818601735,44.5977871681844,144.291400000002 0.643517263594318,44.5969602090642,139.5095 0.643973573622667,44.5963692848489,139.588699999993 0.643973573622667,44.5955718309268,141.733699999997 0.643019545722928,44.5943014694235,142.7353 0.642936564746881,44.5919087715536,139.349199999997 0.646504238270802,44.5904020405949,161.059500000003 0.645508468354768,44.5894270577414,160.749100000001 0.644139535574794,44.5885704270606,157.260200000004 0.643060952667638,44.5878023097159,155.842499999999 0.641692019887631,44.5875067637321,159.058000000005 0.640779398034304,44.5867681500254,161.726699999999 0.640820804979014,44.5858523434396,166.654500000004 0.641152727984937,44.5845228060703,173.622900000002 0.64019853210024,44.584197755778,168.806400000001 0.642646215772328,44.5831635965799,178.208100000003 0.643683224648114,44.5823067987335,174.614600000001 0.644595846501441,44.5814795048004,169.951799999995 0.645259693411585,44.5802976561041,169.130099999995 0.646462664239465,44.5792338254026,172.960399999996 0.647914577097188,44.578140657293,164.683199999999 0.648495443031285,44.5776087419188,161.964399999997 0.649864375811293,44.5761016754712,148.782000000007 0.650196298817182,44.5755697600017,146.819600000003 0.650984365663126,44.5752447095644,142.206900000005 0.651523657565853,44.5743877438267,138.763099999996 0.651897154603079,44.5730875431426,136.065799999997 0.651482250621143,44.5719940399863,133.046300000002 0.649988762833719,44.5716394857977,128.949399999998 0.649034734934012,44.5699253861627,110.5285 0.648702811029792,44.5685660094886,115.880600000004 0.648827198950549,44.5674725064361,120.728900000002 0.648412462055205,44.5661424662016,128.338000000003 0.648163520025362,44.565669726388,125.471300000005 0.647956151128559,44.5652263238416,120.066900000005 0.646462664239465,44.5639849640809,109.901199999993 0.644761808453568,44.5630096457114,118.327999999994 0.644305497526888,44.5623002016238,123.7978 0.644554439556731,44.5616796052028,129.538499999995 0.645218119380215,44.5609996654315,130.642000000007 0.643973573622667,44.5612066985515,132.602499999994 0.642936564746881,44.5609996654315,135.739300000001 0.642106923869601,44.5607632959105,138.869099999996 0.640986766931141,44.5604085734129,150.136499999993 0.639991164101734,44.5598469862682,157.0766 0.640945359986431,44.5590488610393,155.275099999999 0.63928591114521,44.557304922385,142.346799999999 0.636879801504493,44.5552357659996,125.111900000004 0.63609173555688,44.5540532469628,137.668099999995 0.635137539672183,44.5521317795196,165.045800000007 0.633972957449632,44.5511469058503,155.936499999996 0.631875302328,44.5501226372232,155.2068 0.632691029199838,44.5474372433877,133.438899999994 0.631447825525321,44.545803777691,133.940499999997 0.628794953167619,44.543974008491,140.613400000002 0.627372376592107,44.541805609774,138.594100000002 0.624566953231179,44.540496021706,149.892800000001 0.624250788471972,44.538496267323,148.213399999993 0.624053310924742,44.5373274944359,155.708400000003 0.624922513607161,44.5369191279832,157.887300000002 0.625772103371951,44.5365107618683,158.112500000003 0.626384485799448,44.5360599833821,158.880000000005 0.625495500417849,44.5360740648198,163.357699999993 0.624843556185247,44.5355108008126,172.449399999998 0.624507609625191,44.5353559033119,177.607999999993 0.62464591155139,44.5350038632862,179.970700000005 0.624507609625191,44.5349193736963,181.455000000002 0.624626129750507,44.5344263502098,183.240099999995 0.624507609625191,44.5342573711527,182.593699999998 0.624132268346656,44.5342010449048,184.909299999999 0.623579062438487,44.5340602284064,183.568899999998 0.623183939359103,44.5345108398746,181.206900000005 0.622808598080568,44.5346799866063,178.655799999993 0.622610952548381,44.5351024344262,175.495699999999 0.62263073434923,44.5353981481257,174.744300000006 0.622334349594279,44.5357783513511,165.285300000003 0.621840488190429,44.5357220246533,163.016000000003 0.621148981254391,44.535834677354,155.916400000002 0.620516817924341,44.5356234532815,149.293099999995 0.620338954193036,44.5360881462542,149.176000000007 0.619726571765539,44.5369613729436,145.187600000005 0.618936158520077,44.5382427980199,150.261400000003 0.616960544021386,44.538594838314,142.063899999994 0.615300927195209,44.5387356540917,139.858900000007 0.614905804115791,44.5382709617572,136.849100000007 0.614648982962606,44.5381160639151,134.661800000002 0.613799393197816,44.53787667652,129.0913 0.613463613724387,44.5377217789097,128.308199999999 0.61251528563513,44.5379893295344,128.714399999997 0.611843559601645,44.537918921426,126.753500000006 0.611448437420558,44.5378625948779,125.359400000001 0.610539503151483,44.5380456559599,126.330799999996 0.61020372457635,44.5382287164664,126.245899999994 0.609571393261343,44.5385807568455,127.005099999995 0.609196051982809,44.5382709617572,124.128599999996 0.608939230829624,44.5375809632412,114.635999999999 0.608761366199989,44.5370881070003,110.695000000007 0.608484763245921,44.5367923935586,107.471999999994 0.60801068364292,44.5362993699217,107.471999999994 0.607714298887969,44.5360036569568,108.824299999993 0.606192983988024,44.5364825985603,108.384300000005 0.605323780407308,44.536243043728,108.6345 0.604652054373823,44.5360459013006,107.941999999995 0.603861809113318,44.5356093717348,108.160600000003 0.602873917422329,44.5352995768459,108.433699999994 0.600680876488898,44.5356234532815,103.409700000004 0.598922520439957,44.5359191668965,101.965100000001 0.597124602585911,44.5357642698418,108.018100000001 0.595919452445139,44.5354544744963,115.137400000007 0.593785755117696,44.53494753712,119.084900000002 0.593351070233174,44.5352291686868,118.384900000005 0.592521261370936,44.5357642698418,116.135599999994 0.591553151480797,44.5364966805361,113.755900000004 0.591098852780382,44.5366374962655,112.566999999995 0.590269043918144,44.5364825985603,109.280499999993 0.58945901685679,44.5362571251214,105.564799999993 0.588866249143516,44.536243043728,102.907000000007 0.588174741309147,44.5366234143237,99.2706999999937 0.58758214158083,44.5367923935586,96.6575000000012 0.586831290140507,44.5366656594986,93.3307000000059 0.586317646935773,44.536693822718,92.180600000007 0.585645921800584,44.5368768836325,92.2044000000024 0.584993976669685,44.5373415762074,93.8701000000001 0.584480334363248,44.5378062689156,99.0902999999962 0.583927128455112,44.5380879007432,102.607999999993 0.58335414164439,44.5379893295344,100.526700000002 0.583037975986887,44.537904839794,100.168999999994 0.582148991503618,44.5375668815275,95.2602999999945 0.581279620836276,44.5372570861674,94.8877999999968 0.58082515415087,44.5371585154731,95.1919000000053 0.580074470695504,44.5368346386109,97.3859999999986 0.578968058879165,44.5363416153317,103.6253 0.578217376322096,44.5362007988868,106.323099999994 0.576794799746618,44.5359191668965,110.977400000003 0.575234089229864,44.5354544744963,118.443799999994 0.574424062168476,44.5353559033119,120.137700000007 0.5736534298256,44.5354826376613,121.494600000005 0.572863183666798,44.5354263113178,123.338900000002 0.571875460859064,44.5355389639502,125.783800000005 0.570433102482702,44.5356656985415,128.482099999994 0.569721814644078,44.5357642698418,128.591700000004 0.569148994920016,44.5357079431305,128.199900000007 0.567924063876692,44.5355812086312,128.075899999996 0.566363185374981,44.5353981481257,130.638900000005 0.565553158313627,44.5351446794238,134.589699999997 0.564723350349686,44.5348348839838,139.868000000002 0.563498418408065,44.5342432892756,137.786500000002 0.562115572520946,44.5336096172935,141.761799999993 0.560890641477621,44.5328912883551,137.417400000006 0.560060832615384,44.5321025514245,133.145999999993 0.559290200272475,44.5312858185775,141.016000000003 0.558203570257019,44.530553407665,143.1538 0.558262914761338,44.5298069154791,139.115300000005 0.558539516817108,44.5289336890951,139.516600000003 0.558954421697376,44.5282576049905,142.011199999994 0.559290200272475,44.5272153987978,140.836500000005 0.559468064902109,44.5263983309977,141.076799999995 0.559171680147158,44.5252716353447,148.315000000002 0.559428502198674,44.5246941224688,148.559500000003 0.559804011462166,44.5239897070854,146.716100000005 0.560495350413246,44.5236095043949,145.802800000005 0.561285763658708,44.5231023992272,143.613599999997 0.562135186336838,44.5226234571071,135.8511 0.563044119707616,44.5219332911254,124.862599999993 0.563992447796873,44.5210598967463,114.8171 0.564348008172855,44.5203695630057,107.809299999994 0.564841870475036,44.5197920502123,105.935400000002 0.565829761267694,44.5188060030054,102.618000000002 0.566481705500297,44.5180734249226,94.1469999999972 0.566955953986586,44.5177634618156,90.5632999999943 0.567667241825176,44.5172704385057,88.0580999999947 0.568892173766798,44.5168196597055,84.7566999999981 0.56944521169001,44.516566023037,85.3319999999949 0.569899678375416,44.5160307551055,86.2551999999996 0.57027501965395,44.5151855240129,88.0097999999998 0.570729486339323,44.5144670267886,92.7681000000011 0.571480169794689,44.514044411363,100.441800000001 0.57197419918353,44.5136499589075,103.1826 0.572645925217016,44.5123960261278,110.662299999996 0.573515127899401,44.5113957298475,113.801699999996 0.574246197538875,44.5108602939912,116.231100000005 0.575293264850895,44.5100291448261,120.755999999994 0.575846470759031,44.5097755080704,121.840299999996 0.577170141025152,44.5093810555491,120.949200000003 0.579066798101962,44.5088315381483,120.105599999995 0.580034907992068,44.5085497385853,117.497000000003 0.579442307365454,44.5082256943103,116.301800000001 0.578572936698078,44.5077888293967,113.826199999996 0.577703733117396,44.5075211112114,111.9182 0.576557759495952,44.5071689042365,107.539099999995 0.575471129480496,44.505900889356,97.5584999999992 0.574779622544458,44.5052807961233,93.0307999999932 0.573692992529036,44.5045339685616,86.4961000000039 0.572744663541449,44.5038013904525,89.0498999999982 0.574107896510972,44.5035759173615,91.5010000000038 0.575471129480496,44.5034630971999,90.8620999999985 0.576182417319087,44.5034912598153,91.9866000000038 0.57669606052382,44.5034771788296,92.9465000000055 0.577170141025152,44.5034630971999,95.1230000000069 0.577703733117396,44.5035195909174,93.585699999996 0.579224880930714,44.5031108894113,94.6923999999999 0.580765977631542,44.5028431715248,94.8858000000037 0.582050085194194,44.5024767147453,94.8439999999973 0.58355161919162,44.502138588717,97.764599999995 0.584322251534496,44.5013072716166,100.098599999998 0.585645921800584,44.5000954161112,101.462400000004 0.586317646935773,44.4992780128421,101.9709 0.587759837327177,44.496389106235,113.960300000006 0.589103289394148,44.4946557281705,107.871899999998 0.589933097358088,44.4942047821458,106.941399999996 0.591079070979499,44.4927391226064,107.739499999996 0.592916384450321,44.4903573205374,116.575599999996 0.593647454089794,44.489201623924,123.057100000005 0.594872385133119,44.4898076353465,128.788100000005 0.596018191667902,44.4890465584331,140.869300000006 0.598665699286739,44.4887223467924,164.904299999995 0.598231013503919,44.4884968737059,169.483200000002 0.599001478760168,44.4885813633322,168.640400000004 0.599238686097461,44.4882289881038,176.940700000006 0.599337425320224,44.4880457595776,177.0288 0.599120165972144,44.4876652211211,175.087499999994 0.599258467898344,44.4872001931636,164.785600000003 0.599554683770007,44.4866223446396,155.712199999994 0.599534902867454,44.486396703858,155.423800000004 0.59767780849408,44.4846348276003,146.574800000002 0.596551615775189,44.4846207459062,142.850699999995 0.595544111166604,44.4844515993202,143.517600000006 0.594674739600931,44.4842683711055,146.026100000003 0.593528933964478,44.4837186855721,145.537100000001 0.593105982874209,44.4837704858668,145.217300000004 0.592632908486027,44.4835849104446,144.536699999997 0.591450389602198,44.4831798973564,148.274799999999 0.590433329613921,44.4828255103601,152.308699999994 0.589156095061494,44.4825219176575,156.665999999997 0.58804448649128,44.4817118905737,150.407500000001 0.587240327225333,44.4814081305622,146.806400000001 0.585655644266903,44.482960626733,154.513300000006 0.584969837141349,44.4836692328599,154.723899999997 0.583881865941193,44.4843780066262,151.700899999996 0.582510083705126,44.4850192221843,154.597999999998 0.581209212680938,44.4856435062974,154.279699999999 0.579624697707466,44.4865378553801,165.471699999995 0.578654911561009,44.4868416155989,169.646500000003 0.577614214202674,44.4872633926154,172.673500000004 0.576833691408521,44.4873140195464,171.977100000004 0.575580261312814,44.4880226253436,172.256699999998 0.574870649730507,44.4884782659772,176.797600000005 0.57354614133626,44.4887312315043,184.452399999995 0.572434533664343,44.4887987896194,189.3321 0.571299288622368,44.4882588274992,199.2068 0.567940827338194,44.4872296972725,203.949800000002 0.564511455740472,44.4860822149698,203.067800000004 0.562761146799863,44.4860315882515,194.683999999994 0.561531354074214,44.4846142081587,192.559599999993 0.560608841769611,44.4844117016937,185.0288 0.559875759903906,44.4835849104446,181.112800000003 0.558787789602047,44.4824880548602,163.337100000004 0.55874051486193,44.4817962124917,156.763699999996 0.559379049043962,44.4810368121974,155.297500000001 0.560254119521788,44.4807330518757,157.006099999999 0.560585204399553,44.4799568879559,149.814499999993 0.560987368474153,44.4794843161085,145.928799999994 0.560845378963702,44.4787587782649,133.344200000007 0.560348667205461,44.4772230458491,129.467699999994 0.558716878390169,44.4760586318331,123.403099999996 0.558243804001986,44.4760080053901,121.849000000002 0.557770728715474,44.4760923272187,120.6921 0.557652544560072,44.4753498582738,119.489400000006 0.557747092243712,44.4749446771251,115.766099999993 0.558125450963297,44.4744722730093,111.486900000004 0.558787789602047,44.4739490746647,107.433999999994 0.559591948867994,44.4737465677181,103.730599999995 0.560325029835369,44.4737971948412,99.8061000000016 0.561223905668244,44.4742865301951,93.1888999999937 0.561933350163858,44.4744553415207,94.6649999999936 0.562619324376073,44.4743202253219,95.8641999999963 0.563044957835775,44.4739658383557,92.7758999999933 0.561886076322038,44.4738308896095,91.8536000000022 0.559828486062086,44.4722106681306,92.2023999999947 0.557865277297444,44.4701852650431,89.0001999999949 0.556469857691285,44.4699490627904,81.6861999999965 0.557463281207801,44.4689869880491,94.8481999999931 0.558669436563391,44.4676872903186,107.466400000005 0.56046701934582,44.4671134649425,113.295199999993 0.562572050534253,44.4661683215955,118.285300000003 0.564062017824052,44.465374890701,121.468900000007 0.565079077812328,44.4647841339429,120.476500000004 0.566829219666277,44.463737569759,128.156300000002 0.568011738550106,44.4643958843738,131.087799999994 0.568555724150201,44.464682880685,131.6348 0.569146983592082,44.4647335073359,133.774699999994 0.569951142858029,44.4645983910686,137.1296 0.570424218144542,44.4647504390805,138.518299999996 0.570944566374544,44.4645983910686,140.5959 0.571322925094096,44.4642103088779,141.583899999998 0.57186691069419,44.4633999468071,138.601999999999 0.572600159646556,44.4623703139652,136.967999999993 0.571394004290965,44.461458697637,129.1109 0.57345159365262,44.4616107454916,133.607699999993 0.574657749008177,44.4608003832409,130.941600000006 0.575296450276869,44.4592304526182,126.167300000001 0.575793162035143,44.4580993988535,126.049499999994 0.575864073247022,44.4571034609527,129.604399999997 0.575840435876963,44.4566476528834,131.219400000002 0.575627535154634,44.4562424720642,131.079299999998 0.57517809813651,44.4551451134254,128.009399999995 0.574728828205046,44.4548581170369,127.585600000006 0.573901031569041,44.4543516821213,126.357099999994 0.572836696840647,44.4540983809393,123.903399999996 0.572458170136105,44.4538620116374,122.887799999997 0.572434533664343,44.4535243886467,122.289799999999 0.572813060368885,44.4525113514993,124.582200000004 0.572813060368885,44.4518361052628,124.0717 0.572458170136105,44.4514984821024,122.444799999997 0.571204740938694,44.4509412531565,130.889299999995 0.570873655162632,44.4503166343316,129.294599999994 0.571252014780514,44.4492529707699,113.280499999993 0.570920929004452,44.4487126728278,117.794399999999 0.57018768005212,44.4479358380814,120.610799999995 0.570022222054898,44.4472942875091,120.854699999996 0.569974780228087,44.445538278755,144.665099999998 0.569643695350356,44.4448967275031,151.396900000007 0.569714773648895,44.444052334777,154.3802 0.570211317422179,44.4432250409963,156.181500000006 0.569407157257934,44.4437314755525,156.070500000002 0.569123346222023,44.4441368246231,155.5003 0.568815897816053,44.4446095640295,156.751799999998 0.568319186956109,44.4448628646793,154.562000000005 0.567751563985956,44.4450486081285,150.967699999994 0.56713666807228,44.445200655745,148.188299999994 0.566947404720009,44.445200655745,146.474000000002 0.566758308454398,44.4455213472108,143.415699999998 0.566285234066216,44.4459097646155,137.696899999995 0.565007999513789,44.4461630660406,133.625199999995 0.563991106612139,44.4463149459388,126.5622 0.562784783271625,44.4462136927173,119.496599999999 0.561413001035525,44.4463825037832,114.102799999993 0.560348667205461,44.4463994357191,107.647599999997 0.559662860079873,44.4466358050824,104.906900000002 0.558480341196077,44.4469060377135,101.726699999999 0.55736873262583,44.4470409865001,97.2896000000037 0.556304398795733,44.4473112185394,93.4187999999995 0.554412268329631,44.4477333313104,87.5338999999949 0.553253385917596,44.4479190746104,85.0688999999984 0.552047062577048,44.4481048173199,79.2844999999943 0.55065164386922,44.4479866325235,72.9195999999938 0.549871120176738,44.4476151464036,70.7409999999945 0.548357516415177,44.4471591712859,68.3476999999984 0.5473404564269,44.4469734281347,66.5516000000061 0.546962097707315,44.4467539900467,65.8693000000058 0.546465385949075,44.4462306240607,66.694399999993 0.546157937543071,44.4458422062243,68.2727000000014 0.545495599802618,44.4455719738023,69.553700000004 0.544904340360737,44.4453188404063,71.5791999999929 0.54402926898458,44.4448122381146,73.9321000000054 0.542042590834838,44.4446434270001,78.6518999999971 0.541025530846561,44.4446434270001,80.4116999999969 0.539701022452314,44.4446434270001,83.4787999999971 0.539086125640341,44.4444407523293,87.786500000002 0.538684129550698,44.4438159652214,85.4109000000026 0.537383258526509,44.4418909770386,81.7912000000069 0.536910184138327,44.441316816671,81.6777000000002 0.536437276836772,44.4408608411342,82.8594000000012 0.535254589967985,44.4402868489465,84.5420000000013 0.535065494600705,44.4399321264491,82.7084000000032 0.535633116672527,44.4391385282405,79.4474999999948 0.536295287326321,44.4376354850852,71.4890000000014 0.536673646045906,44.4365716541084,69.8417000000045 0.536035112762171,44.4364196064836,68.6333000000013 0.535514764532168,44.4364026748623,67.8521000000037 0.534947141562015,44.4363689796578,66.2084999999934 0.535160042284345,44.4360311888414,65.1389000000054 0.535325501179897,44.4355582818817,65.0308999999979 0.534852593878342,44.4350010528928,64.9070999999967 0.53411934492601,44.4345281459352,64.7305000000051 0.532771200060001,44.4349671901062,64.6410999999935 0.532345566600266,44.4350010528928,64.7596999999951 0.532416477812178,44.4333459625066,64.4369000000006 0.532605741164449,44.4315726867855,69.1006999999954 0.532865915728599,44.4293600317767,95.054999999993 0.531399417823901,44.4291912202788,92.7823000000062 0.53288955220036,44.4277386364383,87.8497999999963 0.533338822131824,44.4271812398681,81.7308000000048 0.532629378534508,44.4268265180033,81.7569999999978 0.531896129582176,44.4266070799439,84.5280000000057 0.530831794853748,44.4263874736209,89.3494999999966 0.529247112793649,44.4259482623488,99.8390000000072 0.528419316157643,44.4263536109755,102.786099999998 0.527189522533697,44.4260327520714,102.9755 0.526621900461874,44.4259651937913,102.759900000005 0.525486655419865,44.4259145668903,101.7022 0.52465885878386,44.4261847997762,101.773100000006 0.52404379488526,44.4253908653861,104.516199999998 0.523310713917852,44.4247659111408,101.656700000007 0.522435642541695,44.424293004123,97.0886000000028 0.521063860305628,44.4238199296817,99.8646000000008 0.519904810806934,44.4232288372316,109.191800000001 0.519077014170928,44.4227896259654,113.619200000001 0.518864281433556,44.4226038829696,114.929099999994 0.518651380711193,44.4223334827594,115.483399999997 0.518604106869373,44.4218942711825,114.051399999997 0.518485754729014,44.4214213640317,114.847699999998 0.518580470397611,44.4208301042549,115.188399999999 0.518887918803615,44.4199010545427,113.742800000007 0.518272854006684,44.4188536520233,117.899399999995 0.51803648479755,44.4180260226483,117.638999999996 0.51772886930492,44.417620505919,121.857900000003 0.517326873215277,44.4171137359836,121.791200000007 0.51666470256145,44.4166238977289,112.413499999995 0.516593624262911,44.4161169600283,105.816699999996 0.516617260734673,44.4152891635865,101.674199999994 0.516587086324269,44.4149198571844,101.352700000003 0.516084674755545,44.4139175492203,102.664099999995 0.515720732199647,44.4133977032305,102.578699999998 0.515720732199647,44.4131502697183,96.8304999999964 0.51494121551861,44.4124818965852,101.205199999997 0.514577272962712,44.4117146168565,90.5261000000028 0.514040161271174,44.4111701286506,90.1904000000068 0.51369365321831,44.4107988101647,86.7342999999964 0.513122007592321,44.4105141608162,87.4845999999961 0.512810200560568,44.4103284179679,87.8361000000004 0.51232505550992,44.4100809843041,85.0087000000058 0.511701274359787,44.409573543891,81.1707000000024 0.511666573338676,44.409090746339,73.1483000000007 0.511666573338676,44.4086823799867,69.0831000000035 0.5115626382603,44.4078408369323,66.3298000000068 0.510869622154572,44.4074447081803,64.5948000000062 0.5101593395308,44.4069743159614,63.4361999999965 0.509639661443965,44.4065659495932,62.9196999999986 0.508721340678486,44.4060461037166,62.8693999999959 0.508201662591685,44.4056747854303,62.2173000000039 0.507335309365359,44.4055014478648,60.7583000000013 0.507127437411981,44.4053777309012,59.459600000002 0.507023502333606,44.4051919877855,56.6187000000064 0.506573058304069,44.4044371135208,49.778999999995 0.506191850128424,44.4042513706273,46.8502000000008 0.505377464441287,44.4033972548047,42.6208999999944 0.50459794686192,44.402840361017,42.0926000000036 0.501895118292931,44.4023823736232,39.3935999999958 0.501912552795965,44.401342514967,40.0240000000049 0.501895118292931,44.4009341484341,40.4429999999993 0.501496642700912,44.4002780131764,40.6300000000047 0.501167402064422,44.3999066948617,40.363400000002 0.501184835669159,44.3993868494982,38.8364000000001 0.500058643848598,44.3995353767578,38.7704999999987 0.498949885632741,44.3997581672611,39.1405999999988 0.498256869527046,44.3989410998643,39.1597000000038 0.497459918342942,44.3981488423779,38.9830999999976 0.496888104731996,44.3985449711783,40.170299999998 0.496247057063786,44.3989659099269,41.9076000000059 0.495086331308741,44.3975175173703,41.4330999999947 0.495432838463308,44.3973689901233,41.1996000000072 0.495190266387116,44.3970471249161,41.2453999999998 0.495328903384933,44.3969728610637,41.1928000000044 0.495502073418869,44.3969110029036,41.1579000000056 0.495363436421086,44.396650996245,41.0708000000013 0.495155565366005,44.3964157995751,39.5590999999986 0.495571307476134,44.3962796780195,39.7301000000007 0.495311468881898,44.395833927822,34.7010000000009 0.494271945621636,44.3963167256716,35.2464000000036 0.493301823505265,44.3967500702245,36.8665999999939 0.493457727021159,44.397084340248,42.0951000000059 0.492626074815944,44.397269915908,47.8151999999973 0.492192898202781,44.3971337937719,47.6095999999961 0.491742454173244,44.3969110029036,48.3818000000028 0.491240043502817,44.3967006170182,48.7399000000005 0.490945502989141,44.3966139481627,54.623900000006 0.490668229891871,44.3963291309397,57.3313999999955 0.490183252826181,44.3960444817828,59.7207999999955 0.489109028544808,44.3958959540061,72.0050999999949 0.488693285536349,44.3956235425572,70.2917000000016 0.488416012439079,44.3957968798642,79.1665000000066 0.488745253973867,44.3963291309397,84.7630999999965 0.488381311417968,44.3964033943254,93.225099999996 0.487341787259409,44.3953883462507,94.5522000000055 0.48644090099693,44.3950292657294,104.426200000002 0.485695917352047,44.3949674067984,111.588399999993 0.485695917352047,44.3952150083754,118.334400000007 0.486423633580556,44.395413156536,115.551900000006 0.486822110070905,44.3957968798642,114.518700000001 0.486839376588982,44.3960939349017,117.357799999998 0.48644090099693,44.3964900634928,128.001699999993 0.486233029941882,44.3964654205478,134.455499999996 0.486267730962993,44.3960939349017,126.576799999995 0.486059691922955,44.3959454072505,129.917100000006 0.485384110320294,44.3959948604532,138.551699999996 0.484812296709314,44.3959826232831,138.127399999998 0.484292618622513,44.3960939349017,134.267600000006 0.48427518501781,44.3966634014423,146.350999999995 0.484361853578108,44.3972080574201,161.834700000007 0.483495667438443,44.3982603212473,178.795499999993 0.483097191846391,44.3984707073013,181.529299999995 0.482542644753522,44.3986688553488,182.657999999996 0.4819709991275,44.3989164566679,179.216899999999 0.48153782251437,44.400178939394,176.540200000003 0.481260549417068,44.4009587914225,177.875899999999 0.480983443406425,44.4012312030639,178.508499999996 0.480377096759325,44.4016025213161,183.838099999994 0.479268170558544,44.402048103702,184.559299999994 0.478505920395551,44.4021471775282,183.895699999994 0.477379727676693,44.4023451584521,185.479300000006 0.476261750051092,44.4024259598711,187.850099999996 0.475505869841783,44.4026111996185,187.664399999994 0.474728364488648,44.4028427080451,186.402799999996 0.473691858669436,44.402580354393,183.846600000004 0.473087188278654,44.4025186632514,181.914199999999 0.472136847963166,44.4026883135738,181.666899999997 0.471402592897684,44.4028116947924,183.180099999998 0.470668337832237,44.4028427080451,184.816900000005 0.470819547650729,44.4016238118813,181.007299999997 0.468422491231426,44.4012070633681,180.830600000001 0.466953981998828,44.4007904826086,188.549599999998 0.465723015175105,44.4003276340828,191.005600000004 0.463908836017801,44.4006979465707,193.744900000005 0.462893955342383,44.4010219911801,186.865699999995 0.462051574557766,44.4015002625717,181.513500000001 0.461706071719687,44.4016546569693,181.452799999999 0.46116627765875,44.4018705746974,181.288400000005 0.460604689570664,44.4018705746974,179.806400000001 0.459373723645272,44.4020403918416,179.413499999995 0.45853150994725,44.4018859978202,178.623000000007 0.457559712472892,44.4016855026829,184.3894 0.456695873631075,44.4015002625717,186.442200000005 0.456263870217689,44.401330612655,186.308900000004 0.455983243709454,44.4010374138848,185.661900000006 0.45570245011456,44.4005128740558,185.083899999998 0.45505452943609,44.3992938099715,183.305200000003 0.454579442821676,44.3988926523379,181.666400000002 0.453434810384966,44.3980903365217,176.045100000003 0.45308930754692,44.3975347837466,174.420400000003 0.452441554853408,44.3966553544639,179.730299999996 0.45192321795134,44.3958374484647,183.344899999996 0.450929794434825,44.3963313100611,180.716899999999 0.449936370918309,44.3966707770359,178.987999999998 0.449547618690907,44.3963158873997,181.0236 0.448748655280571,44.3958837168152,179.346900000004 0.44773360751856,44.3958682940358,174.678499999995 0.447020977596905,44.3958528712523,175.452600000004 0.446696933714357,44.3958066028774,174.1299 0.445660426996815,44.396115224904,171.175300000003 0.44512046495092,44.3964855370942,168.474900000001 0.444386209885439,44.3973497114958,175.321299999996 0.44384624783951,44.3975656290648,169.755300000004 0.443241577448728,44.3976891783391,163.583299999998 0.443068910471332,44.3977354465092,162.449299999993 0.442960951838824,44.3971027807023,164.574600000007 0.442766491732611,44.3965936641352,153.361900000004 0.442982408997694,44.3959764202917,146.991999999998 0.443090535615159,44.3953900228212,141.110400000005 0.443371162123427,44.3948036246094,139.621400000004 0.443004034141521,44.3939702957658,130.865099999995 0.442766491732611,44.39312154439,116.752800000002 0.442744865690487,44.3925970048479,116.066399999996 0.442982408997694,44.3919795936755,122.456099999996 0.443500745899762,44.3912235462595,131.383199999997 0.44425662610907,44.3906834159917,143.260500000004 0.445401258545781,44.3899272009775,162.403999999995 0.445984303792736,44.3895414658486,170.129400000005 0.446588974183519,44.3888160956392,180.174799999993 0.447949524783609,44.3892018310549,179.998300000007 0.448489486829538,44.3879827669165,183.056599999996 0.447496064211353,44.3876122866529,185.133900000001 0.447064060797933,44.3873807789506,184.155400000003 0.447344854392827,44.3870258888272,179.456200000001 0.44710731108562,44.3868406491701,174.459000000003 0.446437765263323,44.3870104662812,177.648199999996 0.44531475797044,44.387272819772,175.611000000004 0.444947629988567,44.3868869169301,165.835000000006 0.445358008258127,44.3866862542018,165.194199999998 0.445358008258127,44.3864084779453,161.542100000006 0.44490454678754,44.3858375024746,151.7883 0.444291495115138,44.3848769364069,151.013699999996 0.443395804708271,44.3844380604816,160.058600000004 0.442807059650865,44.3839441986716,167.153200000001 0.442474465603444,44.3835601395436,170.525299999994 0.441604256807909,44.3831028230106,171.466199999995 0.44081082612143,44.3829199296804,166.400299999994 0.439454466162132,44.3823710831898,156.685100000002 0.438481829661319,44.3823710831898,156.333199999994 0.43750936204376,44.3825357033295,155.238599999997 0.436792708567973,44.3825906885308,154.868199999997 0.435589905725016,44.3824260679037,156.156499999997 0.434745345627508,44.3821881894996,157.459199999998 0.433670450304637,44.3819687514999,157.875799999994 0.43297944552681,44.3822249025933,158.089900000006 0.432365219756368,44.3824991586384,159.573300000004 0.431827772094916,44.3826089614927,162.609599999996 0.43105999010643,44.3826089614927,166.707699999999 0.430624801267036,44.3828466719064,169.6149 0.429473127835108,44.3830845502029,170.973599999998 0.427988693269133,44.3834686092409,173.834300000002 0.427195429669314,44.3835416993161,175.135999999999 0.425583086684956,44.3840905463881,177.248600000006 0.424764007300484,44.3841270913699,173.554699999993 0.424226559639032,44.3843099847808,172.634900000005 0.423663463279586,44.3848952092971,171.869399999996 0.423049237509145,44.3851330876155,165.231799999994 0.422998108098116,44.3863585216818,166.546700000006 0.422460660436663,44.3866327776211,165.7022 0.422716643461723,44.3860658256671,159.747900000002 0.42243501173867,44.3859194777529,157.160000000003 0.421641748138818,44.3857000396157,143.657999999996 0.420234091681865,44.3852977083344,123.4905 0.418468192479496,44.3848038467148,111.679799999998 0.417367648458631,44.3846940434833,109.323000000004 0.416574217772119,44.3846940434833,105.311100000006 0.415268987223884,44.3845111506304,102.434500000003 0.414270870010001,44.3841636369708,106.410799999998 0.413579866130538,44.3839441986716,109.383600000001 0.412760954730989,44.3831941856797,116.517099999997 0.41242819269861,44.3828649447884,122.241200000004 0.409894511507756,44.3819504789803,156.6927 0.405671540340268,44.3813468142823,130.911699999997 0.400911290394581,44.3811639212446,167.259000000005 0.39932459610825,44.3803956362249,173.902400000006 0.396637357801021,44.3798652292904,165.183999999994 0.394282713541248,44.3801031075022,165.504100000006 0.393284596327365,44.3801396524049,165.153900000005 0.39200501537542,44.3802860006436,169.769700000004 0.391058027572566,44.3802860006436,172.288199999995 0.390238948188094,44.3803042730407,174.375499999995 0.387705266098909,44.3802677282408,173.490900000004 0.386809576590339,44.3804871661957,173.597899999993 0.385401919235088,44.3808529527179,173.285799999998 0.384378154221543,44.3810725586173,168.463600000003 0.384122338283143,44.3810541182482,166.288 0.384122338283143,44.3804871661957,164.924100000004 0.383994262778135,44.3801396524049,162.630699999994 0.384122338283143,44.3797736989893,164.856899999999 0.384122338283143,44.3791334888108,164.478799999997 0.383892003057779,44.3788775058932,165.612899999993 0.383149701782296,44.3790969439222,156.842099999994 0.382637902818837,44.3788957780878,149.524000000005 0.381614137805291,44.3784019163945,138.638600000006 0.381102338841832,44.3781640383337,133.3652 0.380923133027497,44.3775603731192,130.421100000007 0.381486229386943,44.3770116940482,126.469299999997 0.38192125024138,44.3765176649329,121.496299999999 0.382279660971752,44.3755664861156,119.842600000004 0.382996145564252,44.3745785951718,119.733099999998 0.382612254120844,44.3736639620547,116.063999999998 0.3822028819644,44.3727126161653,112.543399999995 0.382509995298786,44.3714687413962,104.437099999996 0.383456815116682,44.3706637436933,99.1092000000062 0.383354555396327,44.3685781581875,81.9321999999956 0.384275894501154,44.3677547198655,71.5411000000022 0.384966898380651,44.3671327832249,64.2406000000046 0.385094806798999,44.3666570264144,63.164499999999 0.385734681267467,44.3660533613848,60.8086000000039 0.385299492428073,44.3658703004879,61.3395000000019 0.384787693464613,44.365577604798,61.4486000000034 0.384147818996179,44.3648091518821,59.8855999999942 0.383200999178283,44.3636747446798,60.7075000000041 0.381563007495965,44.363144170234,60.0304000000033 0.380897484329504,44.3629611098794,59.4220999999961 0.380155351039012,44.3621561114942,56.8831000000064 0.379234011934151,44.361332673451,56.057799999995 0.379029326305078,44.3607105684347,54.7837 0.378440581247672,44.360399432204,53.9758000000002 0.37790313358622,44.3597773275545,55.7658999999985 0.37764731764782,44.359594434587,56.254700000005 0.377621668949827,44.3589723297397,54.7914000000019 0.377570539538798,44.3585696632255,49.6226000000024 0.377468112731783,44.3581304513863,35.7627000000066 0.377493761429776,44.3579292854662,30.4780000000028 0.376879367674344,44.3575816044116,30.3931000000011 0.375881251358791,44.3572887407779,33.7381000000023 0.375565755844489,44.3571982157018,32.7792999999947 0.37533139796329,44.3568817156444,32.9431999999942 0.374849941395191,44.3566119860001,37.783500000005 0.374472420803765,44.3563979117067,36.9513000000006 0.374068915544464,44.3562116662939,39.6211000000039 0.373925752834237,44.3559697639852,37.2358999999997 0.373665411183427,44.3555974400579,36.4784000000072 0.373457204158465,44.3552717193136,36.0685999999987 0.373001564273317,44.3550390380496,36.270399999994 0.372181646760687,44.3550670333308,46.6146000000008 0.370684806460628,44.3552345037336,48.8907999999938 0.369864720963007,44.3552066755337,49.3334999999934 0.369083863097237,44.3550948609547,50.2118000000046 0.368906501524177,44.3549515309511,49.6901999999973 0.368576086789647,44.3550762531115,50.3586000000068 0.368797369691893,44.3554207496828,50.9918000000034 0.366831980716063,44.3560628036505,53.9958000000042 0.365634541713676,44.356537386952,57.0095000000001 0.364402234603551,44.3569677136821,58.5534000000043 0.363384000517234,44.3572478371622,60.4014000000025 0.362483114254755,44.3572478371622,65.0467000000062 0.361268911790865,44.3571078594087,70.2449999999953 0.359193216884678,44.356883727311,77.7231999999931 0.358292329723902,44.3571358543438,80.0584999999992 0.357743986396388,44.3576119466777,86.9231 0.356373209375106,44.3578639067949,91.4685999999929 0.356177240997533,44.357415810025,90.5850000000064 0.356177240997533,44.3568277359017,92.5761999999959 0.356333982641585,44.3562116662939,91.1894000000029 0.355785638415741,44.3557355741443,100.569600000003 0.355119779279365,44.3551754950879,107.5481 0.35445392104132,44.3545594254519,108.919099999999 0.354767237242764,44.353915192297,113.717600000004 0.355276520923417,44.3532991222582,118.052599999995 0.355863924796123,44.353075158016,122.478099999993 0.355746410783922,44.3527670387771,128.0717 0.354688949964051,44.3525709026085,132.791899999997 0.353474747500162,44.3522069602544,143.621899999998 0.352769829615256,44.3516747094812,147.641699999993 0.351477339872654,44.3516187182336,157.938999999998 0.350341424687477,44.3514227497306,167.143899999995 0.348892361285813,44.3520108234961,164.985799999995 0.346934013305199,44.3524589204876,168.036200000002 0.346307214714015,44.3517308683289,167.334700000007 0.346072353776241,44.3507785161391,161.922999999995 0.346503183091555,44.3497143499664,166.351699999999 0.347286388255174,44.3492380900455,168.007800000007 0.347991474125037,44.3488179891783,166.106100000005 0.348618104731264,44.3481177651251,163.648400000005 0.348853133653995,44.347473699488,157.917000000001 0.348539818350882,44.3464373609365,149.248099999997 0.348579045084403,44.3461012470796,149.253899999996 0.347952246493219,44.3457931277947,152.104600000006 0.346894785673348,44.3456809779012,147.994900000005 0.346463956358034,44.3448127804613,153.698300000004 0.345915612132189,44.3438884244128,157.402000000002 0.3471690413296,44.3437764424063,161.577099999995 0.348344017059969,44.3436083013185,163.109500000006 0.349244736235788,44.3432721866591,155.729500000001 0.349989048839172,44.3424038218414,133.310100000002 0.350067336117885,44.3410873600281,119.501699999993 0.350341424687477,44.3397707305205,109.185299999997 0.350184850130085,44.3367173706229,78.8435999999929 0.349205676588927,44.3357928470977,56.7636999999959 0.348265561796332,44.3354847282486,49.4567999999999 0.347678158821924,44.3356808650488,51.7219000000041 0.345915612132189,44.3354847282486,58.9002000000037 0.345053952603265,44.3354847282486,62.2749999999942 0.344153065442455,44.3356247062444,65.9489000000031 0.343173891003,44.3353725785534,68.4902000000002 0.342155657814981,44.3352046048385,72.5029000000068 0.341998916170928,44.3348123318939,68.2866999999969 0.341254770654204,44.3344200588954,71.5626999999949 0.340549852769265,44.3341399355399,75.9581999999937 0.33968819324034,44.3335236981293,84.8433999999979 0.339609738875001,44.3327673149045,96.273000000001 0.339844766899402,44.3320107644953,107.631899999993 0.340823941338891,44.331282377395,128.111499999999 0.341411512298223,44.3311422316028,136.773700000005 0.341881402158728,44.3304138446397,153.572799999994 0.342468973118094,44.3300215711362,158.163 0.343173891003,44.3289289066609,157.242199999993 0.343722235228844,44.3277522547638,159.589500000002 0.345093179336753,44.327331986433,156.231899999999 0.345993898512572,44.326967708731,148.920100000003 0.346738212014286,44.3259590303789,145.564100000003 0.346777271661147,44.3255947531475,151.655499999993 0.346542242738416,44.3250904978397,152.640100000004 0.3470515273174,44.3246140706519,148.671499999997 0.346777271661147,44.3243899383324,144.893400000001 0.347208100976461,44.3242497927803,143.643400000001 0.347991474125037,44.3243059515521,140.982300000003 0.347521417177905,44.3239416743378,134.719100000002 0.348383076706829,44.3238575198249,124.660000000003 0.348030700858558,44.3235214056972,123.419699999999 0.347443129899192,44.3234092556179,115.553400000004 0.346816498394669,44.3238015283574,126.249400000001 0.34571981084131,44.3241938016872,113.367899999997 0.345093179336753,44.3245300835498,113.985199999996 0.343839750139375,44.3247542159765,103.042799999996 0.343056376990799,44.324726220356,93.2713999999978 0.342077370536268,44.3250904978397,92.8187000000034 0.340667366781499,44.3255387620528,100.424899999998 0.339531451596288,44.3255387620528,95.9287999999942 0.338082220209668,44.3262391536092,99.1665999999968 0.336241387139551,44.326995704567,89.6460999999981 0.333695635286232,44.3277802502253,82.9992999999959 0.333186518692206,44.3275561184361,67.8190000000031 0.332755688478561,44.3272478322855,58.906799999997 0.332638174466361,44.3269117176616,50.360400000005 0.331894028949637,44.3264072950239,34.2109999999957 0.332050602608698,44.3257348986997,28.3368000000046 0.333617348007519,44.3247542159765,27.4400000000023 0.335458181975966,44.3240536563092,31.8947999999946 0.336828958098917,44.3234372512242,32.2921999999962 0.338904820091765,44.3225967139877,31.4333999999944 0.338513050423312,44.3200747671582,28.8886000000057 0.339257363026696,44.3199346215808,28.8334000000032 0.339061394649156,44.3189259431263,29.4008000000031 0.339218136293175,44.3180010838629,28.1223000000027 0.339218136293175,44.3169922384803,29.0899999999965 0.341293998286023,44.3174406699793,33.2179000000033 0.33988399453122,44.3153108284581,30.1756000000023 0.339061394649156,44.3141338417005,28.6864999999962 0.338317249132399,44.3129568544763,29.829700000002 0.338082220209668,44.3119478413797,28.6912000000011 0.338082220209668,44.3112472817795,28.6739999999991 0.33949222396447,44.308724831698,30.7590000000055 0.340119022555654,44.3080241044177,31.661300000007 0.340941455351091,44.307239390989,31.3365000000049 0.342077370536268,44.3068751132405,30.1554000000033 0.342077370536268,44.3050252272063,30.3279000000039 0.340784713707039,44.3052773548412,29.2492999999959 0.339413937584088,44.3028668872567,40.9327000000048 0.338591504788651,44.3013812790194,48.4297999999981 0.340275597113046,44.3008206967816,44.3901999999944 0.341176483375492,44.3005684014935,43.7262999999948 0.341842342511867,44.2996713704456,44.3956000000035 0.342194717461841,44.2990266344764,44.3092999999935 0.342821516053026,44.2989706437459,44.8405999999959</coordinates>
</LineString>
</Placemark>
</Folder>
</Document></kml>
