<?xml version="1.0" encoding="UTF-8"?>

<kml xmlns:xsd="http://www.w3.org/2001/XMLSchema" xmlns:gx="http://www.google.com/kml/ext/2.2" xmlns:atom="http://www.w3.org/2005/Atom" xmlns="http://www.opengis.net/kml/2.2">
<Document>
<name>ES42a_02a_san_miguel_de_salinas-orihuela</name>
<visibility>1</visibility>
<Schema name="ES42a_02a_san_miguel_de_salinas-orihuela" id="kml_schema_ft_ES42a_02a_san_miguel_de_salinas-orihuela">
<SimpleField type="xsd:string" name="id">
<displayName>id</displayName>
</SimpleField>
<SimpleField type="xsd:string" name="nombre">
<displayName>nombre</displayName>
</SimpleField>
<SimpleField type="xsd:double" name="longitud">
<displayName>longitud</displayName>
</SimpleField>
<SimpleField type="xsd:string" name="_formato">
<displayName>_formato</displayName>
</SimpleField>
</Schema>
<Folder id="kml_ft_ES42a_02a_san_miguel_de_salinas-orihuela">
<name>ES42a_02a_san_miguel_de_salinas-orihuela</name>
<Placemark id="kml_1">
<name>&lt;img height='20' src='https://nco.ign.es/iconos/icono_todos_caminos_azul.png' /&gt;&lt;img height='20' src='https://nco.ign.es/iconos/Camino Santiago_20.png' /&gt;&lt;img height='20' src='https://nco.ign.es/iconos/icono_todos_caminos_azul.png' /&gt;  Camino de Santiago </name>
<visibility>1</visibility>
<description><![CDATA[<!DOCTYPE html>
<html>
<head>
<style>
#nco {
  border-collapse: collapse;
  overflow:hidden;
}
#nco th, #nco td {
  padding: 4px;
  text-align: left;
}
#nco th {
  color: #364B5F;
  padding-right: 5px;
}
#nco td {
  color: rgb(51, 51, 51);
  font-size: 12px;
  padding-right: 5px;
}
</style>
</head>
<body>
<table id="nco">
<tr>
<td>Caminos del Sureste</td>
</tr>
<tr>
<th><b>Camino: </b></th>
<td>ES42a Camino del Sureste Ramal Sur</td>
</tr>
<tr>
<th><b>Etapa: </b></th>
<td>02a San Miguel de Salinas-Orihuela</td>
</tr>
<tr>
<th><b>Longitud: </b></th>
<td>25.03 km</td>
</tr>
</table>
</body>
</html>]]></description>
<Style>
<IconStyle>
<scale>0.8</scale>
</IconStyle>
<LabelStyle>
<color>ffffffff</color>
<scale>0.75</scale>
</LabelStyle>
<LineStyle>
<color>ffff0000</color>
<width>3.0</width>
<gx:labelVisibility>1</gx:labelVisibility>
</LineStyle>
<PolyStyle>
<color>66ff0000</color>
</PolyStyle>
</Style>
<ExtendedData>
<SchemaData schemaUrl="#kml_schema_ft_ES42a_02a_san_miguel_de_salinas-orihuela">
<SimpleData name="id">ES42a_02a</SimpleData>
<SimpleData name="_formato">kml</SimpleData>
</SchemaData>
</ExtendedData>
<LineString>
<extrude>0</extrude>
<tessellate>1</tessellate>
<coordinates>-0.788896176888609,37.9783933792772,79.8080000000045 -0.79010803295298,37.9783511345789,82.8631000000023 -0.790541879709344,37.9782619511684,84.3427999999985 -0.791017804451917,37.9781249912004,86.2695999999996 -0.791456345803945,37.9785712436353,85.7330999999976 -0.791858005923675,37.9788548872143,85.6152000000002 -0.792672559595736,37.9783828181048,81.850099999996 -0.793824401012621,37.978587672004,75.9193999999989 -0.794959813141256,37.9787351936478,70.7157000000007 -0.79592959928768,37.9792407903261,73.5957999999955 -0.796617753711083,37.9801163637357,74.9070999999967 -0.797390397381894,37.979803550849,77.7422999999981 -0.797863304683449,37.979938331768,78.8421999999991 -0.798969715601458,37.9801604526577,79.9974999999977 -0.800577196903457,37.9806435852394,82.3791000000056 -0.801075920887963,37.980980202549,84.2462999999989 -0.801979657504799,37.9816011338517,88.1977999999945 -0.804149061068204,37.9815603977517,91.3551000000007 -0.805343147557924,37.9814257847901,90.3757999999943 -0.806611831945477,37.9821166207197,95.5659000000014 -0.808092746912158,37.9823405851577,98.8286999999982 -0.809616074038368,37.9828009198186,101.511400000003 -0.810739416402836,37.9833715597528,103.652700000006 -0.812366511520761,37.9836768281374,108.985700000005 -0.81308987002185,37.984357774311,116.865699999995 -0.813807528712423,37.9852346892656,127.209000000003 -0.814832970880616,37.9857642578982,130.691699999996 -0.817748867258561,37.9860934989692,117.637100000007 -0.820513721802971,37.9864983444151,104.107199999999 -0.823140274421182,37.9865472949609,102.915200000003 -0.824234783559979,37.9880984498852,98.0908999999956 -0.825177244752092,37.9897646048404,104.755300000004 -0.825850982113512,37.9921323244733,102.955100000006 -0.826174523837816,37.9929235765906,101.646699999998 -0.825657695207075,37.9936207833667,101.919599999994 -0.826726052591338,37.9943863864757,108.0622 -0.827648229824357,37.9950706844098,114.831000000006 -0.828222054763204,37.9957880076433,115.835399999996 -0.828968547577811,37.9956750202522,111.725399999996 -0.830281656351091,37.9951233232105,113.978700000007 -0.83186633841119,37.9939265549302,114.603199999998 -0.832721627986463,37.9938675466311,114.199900000007 -0.834267251298032,37.9939964597959,110.503100000002 -0.834680814095269,37.9949803277492,108.643500000006 -0.835572984004511,37.9958228763706,110.707399999999 -0.836236495843038,37.996911518472,109.881999999998 -0.836193580626968,37.9983625932874,109.140199999994 -0.836555007900093,37.9989701137119,110.344200000007 -0.836252086104797,37.9995903745936,109.058399999994 -0.835886467292582,38.0001844839663,108.785900000003 -0.836424250025652,38.0012458005471,108.045400000003 -0.836635641578291,38.0026514457463,110.414199999999 -0.836547128776718,38.0035010349824,111.237399999998 -0.83630455670056,38.0040627904501,110.768299999996 -0.836270022766076,38.0052230136226,109.668300000005 -0.835196301541277,38.0054493247588,108.932000000001 -0.835132096252964,38.0061170271957,108.732099999994 -0.837062951294344,38.006961587598,106.105500000005 -0.838549230101594,38.0077981018335,105.560700000002 -0.839995947103739,38.008845001524,107.025200000004 -0.840583350078114,38.0093063412652,108.857900000003 -0.841027926312244,38.0092396211971,107.8122 -0.841418187709303,38.0088714879802,108.4136 -0.842632055101609,38.0095445554423,105.591700000004 -0.843536965816551,38.0099618063475,109.567500000005 -0.844699870884454,38.0102085691284,109.148700000005 -0.844731386479557,38.0112854765428,107.058999999994 -0.845264475515226,38.012521639356,109.243900000001 -0.845619030676423,38.0133791082912,111.922000000006 -0.846223030025674,38.0143762192393,108.720700000005 -0.845915246548086,38.0157776734866,106.282800000001 -0.844699870884454,38.0162832696514,105.652900000001 -0.843712818219921,38.0165816656774,107.195200000002 -0.844206344552187,38.0184085855378,107.984100000001 -0.844983011777164,38.0199744928327,109.203099999999 -0.845889597850093,38.021159358171,112.747300000003 -0.845938212876647,38.0225319791357,127.126799999998 -0.845964867687755,38.0231708474191,120.599700000006 -0.846769027852,38.0245169810477,119.764200000005 -0.847393982201909,38.0259355344826,113.164399999994 -0.848546661746919,38.026439454255,112.587599999999 -0.850222035921483,38.0261630193175,114.583599999998 -0.850955284873848,38.0245386066875,115.176200000002 -0.851970836590732,38.0244319885419,115.748800000001 -0.853217392777883,38.0250804125053,110.677800000005 -0.853709075767206,38.0261970499192,114.457299999995 -0.855601541304893,38.0272640662501,114.869200000001 -0.857288148013763,38.027607556373,112.502200000003 -0.858109742681041,38.028723858077,113.012300000002 -0.858220215698059,38.0292763934102,113.743400000007 -0.857789218397788,38.029944430727,114.523400000005 -0.858098343060075,38.0312764828896,115.901400000002 -0.858566053607688,38.0316125975235,116.2696 -0.859869103944768,38.0313090046787,117.811799999996 -0.860677454749805,38.0309909956993,115.395199999999 -0.862201620004174,38.0313059875585,111.601200000005 -0.862957500213482,38.0318015252518,113.910000000003 -0.864583254146674,38.0325921065896,116.274399999995 -0.86568312712604,38.0322950522161,112.859800000006 -0.866158045755497,38.0319207161677,111.121799999994 -0.867453217867532,38.0317845943946,110.745999999999 -0.868088733710216,38.0314293688539,110.686700000006 -0.868879482027296,38.03131185481,111.223700000002 -0.869690515201766,38.0318679099105,110.839300000007 -0.870910417476139,38.0336188900536,110.858099999998 -0.871548782774916,38.0338698439843,110.3796 -0.873405207005089,38.0341083929493,102.063899999994 -0.87434649499746,38.0348317509692,105.154999999999 -0.874314140375867,38.0352127923756,94.1558999999979 -0.872875135410437,38.0354263636388,85.1797999999981 -0.87187081532953,38.0348954534084,77.4042000000045 -0.871898476253754,38.0357118512309,64.7381000000023 -0.872293431348215,38.0360062236353,55.9980999999971 -0.873624812752721,38.036014772773,61.9612999999954 -0.874711777839761,38.0360980891376,50.5559999999969 -0.876233093638036,38.0361158588398,51.1434000000008 -0.876631234158471,38.0366122349611,50.7937999999995 -0.876637939183739,38.037170134666,56.2258000000002 -0.877730604081262,38.0384508889728,69.7035000000033 -0.878454968695467,38.0392143131917,74.5697999999975 -0.878533590147433,38.0399815923805,79.9277000000002 -0.878698713971402,38.0405433477113,80.3004999999976 -0.879051424891291,38.0408407372331,79.899900000004 -0.879160724708532,38.0418209173864,87.440499999997 -0.881138350535157,38.0423452891768,85.2502999999997 -0.882900059096733,38.0431886765216,84.7921999999962 -0.883548482831743,38.0437906645188,82.3549000000057 -0.884683560787092,38.0450082199767,83.7407999999996 -0.885238442951579,38.0460557900331,85.7691999999952 -0.885727945729679,38.0472773684457,84.2171999999991 -0.886870398853498,38.0489418467607,75.6349000000046 -0.888269674028866,38.0508024619976,64.3834999999963 -0.888841152568228,38.0519779397798,59.9302000000025 -0.890005062850917,38.0529084987344,55.1456999999937 -0.891028493691175,38.0538048597478,51.6589999999997 -0.891970451826747,38.0547315630352,45.5041999999958 -0.892920792142235,38.0553711018601,42.8426000000036 -0.893666445930352,38.056102841904,38.8607999999949 -0.893947072438587,38.0568583869986,38.6959999999963 -0.893644485714908,38.0575550903393,36.1849999999977 -0.893301498159635,38.0591401083999,32.4514999999956 -0.89313620724904,38.0597291884691,30.9182000000001 -0.893187001588485,38.060690593075,32.6717000000062 -0.893288590267342,38.0612500011501,31.040399999998 -0.894362144405481,38.0620747806533,27.7268999999942 -0.894967317852838,38.0628294867969,25.2519000000029 -0.895234365427247,38.0630822849077,23.7682000000059 -0.895145181584142,38.0634527654659,22.8454999999958 -0.895718168394864,38.0639590319447,22.0553999999975 -0.895674582137296,38.0654764920496,20.2473999999929 -0.895841047145964,38.0678653343271,19.6101000000053 -0.896001309287574,38.0704709332176,19.0994999999966 -0.896191745839621,38.0720237639676,18.9140999999945 -0.896446220593287,38.0727102420672,15.850099999996 -0.896264668379434,38.0735745837945,18.355899999995 -0.896851234123981,38.0749795584943,18.6984999999986 -0.896736234496257,38.0762480760481,18.2679000000062 -0.896452926516886,38.0765530092714,18.4100999999937 -0.896644369182049,38.0794380606504,18.6521000000066 -0.897997542817009,38.0800821261066,19.329700000002 -0.899704266398346,38.0807015483248,19.290399999998 -0.89987324579149,38.0816342868289,18.7252000000008 -0.899434201382921,38.0832687580774,19.6224999999977 -0.899600666391589,38.0842943676349,19.2425999999978 -0.900009200419874,38.0850763993877,19.4903000000049 -0.901943911030429,38.0859477821428,20.5381000000052 -0.904831476340948,38.0864024163742,21.5562999999966 -0.907689538282596,38.086515572134,17.6119999999937 -0.909914597867704,38.0868342520052,21.508799999996 -0.911858360801377,38.0873958393407,21.7348999999958 -0.913775302735645,38.0875230770232,18.8417000000045 -0.91704022155093,38.0871165546828,21.1309000000037 -0.920501947770244,38.0866823719174,21.553899999999 -0.92415511575639,38.0864064394732,21.4858999999997 -0.927299838190042,38.0860904417002,20.3130999999994 -0.928492415510104,38.0854921417717,20.8754999999946 -0.929874088197447,38.0837507175439,22.2522000000026 -0.931649207707891,38.0819543081143,22.4078000000009 -0.932210460724359,38.0814996730926,22.096000000005 -0.932844132325802,38.0812631360989,21.6275000000023 -0.933783241005281,38.0813109132124,21.0644000000029 -0.934288166060184,38.0814746956753,21.6024000000034 -0.934625956861515,38.0806132036027,21.039499999999 -0.935301370479252,38.0802844648968,20.6046999999962 -0.935892629921133,38.0807535160912,20.7118000000046 -0.937685351919601,38.0815948918168,21.8184999999939 -0.937887188092582,38.0818530541273,21.3411999999953 -0.938421283241366,38.0824156477258,21.7056000000011 -0.939049255032326,38.0823081918118,21.8454999999958 -0.93946432699922,38.0826515142114,22.2905000000028 -0.939520988235775,38.0833044647799,22.3800000000047 -0.939321164289026,38.0841899287158,23.244200000001 -0.939177330537301,38.0848591399984,23.9434000000037 -0.938803162458543,38.0857218059552,22.8891000000003 -0.938658323492032,38.0864305794763,22.1169999999984 -0.938670560342827,38.0868850459643,22.1646999999939 -0.939362235263822,38.0871738864434,22.0381000000052 -0.940300505815142,38.0866964534158,22.0023999999976 -0.940655898206167,38.0873939953864,21.9728999999934 -0.940408799519268,38.0881798826492,22.3665000000037 -0.940514411752291,38.0888732333714,22.4465999999957 -0.941299796228768,38.088492192022,22.1683000000048 -0.941523425530565,38.0887337587347,22.051999999996</coordinates>
</LineString>
</Placemark>
</Folder>
</Document></kml>
