<?xml version="1.0" encoding="UTF-8"?>

<kml xmlns="http://www.opengis.net/kml/2.2" xmlns:atom="http://www.w3.org/2005/Atom" xmlns:gx="http://www.google.com/kml/ext/2.2" xmlns:xsd="http://www.w3.org/2001/XMLSchema">
<Document>
<name>PT02a_03a_almarguen-ribolhos</name>
<visibility>1</visibility>
<Schema name="PT02a_03a_almarguen-ribolhos" id="kml_schema_ft_PT02a_03a_almarguen-ribolhos">
<SimpleField type="xsd:string" name="id">
<displayName>id</displayName>
</SimpleField>
<SimpleField type="xsd:string" name="nombre">
<displayName>nombre</displayName>
</SimpleField>
<SimpleField type="xsd:double" name="longitud">
<displayName>longitud</displayName>
</SimpleField>
<SimpleField type="xsd:string" name="_formato">
<displayName>_formato</displayName>
</SimpleField>
</Schema>
<Folder id="kml_ft_PT02a_03a_almarguen-ribolhos">
<name>PT02a_03a_almarguen-ribolhos</name>
<Placemark id="kml_1">
<name>&lt;img height='20' src='https://nco.ign.es/iconos/icono_todos_caminos_azul.png' /&gt;&lt;img height='20' src='https://nco.ign.es/iconos/Camino Santiago_20.png' /&gt;&lt;img height='20' src='https://nco.ign.es/iconos/icono_todos_caminos_azul.png' /&gt;  Camino de Santiago </name>
<visibility>1</visibility>
<description><![CDATA[<!DOCTYPE html>
<html>
<head>
<style>
#nco {
  border-collapse: collapse;
  overflow:hidden;
}
#nco th, #nco td {
  padding: 4px;
  text-align: left;
}
#nco th {
  color: #364B5F;
  padding-right: 5px;
}
#nco td {
  color: rgb(51, 51, 51);
  font-size: 12px;
  padding-right: 5px;
}
</style>
</head>
<body>
<table id="nco">
<tr>
<td>Caminos Portugueses</td>
</tr>
<tr>
<th><b>Camino: </b></th>
<td>PT02a Caminho Português Interior a Santiago</td>
</tr>
<tr>
<th><b>Etapa: </b></th>
<td>03a Almarguen-Ribolhos</td>
</tr>
<tr>
<th><b>Longitud: </b></th>
<td>23.49 km</td>
</tr>
</table>
</body>
</html>]]></description>
<Style>
<IconStyle>
<scale>0.8</scale>
</IconStyle>
<LabelStyle>
<color>ffffffff</color>
<scale>0.75</scale>
</LabelStyle>
<LineStyle>
<color>ffff0000</color>
<width>3.0</width>
<gx:labelVisibility>1</gx:labelVisibility>
</LineStyle>
<PolyStyle>
<color>66ff0000</color>
</PolyStyle>
</Style>
<ExtendedData>
<SchemaData schemaUrl="#kml_schema_ft_PT02a_03a_almarguen-ribolhos">
<SimpleData name="id">PT02a_03a</SimpleData>
<SimpleData name="_formato">kml</SimpleData>
</SchemaData>
</ExtendedData>
<LineString>
<extrude>0</extrude>
<tessellate>1</tessellate>
<coordinates>-7.89598396054748,40.7635440685212,4469.5119 -7.89636986331879,40.7636961165789,-226.990000000005 -7.89674688175197,40.7638870560764,2933.62480000001 -7.89725398611974,40.7642171356078,5111.8701 -7.89735088110122,40.7643651596888,5111.8701 -7.89741491930291,40.7645510705928,5111.8701 -7.89750594648896,40.7647120028116,5111.8701 -7.89758993267982,40.7648050422107,5111.8701 -7.89790291380962,40.7650710841246,5111.8701 -7.89829786890408,40.765408036362,5111.8701 -7.89833391110992,40.7655270596077,5111.8701 -7.89832988755576,40.7657840483417,5111.8701 -7.8983268701147,40.7659900758182,5111.8701 -7.89830792734031,40.7661320651768,5111.8701 -7.89831697966343,40.7662921594392,5111.8701 -7.89837883765389,40.7663610586506,5111.8701 -7.89842292696803,40.7664830989624,5111.8701 -7.89855385192913,40.7665980986612,5111.8701 -7.89865493755142,40.7666550959889,5111.8701 -7.89871998096789,40.766715109989,5111.8701 -7.8987848572977,40.7670210499852,5111.8701 -7.89874093596852,40.767160021801,5111.8701 -7.89875484997396,40.7673310121915,5111.8701 -7.89882089950355,40.7677460844741,5111.8701 -7.89881586983626,40.7679090282316,5111.8701 -7.89893690524439,40.7680401218073,5111.8701 -7.89911292473442,40.7681350043685,5111.8701 -7.89960091924116,40.7684230066939,5111.8701 -7.89983293072284,40.7686781520709,5111.8701 -7.89992596923682,40.7687631442975,5111.8701 -7.90010584519436,40.768887029359,5111.8701 -7.90026895679206,40.7690400822972,5111.8701 -7.90034992644021,40.769231022089,5111.8701 -7.90054287737673,40.7693210440014,5111.8701 -7.90073985276568,40.7695671368362,5111.8701 -7.90082283284343,40.7698261373281,5111.8701 -7.90076985919113,40.7699111301274,5111.8701 -7.90056986725942,40.770041049591,5111.8701 -7.90038093897877,40.7702051674052,5111.8701 -7.90025889835583,40.7703421276474,5111.8701 -7.90023593202727,40.7704130384576,5111.8701 -7.9002828707975,40.7706291237367,5111.8701 -7.90029292923374,40.7707920679082,5111.8701 -7.90028890567957,40.7710321256465,5111.8701 -7.90020491948874,40.7711731096109,5111.8701 -7.90011992718476,40.7713020231437,5111.8701 -7.90008187275268,40.7715221316176,5111.8701 -7.90006192386517,40.7715501271264,5111.8701 -7.89992999279095,40.7717201122878,5111.8701 -7.89976185152597,40.7720040913867,5111.8701 -7.89976285763908,40.7721281432035,5111.8701 -7.8998029233991,40.7722741563723,5111.8701 -7.89988087470786,40.7724721368426,5111.8701 -7.89987098425658,40.7726731345343,3927.3962 -7.89983695337867,40.7727790816672,1891.10490000001 -7.89985388482517,40.7728691035349,160.895399999994 -7.90004096886454,40.7730501523822,-226.990000000005 -7.90024599046353,40.7732330456944,-226.990000000005 -7.90070883932882,40.773340166801,-226.990000000005 -7.9008288677255,40.773376041377,-226.990000000005 -7.90106590797617,40.7735121630867,-226.990000000005 -7.90110899117719,40.7735891087746,-226.990000000005 -7.90114587151119,40.7737071261855,-226.990000000005 -7.90127998189827,40.7738890135847,-226.990000000005 -7.90144493773725,40.7740491082073,-226.990000000005 -7.90168399021415,40.7742271394999,-226.990000000005 -7.90181290384731,40.7743640996151,-226.990000000005 -7.90192287380775,40.7744871463315,-226.990000000005 -7.90218086905905,40.7748420360141,-226.990000000005 -7.9022529534707,40.7750941635318,-226.990000000005 -7.90221489993695,40.7752071517236,-226.990000000005 -7.90200283734278,40.7753280186448,-226.990000000005 -7.90168885099814,40.7754651465584,-226.990000000005 -7.90163487213105,40.7754690023373,-226.990000000005 -7.90151098726684,40.7754830839554,-226.990000000005 -7.90093196557405,40.7755370634638,-226.990000000005 -7.90056198813608,40.7755501389473,-226.990000000005 -7.90032092522958,40.7755700878811,-226.990000000005 -7.90028488302374,40.7755831640382,-226.990000000005 -7.89996284957079,40.7756981636345,-226.990000000005 -7.89974492007951,40.7758840741256,-226.990000000005 -7.89961885680073,40.7759811366236,-226.990000000005 -7.89947183762303,40.7761180972045,-226.990000000005 -7.8993449362161,40.7762341026651,-226.990000000005 -7.89898987889669,40.7765521115524,-226.990000000005 -7.89862191278663,40.776875150099,-226.990000000005 -7.89834195731992,40.7771051500617,-226.990000000005 -7.89791699490172,40.7774380788146,-226.990000000005 -7.89773393441647,40.7775281004918,-226.990000000005 -7.89778891939671,40.7776840041756,-226.990000000005 -7.89796192234402,40.7778191204963,-226.990000000005 -7.89796192234402,40.7779800525543,-226.990000000005 -7.89787592392692,40.7780740978254,-226.990000000005 -7.89784792793108,40.778089017633,-226.990000000005 -7.89745297283665,40.7783230404272,-226.990000000005 -7.89736596830644,40.7783810432984,-226.990000000005 -7.89710193907138,40.7785830468743,-226.990000000005 -7.89685199003009,40.778820087501,-226.990000000005 -7.8967758829626,40.7788871425258,-226.990000000005 -7.89662199077464,40.7789761582115,-226.990000000005 -7.89640188197047,40.7791340733499,-226.990000000005 -7.89608689041104,40.7793771483845,2491.21219999999 -7.89585689115559,40.779562053404,5111.8701 -7.89573686186058,40.7796651509577,5111.8701 -7.89550283905097,40.7798560901458,5111.8701 -7.89530385323238,40.7799741073075,5111.8701 -7.89519287626049,40.7800240637183,5111.8701 -7.89466883954794,40.7801860019264,5111.8701 -7.89465593165561,40.7801900254464,5111.8701 -7.89417095458992,40.7803410674613,5111.8701 -7.89401790142845,40.7804101344046,5111.8701 -7.89388194680007,40.7805160814432,5111.8701 -7.89389284336449,40.7806651119916,5111.8701 -7.8939699565451,40.7808630919448,5111.8701 -7.8939619103351,40.7810300596544,5111.8701 -7.89391597767797,40.7811821078348,5111.8701 -7.8937449860586,40.7815021289031,5078.6985 -7.89374984774092,40.7816690963668,1869.60370000001 -7.89389988435968,40.7818090741805,-226.990000000005 -7.89404589652596,40.7820441021345,-226.990000000005 -7.8940068368791,40.7821820684787,-226.990000000005 -7.89409887017826,40.782479123232,-226.990000000005 -7.89418486859536,40.7827151575475,-226.990000000005 -7.89421588203222,40.7828680432726,-226.990000000005 -7.8941888921495,40.7830640121288,-226.990000000005 -7.89413491238408,40.783134084967,-226.990000000005 -7.89399091154572,40.783225112411,-226.990000000005 -7.89377599949546,40.7832831150828,-226.990000000005 -7.8935119693621,40.783355032367,-226.990000000005 -7.89324894534186,40.7834510888314,-226.990000000005 -7.89292389534619,40.783571117725,-226.990000000005 -7.89260387411948,40.7836871230937,-226.990000000005 -7.89236599574069,40.7838271007357,-226.990000000005 -7.89212996160314,40.7840291047542,-226.990000000005 -7.89197590232856,40.7842470339319,-226.990000000005 -7.89178295049374,40.7845241400126,-226.990000000005 -7.89164498453745,40.7847620185005,-226.990000000005 -7.89147399381637,40.7849980528652,-226.990000000005 -7.89133485376201,40.7852020679911,-226.990000000005 -7.89118783548261,40.7853500929361,-226.990000000005 -7.89104199040298,40.7855220894151,-226.990000000005 -7.89083093392193,40.7857710319904,-226.990000000005 -7.89053287380896,40.7859990198343,-226.990000000005 -7.89026599421954,40.7861720219525,-226.990000000005 -7.8899888882089,40.7862600321198,-226.990000000005 -7.88981186260575,40.7863051267768,-226.990000000005 -7.8894638453832,40.7863591063334,-226.990000000005 -7.88928497553878,40.7864551625338,-226.990000000005 -7.88915690003377,40.7865931292372,-226.990000000005 -7.88907995483812,40.7867580849246,-226.990000000005 -7.88888197423432,40.7871320852604,-226.990000000005 -7.88881089503748,40.787177012008,-226.990000000005 -7.88870193029182,40.7871961229044,-226.990000000005 -7.88863889910158,40.7871530400613,-226.990000000005 -7.88861392054682,40.7870271438392,-226.990000000005 -7.88849590347805,40.7866620284821,-226.990000000005 -7.88834586775759,40.7864290110964,-226.990000000005 -7.88827294521778,40.7863651413924,-226.990000000005 -7.88817085348238,40.7863770435093,-226.990000000005 -7.88794085422693,40.7864261612291,-226.990000000005 -7.88774689627897,40.7864741056386,-226.990000000005 -7.8875489156752,40.7865440109608,-226.990000000005 -7.88720794034619,40.7867061169148,2300.05250000001 -7.88701297718343,40.7866531435925,5111.8701 -7.88697391753657,40.786614083528,5111.8701 -7.88682589314405,40.7863530712738,5111.8701 -7.88671189962944,40.7862821604731,5111.8701 -7.88646195058816,40.7863311109436,5111.8701 -7.8863509745146,40.7864920434637,5111.8701 -7.88633588730938,40.7866400675739,5111.8701 -7.88638098183834,40.7868110581632,5111.8701 -7.88652095912252,40.7871030842513,5111.8701 -7.886489946584,40.7873661081609,5111.8701 -7.88627084389291,40.7874650147681,5111.8701 -7.88606883973497,40.7875880610228,5111.8701 -7.88605794317057,40.787927025202,5111.8701 -7.88599390496892,40.788078066626,5111.8701 -7.88587991145431,40.7881860255335,5111.8701 -7.88570590329222,40.7882790647097,5111.8701 -7.88562493364407,40.7883310328488,5111.8701 -7.88553491257114,40.7884391593393,5111.8701 -7.88554396489426,40.7885531532001,5111.8701 -7.88561990487512,40.7887551571264,5111.8701 -7.88584085180745,40.7889181010487,5111.8701 -7.88600195207725,40.7890500325817,5111.8701 -7.88622088768165,40.7893011539904,5111.8701 -7.88618786291686,40.789523107186,5111.8701 -7.88587991145432,40.7898401104795,5111.8701 -7.88573892805701,40.7898850374354,5111.8701 -7.88558285655616,40.7898790026963,5111.8701 -7.88546098391821,40.7898781641035,5111.8701 -7.88530994208464,40.7898961016891,5111.8701 -7.88497097808354,40.7899750592463,5111.8701 -7.88468699906267,40.7900411086708,5111.8701 -7.8845218752387,40.7901410205936,5111.8701 -7.88438592150868,40.7902481416398,5111.8701 -7.88399985075238,40.7905641396599,1751.4534 -7.88395492331008,40.7906900352973,-226.990000000005 -7.88396196430526,40.7909560769428,-226.990000000005 -7.88397286086969,40.7910561568368,-226.990000000005 -7.88389792700194,40.7910920313667,-226.990000000005 -7.88377387415277,40.7911000784453,-226.990000000005 -7.8836349029817,40.7911190215854,-226.990000000005 -7.88351789112771,40.7911441673321,-226.990000000005 -7.88342485171543,40.7911590869243,-226.990000000005 -7.88325587322058,40.7911180157009,-226.990000000005 -7.88312092380705,40.7911111424966,-226.990000000005 -7.88296988197348,40.7911051071888,-226.990000000005 -7.88272697482571,40.7911290797492,-226.990000000005 -7.882526982894,40.7912011640054,-226.990000000005 -7.88240896582526,40.7912291593824,-226.990000000005 -7.88231089674566,40.7912730808765,-226.990000000005 -7.88213990602462,40.791423116971,-226.990000000005 -7.88209296725438,40.7915671181407,-226.990000000005 -7.88202993606414,40.7917560460483,-226.990000000005 -7.88199288774521,40.791873057275,-226.990000000005 -7.88201686018689,40.7920390193192,-226.990000000005 -7.88206798959792,40.7921691063398,-226.990000000005 -7.88210285860399,40.7922990258011,-226.990000000005 -7.88221484079066,40.7929120779164,-226.990000000005 -7.88219489190315,40.7930570851124,-226.990000000005 -7.88202792383791,40.7932750145877,-226.990000000005 -7.88193790276498,40.7934431555281,-226.990000000005 -7.88186196278411,40.7937190874943,-226.990000000005 -7.88188392299956,40.7938210116907,-226.990000000005 -7.88190688932811,40.7938721410305,-226.990000000005 -7.88209699080855,40.794033073637,-226.990000000005 -7.88212984758838,40.7941750635906,-226.990000000005 -7.88205390760752,40.7944501573804,-226.990000000005 -7.88185693311683,40.7947581084902,-226.990000000005 -7.88171494360641,40.7948541647825,-226.990000000005 -7.88146985714574,40.7949990045197,-226.990000000005 -7.88125092154135,40.7950821527246,-226.990000000005 -7.88111094425713,40.7950960669678,-226.990000000005 -7.88092989509982,40.7950690770057,-226.990000000005 -7.88064591607895,40.7950451045078,-226.990000000005 -7.88024291387619,40.7951401559214,-226.990000000005 -7.88048984457813,40.7952300094311,-226.990000000005 -7.88055287666667,40.7953091347429,-226.990000000005 -7.8805959598677,40.7954030119823,-226.990000000005 -7.88077985848107,40.7954980628835,-226.990000000005 -7.88088597377063,40.7956430698721,-226.990000000005 -7.88093090031463,40.7956730770473,-226.990000000005 -7.88109183349778,40.7956670421541,-226.990000000005 -7.88115687691425,40.7957030842089,-226.990000000005 -7.88096895474671,40.7958211010933,-226.990000000005 -7.88078086459418,40.7958920125886,-226.990000000005 -7.88067391117646,40.7958650222701,-226.990000000005 -7.88055589410772,40.7958330035556,-226.990000000005 -7.88039797926389,40.7958050080797,-226.990000000005 -7.88020687167038,40.7958420558724,-226.990000000005 -7.88014987446391,40.796123017793,-226.990000000005 -7.8800439271593,40.7961860497991,-226.990000000005 -7.87988098354652,40.796199125298,-226.990000000005 -7.87956297364775,40.7962621572319,-226.990000000005 -7.87932392206918,40.7963660925343,-226.990000000005 -7.87895997951328,40.7965791609938,-226.990000000005 -7.87869695549304,40.7967751295123,-226.990000000005 -7.87860190475282,40.796800107864,-226.990000000005 -7.87797091552084,40.7966571122836,5111.8701 -7.87782289112832,40.7967340583626,5111.8701 -7.87774292759333,40.7970341306934,5111.8701 -7.87763094540662,40.7972230586853,5111.8701 -7.87723397808593,40.7974740124938,5111.8701 -7.87710791480719,40.7975960534558,5111.8701 -7.87708092492446,40.7977281520375,5111.8701 -7.87710892002197,40.7978460014318,5111.8701 -7.8772748819741,40.798105002515,5111.8701 -7.87742894124869,40.7983611532328,5111.8701 -7.87740094615117,40.7985180627486,5111.8701 -7.87723498419908,40.7986230036901,5111.8701 -7.87694597640923,40.7987291188831,5111.8701 -7.87682594711422,40.7988080761365,5111.8701 -7.8765919243046,40.7990260057746,5111.8701 -7.87638086782355,40.799279139056,2179.5539 -7.87636393637709,40.7992950653008,2504.9743 -7.87615288079433,40.7995760262077,4726.4498 -7.87609688970098,40.7996400640907,3495.64939999999 -7.87586387210618,40.799909123168,-226.990000000005 -7.87540890236423,40.8001961193578,-226.990000000005 -7.87522483576587,40.800343138454,-226.990000000005 -7.87510497535415,40.8004911622869,-226.990000000005 -7.87490297119621,40.8007520074437,-226.990000000005 -7.87488184910893,40.8007910673516,-226.990000000005 -7.87468789116099,40.8011050533671,-226.990000000005 -7.87448588790139,40.801426080036,-226.990000000005 -7.87430383263096,40.8017450950652,-226.990000000005 -7.87416687278779,40.802017004328,-226.990000000005 -7.87404885482072,40.8022180023749,-226.990000000005 -7.87385188033003,40.8025130451567,-226.990000000005 -7.8738369602115,40.8026121195989,-226.990000000005 -7.87385188033003,40.8027341599542,-226.990000000005 -7.87392899351067,40.8030090863581,-226.990000000005 -7.87409998513004,40.8033931453002,-226.990000000005 -7.87438798680678,40.8038650460559,-226.990000000005 -7.87447398522388,40.8040640325694,-226.990000000005 -7.87435194460094,40.804087166797,-226.990000000005 -7.87422185776803,40.8041450016509,-226.990000000005 -7.87411289302237,40.804231167697,-226.990000000005 -7.87374995657959,40.8046571358063,-226.990000000005 -7.87353789398541,40.8047530247812,-226.990000000005 -7.87341384203457,40.8048881411069,-226.990000000005 -7.87299793193949,40.8052140295999,-226.990000000005 -7.8727828528026,40.8053690951697,-226.990000000005 -7.87253189854649,40.8054291095529,-226.990000000005 -7.87225395440772,40.805418045168,-226.990000000005 -7.87191499040661,40.8054480526842,-226.990000000005 -7.87171499847491,40.8055211426985,-226.990000000005 -7.87146689367489,40.8056490505399,-226.990000000005 -7.87085585333043,40.8059980729377,-226.990000000005 -7.87021799018989,40.8061090495967,-226.990000000005 -7.87001095726301,40.8061910245592,-226.990000000005 -7.86973385125236,40.806333013666,-226.990000000005 -7.86970099447252,40.8063771026359,-226.990000000005 -7.86980191210985,40.8063811259289,-226.990000000005 -7.86995396005653,40.8064141506478,-226.990000000005 -7.87000190493989,40.80650702217,-226.990000000005 -7.87004196980153,40.8065821236784,-226.990000000005 -7.87009796089489,40.8067750756416,-226.990000000005 -7.8702298928674,40.8069380195348,-226.990000000005 -7.87026191151908,40.8070010514706,-226.990000000005 -7.8702459852874,40.8070570424862,-226.990000000005 -7.87021296142094,40.8071261095207,-226.990000000005 -7.87019686810261,40.8072260215697,-226.990000000005 -7.87017893054303,40.8075051388957,-226.990000000005 -7.87009393823905,40.8075961669271,-226.990000000005 -7.86991389429656,40.807681158993,-226.990000000005 -7.86978397544857,40.8077631340533,-226.990000000005 -7.86974994457066,40.8078441033813,-226.990000000005 -7.86975899689378,40.8078960711645,-226.990000000005 -7.8697888371309,40.807966143635,-226.990000000005 -7.8698639389836,40.8080320255741,-226.990000000005 -7.87000391626779,40.8080851667821,-226.990000000005 -7.87009594956699,40.8081111505845,-226.990000000005 -7.87021296142094,40.8081520542295,-226.990000000005 -7.87033885761306,40.8081921201677,-226.990000000005 -7.87045586856872,40.8082930382758,-226.990000000005 -7.87053499397555,40.8084501146943,-126.168399999995 -7.87060489907435,40.8086980513575,4639.14479999999 -7.87083791577085,40.8088480875067,5111.8701 -7.8708759693046,40.8090410390006,5111.8701 -7.87068687393728,40.8093270295304,5111.8701 -7.87061696883849,40.809437167716,5111.8701 -7.87066591893666,40.8095030495545,5111.8701 -7.87084193932498,40.8095211545381,5111.8701 -7.87100790037878,40.8096420215627,5111.8701 -7.87097085295815,40.8096680054354,5111.8701 -7.87088485454105,40.8097370724721,5111.8701 -7.87085685854525,40.809850060199,5111.8701 -7.87086188821249,40.8099241564039,5111.8701 -7.8708429445398,40.8101181137651,5111.8701 -7.87079097700061,40.8103310136565,5111.8701 -7.87084093321187,40.8104631127299,5111.8701 -7.87093799528002,40.8107251309753,5111.8701 -7.8709208967469,40.8108200144352,5111.8701 -7.87088183710004,40.8109031625395,5111.8701 -7.87081997821124,40.8110111217255,5111.8701 -7.87070984026584,40.8111231037413,5111.8701 -7.87058696151474,40.8112590583383,5111.8701 -7.87042887868599,40.8114240139331,5111.8701 -7.87026694028803,40.811557118445,5111.8701 -7.86996485662093,40.8117190572619,5111.8701 -7.86959689140919,40.8118950770597,5111.8701 -7.86938499679998,40.8120640560615,5111.8701 -7.86919590053437,40.8121971606492,5111.8701 -7.86894997594554,40.8124841574144,5111.8701 -7.86870891214074,40.8126851550351,5111.8701 -7.86861788495469,40.812771153618,5111.8701 -7.86851696641904,40.8129101255802,5111.8701 -7.86847891288529,40.8129701399424,5111.8701 -7.86832988237966,40.8131800228707,5111.8701 -7.86814196021209,40.813311116163,5111.8701 -7.86801891437436,40.813413039511,5111.8701 -7.86794096216727,40.8135940886536,5111.8701 -7.86786284287354,40.8136520919909,5111.8701 -7.86758892228891,40.813718140974,4568.7026 -7.86745296766053,40.813787040624,1955.67080000001 -7.86733394447867,40.8139201451545,-226.990000000005 -7.86699498047756,40.8142081468001,-226.990000000005 -7.8667579402269,40.8143110770226,-226.990000000005 -7.86668987936941,40.814362038968,-226.990000000005 -7.86667093659501,40.8144220533765,-226.990000000005 -7.8666558484915,40.8147750993264,-226.990000000005 -7.86674587046273,40.8149881671591,-226.990000000005 -7.86678694143752,40.8150701420305,-226.990000000005 -7.86686489364462,40.8152630937873,-226.990000000005 -7.86685299096711,40.8154590622098,-226.990000000005 -7.86683086276671,40.8159641561554,-226.990000000005 -7.86682885143881,40.8160690973858,-226.990000000005 -7.86681191999232,40.8163681638211,-226.990000000005 -7.86699699270379,40.8165031123683,-226.990000000005 -7.86739094168511,40.8166531485447,763.539000000004 -7.86743888656846,40.8167850793457,1685.03389999999 -7.86756696207347,40.8169721638001,4146.6299 -7.86769084603935,40.8171260549952,5111.8701 -7.86796493460894,40.8173800268305,4222.72319999999 -7.86801790826125,40.8174521111337,2837.2715 -7.8680289719123,40.8175300630632,1339.0447 -7.8679429743935,40.817606003255,-120.516799999998 -7.86791984008001,40.8177181529374,-226.990000000005 -7.86779495000098,40.8178271173915,-226.990000000005 -7.86768196170119,40.8179131161075,-226.990000000005 -7.8676239583816,40.8179721245455,-226.990000000005 -7.86758892228891,40.8180120227531,316.177500000005 -7.86745598510157,40.8181860305429,2871.2144 -7.86723084752845,40.8185130923795,5111.8701 -7.86700386571402,40.8187030265608,5111.8701 -7.86686690497256,40.8189160946947,5111.8701 -7.86688098696295,40.8192421501928,5111.8701 -7.86693898938421,40.8196310710666,5111.8701 -7.86704091313465,40.8199780817659,5111.8701 -7.86712490022384,40.8202350705687,5111.8701 -7.86712791766486,40.8205410101342,5111.8701 -7.86695189817483,40.8209371388504,5111.8701 -7.86666691304085,40.8211941280162,5111.8701 -7.866630870835,40.8212261467324,5111.8701 -7.86627698671537,40.8215880774751,5111.8701 -7.86616684876994,40.8218130477408,5111.8701 -7.86598797892552,40.8219401172598,5111.8701 -7.86558799416381,40.8220571289807,5111.8701 -7.86533687282108,40.8220160578412,5111.8701 -7.86494292294143,40.8219441409687,5111.8701 -7.86453489196969,40.8219101104038,5111.8701 -7.86430086916007,40.8219691186851,5111.8701 -7.86412283744381,40.822092165565,5111.8701 -7.86397883660546,40.8222861227032,5111.8701 -7.86390792539358,40.8224891320354,5111.8701 -7.86386886574669,40.8226321277012,5111.8701 -7.86368597324643,40.822916106623,5111.8701 -7.86336394069178,40.8231720895203,5111.8701 -7.86300485981821,40.8234431605081,5111.8701 -7.86262599714379,40.8237410530322,5111.8701 -7.8623188847077,40.8238760015354,5111.8701 -7.8620939142212,40.8239180789498,5111.8701 -7.86167196924405,40.8239960307581,5111.8701 -7.86142889411132,40.8240560452881,5111.8701 -7.86128388715985,40.8242141278383,5111.8701 -7.86131992936566,40.8244330630371,5111.8701 -7.86142889411132,40.8244680997259,5111.8701 -7.86154188241114,40.824496095347,5111.8701 -7.86162788082823,40.8245770639679,5111.8701 -7.86169996523989,40.8247150302948,5111.8701 -7.86180188899033,40.8249111672465,5111.8701 -7.86179283666721,40.82521107139,5111.8701 -7.86176484067137,40.8254990736387,5111.8701 -7.8617219254553,40.8258390433205,5111.8701 -7.8616339157103,40.8262821111986,3969.2444 -7.86164799680237,40.8263210031352,3221.746 -7.86170683825011,40.8263220091659,3202.4102 -7.86195192471078,40.8262591444508,4410.66250000001 -7.86213699742223,40.8262110323274,5111.8701 -7.86233497802603,40.8261421333458,5111.8701 -7.86245383322293,40.826112125672,5111.8701 -7.86264896437065,40.8261530297749,5111.8701 -7.8627768718907,40.8262350044442,4874.6306 -7.86288885407737,40.8262551210037,4487.9927 -7.86306688579363,40.8262631678977,4333.3324 -7.86339294190244,40.8262470747885,4642.64 -7.86369686981083,40.8262380218605,4816.63619999999 -7.86392183939899,40.8262541156517,4507.3155 -7.86423884318465,40.8262960250184,3701.8224 -7.86439893734134,40.8263441370801,2777.1143 -7.864507902087,40.8264261121929,1201.5624 -7.86463597759201,40.8265840273137,-226.990000000005 -7.86504685891811,40.8267870370852,-226.990000000005 -7.86542488256607,40.8269650683704,-226.990000000005 -7.86572495490528,40.8271650609609,-226.990000000005 -7.86578396343965,40.8272170285648,-226.990000000005 -7.86595294283282,40.8274331139004,-226.990000000005 -7.86610884634869,40.8275310146125,-226.990000000005 -7.86631688449039,40.8277040172504,-226.990000000005 -7.86645686267291,40.8278921068235,-226.990000000005 -7.86646289755498,40.8279021655324,-226.990000000005 -7.86673296257044,40.8282900799255,-226.990000000005 -7.86675592889896,40.8284181552689,-226.990000000005 -7.86673983558066,40.8284790079806,-226.990000000005 -7.86662299171166,40.8288121046408,-226.990000000005 -7.86663489438917,40.8289591235513,-226.990000000005 -7.86670597268771,40.8290310402941,-226.990000000005 -7.86682197842855,40.8291220673397,-226.990000000005 -7.86705885069426,40.8291681680949,-226.990000000005 -7.86751784399037,40.8292191301814,3202.58620000001 -7.86798488349645,40.829277132771,5111.8701 -7.8682658450763,40.829249137129,5111.8701 -7.86862291372364,40.8292660682846,5111.8701 -7.86876792067511,40.8292791440631,5111.8701 -7.86884889032326,40.829287023379,5111.8701 -7.86900496092578,40.8293120010489,5111.8701 -7.86922389653018,40.8292970818763,5111.8701 -7.86936085637335,40.8292791440631,5111.8701 -7.86948692055042,40.829274115493,5111.8701 -7.86963997371189,40.8293200482516,5111.8701 -7.8697799518944,40.829437059187,5111.8701 -7.86983896042881,40.829484165706,5111.8701 -7.86984097175671,40.829508137999,5111.8701 -7.86977190568444,40.8295631230709,5111.8701 -7.86966193482566,40.8295760315803,5111.8701 -7.86940997445644,40.8295780428633,5111.8701 -7.86896288383787,40.829646104263,5111.8701 -7.86869784848969,40.8296380570998,5111.8701 -7.8686398451701,40.8297300906507,5111.8701 -7.86871997669009,40.8298211180962,5111.8701 -7.86924887418667,40.830057152659,5111.8701 -7.86968992992318,40.8301981363763,5111.8701 -7.86991892396381,40.8303800233286,5111.8701 -7.86994691906135,40.83046702737,5111.8701 -7.86992093529174,40.8305520200438,5111.8701 -7.86970686136964,40.8309471428202,5111.8701 -7.86968490115422,40.8313751232836,5111.8701 -7.86952983576649,40.8315811505141,5111.8701 -7.86922389653018,40.8317801368286,5111.8701 -7.86913588678518,40.8319370454883,5111.8701 -7.86918399875516,40.8321541370181,5111.8701 -7.86936186248646,40.8323480946354,5111.8701 -7.86962589261982,40.8325041652561,5111.8701 -7.86971490847797,40.8325340048736,5111.8701 -7.86982890199258,40.8326731447754,5111.8701 -7.86985388054737,40.8328201632814,5111.8701 -7.86982487843841,40.8330431216502,5111.8701 -7.86964299115294,40.8334120932559,5111.8701 -7.8693529781483,40.8335651463283,5111.8701 -7.86929497482872,40.8336010209902,5111.8701 -7.86902490981329,40.8335971658686,5111.8701 -7.86852685776861,40.8335681640907,5111.8701 -7.86827992616837,40.8336370635127,5111.8701 -7.86797683728645,40.8337341258621,5111.8701 -7.8677959552158,40.8338130836035,5111.8701 -7.86769788703453,40.8338481194144,5111.8701 -7.86748196887116,40.8339450142556,2513.07060000001 -7.8673359567049,40.8341061147586,-226.990000000005 -7.86716798342487,40.8344521199367,-226.990000000005 -7.86713495866008,40.8347640939027,-226.990000000005 -7.86713495866008,40.8348980371822,-226.990000000005 -7.86741893768095,40.835006163255,1301.61870000001 -7.86754198351867,40.8350931673429,3666.545 -7.86755992107825,40.8353310460809,873.577300000004 -7.86745397377364,40.8354830935891,2594.3268 -7.86738591291615,40.835487117156,2967.9489 -7.8673359567049,40.8354621390936,3712.58409999999 -7.86725884262597,40.8353620588748,5111.8701 -7.86717083288093,40.835299027378,5111.8701 -7.86706287424842,40.8353060679598,5111.8701 -7.86687897473669,40.8353640706619,5111.8701 -7.8665919791731,40.8355350614705,2311.02469999999 -7.8664838525556,40.8356780568717,-226.990000000005 -7.86643188411812,40.8357580202245,-226.990000000005 -7.86637086425581,40.8358961542713,-226.990000000005 -7.86622786863224,40.836168062909,-226.990000000005 -7.86614589376931,40.8363001615052,-226.990000000005 -7.86610683412245,40.8363531353043,-226.990000000005 -7.86594791316554,40.8365700587743,-226.990000000005 -7.8656989711357,40.8369790960042,-226.990000000005 -7.86562286316988,40.8370520180717,-226.990000000005 -7.86546394221297,40.8371150506203,-226.990000000005 -7.86539185780128,40.8371410339264,-226.990000000005 -7.86534491903108,40.837173053099,-226.990000000005 -7.86536084526275,40.8372020546591,-226.990000000005 -7.86541096856066,40.8372250210148,-226.990000000005 -7.86551892719317,40.8372960996337,-226.990000000005 -7.86554692318902,40.8374330594618,-226.990000000005 -7.86552295074734,40.8375810841464,-226.990000000005 -7.86544986112086,40.8378771332039,-226.990000000005 -7.86548389110048,40.8380570084535,-226.990000000005 -7.86554491186108,40.8382801347491,-226.990000000005 -7.86562386928299,40.8385000762476,-226.990000000005 -7.86558497672276,40.8386730781301,-226.990000000005 -7.86560392039549,40.8388940255241,-226.990000000005 -7.86562789193883,40.839012042392,-226.990000000005 -7.86569595369465,40.8391910799903,-226.990000000005 -7.86589695173947,40.8394031423923,-226.990000000005 -7.86594590183761,40.8394960139465,-226.990000000005 -7.86597389693512,40.8395620630199,-226.990000000005 -7.86596383939722,40.8398180462231,-226.990000000005 -7.8659098596318,40.8400280970127,-226.990000000005 -7.86585185721051,40.840092134592,-226.990000000005 -7.86566393414464,40.8403320246982,-226.990000000005 -7.8656518643805,40.8403831542218,-226.990000000005 -7.86557994795381,40.8406131536782,-226.990000000005 -7.86541398600168,40.8408460032653,-226.990000000005 -7.865261938055,40.841023029052,-226.990000000005 -7.86509597700123,40.8411920079253,-226.990000000005 -7.86504987635916,40.841240120052,-226.990000000005 -7.86496086050101,40.8413700399495,-226.990000000005 -7.86487285075601,40.8417450462035,-226.990000000005 -7.86484485476017,40.8418310444862,-226.990000000005 -7.8647858462258,40.8419810804504,-226.990000000005 -7.86480495698515,40.8420550089237,-226.990000000005 -7.86491995661287,40.8421240755386,-226.990000000005 -7.8650349562406,40.8422140971676,-226.990000000005 -7.86510385612457,40.8424110719352,-226.990000000005 -7.86513185122209,40.8424990822835,-226.990000000005 -7.86517392831,40.8426491180947,-226.990000000005 -7.86519890686479,40.8427500361101,-226.990000000005 -7.86531189426628,40.842990093967,-226.990000000005 -7.86539789268338,40.8431310773656,-226.990000000005 -7.86558296539482,40.8434521045592,-226.990000000005 -7.86566292892986,40.8435570457881,-226.990000000005 -7.86580692976821,40.8437580437067,-226.990000000005 -7.86589896306737,40.8438970159824,-226.990000000005 -7.86598395537135,40.844022073792,-226.990000000005 -7.86608286168078,40.8441811620714,-226.990000000005 -7.86625787595599,40.8443320367364,807.149900000004 -7.86648184032937,40.8444750315093,3555.4924 -7.86670697880083,40.8447590106662,5111.8701 -7.86685198575229,40.8449011679795,5111.8701 -7.86700788926819,40.8450500301918,5111.8701 -7.86720788119989,40.8452570634799,5111.8701 -7.86730092061217,40.8454401241611,5111.8701 -7.86743486301429,40.8456360931169,3277.1784 -7.86760887117642,40.8459670105666,-67.2376999999979 -7.86767693203391,40.8463021191607,-226.990000000005 -7.86772387080414,40.8468080505222,-226.990000000005 -7.86776293045101,40.8470561550392,-226.990000000005 -7.86781791632954,40.8473830493487,-226.990000000005 -7.86792587496208,40.8477441414839,-226.990000000005 -7.86794096216727,40.8478640031458,-226.990000000005 -7.86785295242227,40.8480051542127,-226.990000000005 -7.86777785056957,40.8481060722266,-226.990000000005 -7.86785496375017,40.8481411086375,-226.990000000005 -7.8679798547275,40.8481630689014,-226.990000000005 -7.86818185798714,40.8482041408338,-226.990000000005 -7.86832988237966,40.84823900935,-226.990000000005 -7.86866197337051,40.8482551025574,-226.990000000005 -7.86890085786245,40.8482851097229,-226.990000000005 -7.86931693594249,40.8483141111777,-226.990000000005 -7.86989495152216,40.8483830102226,-226.990000000005 -7.87056986208333,40.8482160427333,-226.990000000005 -7.8707839360054,40.8481100957068,-226.990000000005 -7.8710089064919,40.8480931639275,-226.990000000005 -7.87118492688026,40.8481620632021,-226.990000000005 -7.87151684988615,40.8483141111777,-226.990000000005 -7.87177786257849,40.8484230756437,-226.990000000005 -7.8718199396664,40.8484830904884,-226.990000000005 -7.87202596648017,40.8487110783145,-226.990000000005 -7.87212185534855,40.8487890295148,-226.990000000005 -7.87240298491336,40.8489801374871,-226.990000000005 -7.8728378377828,40.849026070183,-226.990000000005 -7.87317596365575,40.8488190371179,-226.990000000005 -7.87322189631287,40.8488170250596,-226.990000000005 -7.87344485547143,40.8488391536204,-226.990000000005 -7.87350084656479,40.8488450205927,-226.990000000005 -7.8736818957221,40.848879051604,-226.990000000005 -7.87406394292423,40.8488651377668,-226.990000000005 -7.87440592436635,40.8489980747264,-226.990000000005 -7.87472292815202,40.849049036519,-226.990000000005 -7.87480087946082,40.849138051891,-226.990000000005 -7.87481093789705,40.8492381323755,-226.990000000005 -7.87487899875454,40.8493720749473,-226.990000000005 -7.87502383772105,40.849506017928,-226.990000000005 -7.87505183371689,40.8495410542782,-226.990000000005 -7.8752328828742,40.8496161559892,-226.990000000005 -7.87534587117399,40.8497271323834,-226.990000000005 -7.87553194910029,40.8501331515937,-226.990000000005 -7.87575591347364,40.8503140332244,-226.990000000005 -7.87573697069925,40.8504201479619,-226.990000000005 -7.87572389482199,40.8504540110065,-226.990000000005 -7.87568986394408,40.8505881216755,-226.990000000005 -7.8755929689626,40.8507961603085,-226.990000000005 -7.87560286031217,40.8508910435221,-226.990000000005 -7.87576898935092,40.8510870126661,-226.990000000005 -7.87601692616598,40.8513870844747,-226.990000000005 -7.87620685966145,40.8516291535955,-226.990000000005 -7.8762529603035,40.8517560558977,246.958899999998 -7.87633091251059,40.8520980374379,1745.19100000001 -7.87647491334898,40.8523100993116,4512.87 -7.87647893690311,40.8524450481028,4590.2022 -7.87633493516646,40.8525830141954,1822.50599999999 -7.87620786577457,40.8527711045293,-226.990000000005 -7.87599697727847,40.8529300250381,-226.990000000005 -7.87573697069924,40.8530260820496,-226.990000000005 -7.8754578533607,40.8530881080512,-226.990000000005 -7.87533095105547,40.8531491283711,-226.990000000005 -7.87519298509918,40.8532870943565,2078.7683 -7.87512794168271,40.8533900237197,4057.05839999999 -7.87507195058936,40.8535670499732,5111.8701 -7.87505987992689,40.8537380407066,5111.8701 -7.87499399838226,40.8542290526926,5111.8701 -7.87491085031959,40.8543650072571,5111.8701 -7.87457590897432,40.8547980160417,5111.8701 -7.8744278845818,40.8549550930781,5111.8701 -7.87416787800261,40.8551871041077,5111.8701 -7.87412697411444,40.8552680732967,5111.8701 -7.87412093923237,40.8553351285492,5111.8701 -7.87395698950648,40.8558910166285,5111.8701 -7.87380192411878,40.8563181579617,5111.8701 -7.87364099183393,40.8567211601612,5111.8701 -7.87348492033311,40.8568090020282,5111.8701 -7.87327285863724,40.8569000296588,5111.8701 -7.87311997256243,40.8569860279785,5111.8701 -7.8731018679162,40.8570371575628,5111.8701 -7.87317696976887,40.8571731124795,5111.8701 -7.87328895195557,40.85733303886,5111.8701 -7.8734039515833,40.8574500506268,5111.8701 -7.87365993460832,40.8576931255712,5111.8701 -7.87399688728153,40.8580180079402,5111.8701 -7.87424884765072,40.8582320816612,5111.8701 -7.87441296536157,40.8584030725838,5111.8701 -7.87459887530288,40.8586151346585,5111.8701 -7.87470985227477,40.8587460600023,5111.8701 -7.87495192129435,40.8590320508952,5111.8701 -7.87513095912376,40.8590560226939,5111.8701 -7.8751939912123,40.859125089934,5111.8701 -7.87516884467255,40.8592511537504,5111.8701 -7.87524797007939,40.8593700087698,5111.8701 -7.87538493082089,40.8595860946087,5111.8701 -7.87540789714941,40.8596900299008,5111.8701 -7.87535492349711,40.8598241408975,5111.8701 -7.87532592228648,40.8600160859994,5111.8701 -7.87536984271737,40.8602340156681,5111.8701 -7.87542583381069,40.8603641028276,5111.8701 -7.87571299825757,40.8609391015491,5111.8701 -7.87572188259573,40.8611020455372,5111.8701 -7.87563286763591,40.8612750482045,5111.8701 -7.87524998230562,40.8618621164654,5111.8701 -7.87513297045166,40.8622121447571,2111.2285 -7.87499399838226,40.8626840462252,-226.990000000005 -7.87475997557265,40.8631400211893,-226.990000000005 -7.87458194385638,40.8633941605407,-226.990000000005 -7.87439787725806,40.8636400860396,-226.990000000005 -7.87430584395886,40.8639160181844,-226.990000000005 -7.87419989665425,40.8640251506096,-226.990000000005 -7.87411188690926,40.8640521403726,-226.990000000005 -7.87380494155982,40.8641570815861,-226.990000000005 -7.87380091890399,40.8641790419764,-226.990000000005 -7.87393385519299,40.8645151563044,-226.990000000005 -7.87395397206546,40.864646081535,-226.990000000005 -7.87381885556527,40.8651010518152,-226.990000000005 -7.87429897094863,40.8651421227583,-226.990000000005 -7.87468688594621,40.8651300527027,-226.990000000005 -7.87497287629501,40.8650670209842,-226.990000000005 -7.87512894689753,40.8650730556784,-226.990000000005 -7.87547092923798,40.8652750596667,-226.990000000005 -7.875481992889,40.8652821004608,-226.990000000005 -7.8760118964987,40.8655211527739,-226.990000000005 -7.87626687430894,40.8654960066829,514.384399999995 -7.87642696846563,40.8654871221587,3591.3751 -7.87684388467383,40.8654420276434,5111.8701 -7.87714295089988,40.8654440391968,5111.8701 -7.87723498419908,40.8654450446338,5111.8701 -7.87731997650303,40.8655000297863,5111.8701 -7.87764284718584,40.8658591108264,5111.8701 -7.87770889671542,40.8658730244914,5111.8701 -7.87790888954542,40.8657940675798,5111.8701 -7.87801684817796,40.8657040453765,5111.8701 -7.87820393221734,40.8655890461528,5111.8701 -7.87861397451699,40.8654661669596,5111.8701 -7.87874490037639,40.8654240901008,5111.8701 -7.87887398109618,40.8653741341138,5111.8701 -7.87892393730747,40.8653540171971,5111.8701 -7.87939483328109,40.8651840326757,5111.8701 -7.8795919757567,40.8651761535508,5111.8701 -7.87975592548256,40.8652291266873,5111.8701 -7.88000989717969,40.8653701103234,5111.8701 -7.88032589485224,40.8655131058899,5111.8701 -7.88082696523626,40.8657761301324,5111.8701 -7.88133289640428,40.8659050433689,5111.8701 -7.88148293302303,40.865958017281,5111.8701 -7.88188392299956,40.8662290879131,5111.8701 -7.88211794580917,40.8663281622916,5111.8701 -7.8823578355159,40.8663511287438,5111.8701 -7.88266092529611,40.866382141288,5111.8701 -7.88289494810573,40.8664941235508,5111.8701 -7.88305990394474,40.8666451654757,5111.8701 -7.88322787722477,40.8667781027636,5111.8701 -7.8835649978829,40.867043138242,5111.8701 -7.88389692088882,40.8672820225175,5111.8701 -7.88448398968991,40.8677891278689,5111.8701 -7.88452087002391,40.8677921454317,5111.8701 -7.88475589804832,40.8676940772877,5111.8701 -7.8849778510938,40.8675561107381,5111.8701 -7.88526199720129,40.8674731301326,2328.8275 -7.88546098391821,40.8674441289125,-226.990000000005 -7.88567991952261,40.8675440411224,-226.990000000005 -7.88599994074932,40.8676830131002,-226.990000000005 -7.88600396340516,40.8676830131002,-226.990000000005 -7.88640193683896,40.8675820950161,-226.990000000005 -7.88646094537334,40.8675651634579,-226.990000000005 -7.88656991011899,40.8675271095544,-226.990000000005 -7.88665490242297,40.867472124047,-226.990000000005 -7.88670083508009,40.8674240119453,-226.990000000005 -7.886785995369,40.8672711260557,-226.990000000005 -7.88680795558444,40.8669851354126,-226.990000000005 -7.88683393935405,40.8669410466524,-226.990000000005 -7.88690384445282,40.8669231095157,-226.990000000005 -7.88701783886576,40.8667851433978,-226.990000000005 -7.8873829546214,40.8667720675454,-226.990000000005 -7.88755696278353,40.8667990575476,-226.990000000005 -7.88782283625983,40.8668550483501,-226.990000000005 -7.88787094912814,40.8668580659555,-226.990000000005 -7.8881349783632,40.8668540429345,-226.990000000005 -7.88843086006158,40.8669021547709,-226.990000000005 -7.88865884798913,40.866883044413,-226.990000000005 -7.88879698103203,40.8668600774659,-226.990000000005 -7.88920685624502,40.8667591594864,-226.990000000005 -7.88955789090863,40.8666570681383,-226.990000000005 -7.88969887430593,40.8666250489451,-226.990000000005 -7.89006985695871,40.8666170021953,-226.990000000005 -7.89054796101418,40.8666351072112,-226.990000000005 -7.89069397407876,40.8666790283789,-226.990000000005 -7.8908430036861,40.8667564774684,-226.990000000005 -7.89085037975287,40.8668230299319,-226.990000000005 -7.89130384122345,40.8667891671023,-226.990000000005 -7.89158295856203,40.8667730736416,-226.990000000005 -7.89188588035729,40.8667420606011,-226.990000000005 -7.89229894099628,40.8666731609479,-226.990000000005 -7.89271987986032,40.8665970534525,-226.990000000005 -7.89336595719582,40.8664840652633,-226.990000000005 -7.89357198400962,40.8665150784247,-226.990000000005 -7.89358589801503,40.8665241312868,-226.990000000005 -7.893883958128,40.8668050927633,-226.990000000005 -7.89403885642908,40.8668280590501,402.719200000007 -7.8942639940022,40.8667861494938,4729.8366 -7.89442492628704,40.8667110475461,5111.8701 -7.89468191542522,40.8665231251868,5111.8701 -7.89480194472023,40.8663831473902,5111.8701 -7.89484385382315,40.8663251446621,5111.8701 -7.89493286968129,40.8663160924521,5111.8701 -7.89524786213905,40.8664701517267,5111.8701 -7.89546998227113,40.866479036119,5111.8701 -7.89568590043451,40.8665231251868,5111.8701 -7.89580794015912,40.8665241312868,5111.8701 -7.89595998810581,40.8664800422196,5111.8701 -7.8962039013667,40.8663640368824,5111.8701 -7.8963509205444,40.8662351231808,5111.8701 -7.89663992833425,40.8660351309389,5111.8701 -7.89684193249219,40.8659950652989,5111.8701 -7.8971808964933,40.8659761224771,5111.8701 -7.89742195939976,40.866032113296,5111.8701 -7.89756093146916,40.866151136173,5111.8701 -7.89761994000357,40.8662611066185,5111.8701 -7.8977099619748,40.866427068725,5111.8701 -7.89785597503941,40.8665040147195,5111.8701 -7.8980328326576,40.8664530527668,5111.8701 -7.89821689925593,40.8663380528057,5111.8701 -7.89837297075678,40.8663580016265,5111.8701 -7.89848897649762,40.8664421561687,5111.8701 -7.8988728670427,40.8666300780783,5111.8701 -7.8988728670427,40.8666651148833,5111.8701 -7.89875887352809,40.8668020751555,5111.8701 -7.89858385925288,40.8669390351445,5111.8701 -7.89851093671307,40.8670570523375,5111.8701 -7.89847489450722,40.8671841220921,5111.8701 -7.89838889609012,40.867460054416,5111.8701 -7.89845695694765,40.8676070732005,5111.8701 -7.89847388839411,40.8676461324616,5111.8701 -7.89848495294346,40.8677230783982,5111.8701 -7.89851395415408,40.8677760522147,5111.8701 -7.8985739688016,40.8678050532893,5111.8701 -7.89905592842624,40.8678340550306,5111.8701 -7.89972396597718,40.8680191273067,5111.8701 -7.89993384836016,40.8681361385374,5111.8701 -7.90010886263541,40.8681290980468,5111.8701 -7.90040792886146,40.8680531579794,5111.8701 -7.90068486688715,40.8679091563841,5111.8701 -7.90100891166803,40.8677230783982,5111.8701 -7.90134787566913,40.8674451343192,5111.8701 -7.90149992361578,40.8671940124785,5111.8701 -7.9017178531071,40.8669301501345,5111.8701 -7.90194885847566,40.8667350199623,5111.8701 -7.90217885773111,40.8665710694673,5111.8701 -7.9023079384509,40.8664971411726,5111.8701 -7.90253994993262,40.8663060341376,5111.8701 -7.90264790856513,40.8662651303548,5111.8701 -7.90293088147291,40.8663320175474,5111.8701 -7.90300598332559,40.866349117218,5111.8701 -7.90327487514127,40.8663890148469,3149.36380000001 -7.90383394794655,40.8664760191757,-226.990000000005 -7.90403192855035,40.8665241312868,227.757899999997 -7.90454288938562,40.8666530444258,2705.4531 -7.90495997268048,40.8665980595513,1648.65029999999 -7.90505485633404,40.8666250489451,2167.3833 -7.90518293183905,40.8666961279598,3533.5135 -7.90546892218785,40.8668910904511,5111.8701 -7.90581794462519,40.8669340060347,5111.8701 -7.90605498487582,40.8669200919133,5111.8701 -7.90610996985606,40.8669440642538,5111.8701 -7.90619496216004,40.8670481673434,5111.8701 -7.90614785630318,40.8671851281821,5111.8701 -7.90618691595004,40.8672751497307,5111.8701 -7.90651397817193,40.8674530138535,5111.8701 -7.90677599607906,40.8675690193211,5111.8701 -7.90708797019744,40.8676191428047,5111.8701 -7.90726197925787,40.8676970948548,5111.8701 -7.90742291154271,40.8677490626107,5111.8701 -7.90787084028948,40.8676471385445,5111.8701 -7.90802992923134,40.8675651634579,5111.8701 -7.90811894419116,40.8674670949777,5111.8701 -7.90820695483449,40.8672981158545,5111.8701 -7.9082599284868,40.8671311484815,5111.8701 -7.90830787247181,40.8669390351445,5111.8701 -7.90843494276204,40.866824035348,5111.8701 -7.90860995613895,40.8667130590609,3858.92720000001 -7.9087048397925,40.8666731609479,3092.0903 -7.90904296566546,40.8665380448121,495.174199999994 -7.90938092355344,40.8664371270212,-226.990000000005 -7.90964998335409,40.8665231251868,208.420800000007 -7.90973497565803,40.8665251367074,247.081999999995 -7.91021794049753,40.8663580016265,-226.990000000005 -7.9103909434448,40.8663390589085,-226.990000000005 -7.91051499539568,40.8663310121239,-226.990000000005 -7.91057685428444,40.8663100571918,-226.990000000005 -7.91065983436219,40.8662701595153,-226.990000000005 -7.91080484131366,40.8661970691923,-226.990000000005 -7.91097583293303,40.8661910339212,-226.990000000005 -7.91106987756013,40.8662500428708,-226.990000000005 -7.91113994974555,40.866342075858,-226.990000000005 -7.91121589062475,40.8665261428073,266.419099999999 -7.9112209193937,40.8665730816657,1168.5784 -7.91119996439307,40.8669750771998,5111.8701 -7.91121689583954,40.8670830361321,5111.8701 -7.9115399345073,40.8675311332138,5111.8701 -7.91152987607106,40.867606067117,5111.8701 -7.91146583876771,40.8679150243849,5111.8701 -7.9115399345073,40.8680320351202,5111.8701 -7.9117479735473,40.8681981646568,5111.8701 -7.91182693096922,40.8683470275138,5111.8701 -7.91191594682733,40.8685991551263,5111.8701 -7.91206598254778,40.8688440742529,5028.8489 -7.91216287752927,40.8689121354121,3166.5389 -7.91238985934367,40.8690080245548,-226.990000000005 -7.91254291340347,40.8690821205537,-226.990000000005 -7.9129249606056,40.8693900716714,-226.990000000005 -7.91313987265587,40.8697250122045,-226.990000000005 -7.91305689167979,40.87010705926,-226.990000000005 -7.91307399021291,40.8702150185206,-226.990000000005 -7.9131688738665,40.870273021238,-226.990000000005 -7.91383288786327,40.8704440116436,-226.990000000005 -7.91390597838804,40.8705400683922,-226.990000000005 -7.91399985592848,40.8708161681033,-226.990000000005 -7.91411887821207,40.8708800387115,-226.990000000005 -7.91452992752313,40.87092513292,-226.990000000005 -7.91464693847879,40.8709920208401,-226.990000000005 -7.91476495554756,40.8713331640086,-226.990000000005 -7.9151159893128,40.8714701241359,-226.990000000005 -7.91537096712304,40.8716910715399,-226.990000000005 -7.91553592296206,40.871717055554,-226.990000000005 -7.91589584196379,40.8717990302556,-226.990000000005 -7.9161459580917,40.8719301231333,-226.990000000005 -7.91626498127359,40.8721391680065,-226.990000000005 -7.91629197115632,40.8723160259586,-226.990000000005 -7.91634092125446,40.8724751149076,-226.990000000005 -7.91644385111802,40.8725290943275,-226.990000000005 -7.91666094248117,40.8726010106655,-226.990000000005 -7.91732898003207,40.8727830658683,-226.990000000005 -7.91758798049819,40.8727740131825,-226.990000000005 -7.91786592463698,40.8726580080031,-226.990000000005 -7.91829591582414,40.8723740288733,-226.990000000005 -7.91866589326211,40.8722181255039,-226.990000000005 -7.91891986495923,40.8720010341052,-226.990000000005 -7.91922496606739,40.8717960128754,-226.990000000005 -7.91932588460304,40.8717460569404,-226.990000000005 -7.91941389434804,40.8717051531215,-226.990000000005 -7.91954884286327,40.8717160495329,-226.990000000005 -7.9199639148302,40.8718850289299,-226.990000000005 -7.92021185164526,40.8719260997413,-226.990000000005 -7.92067486759721,40.871943031543,-226.990000000005 -7.92068492603344,40.8719480602723,-226.990000000005 -7.920707892362,40.8720960852968,-226.990000000005 -7.92055986796948,40.8722541674029,-226.990000000005 -7.92063899337632,40.8724481251811,-226.990000000005 -7.92074996944991,40.8725220536247,-226.990000000005 -7.92097493993638,40.8725361350296,241.608699999997 -7.92111190067788,40.8725510546586,2873.9779 -7.92127098872141,40.872604028009,5111.8701 -7.92137995346707,40.8725870970556,5111.8701 -7.92184699297318,40.8724831609456,5111.8701 -7.92186191309174,40.8724771262474,5111.8701 -7.92214387988638,40.8723291020748,5111.8701 -7.92216785232806,40.8723130086019,5111.8701 -7.9224058986918,40.8722920542043,5111.8701 -7.92255492919744,40.8723011062766,5111.8701 -7.92264796771142,40.8723061356581,5111.8701 -7.92283488466418,40.8723001002645,5111.8701 -7.92321693186631,40.8722710991207,5111.8701 -7.92330091805717,40.8722920542043,5111.8701 -7.92337199635571,40.8723901223313,5111.8701 -7.92339295135634,40.8724731028885,5111.8701 -7.92345195989071,40.8725691594105,5111.8701 -7.92353292953886,40.8725631247202,5111.8701 -7.92359294328804,40.8724870172016,5111.8701 -7.92373895635263,40.8722600350186,5111.8701 -7.923797964887,40.8722451153241,5111.8701 -7.92382696609766,40.8722960768948,5111.8701 -7.92406987414373,40.8728100554582,5111.8701 -7.9240899901179,40.8730001567406,5111.8701 -7.92398488183975,40.8731921023741,5111.8701 -7.92363887684346,40.8735260373795,5111.8701 -7.92353091731262,40.8736631655039,5111.8701 -7.92327996305652,40.873906072943,5111.8701 -7.92324794440487,40.8740250959315,5111.8701 -7.92332489049882,40.8742100007872,5111.8701 -7.92336193881778,40.8743960788834,5111.8701 -7.92352387721574,40.8744941472902,5111.8701 -7.92366184317202,40.8745501383784,5111.8701 -7.92378086635391,40.8747471134689,5111.8701 -7.92390391219164,40.8749561582779,5111.8701 -7.92443096634524,40.8751120613132,5111.8701 -7.92476791901841,40.8750840660125,5111.8701 -7.92484285288616,40.8750880892127,5111.8701 -7.92505592069512,40.8751291607541,5111.8701 -7.92518785266767,40.8750901004731,5111.8701 -7.92530486362329,40.8748760269012,5111.8701 -7.92530788106434,40.8745670701884,5111.8701 -7.92538784459934,40.8744130107326,5111.8701 -7.92543796789725,40.8743531640604,5111.8701 -7.92559990629521,40.8742260944782,5111.8701 -7.92582890033588,40.8741860290394,5111.8701 -7.92623994874864,40.8740611382053,5111.8701 -7.92635897193053,40.8740321371537,5111.8701 -7.9264179804649,40.874051080388,5111.8701 -7.92656583687246,40.8742581133922,5111.8701 -7.92665887628474,40.8744140167127,5111.8701 -7.92677387591246,40.8746150147579,5111.8701 -7.9267839343487,40.8748450142595,5111.8701 -7.92678695178975,40.8749030169964,5111.8701 -7.92681997655454,40.8749561582779,5111.8701 -7.9271029494623,40.8750381330447,5111.8701 -7.92751584211633,40.8751920246296,5111.8701 -7.92743990213546,40.8753630152373,5111.8701 -7.92741190613966,40.8754081104681,4751.6229 -7.92748784612052,40.875480027075,3369.3943 -7.92747996789547,40.8756040790816,985.129400000005 -7.92747896178236,40.875680019319,-226.990000000005 -7.92752690576738,40.8757130441694,-226.990000000005 -7.92763788273927,40.8758991221165,-226.990000000005 -7.92787995175889,40.8765571013178,-226.990000000005 -7.92796293273494,40.8769911163199,-226.990000000005 -7.92798288162245,40.8771780329183,-226.990000000005 -7.92800484183789,40.8774021651859,-226.990000000005 -7.92798087029451,40.877582040459,-226.990000000005 -7.92802495871036,40.8778090227347,-226.990000000005 -7.92801992994141,40.8779940949774,-226.990000000005 -7.92791498785158,40.8782470606875,-226.990000000005 -7.92781289701448,40.8785531679001,-226.990000000005 -7.92774299191572,40.8791880133792,-226.990000000005 -7.92783183978888,40.8794590841863,-226.990000000005 -7.92804289626993,40.8797511093229,-226.990000000005 -7.92805295470616,40.8797611676326,-226.990000000005 -7.92815387234352,40.8798971220872,-226.990000000005 -7.92830793161811,40.8801301392551,-226.990000000005 -7.92833693282874,40.8803120263674,-226.990000000005 -7.92826786675643,40.8804401017027,-226.990000000005 -7.92812084757873,40.8805601310557,-226.990000000005 -7.9279139826368,40.880806055967,-226.990000000005 -7.92771583404804,40.8810340439339,-226.990000000005</coordinates>
</LineString>
</Placemark>
</Folder>
</Document></kml>
