<?xml version="1.0" encoding="UTF-8"?>

<kml xmlns="http://www.opengis.net/kml/2.2" xmlns:atom="http://www.w3.org/2005/Atom" xmlns:gx="http://www.google.com/kml/ext/2.2" xmlns:xsd="http://www.w3.org/2001/XMLSchema">
<Document>
<name>PT02a_08a_parada_de_aguiar-vidago</name>
<visibility>1</visibility>
<Schema name="PT02a_08a_parada_de_aguiar-vidago" id="kml_schema_ft_PT02a_08a_parada_de_aguiar-vidago">
<SimpleField type="xsd:string" name="id">
<displayName>id</displayName>
</SimpleField>
<SimpleField type="xsd:string" name="nombre">
<displayName>nombre</displayName>
</SimpleField>
<SimpleField type="xsd:double" name="longitud">
<displayName>longitud</displayName>
</SimpleField>
<SimpleField type="xsd:string" name="_formato">
<displayName>_formato</displayName>
</SimpleField>
</Schema>
<Folder id="kml_ft_PT02a_08a_parada_de_aguiar-vidago">
<name>PT02a_08a_parada_de_aguiar-vidago</name>
<Placemark id="kml_1">
<name>&lt;img height='20' src='https://nco.ign.es/iconos/icono_todos_caminos_azul.png' /&gt;&lt;img height='20' src='https://nco.ign.es/iconos/Camino Santiago_20.png' /&gt;&lt;img height='20' src='https://nco.ign.es/iconos/icono_todos_caminos_azul.png' /&gt;  Camino de Santiago </name>
<visibility>1</visibility>
<description><![CDATA[<!DOCTYPE html>
<html>
<head>
<style>
#nco {
  border-collapse: collapse;
  overflow:hidden;
}
#nco th, #nco td {
  padding: 4px;
  text-align: left;
}
#nco th {
  color: #364B5F;
  padding-right: 5px;
}
#nco td {
  color: rgb(51, 51, 51);
  font-size: 12px;
  padding-right: 5px;
}
</style>
</head>
<body>
<table id="nco">
<tr>
<td>Caminos Portugueses</td>
</tr>
<tr>
<th><b>Camino: </b></th>
<td>PT02a Caminho Português Interior a Santiago</td>
</tr>
<tr>
<th><b>Etapa: </b></th>
<td>08a Parada de Aguiar-Vidago</td>
</tr>
<tr>
<th><b>Longitud: </b></th>
<td>21.98 km</td>
</tr>
</table>
</body>
</html>]]></description>
<Style>
<IconStyle>
<scale>0.8</scale>
</IconStyle>
<LabelStyle>
<color>ffffffff</color>
<scale>0.75</scale>
</LabelStyle>
<LineStyle>
<color>ffff0000</color>
<width>3.0</width>
<gx:labelVisibility>1</gx:labelVisibility>
</LineStyle>
<PolyStyle>
<color>66ff0000</color>
</PolyStyle>
</Style>
<ExtendedData>
<SchemaData schemaUrl="#kml_schema_ft_PT02a_08a_parada_de_aguiar-vidago">
<SimpleData name="id">PT02a_08a</SimpleData>
<SimpleData name="_formato">kml</SimpleData>
</SchemaData>
</ExtendedData>
<LineString>
<extrude>0</extrude>
<tessellate>1</tessellate>
<coordinates>-7.6598370817514,41.4686359659318,-226.990000000005 -7.65956617860781,41.470188462328,-226.990000000005 -7.65875598445979,41.4722797468503,-226.990000000005 -7.65785576744222,41.474640593684,5111.8701 -7.65695555132294,41.4770014406823,5111.8701 -7.65556013171678,41.4791259179296,5111.8701 -7.65371460494933,41.4816213778879,2797.51029999999 -7.65186907728355,41.4841166704196,5111.8701 -7.65002354961777,41.4866458259693,5111.8701 -7.64885326848307,41.488365625096,5111.8701 -7.64872267859358,41.4888608278264,5111.8701 -7.64896742998263,41.4894641570918,5111.8701 -7.64897882960357,41.4897003594169,5111.8701 -7.64857029557528,41.4898490545087,5111.8701 -7.64827843743107,41.4899539957929,5111.8701 -7.64834834252983,41.4901551610969,5111.8701 -7.64853492351267,41.4902864216728,5111.8701 -7.64863986560246,41.4904875879632,3233.53109999999 -7.64807961869911,41.4914317251431,-226.990000000005 -7.64748433570306,41.4924283336651,-226.990000000005 -7.64685401661429,41.4934425438476,-226.990000000005 -7.64622386551047,41.4944567542991,-226.990000000005 -7.64574542638338,41.4951822914863,-226.990000000005 -7.64581533148218,41.4954357603913,-226.990000000005 -7.64579186209708,41.4956543602172,-226.990000000005 -7.64546496786011,41.4956632451152,-226.990000000005 -7.64505643383182,41.4964674050889,-226.990000000005 -7.6445312239195,41.4972802816403,-226.990000000005 -7.64400601400717,41.4980931587548,-226.990000000005 -7.64353914158771,41.4988101468445,5111.8701 -7.6433406588257,41.4992647816264,5111.8701 -7.64321224735077,41.4996146418246,4349.0647 -7.64325885104939,41.4999031469138,2952.3232 -7.64329372005546,41.5001217471362,2101.7111 -7.64323521367933,41.5002791592654,977.2255 -7.64337519186185,41.5003229131585,3667.5895 -7.64365514732855,41.5003579489495,5111.8701 -7.64434346973692,41.5004803247988,5111.8701 -7.64477513718039,41.5005242460814,5111.8701 -7.64526514301506,41.5007341288765,5111.8701 -7.64546345958875,41.5008216360184,5111.8701 -7.64553336468754,41.5009091430419,5111.8701 -7.64579001785577,41.5009528965093,5111.8701 -7.64596503213102,41.5010665552756,5111.8701 -7.64594156274592,41.5011976484193,5111.8701 -7.64589479196064,41.50136377789,5111.8701 -7.64608137294347,41.5015124724471,5111.8701 -7.64587132257553,41.5019233536412,5111.8701 -7.64550955933249,41.5023954223512,5111.8701 -7.64560276672977,41.50262273933,5111.8701 -7.64543931916211,41.5028150203953,5111.8701 -7.64525257019435,41.5030772060658,5111.8701 -7.64504251982641,41.5032783716534,5111.8701 -7.64490237455724,41.5036805354545,5111.8701 -7.64451714192913,41.5039254546632,5111.8701 -7.64394532921648,41.5042751477313,5111.8701 -7.64377014695628,41.5044064086224,5111.8701 -7.64359496559441,41.5048347238888,5111.8701 -7.64322146765885,41.5050796427683,713.028600000005 -7.64270799243907,41.5053331119578,-226.990000000005 -7.64213617882813,41.5057527098026,-226.990000000005 -7.64158749953067,41.50617247513,-226.990000000005 -7.64122556920103,41.5064872998623,-226.990000000005 -7.64114376142473,41.5067845218139,-226.990000000005 -7.64079356578765,41.5070467082298,-226.990000000005 -7.64011664300022,41.5071254977524,-226.990000000005 -7.63954466230264,41.5072393239561,-226.990000000005 -7.6391594296745,41.507414170523,-226.990000000005 -7.63883253543756,41.5075890172904,-226.990000000005 -7.63856414667842,41.5078337683357,-226.990000000005 -7.63841243470169,41.5082708008106,-226.990000000005 -7.63836566391641,41.5087080012031,-226.990000000005 -7.638377230624,41.5089614696426,4352.38959999999 -7.63861058239212,41.5092935611798,5111.8701 -7.63894887624999,41.509564463687,5111.8701 -7.63921709702417,41.5097654617992,5111.8701 -7.63949705249088,41.5098616863116,5111.8701 -7.63978874354849,41.5098529688447,5111.8701 -7.64019710959179,41.509966627461,5111.8701 -7.64040699197477,41.5102900018157,5111.8701 -7.64051193406459,41.5107094316534,5111.8701 -7.64071024973998,41.5110328056611,5111.8701 -7.64078015483874,41.5112425212041,5111.8701 -7.6405816711784,41.5114086504651,5111.8701 -7.64033658471776,41.5114611208163,5111.8701 -7.64011479875894,41.5115135917976,5111.8701 -7.639904748391,41.5116622865905,5111.8701 -7.63967122863796,41.5116973229729,5111.8701 -7.63937937139205,41.5118196989176,5111.8701 -7.63907594564188,41.5119420746311,5111.8701 -7.63890076428001,41.5119596764969,5111.8701 -7.6385155316519,41.5122656160304,5111.8701 -7.63815376930719,41.5125278017748,5111.8701 -7.63794371893926,41.5126065920264,5111.8701 -7.63748858121235,41.5130085882432,5111.8701 -7.63694006989988,41.5133931500025,5111.8701 -7.6364616307728,41.5137426748934,5111.8701 -7.63625158040486,41.5140050288724,5111.8701 -7.63550475251867,41.5143632713558,5111.8701 -7.63426775081288,41.5149137946601,-226.990000000005 -7.63320559629567,41.5155082391987,-226.990000000005 -7.63207370376633,41.516032778421,-226.990000000005 -7.63159526553758,41.5163038491339,-226.990000000005 -7.63156022854655,41.5164788635907,-226.990000000005 -7.63164186833787,41.516583804775,-226.990000000005 -7.63153675916142,41.5169071790324,-226.990000000005 -7.6313382763994,41.5169946858406,-226.990000000005 -7.63045130324407,41.5177462071787,2350.4764 -7.62958779947384,41.5185153306353,5111.8701 -7.6287942008024,41.5191971147699,5111.8701 -7.62858415043446,41.5199488035676,5111.8701 -7.62801233682348,41.5207351943024,5111.8701 -7.62737045102711,41.5215303014653,5111.8701 -7.62706702617528,41.5222380694181,5111.8701 -7.62606337623757,41.522640065002,5111.8701 -7.62563154080914,41.5228762673909,4323.77439999999 -7.62480290604498,41.5235577163847,-226.990000000005 -7.62451088081411,41.5241256739527,-226.990000000005 -7.62451071282915,41.5249906862075,-226.990000000005 -7.62423042229083,41.525471472236,-226.990000000005 -7.62407870941576,41.5257075062447,-226.990000000005 -7.62368191008003,41.5263366521163,-226.990000000005 -7.62320347095298,41.5270880057883,5111.8701 -7.62279493692469,41.5277082671517,5111.8701 -7.62230476400339,41.5281452992707,5111.8701 -7.62169774631476,41.5288269153704,5111.8701 -7.62141762286307,41.5292724974218,5111.8701 -7.62142919046899,41.5300587203774,5111.8701 -7.62107899393358,41.530530621585,5111.8701 -7.62079870339526,41.5311074638819,5111.8701 -7.62047180915832,41.5319635916448,5111.8701 -7.62029645981149,41.5323654198841,5111.8701 -7.61978298459172,41.5329070582041,5111.8701 -7.61914109789701,41.5336496952782,5111.8701 -7.61866265876997,41.5343048244056,5111.8701 -7.61818421964289,41.5348727824459,5111.8701 -7.61772908281431,41.5352047060684,5111.8701 -7.61744895936262,41.5358511182573,3002.40429999999 -7.61718057060351,41.5363230195721,-226.990000000005 -7.61660875789086,41.5368559405095,-226.990000000005 -7.6163286344392,41.5369610497001,-226.990000000005 -7.61597843880209,41.5370222373502,-226.990000000005 -7.61565154456515,41.5371620481265,-226.990000000005 -7.61541802391377,41.5372495551128,-226.990000000005 -7.61511459906194,41.5374418355297,-226.990000000005 -7.61495115239265,41.5375467770109,-226.990000000005 -7.61461269144809,41.537739057889,-226.990000000005 -7.6142975319037,41.5380709815952,-226.990000000005 -7.61405244454474,41.5383506016732,-226.990000000005 -7.61358557302358,41.5386650903633,-226.990000000005 -7.61325851080168,41.5387961833473,-226.990000000005 -7.61286171146595,41.538927276738,-226.990000000005 -7.61251151582886,41.5394251615886,-226.990000000005 -7.612173053986,41.5396001760427,-226.990000000005 -7.61167114637215,41.5398710787751,-226.990000000005 -7.61121600864525,41.5403515296432,-226.990000000005 -7.61083060893048,41.5408495823803,-226.990000000005 -7.61049214708761,41.541260127823,-226.990000000005 -7.6101303847429,41.5419241424599,-226.990000000005 -7.60965194561586,41.5424133099832,-226.990000000005 -7.6090916987125,41.5429111948893,-226.990000000005 -7.60896328813588,41.5430335709751,-226.990000000005 -7.60871820167524,41.5431646638444,-36.9952000000048 -7.60809961727902,41.5436887005256,5111.8701 -7.60750433428294,41.5442305069072,5111.8701 -7.60676907400267,41.544693690783,5111.8701 -7.60655902363473,41.5452090104362,-226.990000000005 -7.60657059034236,41.5456807439654,-226.990000000005 -7.60646531318095,41.5459429294617,-226.990000000005 -7.6063602049028,41.5462922872771,-226.990000000005 -7.60605678005097,41.5467289847492,-226.990000000005 -7.60572988581403,41.5471831162533,-226.990000000005 -7.60561287396007,41.5479519039037,-226.990000000005 -7.6055310670821,41.5487993143059,-226.990000000005 -7.60544925930579,41.5496376727471,-226.990000000005 -7.60535588482189,41.5499260100074,-226.990000000005 -7.6051340997614,41.5507643679555,-226.990000000005 -7.6050172558924,41.5511487617984,-226.990000000005 -7.60451534738022,41.5519084973854,-226.990000000005 -7.604258526227,41.5522580232972,-226.990000000005 -7.60383842549112,41.5530003245566,-226.990000000005 -7.60340642207774,41.5539786604033,4682.1021 -7.60325470920267,41.554293317108,5111.8701 -7.60309126253335,41.5550968058762,5111.8701 -7.60305622554232,41.5562758043198,5111.8701 -7.60292781496573,41.5567037843701,5111.8701 -7.6028693094879,41.5574983889468,5111.8701 -7.60256571665111,41.5585290277252,5111.8701 -7.60230889549789,41.5593410664177,5111.8701 -7.60221552101399,41.5597165755001,5111.8701 -7.6019937359535,41.5602406124542,5111.8701 -7.60156190052507,41.5609044590449,5111.8701 -7.60124674098069,41.5617952876381,5111.8701 -7.60086150835254,41.5622056657994,5111.8701 -7.60068632699067,41.5624676841256,5111.8701 -7.60058121781422,41.5629566841152,-226.990000000005 -7.60044107254508,41.5636815509635,-226.990000000005 -7.60025432357728,41.5639784382943,-226.990000000005 -7.60023085419219,41.5644674382774,-226.990000000005 -7.60042916986757,41.5647995292452,-226.990000000005 -7.60044073657517,41.5653933036953,-226.990000000005 -7.59990982685236,41.566342637984,-226.990000000005 -7.59951151924526,41.5675674013062,5111.8701 -7.59946726284449,41.5687589727519,5111.8701 -7.59853821260121,41.5701160027299,5111.8701 -7.59796304647763,41.5716716842832,3799.1238 -7.59716659745177,41.5727308214463,-226.990000000005 -7.59672420142886,41.5735913079999,-226.990000000005 -7.59623754810686,41.5740546591729,-226.990000000005 -7.59570663838405,41.5754447142538,-226.990000000005 -7.5956310334748,41.5762678172909,-226.990000000005 -7.59536063338776,41.5765038513763,-226.990000000005 -7.59554067643195,41.5767735813847,-226.990000000005 -7.59520271764563,41.5770600745827,-226.990000000005 -7.5947972010584,41.5770602419099,-226.990000000005 -7.59450433769937,41.5774984477747,-226.990000000005 -7.59391861008298,41.5787116444823,-226.990000000005 -7.59292736677765,41.5801944030881,-226.990000000005 -7.59193612257403,41.5816771619192,5111.8701 -7.59128283715669,41.582266912868,5111.8701 -7.58986361309382,41.5834631780596,5111.8701 -7.58939053870564,41.5843563537273,5111.8701 -7.58889483306051,41.5855527864857,-226.990000000005 -7.58857917045955,41.5863111809703,-226.990000000005 -7.58884940256163,41.5865133522833,-226.990000000005 -7.58871411897478,41.5867492192469,-226.990000000005 -7.58830860238755,41.5867156916094,-226.990000000005 -7.58779043347043,41.5868674043663,-226.990000000005 -7.58747493885443,41.58772671692,-226.990000000005 -7.58727243163992,41.5883292078987,-226.990000000005 -7.58720034722826,41.5886520789899,-226.990000000005 -7.58712826281661,41.588853915098,-226.990000000005 -7.58720018014164,41.5891365532545,-226.990000000005 -7.58687630334572,41.5897554729607,3595.2285 -7.58666038518234,41.589970720034,5111.8701 -7.58644446701899,41.5903071699286,5111.8701 -7.58612059022307,41.5905090055652,5111.8701 -7.58594071516383,41.5908588662129,5111.8701 -7.58570685944088,41.591033880479,5111.8701 -7.58529312865868,41.5911953161816,5111.8701 -7.5851491278203,41.5915047756415,5111.8701 -7.58522104514532,41.591841225603,5111.8701 -7.58504116918779,41.5921776751546,5111.8701 -7.58491510501071,41.592715793136,5111.8701 -7.58469918774563,41.5929176293038,5111.8701 -7.58433943583056,41.5929984311804,5111.8701 -7.58403349659425,41.593106054439,5111.8701 -7.58385613591948,41.5933263310654,5111.8701 -7.58367290744931,41.5935387284406,5111.8701 -7.58348967897911,41.5937511257887,5111.8701 -7.58339798075153,41.5938813808124,5111.8701 -7.58326973726156,41.5940458339294,5111.8701 -7.58317803993231,41.5943678662182,5111.8701 -7.58289406091144,41.5947103509379,5111.8701 -7.58257336954153,41.5950940742243,5111.8701 -7.58249089162202,41.5952586948909,5111.8701 -7.58215192672262,41.5955532349153,5111.8701 -7.58181279563488,41.5958479428895,5111.8701 -7.58147383073545,41.5960465936666,5111.8701 -7.5814828839569,41.5963959520288,5111.8701 -7.58143695040148,41.596738436064,5111.8701 -7.58132681245605,41.5969166354711,5111.8701 -7.58107937869756,41.5973070648497,5111.8701 -7.58083177695412,41.5976426757412,5111.8701 -7.58085004958532,41.5978344540495,5111.8701 -7.58085910190843,41.5979989071713,5111.8701 -7.58095968537247,41.5981222887237,5111.8701 -7.58113352554965,41.5982456700403,5111.8701 -7.58122505579223,41.5983553052507,5111.8701 -7.58123410901368,41.5984924333094,4209.8367 -7.58108742490757,41.598670632576,784.868000000002 -7.58097745494712,41.599088554201,-226.990000000005 -7.58077595384573,41.5995954918106,-226.990000000005 -7.58057445274436,41.6001025967363,-226.990000000005 -7.58040044458224,41.6005409706824,-226.990000000005 -7.58022643642014,41.600979511603,3007.6118 -7.5799332370912,41.6014520834285,5111.8701 -7.57968580333268,41.6016029574778,5111.8701 -7.57944758988227,41.6019865134982,5111.8701 -7.57908096495694,41.6024661257701,5111.8701 -7.5789527223653,41.6026647770001,5111.8701 -7.57881525946559,41.6030072613548,5111.8701 -7.57846724224304,41.6034318889164,5111.8701 -7.57843052989403,41.6036992716251,5111.8701 -7.57833883166645,41.6038499778643,5111.8701 -7.57821964139793,41.604000685095,5111.8701 -7.5780639049687,41.6040965739415,5111.8701 -7.57792644206895,41.604055502537,5111.8701 -7.57768822861854,41.6039254151525,5111.8701 -7.57746828690103,41.604158264292,5111.8701 -7.57725756638986,41.6045693130339,5111.8701 -7.57702857234923,41.6050695449406,5111.8701 -7.57715664785423,41.6054189028212,5111.8701 -7.57710149488904,41.6059258404073,5111.8701 -7.5770465099088,41.6064327780406,5111.8701 -7.57670754590773,41.6071177472488,5111.8701 -7.57674409117011,41.6077341523975,532.691699999996 -7.57676236290298,41.60809725644,3556.13649999999 -7.57655164239184,41.6086930421022,653.345700000005 -7.57644167153306,41.6092754165641,-226.990000000005 -7.57632248126454,41.609748155996,-226.990000000005 -7.57569048591945,41.6104399979233,-226.990000000005 -7.57564455236404,41.6111249669004,-226.990000000005 -7.5754888168331,41.6118578806751,-226.990000000005 -7.57574513582807,41.6124332147601,-226.990000000005 -7.57560767203003,41.6128922077547,-226.990000000005 -7.57538756322586,41.6134060183983,-226.990000000005 -7.57521355506377,41.6139744788207,-226.990000000005 -7.57502110718382,41.6145498128324,-226.990000000005 -7.57482849042058,41.614823733201,-226.990000000005 -7.57470024782894,41.6151730913184,-226.990000000005 -7.57451701935874,41.6154540527557,-226.990000000005 -7.57428802531811,41.6156869019262,-226.990000000005 -7.57405903217574,41.6157827908655,-226.990000000005 -7.57372928758441,41.6159266240071,-226.990000000005 -7.57344530856355,41.6161936715227,-226.990000000005 -7.57328957303261,41.6163443781261,-226.990000000005 -7.57324364037552,41.6166182989325,-226.990000000005 -7.57339015559835,41.6168169502415,505.311300000001 -7.57342670086074,41.6169814026666,3666.0674 -7.57343575318385,41.6171869271457,5111.8701 -7.57331656291534,41.6174950457495,5111.8701 -7.57345385872842,41.6177758399238,5111.8701 -7.57323391701088,41.6183510057138,5111.8701 -7.57297743092927,41.6189058879029,5111.8701 -7.57272999717079,41.6194949683192,5111.8701 -7.57253738130588,41.6201043322003,5111.8701 -7.57235415283568,41.6207274428469,5111.8701 -7.57219841730478,41.6211451974316,5111.8701 -7.5718502329956,41.6217274044066,5111.8701 -7.57150221577308,41.6223505148152,5111.8701 -7.57129149526193,41.622829792376,5111.8701 -7.57094347893771,41.622925680768,5111.8701 -7.57119074471124,41.6235829898319,5111.8701 -7.57158452660592,41.6243497663934,5111.8701 -7.57184067761594,41.6249113542622,5111.8701 -7.57184972993906,41.6257057905264,4380.63959999999 -7.57196875312091,41.6262123927591,-226.990000000005 -7.57195953281284,41.6266164008337,-226.990000000005 -7.57195031250476,41.6275132639936,-226.990000000005 -7.57218835886854,41.6282939548934,-226.990000000005 -7.57249027455069,41.6290607311617,-226.990000000005 -7.57273754122255,41.6299646360214,-226.990000000005 -7.57305789752084,41.6308341741223,-226.990000000005 -7.57335092886483,41.6318200535483,-226.990000000005 -7.57364396020885,41.6325253073399,-226.990000000005 -7.57372610305674,41.6334701149399,-226.990000000005 -7.57380841299129,41.6344149234622,-226.990000000005 -7.57394570880434,41.63520215205,5111.8701 -7.57398225406675,41.6361949040709,5111.8701 -7.57407780696521,41.6374030720489,5111.8701 -7.57374940445688,41.6378939160881,5111.8701 -7.57346475529281,41.6381884561652,5111.8701 -7.57302688408399,41.6384338783467,5111.8701</coordinates>
</LineString>
</Placemark>
</Folder>
</Document></kml>
