<?xml version="1.0" encoding="UTF-8"?>

<kml xmlns="http://www.opengis.net/kml/2.2" xmlns:atom="http://www.w3.org/2005/Atom" xmlns:gx="http://www.google.com/kml/ext/2.2" xmlns:xsd="http://www.w3.org/2001/XMLSchema">
<Document>
<name>PT02a_11a_verin-laza</name>
<visibility>1</visibility>
<Schema name="PT02a_11a_verin-laza" id="kml_schema_ft_PT02a_11a_verin-laza">
<SimpleField type="xsd:string" name="id">
<displayName>id</displayName>
</SimpleField>
<SimpleField type="xsd:string" name="nombre">
<displayName>nombre</displayName>
</SimpleField>
<SimpleField type="xsd:double" name="longitud">
<displayName>longitud</displayName>
</SimpleField>
<SimpleField type="xsd:string" name="_formato">
<displayName>_formato</displayName>
</SimpleField>
</Schema>
<Folder id="kml_ft_PT02a_11a_verin-laza">
<name>PT02a_11a_verin-laza</name>
<Placemark id="kml_1">
<name>&lt;img height='20' src='https://nco.ign.es/iconos/icono_todos_caminos_azul.png' /&gt;&lt;img height='20' src='https://nco.ign.es/iconos/Camino Santiago_20.png' /&gt;&lt;img height='20' src='https://nco.ign.es/iconos/icono_todos_caminos_azul.png' /&gt;  Camino de Santiago </name>
<visibility>1</visibility>
<description><![CDATA[<!DOCTYPE html>
<html>
<head>
<style>
#nco {
  border-collapse: collapse;
  overflow:hidden;
}
#nco th, #nco td {
  padding: 4px;
  text-align: left;
}
#nco th {
  color: #364B5F;
  padding-right: 5px;
}
#nco td {
  color: rgb(51, 51, 51);
  font-size: 12px;
  padding-right: 5px;
}
</style>
</head>
<body>
<table id="nco">
<tr>
<td>Caminos Portugueses</td>
</tr>
<tr>
<th><b>Camino: </b></th>
<td>PT02a Caminho Português Interior a Santiago</td>
</tr>
<tr>
<th><b>Etapa: </b></th>
<td>11a Verín-Laza</td>
</tr>
<tr>
<th><b>Longitud: </b></th>
<td>19.39 km</td>
</tr>
</table>
</body>
</html>]]></description>
<Style>
<IconStyle>
<scale>0.8</scale>
</IconStyle>
<LabelStyle>
<color>ffffffff</color>
<scale>0.75</scale>
</LabelStyle>
<LineStyle>
<color>ffff0000</color>
<width>3.0</width>
<gx:labelVisibility>1</gx:labelVisibility>
</LineStyle>
<PolyStyle>
<color>66ff0000</color>
</PolyStyle>
</Style>
<ExtendedData>
<SchemaData schemaUrl="#kml_schema_ft_PT02a_11a_verin-laza">
<SimpleData name="id">PT02a_11a</SimpleData>
<SimpleData name="_formato">kml</SimpleData>
</SchemaData>
</ExtendedData>
<LineString>
<extrude>0</extrude>
<tessellate>1</tessellate>
<coordinates>-7.44061728900802,41.9405094543506,-226.990000000005 -7.4409869313744,41.9405649424979,-226.990000000005 -7.44158271742703,41.940500402216,-226.990000000005 -7.44196224934635,41.9405153218331,-226.990000000005 -7.44248896842834,41.9405751686533,5111.8701 -7.44308726886547,41.9405483463744,5111.8701 -7.44330301904389,41.9407587320063,5111.8701 -7.44362572174171,41.9408656852648,5111.8701 -7.44404246996495,41.9409773324294,5111.8701 -7.44413198887964,41.9409206706174,5111.8701 -7.44413316207941,41.9407999712615,5111.8701 -7.44421513784064,41.9408417129753,5111.8701 -7.44427766687264,41.9408522745219,5111.8701 -7.44435159462727,41.9408681996952,5111.8701 -7.4445167184512,41.9409188263914,5111.8701 -7.44471117855738,41.9410046570119,5111.8701 -7.44485199486806,41.9410926671723,5111.8701 -7.4449156970998,41.9412569523018,5111.8701 -7.44499867807588,41.9415149476042,5111.8701 -7.44500739532738,41.9417995965794,5111.8701 -7.44496833568052,41.9420339546107,5111.8701 -7.44498007037307,41.9421340347833,5111.8701 -7.44509926064158,41.9422299239484,5111.8701 -7.44506841518968,41.9424451710688,5111.8701 -7.44506036897968,41.9426240410882,5111.8701 -7.44503824077928,41.9427371965944,5111.8701 -7.44503203791225,41.9429420505204,5111.8701 -7.44518425294557,41.9431950163412,5111.8701 -7.44545498900252,41.9435120200016,5111.8701 -7.44582781589658,41.9439291034499,5111.8701 -7.44591850801105,41.9441197076176,5111.8701 -7.44600148898709,41.944372338026,5111.8701 -7.44604876282892,41.9444890143076,5111.8701 -7.44627155400252,41.9447362806184,5111.8701 -7.44655771143798,41.9448571475801,5111.8701 -7.44666466485571,41.944836192851,5111.8701 -7.44701033478041,41.9450899970399,5111.8701 -7.44713002810551,41.9451491727493,5111.8701 -7.44721719972234,41.9453163084529,5111.8701 -7.44749967047185,41.9453446387485,5111.8701 -7.4476901070239,41.9454246023946,5111.8701 -7.4478949606379,41.9455484867501,5111.8701 -7.44822218994645,41.9457622253499,5111.8701 -7.44826259077805,41.9458933183418,5111.8701 -7.44829729179916,41.9459613796344,2711.5223 -7.44820844392597,41.9460861021353,4419.1678 -7.44807634486683,41.9463147605336,3358.94899999999 -7.44795631647012,41.9466129887026,-226.990000000005 -7.44787719106328,41.9468773537163,-226.990000000005 -7.44788708151455,41.9471759173284,-226.990000000005 -7.4480325915226,41.9474530232402,-226.990000000005 -7.44827969020946,41.9476345751048,1835.05740000001 -7.44851388010574,41.9478382554345,5111.8701 -7.44884513296843,41.9479842680401,5111.8701 -7.44913313554346,41.9481319572981,5111.8701 -7.44934352098302,41.9483042891723,5111.8701 -7.44926154612005,41.9485255709405,5111.8701 -7.44922298952977,41.9487505412759,5111.8701 -7.44920689621144,41.9489855699318,5111.8701 -7.44915325151763,41.9492004822373,5111.8701 -7.44921242803696,41.9493786812304,5111.8701 -7.44946489146273,41.9494308171076,5111.8701 -7.4497696574993,41.9495079301575,5111.8701 -7.45003117234985,41.9495867200626,5111.8701 -7.45037147753566,41.9496569607835,5111.8701 -7.45067657864381,41.9497394384462,5111.8701 -7.45098637434766,41.9498370038048,5111.8701 -7.45095804328024,41.9499384246382,5111.8701 -7.45091512806416,41.9500993571571,5111.8701 -7.450874224176,41.9502802387303,5111.8701 -7.45084924651954,41.9504309458132,5111.8701 -7.45084103232458,41.9505729352153,5111.8701 -7.45087506230415,41.9506859229519,5111.8701 -7.45095569598239,41.9507948878924,5111.8701 -7.45105460319011,41.9508847418385,5111.8701 -7.4511514972733,41.9510146611486,5111.8701 -7.45121754680285,41.9511410600242,5111.8701 -7.45125962389077,41.9513130570684,5111.8701 -7.45125040448102,41.9514917592382,5111.8701 -7.45122291154175,41.9516186609043,5111.8701 -7.45119508353087,41.9517965251083,5111.8701 -7.45124856023974,41.9520216629458,5111.8701 -7.45126666488598,41.9522838489721,5111.8701 -7.45130354521995,41.9524757943783,5111.8701 -7.45129097239924,41.9525981705468,5111.8701 -7.4512876198866,41.9527051233191,5111.8701 -7.45146246617686,41.9531792037799,5111.8701 -7.45155902608677,41.9535107917802,5111.8701 -7.45161903983596,41.9536668631297,5111.8701 -7.45166983417537,41.9537704631041,5111.8701 -7.45175281515141,41.9538876426058,5111.8701 -7.45185758925628,41.9540173941247,5111.8701 -7.45198097106392,41.9541615627632,5111.8701 -7.45214743517429,41.9543749665152,5111.8701 -7.45224282188442,41.9544846012217,5111.8701 -7.45233334601389,41.9546024508052,5111.8701 -7.45238782793756,41.9546750382159,5111.8701 -7.4525259618788,41.9548986674469,5111.8701 -7.45258916195229,41.9550663053491,5111.8701 -7.4527474118677,41.9553117275756,1281.8365 -7.45294589552805,41.9555475944852,-226.990000000005 -7.45314002056261,41.9558236946767,-226.990000000005 -7.453247141067,41.9560106111091,-226.990000000005 -7.45329173253938,41.9560759894441,-226.990000000005 -7.45334738856112,41.9561873013396,-226.990000000005 -7.45332727168865,41.9563988605429,-226.990000000005 -7.45330296417539,41.9565319651575,-226.990000000005 -7.45329877353457,41.956659369838,-226.990000000005 -7.4533074907861,41.9568486332841,-226.990000000005 -7.45332140479154,41.9570429257573,-226.990000000005 -7.45337739588486,41.9571886033058,-226.990000000005 -7.45352391110772,41.957352218347,-226.990000000005 -7.45352475013418,41.9574145798412,-226.990000000005 -7.45363203772519,41.9575766859057,-226.990000000005 -7.45363958177695,41.9576234568674,-226.990000000005 -7.45363488807961,41.9576921883545,-226.990000000005 -7.45360320449952,41.9578526176498,-226.990000000005 -7.45358694319626,41.9580487541328,-226.990000000005 -7.45355391843147,41.9582145487077,-226.990000000005 -7.45357084987793,41.9582913264755,-226.990000000005 -7.45359431926306,41.9584924924191,-226.990000000005 -7.45360370755609,41.9586633153009,-226.990000000005 -7.45366036879265,41.959035304627,-226.990000000005 -7.45368668853214,41.9593003402362,-226.990000000005 -7.45378190635902,41.9597157472473,-226.990000000005 -7.45382314531874,41.9599045079653,-226.990000000005 -7.45384845894514,41.9600776777435,-226.990000000005 -7.4538117456978,41.960253530388,-226.990000000005 -7.45375039076388,41.9604089305919,-226.990000000005 -7.45375290514836,41.9605990319196,-226.990000000005 -7.45384342927786,41.9607649942047,-226.990000000005 -7.45388131572498,41.9609420199432,-226.990000000005 -7.45418943427415,41.9613639644952,-226.990000000005 -7.45434584084659,41.9616026813236,-226.990000000005 -7.45441038120652,41.9617634461196,-226.990000000005 -7.45442999502241,41.961937622164,-226.990000000005 -7.45441021411986,41.9621863972142,-226.990000000005 -7.45438825300612,41.962241549875,-226.990000000005 -7.45434584084659,41.9622640131799,-226.990000000005 -7.45429538157876,41.9623701281248,-226.990000000005 -7.45427090697887,41.9624267902441,-226.990000000005 -7.45428599418406,41.9624676935204,-226.990000000005 -7.45430443480021,41.9624955218943,-226.990000000005 -7.45441088426306,41.9626048213373,-226.990000000005 -7.45446067338768,41.9626339909354,-226.990000000005 -7.45455941171215,41.9626730504821,-226.990000000005 -7.45462177365749,41.9626707032361,-226.990000000005 -7.45467189695537,41.962690149171,-226.990000000005 -7.4546946961973,41.9627486552682,-226.990000000005 -7.45468229046322,41.9628083342642,-226.990000000005 -7.45463904017557,41.9631038802017,-226.990000000005 -7.45464205761658,41.9632284355684,-226.990000000005 -7.45474498748017,41.9634311095473,-226.990000000005 -7.45483836196407,41.9635742723167,-226.990000000005 -7.45485931606636,41.9636254019901,-226.990000000005 -7.45493743536012,41.9637980693713,-226.990000000005 -7.45497582486378,41.9639700663244,-226.990000000005 -7.45496442524281,41.9643672004572,5111.8701 -7.4548283035278,41.9645876449588,5111.8701 -7.45476342719799,41.9646528561905,5111.8701 -7.45470156920752,41.9646922511456,5111.8701 -7.45458489242519,41.964755282756,5111.8701 -7.45476124788513,41.9651264336501,5111.8701 -7.45480785158375,41.965331454751,5111.8701 -7.45487624751286,41.9656638812403,5111.8701 -7.45496291697145,41.9660885083395,5111.8701 -7.45505645854197,41.9668371798104,5111.8701 -7.45513139330806,41.9675444448932,5111.8701 -7.45521420629914,41.9681807986221,5111.8701 -7.45524438070955,41.9683650332166,5111.8701 -7.45525628338705,41.968528982903,5111.8701 -7.4552178938834,41.9687537857854,5111.8701 -7.45513759527678,41.9689328230964,5111.8701 -7.45507992792711,41.9690614018688,5111.8701 -7.45503969508047,41.9691784129948,5111.8701 -7.45502125446433,41.9693291194711,5111.8701 -7.45502779240297,41.9694657449542,5111.8701 -7.45505411214246,41.9698543298434,5111.8701 -7.45507322290181,41.9700315233491,5111.8701 -7.45509166261966,41.970126238473,5111.8701 -7.45512083181525,41.9702083810808,5111.8701 -7.455133236651,41.9702432503146,5111.8701 -7.45527589720298,41.9706107125582,5111.8701 -7.4552849495261,41.9706330086123,5111.8701 -7.45546683681154,41.9711126213425,5111.8701 -7.45560949646519,41.971445549964,5111.8701 -7.45570102670781,41.971602459654,5111.8701 -7.45581569126392,41.971755010408,5111.8701 -7.45609246220298,41.9721134202923,5111.8701 -7.45623713318453,41.9723244764765,5111.8701 -7.45636839411554,41.9725739222466,5111.8701 -7.45652480068798,41.9728842200513,5111.8701 -7.45664885263882,41.9732045763113,-226.990000000005 -7.45678044864142,41.9735091748985,-226.990000000005 -7.4569386985568,41.9738340573929,-226.990000000005 -7.45702704427175,41.9739991811103,-226.990000000005 -7.45715361060706,41.9742471176628,1547.22809999999 -7.45721479845433,41.9743585968339,2723.2513 -7.45731085530766,41.9743664760958,4569.4525 -7.45733164232333,41.9745485309849,4968.9765 -7.45735427358027,41.9747634425722,5111.8701 -7.45740037422235,41.9750487625146,5111.8701 -7.45740741521757,41.9750863138142,5111.8701 -7.457426190007,41.9751873992808,5111.8701 -7.45753867525025,41.9756142061547,5111.8701 -7.45758293165102,41.9758133599902,5111.8701 -7.45757304119974,41.9760393359194,5111.8701 -7.45750145984463,41.9762264201122,5111.8701 -7.45740925856051,41.9763657274837,5111.8701 -7.45712645363771,41.9767893489649,1025.27439999999 -7.45703509048175,41.9769103835379,-226.990000000005 -7.45694423128066,41.9770693045921,-226.990000000005 -7.45690131516626,41.9771579848656,-226.990000000005 -7.45686560893036,41.9773160678603,-226.990000000005 -7.45681263527803,41.9774987928174,-226.990000000005 -7.45675463195847,41.9778362485386,-226.990000000005 -7.45670031712144,41.9782466263177,-226.990000000005 -7.45666393984401,41.9785138411908,-226.990000000005 -7.45663577676154,41.9788528054363,-226.990000000005 -7.45663963233075,41.9791302464172,-226.990000000005 -7.45662823360808,41.9793287301437,-226.990000000005 -7.45661666600219,41.9797744798589,-226.990000000005 -7.45665421737769,41.9800572851684,-226.990000000005 -7.45675966162572,41.9806643024789,-226.990000000005 -7.45678044864142,41.98082422919,-226.990000000005 -7.45680173871363,41.9809211239204,-226.990000000005 -7.45684549205786,41.981119607407,-226.990000000005 -7.45692612573609,41.9814005690301,-226.990000000005 -7.45698547024038,41.9816282212722,-226.990000000005 -7.45720541105959,41.9821256039285,2342.05349999999 -7.45724111819385,41.9822114344855,1655.7666 -7.45728000985576,41.9823819219926,1429.9203 -7.45733918637509,41.9829005942264,5111.8701 -7.4573363360207,41.9831954700085,5059.1888 -7.45734488618557,41.9835027505795,5111.8701 -7.45737908415011,41.9837949432312,5111.8701 -7.45737573163747,41.9840011382414,5111.8701 -7.45737187606826,41.9845273541063,5111.8701 -7.45738612514532,41.9847315375194,5111.8701 -7.45744496569474,41.9848985046479,5111.8701 -7.45748218110032,41.9849674043606,5111.8701 -7.45782366038423,41.9855494431669,5111.8701 -7.45796766122259,41.9857725694077,5111.8701 -7.45805449776784,41.985979937884,5111.8701 -7.45811266817406,41.9862374303136,5111.8701 -7.45806723857351,41.986677144905,5111.8701 -7.45800118904392,41.9871022749303,5111.8701 -7.45796430870995,41.9873327772769,5111.8701 -7.45792491399147,41.9875961367312,5111.8701 -7.45790345593427,41.9880791017885,5111.8701 -7.45785299666645,41.9884165575262,5111.8701 -7.4577921438908,41.9887528390002,5111.8701 -7.45779097069102,41.9889717742493,5111.8701 -7.45778493580896,41.9890723576031,5111.8701 -7.45781645140406,41.989293304173,5111.8701 -7.45793279221652,41.9898035947356,5111.8701 -7.45530389230049,41.9898505329959,-226.990000000005 -7.45625423261598,41.9933189650052,5111.8701 -7.45965242369018,42.0060953318911,5111.8701 -7.46011108191468,42.0060428612321,5111.8701 -7.46239615614731,42.0058351576069,5111.8701 -7.46253747461623,42.0058182267001,5111.8701 -7.4625723436223,42.0060499021795,5111.8701 -7.46261693509468,42.0062795662676,5111.8701 -7.46273076152266,42.0068664672264,5111.8701 -7.46277937654918,42.0071170859834,5111.8701 -7.46294986421372,42.0079956769687,5111.8701 -7.46297819528115,42.0081418574213,5111.8701 -7.46300250279441,42.008267082977,5111.8701 -7.46302412793823,42.0083780593692,5111.8701 -7.46310275028853,42.008783408343,5111.8701 -7.46318086958229,42.0092771025831,-187.388999999996 -7.46317014100285,42.0093632683171,-226.990000000005 -7.46334465222152,42.0093765117887,-226.990000000005 -7.46359795287712,42.0093991433608,-226.990000000005 -7.46378520490145,42.009450104751,-226.990000000005 -7.46411863707703,42.0098976987116,-226.990000000005 -7.46445659586335,42.0101959269578,-226.990000000005 -7.46460998409644,42.0103540093478,-226.990000000005 -7.46483344541325,42.0106773835884,-226.990000000005 -7.46532864890013,42.0112123162196,-226.990000000005 -7.46563911474715,42.0115703911982,-226.990000000005 -7.46585452895566,42.0117091953954,-226.990000000005 -7.4660295432309,42.0120974450653,1298.0736 -7.46600892420019,42.0122074156021,901.778200000001 -7.46602032292283,42.0123510814411,1120.8603 -7.46606809982119,42.0125105053833,2039.1266 -7.46618276437733,42.0126835081016,4242.96580000001 -7.46623020620411,42.0127963282788,5111.8701 -7.46627748004593,42.0131086379516,5111.8701 -7.46632274255984,42.0133200294552,5111.8701 -7.46642013969958,42.0135171718229,5111.8701 -7.46643589794629,42.0135865745049,5111.8701 -7.46649574460882,42.0137951158134,5111.8701 -7.46658710776482,42.0140583077019,5111.8701 -7.46680721656899,42.0145136127141,5111.8701 -7.46692439550961,42.0147149461417,5111.8701 -7.46689455617079,42.0149625472673,5111.8701 -7.46687326609858,42.0154213731028,5111.8701 -7.46682146564602,42.0155289965993,5111.8701 -7.46675726035771,42.0156138210376,5111.8701 -7.46673898772651,42.0156667950413,5111.8701 -7.46671903883901,42.0157678808133,5111.8701 -7.46672205628005,42.0158347682325,5111.8701 -7.46672909727524,42.0160654381537,5111.8701 -7.46673077353156,42.0161132153328,5111.8701 -7.46673395895756,42.0162783388495,5111.8701 -7.46673177964467,42.016290073208,5111.8701 -7.46669791675175,42.0163326531203,5111.8701 -7.46672306239317,42.0164178135268,5111.8701 -7.46675843355748,42.0165091760154,5111.8701 -7.46671350701348,42.0165670113154,5111.8701 -7.46661661203199,42.0166649121421,5111.8701 -7.4665681640921,42.0168105894732,5111.8701 -7.46650781527132,42.0168635631473,5111.8701 -7.4663787336532,42.0169524115655,5111.8701 -7.46579837077568,42.0172786347476,-226.990000000005 -7.46558865547935,42.0173589339083,-226.990000000005 -7.4653548006547,42.0174370525869,-226.990000000005 -7.46511792749069,42.017545347408,-226.990000000005 -7.46492011487184,42.0176325190489,-226.990000000005 -7.46481165318276,42.0176921980008,-226.990000000005 -7.4645389057979,42.017829661397,-226.990000000005 -7.46433405218387,42.0179243768284,4140.7821 -7.46407153122017,42.018009872135,5111.8701 -7.46382292336361,42.018100899977,5111.8701 -7.46377665563491,42.0181153162328,5111.8701 -7.46365712939648,42.0181691283939,5091.3165 -7.46354598533793,42.0182348426907,3828.29549999999 -7.46339091995023,42.0184241060266,190.676699999996 -7.46324708709683,42.0185687775852,-226.990000000005 -7.46311163552502,42.0187010441843,-226.990000000005 -7.46302463099481,42.0187709490867,-226.990000000005 -7.462918013547,42.0188529241578,-226.990000000005 -7.46276931811295,42.0188658319633,-226.990000000005 -7.46272791206657,42.01895535097,-226.990000000005 -7.46268834936313,42.0190797383664,-226.990000000005 -7.46262582033117,42.0192535787921,-226.990000000005 -7.46256681179677,42.0193886949925,-226.990000000005 -7.46246488804633,42.0196284176105,-226.990000000005 -7.46233547135658,42.0198944590524,-226.990000000005 -7.46229859102262,42.0199600060589,-226.990000000005 -7.46222214798518,42.0200957927974,-226.990000000005 -7.46211871506508,42.0202756681023,-226.990000000005 -7.46206842378221,42.0203666960377,-226.990000000005 -7.46205635401804,42.0204811923501,-226.990000000005 -7.4620652383562,42.0205531093963,-226.990000000005 -7.46200053001135,42.0207175620322,-226.990000000005 -7.46188335107073,42.0208121103264,-226.990000000005 -7.46177421923845,42.0208536841696,-226.990000000005 -7.46159601953723,42.0208848652015,-226.990000000005 -7.46152795867971,42.0209490704637,-226.990000000005 -7.46126392854635,42.0211438654477,-226.990000000005 -7.46116586036512,42.021226511489,-226.990000000005 -7.46070435268453,42.0216305192907,-226.990000000005 -7.46111691026695,42.0218368813542,-226.990000000005 -7.46125604942301,42.0218881784657,-226.990000000005 -7.46171537779071,42.022145000412,-226.990000000005 -7.46178997658683,42.0222271426411,-226.990000000005 -7.46182166016693,42.0223158234029,-226.990000000005 -7.46165251368713,42.0225106188713,-226.990000000005 -7.46125923484898,42.0229665947727,-226.990000000005 -7.4611507731599,42.0230851144445,-226.990000000005 -7.4607942066708,42.0235055508229,-226.990000000005 -7.46057258959527,42.0236492164987,-226.990000000005 -7.46039841344822,42.0237135898059,-226.990000000005 -7.45963280987426,42.0237352152827,-226.990000000005 -7.45875488994037,42.0237286767899,-226.990000000005 -7.45857534905442,42.0242724951737,-226.990000000005 -7.45852120220234,42.0245527858383,-226.990000000005 -7.4584529733599,42.0247023188872,-226.990000000005 -7.45840955508725,42.0247658536436,-226.990000000005 -7.45825063413034,42.0250142931568,-226.990000000005 -7.45819564915014,42.025110685526,-226.990000000005 -7.45808718746102,42.0253033016631,-226.990000000005 -7.45804276307529,42.0254137752066,-226.990000000005 -7.45803941056266,42.0254561875205,-226.990000000005 -7.45806422113249,42.0255259248421,-226.990000000005 -7.45810093348151,42.025599517803,-226.990000000005 -7.45812037931247,42.0256521565068,-226.990000000005 -7.45812876149239,42.0257267549553,-226.990000000005 -7.45807662596825,42.0258368934421,-226.990000000005 -7.45798861622321,42.0259322796009,-226.990000000005 -7.45793145193011,42.0260238099269,-226.990000000005 -7.4578868595594,42.0261084668864,-226.990000000005 -7.45774772040337,42.0263010833371,-226.990000000005 -7.45761729760055,42.0264189328284,-226.990000000005 -7.45756348582005,42.0264685533205,-226.990000000005 -7.45739299815555,42.0266029995691,-226.990000000005 -7.4572885591223,42.0266455792489,-226.990000000005 -7.45708990837533,42.0266616724907,-226.990000000005 -7.45707515624173,42.0267052584168,-226.990000000005 -7.45696669455264,42.0268148940684,-226.990000000005 -7.45674943520453,42.0269681152767,-226.990000000005 -7.45660057268385,42.0270623273021,-123.735000000001 -7.45647400634854,42.0272455560626,3397.89999999999 -7.45610436398215,42.0273989450575,5111.8701 -7.45597343902109,42.0274438717318,5111.8701 -7.45581921176154,42.0274968452226,5111.8701 -7.45560547380935,42.0275533392873,3825.38370000001 -7.45554663236161,42.0275749647926,2694.4581 -7.45529517504896,42.0276805765331,-226.990000000005 -7.45480902478349,42.0278923039557,-226.990000000005 -7.45448565104415,42.0279657293579,-226.990000000005 -7.45438607369322,42.0279412540109,-226.990000000005 -7.45427878610221,42.0278731928916,-226.990000000005 -7.45414769315619,42.0276835940088,-226.990000000005 -7.45404241599475,42.0275454606031,-226.990000000005 -7.45396664399887,42.0275179676108,-226.990000000005 -7.45353346648738,42.0274671735071,-226.990000000005 -7.45333498372537,42.0274527567024,-226.990000000005 -7.45313650006502,42.0271510079928,3304.1828 -7.4528899044347,42.0268705499475,5111.8701 -7.45255228161833,42.0265136481446,5111.8701 -7.45245438052372,42.026430499825,5111.8701 -7.4521593378518,42.0261753547732,5111.8701 -7.45186898887725,42.0259480373683,5111.8701 -7.45149632906982,42.0256214782949,5111.8701 -7.45142977648368,42.0255002760907,5111.8701 -7.45136188361115,42.0254253417188,5111.8701 -7.45130941301539,42.0253963403521,5111.8701 -7.45124252535765,42.0253772298723,5111.8701 -7.45121000364943,42.0253678421256,5111.8701 -7.45111998167816,42.0253225796606,5111.8701 -7.45094429725975,42.0251931629193,5111.8701 -7.45079124319995,42.0250840309631,5111.8701 -7.45067272307463,42.0250272017136,5111.8701 -7.45040399924391,42.0250067498178,5111.8701 -7.45016545072188,42.0250033972224,5111.8701 -7.45004206891424,42.0250104374056,5111.8701 -7.44985330861855,42.0250320631085,5111.8701 -7.449779044894,42.0249393588793,5111.8701 -7.44966723069228,42.0247936814852,5111.8701 -7.44948986911922,42.0248521872452,5111.8701 -7.44910681580397,42.0250033972224,5111.8701 -7.44882719630715,42.0251366694264,5111.8701 -7.44833098760545,42.0253889645537,5111.8701 -7.44807165116946,42.0255431914989,5111.8701 -7.44788490220166,42.0256565147029,5111.8701 -7.44766881695166,42.0258075566075,5111.8701 -7.44747787734307,42.0259765360021,5111.8701 -7.44731862131454,42.0261471912152,5111.8701 -7.44720026827588,42.026304435864,5111.8701 -7.44706146419144,42.0265827150051,5111.8701 -7.44692718581938,42.0267659438132,5111.8701 -7.44680531318143,42.0269042450694,5111.8701 -7.44654446847407,42.0270608185496,571.010899999994 -7.44623132025759,42.0272029761173,2579.51850000001 -7.44598254531437,42.0273310515152,5041.1124 -7.44561374197448,42.0275528368185,5111.8701 -7.4454568323455,42.0276426905851,5111.8701 -7.44536580515945,42.0277141044037,5111.8701 -7.44510110488286,42.0279048762835,5111.8701 -7.44496079162876,42.0280089800804,5111.8701 -7.4447276069473,42.0281754446408,5111.8701 -7.44464965563854,42.0282393142383,5111.8701 -7.44446491799868,42.0283712457651,5111.8701 -7.44437590214053,42.0284248897669,5111.8701 -7.44426995483592,42.0284636140192,5111.8701 -7.44413534139227,42.0285030088636,5111.8701 -7.44384633360245,42.0285253046612,5111.8701 -7.4435264803607,42.0285140730198,5111.8701 -7.44309363881915,42.028497980247,5111.8701 -7.4429804834327,42.0284986508627,5111.8701 -7.4424245951551,42.0285863252958,5111.8701 -7.44216341537613,42.0286426515729,5111.8701 -7.44199795648058,42.0286696416188,5111.8701 -7.44174800833762,42.0287496047675,5111.8701 -7.44142882523907,42.0287715655059,5111.8701 -7.44098843964576,42.0289123813618,5111.8701 -7.44042702044096,42.029228211153,5111.8701 -7.4402779899353,42.0293339909682,5111.8701 -7.44000557852035,42.0295504117872,5111.8701 -7.43983726927041,42.0297177144015,5111.8701 -7.43962956620029,42.0298167887192,5111.8701 -7.43941415109348,42.0299272624267,5111.8701 -7.43915028894508,42.0300402501897,5111.8701 -7.43903160083481,42.0300591931193,5111.8701 -7.4389035253298,42.0301353010816,5111.8701 -7.43882842347709,42.03020168562,5111.8701 -7.43877913830734,42.0302600235916,5111.8701 -7.4386448599353,42.0304491196841,5111.8701 -7.43837479491988,42.0307993154981,5111.8701 -7.43828326467725,42.0310941908759,5111.8701 -7.43827857097989,42.0311225217243,5111.8701 -7.43823716403518,42.0312868068999,5111.8701 -7.43824504315855,42.0314259463937,5111.8701 -7.43828175550756,42.0316505812313,5111.8701 -7.43828795837462,42.0318841009609,5111.8701 -7.43828745531805,42.0321253324743,5111.8701 -7.43826113647685,42.0322599455795,5111.8701 -7.43822911782518,42.0324049526386,5111.8701 -7.43818536358265,42.0325330282316,5111.8701 -7.43808897255603,42.0327201125211,5111.8701 -7.43798738387718,42.0328450027729,5111.8701 -7.43783818538658,42.0329588287314,4027.26119999999 -7.43772016831781,42.0330392949151,1758.9872 -7.43750743558044,42.0332205120982,-226.990000000005 -7.43696646742139,42.0334826974767,-226.990000000005 -7.43664208756893,42.0336910721191,-226.990000000005 -7.43649674554584,42.033854519296,-226.990000000005 -7.43646237959635,42.0339688478663,-226.990000000005 -7.43649574033106,42.0341017850127,-226.990000000005 -7.4365049597408,42.0341815811953,-226.990000000005 -7.4364754554736,42.0342674116043,-226.990000000005 -7.43635274470749,42.0344142622751,-226.990000000005 -7.43617504806282,42.0345262445743,-226.990000000005 -7.43596550075145,42.0346293420427,-226.990000000005 -7.43576165325053,42.034687848092,-226.990000000005 -7.4354399557675,42.0347466890286,-226.990000000005 -7.43536200356041,42.0347979857319,-226.990000000005 -7.4353125504057,42.0348710762234,-226.990000000005 -7.43524281329189,42.0349210323977,-226.990000000005 -7.43506394344747,42.0349575775832,-226.990000000005 -7.43482472388391,42.0350719068381,-226.990000000005 -7.43468809911236,42.0351369504672,-226.990000000005 -7.4345437623041,42.0351825475555,-226.990000000005 -7.43439808520943,42.0352355212694,-226.990000000005 -7.43422877074467,42.0352839685998,-226.990000000005 -7.43418015571811,42.0353022414244,-226.990000000005 -7.4341320428498,42.0353273871497,-226.990000000005 -7.4340783990543,42.0353525328651,-226.990000000005 -7.43403565182319,42.035367787892,-226.990000000005 -7.43396859618052,42.0354019862543,-226.990000000005 -7.43386197873268,42.0354361839309,-226.990000000005 -7.43370976280107,42.0354460745988,-226.990000000005 -7.43354832745965,42.0354636768346,-226.990000000005 -7.43341857569835,42.0355235238661,-226.990000000005 -7.43326501948031,42.0352913445846,-226.990000000005 -7.43307005631756,42.0353156523013,-226.990000000005 -7.43285916782146,42.0353572266686,-226.990000000005 -7.43271365781342,42.0354123793342,-226.990000000005 -7.43249924881973,42.0354886550274,-226.990000000005 -7.43230478871354,42.0355753236823,-226.990000000005 -7.43224091849685,42.0356043250756,-226.990000000005 -7.43221493472724,42.0356304768257,-226.990000000005 -7.43214972332581,42.0356651774513,-226.990000000005 -7.43198996424074,42.0358683547747,-226.990000000005 -7.43195090459388,42.0359033915399,-226.990000000005 -7.43183724615089,42.0360058182395,925.573199999999 -7.43176968745161,42.0361052276982,2836.21120000001 -7.43168368903452,42.036220562358,5052.9296 -7.43158746509456,42.0363555110634,5111.8701 -7.43155963708367,42.0364093231326,5111.8701 -7.43146827482601,42.0365504743472,5111.8701 -7.43138479079342,42.0367181121491,5111.8701 -7.43134656927468,42.036798578911,5111.8701 -7.43125738543161,42.0369209545125,5111.8701 -7.43117926613786,42.0370039349895,5111.8701 -7.43104096510999,42.037135866339,5111.8701 -7.43091741621569,42.0372704801745,5111.8701 -7.43080191353142,42.0373781033848,5111.8701 -7.4307258055656,42.0374627605685,5111.8701 -7.4306840635493,42.0375246192805,5111.8701 -7.43054777384934,42.0376863899759,5111.8701 -7.43050586474638,42.0377425487325,5111.8701 -7.43024803658175,42.0380551935703,5111.8701 -7.43017092340111,42.0381353243828,5111.8701 -7.42996506367396,42.0383579479911,5111.8701 -7.42983162432842,42.0384494784392,5111.8701 -7.42977647136323,42.0384739537432,5111.8701 -7.42973824984452,42.0384888730993,5111.8701 -7.42966230986366,42.0385316209513,5111.8701 -7.42959626033407,42.0385790623402,5111.8701 -7.42953758687129,42.0386223131801,5111.8701 -7.4294695260138,42.0386816568579,5111.8701 -7.42935285012976,42.0388030267423,5111.8701 -7.42915956322332,42.0390285001579,2155.04090000001 -7.42911530682255,42.0391104751296,3005.6436 -7.42905747148792,42.0392417356065,4117.2319 -7.42891028522356,42.0394883312131,1092.14320000001 -7.42891497892093,42.0395602481077,-226.990000000005 -7.42895823010691,42.0397228569132,-226.990000000005 -7.42899326619961,42.0398403712916,-226.990000000005 -7.42899142195833,42.0399448098022,-226.990000000005 -7.4289800223374,42.0400581333513,-226.990000000005 -7.42893174328076,42.0402344883026,-226.990000000005 -7.4289101172386,42.040302382073,-226.990000000005 -7.42888564263868,42.0403650786358,-226.990000000005 -7.42879830303689,42.0404988536907,-226.990000000005 -7.42867559227074,42.0406259235869,-226.990000000005 -7.42859747297702,42.0406844287857,-226.990000000005 -7.42855858041679,42.0407328766323,-226.990000000005 -7.4285441633548,42.0407801502574,-226.990000000005 -7.42854852198055,42.0409254928003,-226.990000000005 -7.42857132122246,42.0410656379329,-226.990000000005 -7.42856863885302,42.0412492019306,-226.990000000005 -7.42854751676573,42.0413385526561,-226.990000000005 -7.42854181695529,42.0414104694581,-226.990000000005 -7.42856109480126,42.0414701487736,-226.990000000005 -7.42863234108476,42.0415398858725,-226.990000000005 -7.42880014727816,42.0416481803349,-226.990000000005 -7.42901556238497,42.0417759204098,-37.8398000000016 -7.42930457017482,42.0419601548306,5111.8701 -7.42948846878819,42.0420796804915,5111.8701 -7.4296540956687,42.0422010505571,5111.8701 -7.42977865067612,42.0423014657032,5111.8701 -7.42989683483152,42.0424050662521,5111.8701 -7.42996120810479,42.0425044757075,5111.8701 -7.43001954649596,42.0426400948778,5111.8701 -7.43004318296772,42.042732631194,5111.8701 -7.43005659391659,42.0428791467523,5111.8701 -7.43005072701948,42.0429428488026,5111.8701 -7.43002189289548,42.0430506405289,5111.8701 -7.42996606978712,42.0431653047979,5111.8701 -7.42981553101009,42.0433512150068,5111.8701 -7.42972567702382,42.0434643710372,5111.8701 -7.42955703270226,42.04362178299,5111.8701 -7.42945628215156,42.0436881681188,5111.8701 -7.42937346916047,42.0437322567187,5111.8701 -7.42932837463154,42.0437538820563,5111.8701 -7.42915922815173,42.0437882480223,2723.3992 -7.42905814163112,42.0437974676032,780.528300000005 -7.42897918420924,42.04383283956,-226.990000000005 -7.42895588280907,42.0438571466781,-226.990000000005 -7.42893911934756,42.0438821249073,-226.990000000005 -7.42891715823379,42.0439557179639,-226.990000000005 -7.428924199229,42.044090834367,-226.990000000005 -7.42895236231148,42.044177838857,-226.990000000005 -7.42901790878449,42.0442955204472,7.25780000000668 -7.42913173521247,42.0444204106336,2194.98820000001 -7.42928411823074,42.0445473125808,5111.8701 -7.42954177751211,42.0447870350616,5111.8701 -7.42964655161694,42.0448837623545,5111.8701 -7.42975166079339,42.0449682521017,5111.8701 -7.42981754233802,42.0450145199155,5111.8701 -7.42992348964263,42.045073696184,5111.8701 -7.43007034083537,42.0451613711021,5111.8701 -7.43023445854622,42.0452673185268,5111.8701 -7.4303839912101,42.0453439292847,5111.8701 -7.43076503319742,42.0454671429863,5111.8701 -7.43098732041615,42.0455097227042,5111.8701 -7.43121094971795,42.045544423939,5111.8701 -7.43127884348881,42.0455662167691,5111.8701 -7.43145184553779,42.0456584179424,5111.8701 -7.4315147105397,42.0456859104262,5111.8701 -7.43157757464328,42.0456842340068,5111.8701 -7.43162820099774,42.0456780313212,5111.8701 -7.43174940349252,42.0456079592105,5111.8701 -7.43186708548968,42.0455536439321,5111.8701 -7.43197387092244,42.045526151391,5111.8701 -7.43212206329992,42.0454919531403,5111.8701 -7.43220973797333,42.0454860859877,5111.8701 -7.43243085199232,42.0454621137106,5111.8701 -7.43267141274055,42.0454528937042,5111.8701 -7.43285698850857,42.045422383819,5111.8701 -7.43302797922964,42.0454002553873,5111.8701 -7.43317281819616,42.0454032726889,5111.8701 -7.43323735855608,42.04541232526,5111.8701 -7.43326568962351,42.0454274124308,5111.8701 -7.43331061706581,42.0454547375722,5111.8701 -7.43333056595332,42.0454738486867,5111.8701 -7.43346216195592,42.0456535567908,5111.8701 -7.43356090028039,42.0458506989722,5111.8701 -7.43373541149906,42.0461527825119,5111.8701 -7.43380900508037,42.0462674471861,5111.8701 -7.43386734257324,42.0463341670991,5111.8701 -7.43414159822949,42.0466613962514,5111.8701 -7.43427671472969,42.0467485679955,5111.8701 -7.43464501591134,42.0470040487266,5111.8701 -7.43484484075642,42.0471299448877,5111.8701 -7.43518112238805,42.047320884632,5111.8701 -7.43542285633609,42.0474860084808,5111.8701 -7.43569560372095,42.0476120717905,5111.8701 -7.43589207515506,42.0476796301424,5111.8701 -7.43605250528166,42.0477743457969,5111.8701 -7.43610246149291,42.0477916124136,5111.8701 -7.43629105380365,42.047807035226,5111.8701 -7.43640622141634,42.0478155844788,5111.8701 -7.43656765675776,42.0478410654615,5111.8701 -7.43673529496617,42.0478725814698,5111.8701 -7.43710024273688,42.0479133177801,5111.8701 -7.43720551989829,42.0479325962581,5111.8701 -7.43740148827583,42.0480028365758,5111.8701 -7.43740886434263,42.0480055182154,5111.8701 -7.43746636460564,42.0480346873751,5111.8701 -7.43754716626883,42.0480579889393,5111.8701 -7.43782846292026,42.0481037541978,5111.8701 -7.43791278418271,42.0481102921845,4762.69899999999 -7.43800347629718,42.0481195124723,3019.60739999999 -7.43836976615089,42.0481681274215,-226.136199999994 -7.43865877394075,42.0482371940991,1101.3171 -7.43889883163243,42.0483035790748,2377.22840000001 -7.43901131687568,42.048384212609,3926.9954 -7.43922857532546,42.04843953341,4990.2546 -7.43939705166206,42.0485243586337,5111.8701 -7.43949797019769,42.0485614063036,5111.8701 -7.43954289674169,42.0485372664184,5111.8701 -7.43940124320115,42.0481511957777,-226.990000000005 -7.43933686992792,42.0480799496768,-226.990000000005 -7.4392424893309,42.0477602638015,-226.990000000005 -7.43986995896358,42.0478459271128,-226.990000000005 -7.4400738064645,42.0479746733503,-226.990000000005 -7.44027581062244,42.0481885792028,166.944600000003 -7.44029643055148,42.0484569679475,5111.8701 -7.44026038834564,42.0489556913525,5111.8701 -7.44018243613854,42.0493602019901,5111.8701 -7.44026374085827,42.0496146763014,5111.8701 -7.44032006702321,42.0497196177159,5111.8701 -7.44052425049404,42.0498929554449,5111.8701 -7.44065869595273,42.0499189392203,5111.8701 -7.44087109361848,42.049921621446,5111.8701 -7.44098056142072,42.0499593400244,5111.8701 -7.44125330790728,42.0502731587953,5111.8701 -7.44129471485199,42.0502972986878,5111.8701 -7.44153242524582,42.0504181654424,5111.8701 -7.44163267273995,42.0504610807026,5111.8701 -7.44203986558353,42.0507390246164,5111.8701 -7.44227640367592,42.0508494979759,5111.8701 -7.4427488070226,42.0509214146849,5111.8701 -7.44342891523601,42.0510794978831,5111.8701 -7.44365153842466,42.0510955909415,5111.8701 -7.44405521077061,42.0510962613188,5111.8701 -7.44475141140402,42.0514350577371,5111.8701 -7.44482919562616,42.051428855613,5111.8701 -7.44497286139293,42.0514164500289,5111.8701 -7.44509741640031,42.0514037095889,5111.8701 -7.44532104570211,42.0513983452625,5111.8701 -7.44540788224733,42.0514013629463,5111.8701 -7.44615236283571,42.0514241616626,5111.8701 -7.44676206289374,42.05145400096,5111.8701 -7.4469467996353,42.0514736145507,1973.52039999999 -7.44729649311417,42.0515071425437,-226.990000000005 -7.44753235926673,42.051519547443,-226.990000000005 -7.44780795610768,42.0515172008047,-226.990000000005 -7.44847666470015,42.0514898756028,-226.990000000005 -7.44864312970882,42.0514826669238,-226.990000000005 -7.44960134824932,42.0514452841032,-226.990000000005 -7.4498320185463,42.0514493070115,-226.990000000005 -7.45072150608611,42.0514612096424,-226.990000000005 -7.45089434104846,42.0514712679107,-226.990000000005 -7.45107606034898,42.0515032863985,-226.990000000005 -7.45129700728131,42.0515446934212,-226.990000000005 -7.45155349336294,42.0516020252538,-226.990000000005 -7.45180847117318,42.0516829947894,-226.990000000005 -7.45214341251842,42.0518124116244,-226.990000000005 -7.45290968533725,42.0521389702068,-226.990000000005 -7.45343439309133,42.0523718196606,-226.990000000005 -7.45376715422542,42.0525096182904,-226.990000000005 -7.45401827646645,42.0526497632178,-226.990000000005 -7.45420703676214,42.0527230212768,-226.990000000005 -7.45424140271167,42.0527362643889,-226.990000000005 -7.45450174436248,42.0528368476494,-226.990000000005 -7.45458405429699,42.0528618256832,-226.990000000005 -7.45466720325803,42.0529007178103,-226.990000000005 -7.45478957895256,42.0529649227523,-226.990000000005 -7.45489016151827,42.0530215849471,-226.990000000005 -7.4550747311732,42.0531508336336,-226.990000000005 -7.45518218764747,42.05323381426,-226.990000000005 -7.45531445379327,42.0533607166114,-226.990000000005 -7.45544571472428,42.0534877861306,-226.990000000005 -7.4556441974863,42.0536884491839,-226.990000000005 -7.45592934970694,42.0539868448982,4711.3798 -7.45679218333397,42.0548885695896,5111.8701 -7.45683426042189,42.0549326584205,5111.8701 -7.4572570435272,42.0553747202956,5111.8701 -7.45737271419645,42.0554955873933,5111.8701 -7.45747078237769,42.0555981819422,5111.8701 -7.45773732689552,42.0558767963813,5111.8701 -7.45973808703566,42.058007978952,-226.990000000005 -7.46013874194061,42.058202941827,-226.990000000005 -7.46007084816975,42.0582772052691,-226.990000000005 -7.46002558655416,42.0582619504066,-226.990000000005 -7.45995752479834,42.0583211270069,-226.990000000005 -7.46002072487183,42.0589207681074,-226.990000000005 -7.46005995160535,42.0591033260982,-226.990000000005 -7.46013522144302,42.059466262233,-226.990000000005 -7.46035885074478,42.0597497384501,-226.990000000005 -7.46073436000827,42.060119547784,-226.990000000005 -7.46088305454399,42.0602389058898,-226.990000000005 -7.46093703430941,42.0602653929785,-226.990000000005 -7.46120072937119,42.0604405747061,-226.990000000005</coordinates>
</LineString>
</Placemark>
</Folder>
</Document></kml>
