<?xml version="1.0" encoding="UTF-8"?>

<kml xmlns:xsd="http://www.w3.org/2001/XMLSchema" xmlns:gx="http://www.google.com/kml/ext/2.2" xmlns:atom="http://www.w3.org/2005/Atom" xmlns="http://www.opengis.net/kml/2.2">
<Document>
<name>ES28a_03a_arbas_del_puerto-la_pola_de_lena</name>
<visibility>1</visibility>
<Schema name="ES28a_03a_arbas_del_puerto-la_pola_de_lena" id="kml_schema_ft_ES28a_03a_arbas_del_puerto-la_pola_de_lena">
<SimpleField type="xsd:string" name="id">
<displayName>id</displayName>
</SimpleField>
<SimpleField type="xsd:string" name="nombre">
<displayName>nombre</displayName>
</SimpleField>
<SimpleField type="xsd:double" name="longitud">
<displayName>longitud</displayName>
</SimpleField>
<SimpleField type="xsd:string" name="_formato">
<displayName>_formato</displayName>
</SimpleField>
</Schema>
<Folder id="kml_ft_ES28a_03a_arbas_del_puerto-la_pola_de_lena">
<name>ES28a_03a_arbas_del_puerto-la_pola_de_lena</name>
<Placemark id="kml_1">
<name>&lt;img height='20' src='https://nco.ign.es/iconos/icono_todos_caminos_azul.png' /&gt;&lt;img height='20' src='https://nco.ign.es/iconos/Camino Santiago_20.png' /&gt;&lt;img height='20' src='https://nco.ign.es/iconos/icono_todos_caminos_azul.png' /&gt;  Camino de Santiago </name>
<visibility>1</visibility>
<description><![CDATA[<!DOCTYPE html>
<html>
<head>
<style>
#nco {
  border-collapse: collapse;
  overflow:hidden;
}
#nco th, #nco td {
  padding: 4px;
  text-align: left;
}
#nco th {
  color: #364B5F;
  padding-right: 5px;
}
#nco td {
  color: rgb(51, 51, 51);
  font-size: 12px;
  padding-right: 5px;
}
</style>
</head>
<body>
<table id="nco">
<tr>
<td>Caminos del Norte</td>
</tr>
<tr>
<th><b>Camino: </b></th>
<td>ES28a Camino de El Salvador</td>
</tr>
<tr>
<th><b>Etapa: </b></th>
<td>03a Arbás del Puerto-La Pola de Lena</td>
</tr>
<tr>
<th><b>Longitud: </b></th>
<td>28.74 km</td>
</tr>
</table>
</body>
</html>]]></description>
<Style>
<IconStyle>
<scale>0.8</scale>
</IconStyle>
<LabelStyle>
<color>ffffffff</color>
<scale>0.75</scale>
</LabelStyle>
<LineStyle>
<color>ffff0000</color>
<width>3.0</width>
<gx:labelVisibility>1</gx:labelVisibility>
</LineStyle>
<PolyStyle>
<color>66ff0000</color>
</PolyStyle>
</Style>
<ExtendedData>
<SchemaData schemaUrl="#kml_schema_ft_ES28a_03a_arbas_del_puerto-la_pola_de_lena">
<SimpleData name="id">ES28a_03a</SimpleData>
<SimpleData name="_formato">kml</SimpleData>
</SchemaData>
</ExtendedData>
<LineString>
<extrude>0</extrude>
<tessellate>1</tessellate>
<coordinates>-5.74514837916097,42.9932183215851,1324.724 -5.74587374898996,42.9934095963368,1329.2452 -5.74668779960548,42.9934697787563,1329.96649999999 -5.74721250646124,42.9934077526358,1331.2436 -5.74761182107978,42.9935671760656,1333.5675 -5.74806729297997,42.9937747117898,1346.3751 -5.74851840715271,42.9938835091194,1366.2188 -5.7489690182689,42.9939819130315,1361.6808 -5.74967997193421,42.9941537420241,1359.3875 -5.75021574244101,42.9943396523634,1360.8553 -5.75065914547536,42.9945775310722,1362.8698 -5.75099039833809,42.994728740407,1363.4792 -5.75136858997101,42.9947198552197,1359.7368 -5.75164670119644,42.9948921874134,1365.8461 -5.75186563680087,42.995254285486,1366.38099999999 -5.75208457150697,42.99561671914,1368.7942 -5.75260274132241,42.9957136137024,1374.72010000001 -5.75312091023955,42.9958106763119,1381.5675 -5.75359633192555,42.995858956245,1389.75750000001 -5.75406119211878,42.9956690222357,1402.0548 -5.75457785276456,42.9954286293366,1415.6678 -5.75509451341031,42.9951880686094,1420.8305 -5.75566632702129,42.9952738993499,1421.6341 -5.75644919621496,42.9955432936788,1406.7464 -5.75735427401656,42.9958195613415,1390.3121 -5.75829707117859,42.9960353115157,1390.14109999999 -5.75876394269975,42.9961930586239,1398.1508 -5.7592019809952,42.996311746479,1399.80469999999 -5.75978687048343,42.9963871834891,1379.36229999999 -5.76034007549331,42.9966619427778,1361.00350000001 -5.76094105829984,42.9970944489172,1336.99709999999 -5.76157892144037,42.9974466564729,1319.58560000001 -5.76221678368257,42.9977988639808,1301.63039999999 -5.76263269377766,42.9980273544627,1288.5716 -5.76297886675894,42.9982079004607,1280.7 -5.76334130014515,42.9979312979492,1284.18060000001 -5.76379979038468,42.9978739654047,1288.2807 -5.76463378988771,42.9977769034262,1279.1738 -5.76521717020629,42.9977012986134,1268.4183 -5.7659561189691,42.9978218304091,1255.58289999999 -5.76667327460313,42.9979276095043,1249.3471 -5.76717652340172,42.9979307946808,1240.5245 -5.76753308989082,42.9979375007645,1233.3759 -5.76808964831159,42.9982010275272,1234.4448 -5.76868409317951,42.9983711798754,1220.2662 -5.76908541822762,42.9984384031355,1206.682 -5.76962320096069,42.9987483658126,1192.564 -5.76986325865237,42.998957913504,1187.52159999999 -5.77032510230288,42.9989775268428,1176.1112 -5.77058527596873,42.9991714845757,1163.06630000001 -5.77071838114099,42.9993377809711,1158.0163 -5.77043490517669,42.9995600689925,1148.9222 -5.77002586809183,42.999785542604,1140.68829999999 -5.76979486272327,42.9997759873624,1144.16559999999 -5.7696438208897,43.0001491491862,1130.5808 -5.76960945494021,43.0003194695832,1127.2558 -5.7697284781221,43.0006398260402,1122.9691 -5.77037505761583,43.0010398102012,1101.1675 -5.77095961203245,43.001456558965,1086.82120000001 -5.77122313910926,43.0017272939957,1081.1081 -5.77117955285166,43.0021592973805,1078.5588 -5.7709867690018,43.0025334656437,1069.2219 -5.77070111372461,43.0027098208101,1061.8463 -5.77054739041994,43.0030214601649,1060.1906 -5.7706275210416,43.0034040097992,1052.9106 -5.7708451154613,43.0035833831131,1045.9613 -5.77108651433768,43.0038236081217,1038.6427 -5.77068015962228,43.004110437006,1037.9825 -5.77018998580269,43.0043994449323,1039.6504 -5.77027279879378,43.0048438534723,1039.82580000001 -5.77046239721763,43.0053316798617,1035.6443 -5.77032040770721,43.0059043315689,1035.4105 -5.76969344202937,43.0064117723271,1037.573 -5.76861619940865,43.0071607793468,1040.03170000001 -5.76823163782204,43.0074623599076,1040.00870000001 -5.76767658857093,43.0077066083925,1042.3414 -5.76737500706207,43.0079907554143,1033.87059999999 -5.76759478079462,43.0082162283031,1033.5238 -5.76788915332334,43.0082398654718,1034.4031 -5.76823867881722,43.0085543546295,1038.7659 -5.76836558022416,43.0090435224812,1040.4911 -5.7686185467065,43.0095450949799,1048.9664 -5.76884670172067,43.0099549702634,1050.3504 -5.76948523500441,43.0101702175573,1050.2758 -5.77001698285538,43.0103418791015,1051.6516 -5.77056817743561,43.0104823596734,1051.66620000001 -5.77126823363819,43.0106654203625,1053.9293 -5.7714251432672,43.010892402116,1057.0046 -5.77174332025261,43.0109768919265,1054.8033 -5.77195068825111,43.0109257625497,1048.5383 -5.77217398248129,43.0107665063352,1041.2448 -5.77261453516126,43.0107712003357,1033.9972 -5.77283212958095,43.0109505725008,1035.7944 -5.77314628301223,43.0109428615139,1029.8077 -5.77363126007792,43.0110080728248,1027.9348 -5.77409192963035,43.0109968410294,1028.7464 -5.77455528065388,43.0110471321833,1024.4507 -5.77498778712384,43.0113445219141,1019.1045 -5.77546421402466,43.0116870070292,1011.23789999999 -5.77549757475937,43.0119632743582,1006.8838 -5.77561961448397,43.012344985995,1005.6554 -5.77595371770109,43.012782856575,1004.1709 -5.77617550276158,43.0130545978996,1001.04270000001 -5.77646149311038,43.0133555084433,991.833899999998 -5.77596511732205,43.013506215061,985.126999999993 -5.77548969563602,43.0136564188263,979.153000000006 -5.77459333508595,43.0137707476621,975.351899999994 -5.77425537629967,43.0141787792553,966.953899999993 -5.77370233837645,43.0144691283531,966.922399999996 -5.77329950415865,43.0148327353864,968.830799999996 -5.77289046707383,43.0150580406276,971.673899999994 -5.77262861625332,43.0152950811502,971.102599999998 -5.77233105919693,43.0156714282028,976.535799999998 -5.7718373648797,43.0158836584095,980.271699999998 -5.77160837083907,43.015919868027,981.723599999998 -5.77133880888019,43.0160694011926,981.231 -5.77102901407467,43.0164046770769,978.584300000002 -5.77072793652068,43.0166306530634,975.922300000006 -5.77062869424134,43.0168318186826,977.7742 -5.77112272363015,43.0169887281701,981.392999999996 -5.77196963102551,43.0171670950017,986.193700000003 -5.77266499442908,43.0175873638234,988.676999999996 -5.77336035693433,43.0180076323958,985.448300000004 -5.77397877334556,43.0182683092914,985.509900000005 -5.77460490179355,43.0184964648682,980.073199999999 -5.77506456523286,43.0187112093402,973.250899999999 -5.77523304156946,43.0192979424577,984.634600000005 -5.77578037968216,43.019354269183,981.105100000001 -5.77675821293692,43.0195043049583,979.966700000004 -5.77734880133733,43.0194726213412,974.856499999994 -5.7780134863756,43.0195084958562,963.478400000007 -5.77816637245044,43.0192285404945,953.431100000002 -5.77884564163736,43.0190538615733,934.915299999993 -5.77901277678923,43.0189698748054,930.364199999996 -5.77939482399136,43.0188431404493,918.039900000003 -5.77998138973591,43.0188035776973,908.126799999998 -5.78034901987606,43.0185152404752,896.669299999994 -5.78147370342526,43.0181325228901,876.089600000007 -5.78214777675656,43.0177352207246,864.886599999998 -5.78209144969332,43.0172540989554,854.761400000003 -5.78108109562865,43.0171008780968,841.447799999994 -5.78027794157752,43.0169427951854,833.388099999996 -5.77978374420372,43.0167262067818,827.056899999996 -5.78091295436366,43.0164447425208,807.002699999997 -5.78186815636144,43.0161423233065,774.533500000005 -5.78262303045763,43.0159969814558,771.884699999995 -5.78344227782706,43.0157485419436,756.896299999993 -5.78403219608428,43.0156653933531,745.691300000006 -5.78471196832773,43.0154208093541,729.419099999999 -5.78524220700904,43.0156870184474,723.629799999995 -5.78507054614476,43.0164774319628,717.967399999994 -5.78542342415131,43.0174071526044,717.263600000006 -5.78580396218376,43.0181839877987,716.429300000003 -5.78538503464762,43.0188535340661,715.545100000003 -5.78513743380251,43.0194935758382,711.675199999998 -5.78555703148181,43.0203709937481,711.263999999996 -5.78631157050639,43.021012041623,708.842199999999 -5.78691892326664,43.021453767959,705.173299999995 -5.78718798216895,43.0220559242654,724.173299999995 -5.78689679506624,43.0224942976289,719.031199999998 -5.78758344031995,43.0231623349941,736.950800000006 -5.78832657972359,43.0235500820225,768.228300000002 -5.78822633222947,43.0243894458144,760.741099999999 -5.78837217730909,43.025324195304,773.141900000002 -5.78830746896424,43.0261880345791,756.952699999994 -5.78923350176643,43.0267994104824,744.335900000005 -5.78928278783449,43.0278885547991,727.376099999994 -5.78969920098615,43.028689865129,736.3122 -5.78969785980141,43.0294252930036,736.790800000002 -5.78990371863023,43.0301555244237,738.671799999996 -5.7899519985852,43.0304586140163,739.926800000001 -5.79069530597376,43.0308461934776,762.309699999998 -5.79110149270423,43.0314193479842,771.997600000002 -5.79066764594787,43.0317598207994,768.270300000004 -5.79083092553053,43.0323136970025,782.4709 -5.7910517044779,43.0326127632267,781.936300000001 -5.79115044370067,43.0332695691327,806.962400000004 -5.79076370190287,43.0338876508595,809.959199999998 -5.79013070134296,43.0344103460832,801.417600000001 -5.79005693977669,43.0350715110338,809.347599999994 -5.79070117287091,43.0355630257908,815.907099999997 -5.79148588720418,43.0361018144592,820.970199999996 -5.79109327850928,43.0365933288431,834.444499999998 -5.79027956386367,43.0369430223532,825.311799999996 -5.79031845552557,43.0385649206634,841.988299999997 -5.78992350043111,43.0397663822958,838.766199999998 -5.78955385806473,43.0407643315528,851.582299999995 -5.78947423049965,43.0412989297867,855.178799999994 -5.78926803570092,43.0420901815369,857.448900000003 -5.78870628052617,43.0426618273699,854.106799999994 -5.7880766315806,43.0432604628136,849.799899999998 -5.78804310375926,43.0440475230218,847.154999999999 -5.78854132468719,43.0443651973461,841.719700000001 -5.78956659887043,43.0448728054391,846.832999999999 -5.78899914388523,43.0453178848242,834.508700000006 -5.78818878175226,43.0457435175151,824.016099999993 -5.78746005851231,43.0464460885693,813.978799999997 -5.78685790340433,43.0468920060306,809.137000000002 -5.7861764540062,43.0471116115474,802.454100000003 -5.7856157049446,43.0477085709144,790.401599999997 -5.78512066944268,43.0482279139778,793.220499999996 -5.78432288013041,43.0481715874884,774.753700000001 -5.78425129877533,43.048883378332,768.970000000001 -5.78457333132995,43.0498898772861,757.131299999994 -5.7848563042377,43.0507959614747,748.369600000005 -5.78404242160714,43.0511456541226,740.4764 -5.78335510531189,43.0512386931291,734.949699999997 -5.78301077747025,43.0520332977233,729.958100000003 -5.78202305376422,43.0523618680635,719.938500000004 -5.78124588348267,43.0527613499278,714.899600000004 -5.78078521393024,43.0532798546323,710.179999999993 -5.78008281042981,43.0538042265462,695.705499999996 -5.78007794874748,43.0544637141386,693.699399999998 -5.78013645512364,43.0549949595746,683.521999999997 -5.78133221697138,43.0554477496789,686.812099999996 -5.78128477514457,43.0559308825699,670.415200000003 -5.78027861172072,43.0558542722153,656.011499999993 -5.77918024701271,43.0560333098377,655.789399999994 -5.77792782303012,43.0558611452606,647.225399999996 -5.77708493918893,43.0563382433872,635.498999999996 -5.77705459679357,43.05720124375,645.856100000005 -5.77674228670524,43.0579442155086,619.869399999996 -5.77564962180772,43.058249820204,609.719100000002 -5.77511636568539,43.0586940608381,603.993799999997 -5.77490312989148,43.0593332651275,585.659799999994 -5.77461512731644,43.0598475786306,588.360799999995 -5.77495207998961,43.0604227443284,589.999800000005 -5.77519347886603,43.0611777863731,596.191999999995 -5.77468670867152,43.0614438278714,570.620999999999 -5.7741868123856,43.0618619170973,567.399000000005 -5.77481159964885,43.0626836789021,566.470499999996 -5.77453264939694,43.0634004992781,569.216499999995 -5.77334778411359,43.0639619195324,541.5913 -5.77332196743064,43.064926173627,538.675199999998 -5.77363930628792,43.0658314194072,531.482699999993 -5.77332347660033,43.0664984508121,528.752399999998 -5.77271880620955,43.0668935741685,529.320399999997 -5.77211296172069,43.0672633834397,529.912800000006 -5.77164642527112,43.0676551536152,518.8894 -5.77158959604964,43.068696186179,500.483099999998 -5.77169856079526,43.0695811469821,524.244000000006 -5.77157149050507,43.0705985428733,541.478499999997 -5.77095391222196,43.0714757925136,539.145699999994 -5.77053666094218,43.072195965703,550.776500000007 -5.77002150946608,43.0730453877832,543.141699999993 -5.76991975280227,43.0738594383284,547.445800000001 -5.76987449118668,43.0743931982183,560.403999999995 -5.7695115547439,43.0747824535941,576.881999999998 -5.76984414789302,43.0752563663651,572.742599999998 -5.77046105603293,43.0759007667855,558.679399999994 -5.77078208337273,43.0761213786637,563.672900000005 -5.77114451675897,43.0764931998438,562.637900000002 -5.77250875494328,43.0768408811244,562.305900000007 -5.77325725908578,43.0765694753545,579.243499999997 -5.77412545655338,43.076650109025,595.466799999995 -5.77458126442349,43.076791427994,600.070000000007 -5.77515458720413,43.0772339922953,589.137000000002 -5.77587878293504,43.0771912447839,589.983999999997 -5.77682174718373,43.0773967689135,581.5144 -5.77777728425313,43.0778809079501,584.193799999994 -5.77852897382161,43.0776856096513,582.066399999996 -5.77904144292827,43.0775466371916,595.971600000004 -5.77975876654726,43.0773518417571,610.737500000003 -5.78038288276901,43.0773875492364,618.161399999997 -5.78083181762886,43.0781373942779,642.186900000001 -5.78147085396917,43.0785023419048,645.532699999996 -5.78208574988284,43.0783355420997,667.171400000007 -5.78383589173679,43.0788002348297,672.263800000001 -5.78453712203748,43.0790116266786,676.107300000003 -5.78579910139976,43.0793868002392,676.542100000006 -5.78590136022179,43.0801197143447,688.903300000005 -5.7868880778147,43.080526907222,683.637199999997 -5.78698346362653,43.0811079407718,682.415699999998 -5.7866954619498,43.0816222539884,675.406799999997 -5.78651106027985,43.0821340532772,670.469299999997 -5.7873849566596,43.082341086272,674.889899999995 -5.7881760409466,43.0830066094034,672.127900000007 -5.78889219046751,43.0835470742667,671.410999999993 -5.78937917975943,43.0836114473715,664.902700000006 -5.79003330330493,43.0835450626882,652.296799999996 -5.7903327046026,43.0832845528597,654.437099999996 -5.79078633315981,43.0833750774968,660.459700000007 -5.7911640217362,43.0840758048488,665.827900000004 -5.7918675993347,43.0850983970074,664.439299999998 -5.79160843088367,43.0854853058427,652.674100000004 -5.79184211772337,43.0860629864556,652.959400000007 -5.79249741536693,43.0867824889539,640.267300000007 -5.79266320933407,43.0873871597444,623.781499999997 -5.79308817175227,43.0876052563063,625.579800000007 -5.7934509402101,43.0879769100472,614.510299999994 -5.79412467757149,43.0875804458515,608.491200000004 -5.79517375710977,43.0870733408641,604.494699999996 -5.79570684614544,43.0866296030888,612.857699999993 -5.79619500773881,43.0859587152977,607.621599999999 -5.79656800261782,43.0857977826706,606.909100000004 -5.79696530501013,43.0861684304787,617.5003 -5.79751465445076,43.0868398211369,624.011799999993 -5.79767810201838,43.0873938652417,613.335500000001 -5.79838637241595,43.0877571366403,614.5527 -5.79890118882043,43.0884293653616,608.966899999999 -5.79922238324692,43.0886499767407,613.572 -5.79964265196776,43.0887664856115,616.773000000001 -5.80006878848403,43.0890098962303,618.378400000001 -5.80069877250119,43.0891721698761,611.550900000002 -5.80136898936499,43.0894601718029,605.799799999993 -5.80152573100904,43.0906227416088,598.868900000001 -5.80263264498359,43.0913818068987,602.742199999993 -5.80351039783085,43.0924253536282,599.514999999999 -5.80440659039596,43.093113508403,590.075599999996 -5.80501126168507,43.0934791264517,589.835399999996 -5.80607559551517,43.0940615013028,577.479800000001 -5.80729885030217,43.0943359251397,571.043799999999 -5.80785289433847,43.0951085688725,554.392600000006 -5.80849545117637,43.095781132789,553.205499999996 -5.80926423927801,43.096235767263,549.150200000004 -5.80984544028365,43.0970437826242,572.417300000001 -5.81039361652454,43.097877614258,572.144400000005 -5.81062814239073,43.0985446458084,570.122600000002 -5.81100884840813,43.0994324571196,571.4856 -5.81090038671905,43.1000332721764,554.467399999994 -5.81136357065595,43.1004952822793,540.643800000005 -5.81231256978671,43.1004221921467,513.9133 -5.81252194911315,43.1005415508533,508.2117 -5.81316651817725,43.1012484801527,494.886899999998 -5.8139289354269,43.1023012471794,482.644100000005 -5.81405935822973,43.1029210055511,456.868700000006 -5.81353984812788,43.1034571121586,438.446599999996 -5.81383891435394,43.1040478686127,410.624800000005 -5.8145661275259,43.1043289972493,398.142699999997 -5.81524606775435,43.1046812047462,384.580199999997 -5.81616589768952,43.1046488508786,382.868900000001 -5.81709712724566,43.1048644336956,381.3655 -5.81692177789883,43.1052677709073,377.916100000002 -5.81773867797041,43.106020298158,375.933900000004 -5.81752594523303,43.1065736709613,370.266300000003 -5.8169926891107,43.1068112144636,372.377999999997 -5.81636203495035,43.1071506811184,374.769899999999 -5.81709377473302,43.1075313874481,367.7261 -5.81785602489598,43.1078364884581,365.974300000002 -5.81788234373717,43.1084089726624,364.415999999997 -5.81764027471756,43.1090629285313,364.455300000001 -5.81781042731048,43.1098064035323,362.463399999993 -5.81817906356374,43.1111677920786,360.888900000005 -5.81821108221542,43.1118648313551,359.415500000003 -5.81839498172712,43.1129070368211,359.138999999996 -5.81812810123934,43.1137608179493,363.825400000002 -5.81747816833467,43.1144248324125,374.064299999998 -5.81683745573805,43.1152878332258,371.656300000002 -5.81616053384895,43.1161020509721,377.362200000003 -5.815856102884,43.1168820711475,367.919599999994 -5.81553373525777,43.1180112810762,355.742299999998 -5.81556357459658,43.1186585312855,360.2399 -5.81559324595041,43.1193057818611,352.712599999999 -5.81556642405264,43.1202034836241,354.330300000001 -5.81605274230307,43.1211633794465,351.081600000005 -5.81616740685921,43.1221822837381,350.460999999996 -5.81603178730244,43.1229333021762,355.547600000005 -5.81567656289637,43.1240883284239,347.809500000003 -5.81541186172148,43.1249920654113,347.037599999996 -5.81514146163444,43.1257712471191,346.611499999999 -5.81518806533309,43.1261486000895,346.372199999998 -5.81503367008856,43.126299977016,346.500700000004 -5.81450846017623,43.1262833809473,356.254199999996 -5.81440787761049,43.1267291306576,365.342799999999 -5.81453578513054,43.127316869539,394.155499999993 -5.81409003569667,43.1277119927086,395.892900000006 -5.81441240422123,43.1281471812082,389.299799999993 -5.81456042861375,43.1287344173808,373.110700000005 -5.81456260792661,43.1292219085204,369.2212 -5.81469051544666,43.129809647707,365.418900000004 -5.81488329929652,43.1300560754458,358.538 -5.81534195662272,43.1299414113166,350.153000000006 -5.81566499529045,43.1299481167429,348.3897 -5.81602038857981,43.1302201933144,346.124200000006 -5.8158525823864,43.1305197627687,345.755499999999 -5.8154792524358,43.1307356805883,349.167400000006 -5.81582995112946,43.1309043241019,356.188200000004 -5.81619657605479,43.1309839526871,356.902499999997 -5.81654073680981,43.1314483101886,356.418099999995 -5.8168597519234,43.1318097376552,353.719299999997 -5.81668809016079,43.132463861054,357.252099999998 -5.81682253651782,43.1327560542474,359.194799999997 -5.81720089523737,43.1330864692183,360.636499999993 -5.8175777456856,43.1333875468395,359.652499999997 -5.81818845095844,43.1339486318967,357.748399999997 -5.81837134435703,43.1344168444499,351.934399999998 -5.81855239351434,43.135283868852,345.028099999996 -5.81887325286921,43.1361180356959,345.687699999995 -5.81922411954783,43.1367299144345,342.068799999994 -5.82031326394776,43.1376041474935,335.297699999996 -5.82127818841189,43.1384076365548,338.234899999996 -5.82164833293648,43.1385610250322,337.686199999996 -5.82244327279265,43.1391765920551,331.378200000006 -5.82267075766363,43.1388607620795,330.827099999995 -5.8230548161937,43.1388810465074,330.800399999993 -5.82341993194934,43.1393594856788,328.282000000007 -5.82387356050655,43.1400132739951,324.869900000005 -5.82421319554919,43.1408174334164,322.909599999999 -5.82432903330507,43.1415830366873,322.287400000001 -5.82414479962008,43.1424001044422,321.550600000002 -5.82388009844519,43.1436622514165,319.356700000004 -5.82380684083379,43.1446982548892,318.657699999996 -5.82360919530161,43.1456633472895,317.668399999995 -5.82319295013494,43.1462644969724,316.963499999998 -5.82305565432185,43.1467850136691,316.792300000001 -5.82300938659315,43.1470966526469,316.383799999996 -5.82249691748649,43.147360682503,316.154500000004 -5.82238962899715,43.1476587431406,315.468599999993 -5.82259917630855,43.1478309073445,316.544800000003 -5.82268936536644,43.1480354256035,315.570900000006 -5.82308264420455,43.1481623275118,315.991899999994 -5.82355219899347,43.1488622163781,313.094500000007 -5.82402410018187,43.1496152469437,313.138600000006 -5.8242485676118,43.1502678619098,310.774399999995 -5.82454947718086,43.1504738892077,312.269400000005 -5.8250616121142,43.1505146253358,310.989300000001 -5.82528574357424,43.1506334806677,312.131299999994 -5.82563107842733,43.150749486211,313.008199999997 -5.82557223697959,43.1510534135693,311.927299999996 -5.82547299559858,43.1515363791079,310.486499999999 -5.82579201071218,43.1521335054661,309.905799999993 -5.82601144937315,43.1526796704808,307.6633 -5.82622921087947,43.1531902964631,305.745999999999 -5.8263643273797,43.1534895299161,306.241299999994 -5.82661025196849,43.153554573948,310.637400000007 -5.82684544887618,43.1533889471916,310.3462 -5.82718541809207,43.153914157041,311.424599999998 -5.82686774416321,43.154402486809,309.077900000004 -5.82718759740496,43.1550170483003,305.933999999994 -5.82784909791556,43.1554443575281,303.711500000005 -5.82812251544365,43.1560832259686,307.289300000004 -5.8283961009567,43.1567220949384,307.361199999999 -5.82859056106288,43.1574125962451,307.093200000003 -5.82877295050659,43.1581331041338,305.413199999995 -5.82901518751117,43.1586832927252,305.339900000006 -5.82928994712226,43.1590541079889,305.641000000003 -5.82946563154071,43.159337751799,305.774300000005</coordinates>
</LineString>
</Placemark>
</Folder>
</Document></kml>
