<?xml version="1.0" encoding="UTF-8"?>

<kml xmlns:xsd="http://www.w3.org/2001/XMLSchema" xmlns:gx="http://www.google.com/kml/ext/2.2" xmlns:atom="http://www.w3.org/2005/Atom" xmlns="http://www.opengis.net/kml/2.2">
<Document>
<name>PT10a_03a_garvão-colos</name>
<visibility>1</visibility>
<Schema name="PT10a_03a_garvão-colos" id="kml_schema_ft_PT10a_03a_garvão-colos">
<SimpleField type="xsd:string" name="id">
<displayName>id</displayName>
</SimpleField>
<SimpleField type="xsd:string" name="nombre">
<displayName>nombre</displayName>
</SimpleField>
<SimpleField type="xsd:double" name="longitud">
<displayName>longitud</displayName>
</SimpleField>
<SimpleField type="xsd:string" name="_formato">
<displayName>_formato</displayName>
</SimpleField>
</Schema>
<Folder id="kml_ft_PT10a_03a_garvão-colos">
<name>PT10a_03a_garvão-colos</name>
<Placemark id="kml_1">
<name>&lt;img height='20' src='https://nco.ign.es/iconos/icono_todos_caminos_azul.png' /&gt;&lt;img height='20' src='https://nco.ign.es/iconos/Camino Santiago_20.png' /&gt;&lt;img height='20' src='https://nco.ign.es/iconos/icono_todos_caminos_azul.png' /&gt;  Camino de Santiago </name>
<visibility>1</visibility>
<description><![CDATA[<!DOCTYPE html>
<html>
<head>
<style>
#nco {
  border-collapse: collapse;
  overflow:hidden;
}
#nco th, #nco td {
  padding: 4px;
  text-align: left;
}
#nco th {
  color: #364B5F;
  padding-right: 5px;
}
#nco td {
  color: rgb(51, 51, 51);
  font-size: 12px;
  padding-right: 5px;
}
</style>
</head>
<body>
<table id="nco">
<tr>
<td>Caminos Portugueses</td>
</tr>
<tr>
<th><b>Camino: </b></th>
<td>PT10a Caminho Central Via Atlântico</td>
</tr>
<tr>
<th><b>Etapa: </b></th>
<td>03a Garvão - Colos</td>
</tr>
<tr>
<th><b>Longitud: </b></th>
<td>16.98 km</td>
</tr>
</table>
</body>
</html>]]></description>
<Style>
<IconStyle>
<scale>0.8</scale>
</IconStyle>
<LabelStyle>
<color>ffffffff</color>
<scale>0.75</scale>
</LabelStyle>
<LineStyle>
<color>ffff0000</color>
<width>3.0</width>
<gx:labelVisibility>1</gx:labelVisibility>
</LineStyle>
<PolyStyle>
<color>66ff0000</color>
</PolyStyle>
</Style>
<ExtendedData>
<SchemaData schemaUrl="#kml_schema_ft_PT10a_03a_garvão-colos">
<SimpleData name="id">PT10a_03a</SimpleData>
<SimpleData name="_formato">kml</SimpleData>
</SchemaData>
</ExtendedData>
<LineString>
<extrude>0</extrude>
<tessellate>1</tessellate>
<coordinates>-8.34245407953407,37.7096385505693,110.406600000002 -8.34178101231585,37.7106452166703,109.070800000001 -8.34122059832587,37.7114007617634,110.280199999994 -8.34063637987914,37.711621205685,114.161200000002 -8.33993967618919,37.7132001885792,116.658299999996 -8.33952208983779,37.7163839708378,113.705300000001 -8.33942150727204,37.7171178898755,111.039099999995 -8.33977639660653,37.7184108823285,109.565799999997 -8.33991620680409,37.7192058226104,107.476699999999 -8.34080720351359,37.7209804387314,103.169399999999 -8.34078054870248,37.7216655756214,102.182799999995 -8.3402154410151,37.7216811660258,104.0092 -8.34001930465261,37.7244071284544,102.729000000007 -8.33983439992612,37.7250760044877,102.085600000006 -8.33953818315612,37.7252463248867,102.461500000005 -8.33820210805425,37.7272772597725,101.197499999995 -8.33898615134602,37.7276799262043,98.2335000000021 -8.34064794748506,37.7285992534652,102.621599999999 -8.34219826359567,37.7292004034653,109.9041 -8.34231510746467,37.7289429114616,109.6351 -8.34226230179732,37.7287487867021,108.898100000006 -8.34241937851296,37.7286076351613,109.382500000007 -8.34335882226405,37.7285811486575,113.284899999999 -8.34420438847467,37.7285945599424,115.566900000005 -8.34545178368832,37.7289517961461,117.8266 -8.34688995052559,37.7291831371808,129.931400000001 -8.34747835961308,37.7293712266401,133.496100000004 -8.34794003527862,37.7296659344297,134.300399999993 -8.34909170871055,37.7289073720028,136.581999999995 -8.35005881248754,37.7279791602142,139.494099999996 -8.3513005078907,37.726757749748,142.533500000005 -8.35212696334197,37.7258836846303,144.166700000002 -8.35257723938659,37.7256493263588,143.956399999995 -8.35311133453537,37.725145742038,143.569699999993 -8.35335541488292,37.7243673982181,145.955799999996 -8.35368448843272,37.7237124359912,147.587100000004 -8.35428077754191,37.7235379248383,150.658299999996 -8.35485611075216,37.7235107679008,152.840299999996 -8.35575263928718,37.7232767453141,153.262600000002 -8.356770202332,37.7231374378699,152.256899999993 -8.35813108800367,37.7226474314439,152.640400000004 -8.35831431647388,37.7226184302993,152.806599999996 -8.35923699676344,37.722906097135,154.141199999998 -8.35954762969712,37.722973990725,153.6446 -8.36029713995274,37.7233862125003,155.080199999997 -8.3605625103725,37.7234177286687,156.318799999994 -8.3610600602589,37.7233602286155,158.646099999998 -8.36137790217276,37.72339224786,159.813200000004 -8.36152140085287,37.7235919047289,160.430999999997 -8.36151637118558,37.7241209702338,161.295700000002 -8.3619517271116,37.7246574122528,161.890799999994 -8.36227862134857,37.7247812969064,161.676999999996 -8.36298085776234,37.7249742483249,162.196899999995 -8.36355736507066,37.7250528704127,163.508900000001 -8.36457191067446,37.724922783294,164.912200000006 -8.36489310510091,37.7249216094998,166.917600000001 -8.36526576401002,37.7249920179344,169.866699999999 -8.36548302335813,37.7250620902225,171.265400000004 -8.36567094552567,37.7253816082155,171.827000000005 -8.36575342344517,37.7254178186804,171.764999999999 -8.36576582828092,37.7250344300793,171.916500000007 -8.36624510553613,37.7243370555467,172.694799999997 -8.36677936866991,37.7235897254968,172.182100000005 -8.36739108005587,37.7228009884607,170.852199999994 -8.36767824360445,37.7225463462585,168.727700000003 -8.36786549562879,37.7229136410282,171.030499999993 -8.36876520869149,37.7244074638264,172.343800000002 -8.36968235715553,37.7258464690069,171.692800000004 -8.37028367413538,37.726858332539,170.178 -8.37284082560966,37.7278668428921,173.149699999994 -8.3760301395157,37.7291657025064,173.701400000005 -8.37731055949414,37.7296354241234,176.329800000007 -8.37850984183947,37.7300121068394,173.683399999994 -8.37889473849766,37.7300437907035,173.842499999999 -8.38083883740128,37.7299760648733,173.226899999994 -8.38141148914039,37.7300253501918,172.137400000007 -8.38172899598262,37.7300897232238,170.356799999994 -8.38291419633755,37.7300784919614,161.045700000002 -8.38473021973613,37.7301192280147,151.173899999994 -8.38706206565234,37.7301408528705,146.661800000002 -8.3873710223297,37.7301720336605,146.0818 -8.38781442536405,37.7302972597076,144.7552 -8.38825162463305,37.7305155245012,143.013300000006 -8.38877549425898,37.7308952243773,140.661900000006 -8.38927941409906,37.7311277387203,141.058699999994 -8.38994342809583,37.7313947860145,145.525099999999 -8.3903891775297,37.7315902515902,148.860000000001 -8.39093752175555,37.7318371825954,151.730200000005 -8.39110834538997,37.7318447262894,152.444600000003 -8.39122988295633,37.73183198627,152.986300000004 -8.39135510810695,37.7317449815135,153.532999999996 -8.39152693785449,37.7314744137008,154.342099999994 -8.39166155129814,37.7313761781689,154.492199999993 -8.39179364945898,37.7313934446527,154.817999999999 -8.39201241707842,37.731480952122,155.303100000005 -8.39220318960038,37.7316179121267,155.657300000006 -8.39241944283535,37.73180516416,156.068700000003 -8.39277684655431,37.7320313077844,156.266900000002 -8.39319024226488,37.7322787410339,156.344100000002 -8.39356441034367,37.7324686755018,156.576300000001 -8.39393069929909,37.7325367365189,156.557799999995 -8.39438935752359,37.7326296079952,156.044299999994 -8.39459152876815,37.7326696733966,155.871599999999 -8.39512813830145,37.7329033608086,156.156000000003 -8.39585250201732,37.7332377985115,157.366299999994 -8.39620588308041,37.7332976453233,157.128700000001 -8.39699177061346,37.7332721643616,157.583299999998 -8.3977583794022,37.7332374631794,159.101500000004 -8.39833790415157,37.7332545622735,161.013099999996 -8.39927650977447,37.733246515725,163.117800000007 -8.39954355734888,37.7332374631794,163.807000000001 -8.40030698071162,37.7329829890039,165.279699999999 -8.40084090787548,37.7329618665573,166.168699999995 -8.40108549217787,37.7329466117295,166.511400000003 -8.40164154754213,37.7326071441079,168.364499999996 -8.40276505789156,37.7319235165676,172.233399999997 -8.40327685685501,37.7321189821685,175.430300000007 -8.40336168207233,37.7321174738616,175.722599999994 -8.40371573327863,37.7318923358045,175.201499999996 -8.40389091553883,37.7317867233765,174.560400000002 -8.40402016424358,37.7317357618252,174.274000000005 -8.40450296199641,37.7318475759555,176.381999999998 -8.40491719583518,37.7320405274358,178.471300000005 -8.40510478203281,37.7321390988443,178.992599999998 -8.40538591159758,37.7321000391676,178.333199999994 -8.40579159527148,37.7321840261856,178.662400000001 -8.4061052465445,37.7319500032968,177.455900000001 -8.40634681250754,37.7320284574149,177.782099999997 -8.40685827639942,37.7320031443957,180.640299999999 -8.40731307905471,37.7320948421503,184.370200000005 -8.40754659880778,37.7322893027106,184.146500000003 -8.40802637822123,37.732575125295,184.492100000003 -8.40873062596294,37.7327033688413,186.338799999998 -8.40936362742118,37.7328168596014,188.406300000002 -8.41120882001534,37.7331170994551,204.003400000001 -8.41233232946647,37.7333102181351,202.381299999994 -8.41256031739398,37.7333501162128,202.815600000002 -8.41356631373124,37.7342372569462,211.368600000002 -8.41403737679149,37.7346845151051,213.391900000002 -8.41434432214092,37.7349522330082,214.722699999998 -8.41485394179149,37.7356742503028,225.429600000003 -8.4152054786133,37.73613039355,233.801300000006 -8.41524856181433,37.7362043221201,234.651800000007 -8.41551862682979,37.7366356543514,237.906300000002 -8.41581450762987,37.73715801487,232.327799999999 -8.41617610288792,37.7376418186282,229.751099999994 -8.41595331171431,37.7385986960449,215.350399999996 -8.41605339212178,37.7393886067571,202.334700000007 -8.41621315120685,37.7402164036905,198.490600000005 -8.41628925917267,37.7404946826969,198.984899999996 -8.41633787419922,37.7410143606053,199.763600000006 -8.41608943432762,37.7415554965541,195.823999999993 -8.41576002570621,37.7429666734692,193.8508 -8.41564921671927,37.7433795660522,191.622700000007 -8.41555936273297,37.7438259861758,189.092000000004 -8.41554259837314,37.7438533111191,188.823399999994 -8.41557562313793,37.744642383675,180.234500000006 -8.41551762071667,37.7454395029871,178.849000000002 -8.41674691038575,37.7455015291777,186.352599999998 -8.41714873938873,37.7455275131069,186.746400000004 -8.41752106322625,37.7454537522517,185.817899999995 -8.41820536208045,37.7455952389184,180.671300000002 -8.4187830425885,37.7458648004447,171.7019 -8.41923449183286,37.7462081232971,165.056400000001 -8.41989649450172,37.7466949443037,161.673800000004 -8.42015063418381,37.746877669701,162.105599999995 -8.42078095327258,37.7469983690528,159.787299999996 -8.4216233340572,37.7466384503815,153.093900000007 -8.42193530907391,37.7461268187513,153.688099999999 -8.42211535211811,37.7459564987888,154.002699999997 -8.42257585368558,37.74589698683,153.343500000003 -8.42272907483201,37.7458941369944,153.206399999995 -8.42377345977459,37.7454765510693,157.343800000002 -8.42423966115255,37.7452745473052,157.107900000003 -8.42478750232182,37.7449372594085,157.041400000002 -8.42523492891034,37.7448527697319,157.856700000004 -8.42535646647671,37.7448500874959,158.004700000005 -8.42568017528764,37.7447186592294,159.839500000002 -8.42655021699651,37.7448095186633,163.144899999999 -8.42712622124825,37.7446549566911,167.370500000005 -8.42737918683226,37.7445293954953,169.404699999999 -8.4282217365002,37.7442147393196,174.9853 -8.42836808373807,37.7439381365099,174.156499999997 -8.42837311340535,37.7437054549755,173.593099999998 -8.42827957093649,37.7433621318793,173.791100000002 -8.42818485616619,37.7425113686583,178.405799999993 -8.42807371210768,37.7415271655892,185.921400000007 -8.42799492177242,37.7409538437539,192.7261 -8.42800866779288,37.7406780790807,196.016699999993 -8.42800816563463,37.7405548646247,197.330400000006 -8.42813154654398,37.7401731527542,201.166400000002 -8.42832818596305,37.7394541537373,204.096799999999 -8.42847386395601,37.7389817494442,204.213099999994 -8.42855365950609,37.7388763048363,204.822799999994 -8.42872900885292,37.7389286083813,204.487099999998 -8.4288676458507,37.7390620481073,204.108099999998 -8.42899974401154,37.7391158596855,204.110400000005 -8.42990767216754,37.7388726171742,202.305900000007 -8.43038091454068,37.7387879600254,201.039000000004 -8.43088299013949,37.7384920787329,198.649799999999 -8.43134684511792,37.7381829536565,193.267099999997 -8.43183919825041,37.7380763364563,186.842399999994 -8.43223683571431,37.7380179981417,183.875599999999 -8.43279389629336,37.7380993023598,181.420199999993 -8.43337543326892,37.7379427287188,178.083899999998 -8.43370584800348,37.7379149007584,176.462799999994 -8.43405051181504,37.7380877355814,177.136100000003 -8.43658871961663,37.7376458416638,162.883600000001 -8.4376099702457,37.7376176782795,158.855100000001 -8.43853801527416,37.7378079478607,156.095499999996 -8.43906389532969,37.73791925909,154.409899999999 -8.43969907610079,37.7379858118823,152.393299999996 -8.44086835202068,37.7381381947686,149.642300000007 -8.44236150383815,37.7382768310824,154.240699999995 -8.44292543832576,37.73833617512,154.300600000002 -8.44305183757445,37.7384255263958,153.464500000002 -8.4440781178708,37.7385428729527,155.638099999996 -8.44413863467653,37.7385485724796,155.838799999998 -8.44436125786518,37.7390855173739,153.976599999995 -8.44568828154223,37.7399783577079,150.230899999995 -8.44685856267693,37.7402879853413,152.441999999995 -8.44701077771025,37.7403337502501,152.097800000003 -8.44803437563716,37.7405541940268,151.290900000007 -8.44906132697501,37.7407164678977,151.497399999993 -8.44957295795352,37.7410686758404,151.266499999998 -8.45050200819676,37.7405550322743,150.153099999996 -8.45137020566436,37.7396863321842,144.988599999997 -8.45188049635646,37.7391760420239,142.717699999994 -8.45219951147003,37.7387670047572,139.719700000001 -8.4526754353143,37.7381618312725,136.404299999995 -8.45275774614714,37.7378847256101,136.054900000003 -8.45349183322767,37.7373298440985,134.628100000002 -8.4535436327819,37.737240325264,135.169899999994 -8.45354195652558,37.7371285107526,135.791200000007 -8.453475906996,37.7368071480554,137.677299999996 -8.45338806523592,37.7365288693954,140.654800000004 -8.45337063073289,37.7364286215593,141.532999999996 -8.45348512730407,37.7359267132549,145.007599999997 -8.45423631381601,37.7353924507624,147.581999999995 -8.45458852167936,37.7352110667213,147.865999999995 -8.45569191515632,37.7344632332942,144.438599999994 -8.4562597052131,37.7347453681443,144.145600000003 -8.45659498162995,37.7349472038532,146.539999999994 -8.4570008332888,37.7350665621831,150.035300000003 -8.45701642355056,37.7351228887506,150.403000000006 -8.4571279026807,37.7352422467972,151.289499999999 -8.4576145560027,37.7353513794459,155.273199999996 -8.45769552475252,37.7353600964106,155.656199999998 -8.45828443779491,37.7349260819669,157.292600000001 -8.45881199500509,37.7343502452064,155.818400000004 -8.45906479260415,37.7343517534678,155.568599999999 -8.45945220454514,37.7342501649259,153.696400000001 -8.45979368293073,37.7342164694746,151.263200000001</coordinates>
</LineString>
</Placemark>
</Folder>
</Document></kml>
