<?xml version="1.0" encoding="UTF-8"?>

<kml xmlns:xsd="http://www.w3.org/2001/XMLSchema" xmlns:gx="http://www.google.com/kml/ext/2.2" xmlns:atom="http://www.w3.org/2005/Atom" xmlns="http://www.opengis.net/kml/2.2">
<Document>
<name>ES22a_05a_algerri-tamarite_de_litera</name>
<visibility>1</visibility>
<Schema name="ES22a_05a_algerri-tamarite_de_litera" id="kml_schema_ft_ES22a_05a_algerri-tamarite_de_litera">
<SimpleField type="xsd:string" name="id">
<displayName>id</displayName>
</SimpleField>
<SimpleField type="xsd:string" name="nombre">
<displayName>nombre</displayName>
</SimpleField>
<SimpleField type="xsd:double" name="longitud">
<displayName>longitud</displayName>
</SimpleField>
<SimpleField type="xsd:string" name="_formato">
<displayName>_formato</displayName>
</SimpleField>
</Schema>
<Folder id="kml_ft_ES22a_05a_algerri-tamarite_de_litera">
<name>ES22a_05a_algerri-tamarite_de_litera</name>
<Placemark id="kml_1">
<name>&lt;img height='20' src='https://nco.ign.es/iconos/icono_todos_caminos_azul.png' /&gt;&lt;img height='20' src='https://nco.ign.es/iconos/Camino Santiago_20.png' /&gt;&lt;img height='20' src='https://nco.ign.es/iconos/icono_todos_caminos_azul.png' /&gt;  Camino de Santiago </name>
<visibility>1</visibility>
<description><![CDATA[<!DOCTYPE html>
<html>
<head>
<style>
#nco {
  border-collapse: collapse;
  overflow:hidden;
}
#nco th, #nco td {
  padding: 4px;
  text-align: left;
}
#nco th {
  color: #364B5F;
  padding-right: 5px;
}
#nco td {
  color: rgb(51, 51, 51);
  font-size: 12px;
  padding-right: 5px;
}
</style>
</head>
<body>
<table id="nco">
<tr>
<td>Caminos del Nordeste</td>
</tr>
<tr>
<th><b>Camino: </b></th>
<td>ES22a Camino de Santiago de Montserrat a San Juan de la Peña</td>
</tr>
<tr>
<th><b>Etapa: </b></th>
<td>05a Algerri-Tamarite de Litera</td>
</tr>
<tr>
<th><b>Longitud: </b></th>
<td>21.22 km</td>
</tr>
</table>
</body>
</html>]]></description>
<Style>
<IconStyle>
<scale>0.8</scale>
</IconStyle>
<LabelStyle>
<color>ffffffff</color>
<scale>0.75</scale>
</LabelStyle>
<LineStyle>
<color>ffff0000</color>
<width>3.0</width>
<gx:labelVisibility>1</gx:labelVisibility>
</LineStyle>
<PolyStyle>
<color>66ff0000</color>
</PolyStyle>
</Style>
<ExtendedData>
<SchemaData schemaUrl="#kml_schema_ft_ES22a_05a_algerri-tamarite_de_litera">
<SimpleData name="id">ES22a_05a</SimpleData>
<SimpleData name="_formato">kml</SimpleData>
</SchemaData>
</ExtendedData>
<LineString>
<extrude>0</extrude>
<tessellate>1</tessellate>
<coordinates>0.637062862888036,41.8148328735393,343.0 0.636251326656992,41.8145542592703,345.0 0.635355469163464,41.8147490545858,347.997700000007 0.634346455385223,41.8149059640486,349.0 0.633320510160488,41.8150910362714,349.0 0.632294565834051,41.815276108629,348.0 0.628664698349752,41.8155713195844,351.0 0.625310931661276,41.8164946699579,356.541500000007 0.621538236538368,41.817541904807,344.0 0.61741115513755,41.8185448833979,342.694900000002 0.615421291561799,41.819037236189,343.0 0.610610917419936,41.8197429926061,348.615699999995 0.605532322503888,41.8202906657728,346.0 0.599361899920144,41.8215095621443,332.941600000006 0.596104692243244,41.8211965818804,331.7111 0.593661535181897,41.8212041259225,321.532099999997 0.593098941878992,41.821402106333,320.165599999993 0.591687932909405,41.8226513451514,312.0 0.591027773583512,41.8237523920925,304.306200000006 0.590621586853076,41.824097726358,306.0 0.589102450367692,41.8244086949001,305.0 0.587092805889389,41.8245548753992,299.216499999995 0.584775880091743,41.8248353339054,296.287299999996 0.583460088948997,41.8251397647573,290.301200000002 0.583128836086275,41.8249605595126,283.291200000007 0.58263899733826,41.8251002019622,287.052800000005 0.582421403816893,41.825493481206,289.455799999996 0.580582246104797,41.8265718965766,289.574600000007 0.580123085722024,41.827262397614,286.703699999998 0.579512882607418,41.8285508638973,283.2065 0.579069815542979,41.8285372856434,283.0 0.578655916775828,41.8287159875493,282.508000000002 0.578469000721406,41.8289979546591,275.353400000007 0.57613950210305,41.8292225899374,279.310299999997 0.574215688056854,41.8297794834668,282.515899999999 0.573324524260727,41.8300005978524,283.0 0.570381134943515,41.8304649551884,288.0 0.568599812566013,41.8307145681958,294.0 0.568761415892356,41.829700190891,292.0 0.567689370025578,41.8299943955727,299.070399999997 0.565311424365627,41.8302966465674,313.951799999995 0.563933272175842,41.8305677176823,324.588799999998 0.562404748295723,41.8304852399589,337.139800000004 0.560425278227823,41.8301234766293,363.449800000002 0.560164935678716,41.8301043657978,367.608999999997 0.559686161480051,41.83017259474,374.324900000007 0.559262708231504,41.8303551522523,376.671600000001 0.558551251509659,41.8300844169244,385.0 0.557186845340359,41.830198913855,386.703599999993 0.555974990174319,41.8303181047715,386.516300000003 0.554286204152557,41.8304507059784,386.393599999996 0.553237125512635,41.8305766026727,385.916800000006 0.55248392767276,41.8306133153276,386.545499999993 0.551976990391625,41.8306815437273,388.0 0.55123066556201,41.8308178336405,389.7641 0.551103931241734,41.8308074399677,389.9859 0.551328062701743,41.830802075793,389.0 0.55104207235294,41.8308260479072,389.596000000005 0.550682991479366,41.8302840740566,390.0 0.550456009664967,41.8298909627985,389.503100000002 0.54996097416301,41.8294909781031,389.0 0.549456049108107,41.82892201466,388.0 0.549139045322445,41.8283939550675,388.0 0.549157988096839,41.8277659825505,386.046499999997 0.549198053856849,41.8276390802696,386.0 0.549168046533073,41.8274080755825,386.0 0.549035947473931,41.827116049925,385.386199999994 0.548981968606809,41.8269740603032,385.0 0.548960007493068,41.8268500080617,384.599199999997 0.548961013606183,41.8266949432586,384.0 0.548951961283066,41.8265299870976,384.339800000002 0.548976938939527,41.8263740834345,384.0 0.548963024934118,41.8263509497465,384.0 0.548884067512204,41.8263350241196,382.933499999999 0.54873503700657,41.8263529612846,382.056400000001 0.548650044702589,41.8264059346651,380.410099999994 0.548560023629656,41.82649796858,378.278000000006 0.548457931894258,41.82653199863,375.959700000007 0.548379979687163,41.8265710584943,373.368300000002 0.54834594970755,41.8266200086352,371.609800000006 0.548294987383181,41.8266099503168,370.895199999999 0.548242013730878,41.826602071545,370.233900000007 0.548205971525034,41.8266069333565,369.547399999996 0.548176970314406,41.8266359341912,368.626799999998 0.548180993868572,41.8267489224536,366.865699999995 0.548194069745856,41.8269009701796,364.5573 0.54787807207331,41.8275110049747,357.019100000005 0.547658968483922,41.8280090575408,353.474199999997 0.547593925067451,41.8280539849519,352.800399999993 0.547516978973471,41.8282209520124,352.368900000001 0.547468028875334,41.8282650412147,351.515199999994 0.547307934718681,41.8282930365639,350.169899999994 0.547231994737818,41.8283260615953,350.859200000006 0.547149013761737,41.8283619361434,350.126900000003 0.547128058761112,41.8284009955605,350.0 0.54710693667386,41.8284410610248,350.0 0.54709704622255,41.8284690569664,349.712100000004 0.547102074991535,41.8285029192945,349.195900000006 0.547115988996977,41.828610040551,348.6823 0.547152031202788,41.8289459868089,347.640799999994 0.547149013761737,41.8289530279105,347.584199999998 0.547135937884487,41.8291749805215,347.163199999995 0.547128058761112,41.8293280338975,346.0 0.54712001255111,41.8296410145756,345.470799999996 0.547115988996977,41.8298269250929,345.233200000002 0.547103081104651,41.8298510649124,345.0 0.547092016555301,41.8298710138586,345.0 0.547045077785065,41.8298959917002,345.0 0.547021944369878,41.8299080615981,345.0 0.546896048177728,41.8299179527277,345.0 0.546663030582931,41.82991191778,342.965800000005 0.546426996445415,41.8298949863215,341.0 0.546324066581825,41.8298959917002,341.0 0.545665081354039,41.8298700078101,338.0 0.545347072353558,41.8299090676459,336.0 0.545157976087914,41.8299509769208,335.897200000007 0.544993020248936,41.829997077694,334.8122 0.544839967087467,41.8300339580209,333.0 0.54463695771471,41.8300820701552,333.0 0.544264968050513,41.8302049487757,331.0 0.54411493233006,41.8302599344003,330.0 0.543784014538955,41.8303159253498,329.0 0.543445050537849,41.8303779511547,328.749400000001 0.543358046905966,41.8303960558643,328.0 0.542938951384906,41.8304490299155,327.0 0.542626977266493,41.8304740082009,327.0 0.542533937854212,41.830471996123,326.670899999997 0.542267058264761,41.8305130676681,324.033100000001 0.541984923485166,41.8306139853494,324.524699999994 0.541567001163849,41.8308729867455,321.099300000002 0.541247986050252,41.830957978713,319.281600000002 0.541074984001273,41.8309609961376,318.9139 0.54077206220601,41.8310230226562,318.0 0.540338046566358,41.8311360105385,316.0 0.540028921904071,41.831216980056,316.0 0.540027916689253,41.8312189914411,316.0 0.539828929972365,41.8312510102749,316.0 0.539636984250661,41.8312780003001,315.258600000001 0.539592057706657,41.8312709594542,315.0 0.539539922182512,41.8312639186075,315.0 0.539197940740389,41.8310409598464,313.564799999993 0.538952015253232,41.8308929353731,313.262799999997 0.538715981115715,41.8307539635305,313.0 0.538554042717754,41.8306580742423,313.0 0.538159925751486,41.8305940366348,312.760399999999 0.537439919763031,41.830735020225,311.654599999994 0.537401028101127,41.8307529574959,311.422000000006 0.537279993591335,41.8307900053943,311.0 0.537082012987531,41.8308270539406,311.0 0.537057034432772,41.8308290653381,311.0 0.536949075800231,41.8308359382257,310.4519 0.536778923207311,41.8308399616893,310.0435 0.536603070803941,41.8308429791195,309.713199999998 0.536390002994951,41.8308470025827,309.0 0.536259077135553,41.8308500200125,308.0 0.5360949594247,41.8308389556561,307.666299999997 0.53595297081258,41.8308169956138,307.1486 0.535705033997555,41.8307779356627,306.151299999998 0.535684917125088,41.8307749182295,306.128700000001 0.535347964451883,41.830739043695,305.0 0.535108074745157,41.8307130594777,305.0 0.534923002033679,41.8306939488223,304.528200000001 0.534779001195327,41.8307090366755,304.0 0.534683950455112,41.8307360262599,303.891300000003 0.534593928483882,41.8307789416969,303.027100000007 0.534517988503019,41.8308149835467,303.0 0.534493010846524,41.8308760041741,302.5916 0.534490998620292,41.8309650195934,302.0 0.534489993405507,41.831027046108,302.0 0.534432996199038,41.8311339991507,301.358600000007 0.534299052898588,41.8312280436776,301.0 0.534210037040474,41.8312729708377,301.0 0.53407492143858,41.8313410318675,301.619200000001 0.533910970814387,41.8314270305763,300.0 0.533837043059755,41.8314600546602,300.0 0.533586926931839,41.8315569494382,300.0 0.533362962558457,41.8316439538776,300.0 0.533236060253225,41.8316969275654,300.0 0.533117037071334,41.831726934791,299.1204 0.533002037443609,41.8317379989939,299.010599999994 0.532897934380277,41.8317430277504,299.0 0.532642956570036,41.8317259287717,299.0 0.532291922804761,41.8316280282286,299.0 0.531828067826357,41.8315059876801,298.0 0.531400926095261,41.8313170599461,298.0 0.531123988069609,41.8312109445613,298.0 0.530651081666384,41.8309970385543,297.223400000003 0.530495010165534,41.8309060111152,297.0 0.530174988938821,41.8308449911857,297.0 0.529757067515834,41.830802075793,297.0 0.529422965197052,41.8307710627689,297.0 0.529076960200729,41.8307289853543,297.0 0.528769008738185,41.8306570688757,297.0 0.528695918213414,41.8306399696068,296.977899999998 0.528625007899833,41.8306240437081,297.0 0.528119075833517,41.8304460124668,297.0 0.528014972770184,41.8303930384131,297.0 0.5276439901174,41.8302959765423,297.386899999998 0.527446009513628,41.8302530607815,297.509999999995 0.526701025868712,41.8301189504331,297.0 0.52659994024643,41.8301050364943,296.934299999994 0.526033993532594,41.8300649707327,296.302299999996 0.526014044645084,41.8300990015642,296.518100000001 0.526003986208851,41.8301749415059,297.0 0.525994933885733,41.830239984906,297.0 0.525987054762358,41.8303040228678,297.0 0.525927041013169,41.8304019234277,297.573699999994 0.525857974042564,41.8304339426703,297.443100000004 0.525256991236,41.8307140655129,297.0818 0.524506978822166,41.8309060111152,296.005600000004 0.524090062613964,41.8310339189744,297.362999999998 0.523865931153922,41.831080019637,296.932499999995 0.523560997132428,41.8311499242533,296.832699999999 0.523376930534066,41.8312199974683,297.208199999994 0.523248016900899,41.8312820230666,297.497900000002 0.523123964950056,41.8313410318675,297.723800000007 0.52308691663113,41.8313460613246,297.565799999997 0.522966049207965,41.8313599749936,297.036900000006 0.522909052899825,41.8313670158297,297.154399999999 0.522706042628739,41.8313909884018,297.548299999995 0.522300023883259,41.8314300479788,298.138900000005 0.521831978264029,41.8314840271974,299.0 0.521631986332356,41.8315150405454,298.571100000001 0.521545987915259,41.8315279481553,298.799199999994 0.520891025343276,41.8316940775107,299.0 0.520529933141768,41.8318590337522,299.0 0.519425030495153,41.8319539165643,298.814299999998 0.518302023202269,41.8320960738539,298.575599999996 0.517907068107809,41.8321150167566,299.0 0.517832972368253,41.8321430124302,299.0 0.516976006536662,41.8322070504962,300.768200000006 0.516469069255528,41.8322469482525,302.0 0.516257006661323,41.8322739378576,302.764299999995 0.516152065469866,41.8322870133176,303.0 0.515888035336473,41.8323569186237,304.0 0.515690054732702,41.832442916637,306.035600000003 0.515453014482036,41.8325500373245,306.721300000005 0.515173059015334,41.8326440824482,306.752699999997 0.515017993627633,41.8326890092837,306.0 0.514658074625901,41.8327399714387,305.973400000003 0.514542068885027,41.8327540534759,305.356100000005 0.514465961817536,41.8327760135229,305.0 0.514365043281881,41.8328050149097,305.0 0.514088943384354,41.8328839729911,304.0 0.513924993658492,41.8329290669903,304.0 0.513721984285736,41.8329840522829,304.0 0.513632968427622,41.8329039216614,303.007199999993 0.513484944035103,41.832931078991,302.360100000005 0.513302050636517,41.8330340088736,302.0 0.512840039899354,41.833220924903,300.785799999998 0.512295049084474,41.8336770684045,299.476699999999 0.511745028602312,41.8338430302069,299.0 0.511089060815543,41.8340389990594,299.0 0.510482043126945,41.8342109958051,299.0 0.510345920513605,41.8342490496896,299.610499999995 0.510246008989395,41.8342780510783,299.786800000002 0.510065965046902,41.8342810683464,300.0 0.509869996669363,41.8342919647793,300.0 0.509663968957259,41.8342899528214,300.944399999993 0.509514939349922,41.8342969940045,301.0 0.509356018393011,41.8343110756992,301.074800000002 0.509189050327802,41.8343989177212,301.989000000001 0.508905072205231,41.8345489540685,302.5527 0.50871496982647,41.8346500394075,303.0 0.508175007780576,41.8349120577744,303.032999999996 0.507502946675473,41.8350349364934,304.133600000001 0.506922918869568,41.8350600823236,305.0 0.506321936961334,41.8352109564287,305.0 0.505109075682178,41.8354510140469,304.099100000007 0.504561066527917,41.8356479892882,302.0 0.504513960671054,41.8357380107204,301.924499999994 0.504355039714144,41.8358769824509,302.137499999997 0.504112969796229,41.8359790743221,301.866399999999 0.50377702323614,41.8360459617576,302.059500000003 0.503084008028742,41.8361440302294,302.767500000002 0.502716041918711,41.8362550065461,303.982699999993 0.502043980813608,41.8366809749533,305.320500000002 0.501388013026839,41.8373389542927,307.0 0.501245018301603,41.8375290555709,307.486900000004 0.500699020475277,41.8377719636483,307.997900000002 0.499800983668891,41.8380589599532,307.821500000005 0.499363951486552,41.8384259194928,307.213399999993 0.498991962720652,41.8386540748311,307.626799999998 0.498373042354513,41.8388510495839,307.696899999995 0.49778396222549,41.8389149196454,309.845300000001 0.4973130671502,41.8389849923907,311.969599999997 0.496892966414321,41.8391159178772,314.250799999994 0.496486946770511,41.839291937966,316.0 0.496079083783757,41.8396480009398,317.478099999993 0.496054943357124,41.8397039917082,318.008199999997 0.496005993258954,41.8400089254029,318.025999999998 0.495999958376886,41.840224005277,318.887900000002 0.495907925077722,41.8403249237094,319.0 0.495689995586407,41.8404920588677,319.0 0.495017934481338,41.8407760373893,319.0 0.494909975848796,41.8408370578897,319.033899999995 0.494805034657305,41.8408700824724,319.037200000006 0.494697075126467,41.8409419988531,319.286900000006 0.494161974762863,41.841129083191,319.441099999996 0.493753943791152,41.8412479385413,320.0 0.493147932215637,41.8413210290144,322.0 0.492696986027856,41.8413500298754,323.357499999998 0.492434967222398,41.8414499426732,324.0 0.492199938299667,41.8416730686233,325.195999999996 0.49192903605438,41.8419729730133,326.0 0.491712949906042,41.8421640804349,326.0 0.491130072644044,41.8424130234268,327.0 0.490221977401425,41.8427169510811,327.0 0.489322934481956,41.8428210544381,327.367100000003 0.488632935817278,41.8429960685316,328.169099999999 0.488110073202766,41.843211986268,326.608300000007 0.487666000025212,41.8433640337036,326.0 0.487341955244366,41.8434500323189,324.0 0.486788917321154,41.8434089610446,319.082500000004 0.486440062868771,41.8434439973086,317.032300000006 0.485977046018525,41.8435769340378,315.451199999996 0.485591981375341,41.8438149800693,314.0 0.485439933428657,41.8440159783018,314.0 0.485183950403631,41.8442270348006,312.906900000002 0.484813972965665,41.8444520047723,311.0 0.48445992175934,41.8447160347906,311.0 0.483711920673407,41.8447190522358,309.0 0.482980012905775,41.8446959184856,309.0 0.481671932901446,41.8445170483862,312.0 0.480876993045277,41.8444449640372,314.0 0.480333007445182,41.844551917411,316.0 0.479857083600907,41.8446689287651,315.6296 0.47882996517643,41.8448989282519,315.819399999993 0.478479936625974,41.8449609539779,316.0 0.478212050923407,41.8449250793643,317.0 0.477501936284558,41.8448300284048,318.0 0.475707035871562,41.844865065229,322.0 0.474985018555206,41.8448870258049,323.0 0.474408008190352,41.8448600361651,323.0 0.473405029294144,41.8449220619287,321.0 0.472071971633354,41.8450779652531,318.0 0.471656061538268,41.8451750281292,317.124800000005 0.47076405961395,41.8453750202996,315.967099999994 0.470255948234742,41.8453649615822,315.402300000002 0.46991597901885,41.8454110619604,316.367899999997 0.469749010953608,41.8454390578407,315.751499999998 0.469592940351087,41.845465041433,316.179600000003 0.469380039628758,41.845489014078,317.075500000006 0.469216928031054,41.8455129860449,316.1584 0.469052978305159,41.845536958672,316.414199999999 0.468889027680967,41.8455669654316,316.970600000001 0.468725077955105,41.8455979786474,317.098499999993 0.46843992573446,41.8456539695631,317.601299999995 0.46826692278715,41.8456799537373,317.0622 0.468082018060663,41.8457039256327,317.470499999996 0.467895940134399,41.8457280654868,317.881699999998 0.467675998416853,41.8457550554297,317.568299999999 0.467518921701217,41.8457709809094,317.581699999995 0.467362012970538,41.8457880801509,317.856199999995 0.467091947955112,41.8458070230162,318.095600000001 0.466823056139429,41.8458259665452,318.335800000001 0.466576963565645,41.8458479267912,318.6584 0.466332044191638,41.8458710607941,319.007800000007 0.466118976382648,41.8458940274905,319.374899999995 0.465906076558649,41.8459159883824,319.719800000006 0.465692002636543,41.8459389543935,319.086299999995 0.465535931135726,41.8459530362033,319.551900000006 0.465380027619833,41.8459679558382,320.0 0.465110968717522,41.8459959514749,320.0 0.464842076901839,41.8460239470993,320.403699999995 0.464573017999529,41.8460559658877,320.934399999998 0.464467070694888,41.8460879846601,321.0 0.464284010209675,41.8461250330505,321.085000000006 0.464099943611313,41.8461629192452,321.992499999993 0.463910010115874,41.8461900763021,321.468299999993 0.463693923967537,41.8462380210399,321.388200000001 0.463478006702454,41.8462859650726,321.469100000002 0.463386978618108,41.8463099374101,321.779599999994 0.463233925456605,41.8463489972509,321.544500000004 0.463081039381795,41.8463890628567,321.6636 0.462875012567989,41.8464500826885,321.548899999994 0.462696980851727,41.8465030568359,322.604500000001 0.462518949135465,41.8465550244841,322.641000000003 0.462334044408944,41.8466079978754,322.693499999994 0.4621489716975,41.846660971892,322.745999999999 0.461965073084095,41.8467060662216,322.624299999996 0.46178000037265,41.8467509932235,322.996100000004 0.461592916333271,41.8467890470126,323.217799999999 0.461406000278815,41.8468269334832,322.9516 0.46113895270444,41.8468730334771,322.569699999993 0.461002998076056,41.8468869477857,321.0 0.460794959036051,41.8469119256786,321.412200000006 0.460649952084583,41.8469479678119,320.718599999993 0.460504945133082,41.8469830041455,320.130300000004 0.460312999411378,41.8470299431796,319.953099999999 0.460122059802789,41.8470760436963,319.606400000004 0.45994905775381,41.8471219762157,320.021399999998 0.4597760548065,41.8471680766661,319.792799999996 0.459555946002327,41.8472250739909,319.261499999993 0.459336005183111,41.8472830763704,319.005399999995 0.459131989697239,41.8473549929043,319.169099999999 0.458897966887624,41.8474210426854,317.533899999995 0.458753966049272,41.8474369684195,316.520300000004 0.458597056420296,41.8474709987135,317.0 0.458477028023586,41.8475169316185,316.599600000001 0.458354987400678,41.8475650439942,315.266300000003 0.458085928498335,41.847644001264,314.343099999998 0.457882080099123,41.8476979808602,313.969500000007 0.4576790707264,41.8477529661782,313.004700000005 0.457450076685736,41.8478280681138,312.870699999999 0.457221083543403,41.8479030019992,311.782000000007 0.457033999504023,41.8479509467917,311.0 0.456847920679429,41.8479980530775,310.467799999999 0.456671063061241,41.84803895679,310.0 0.45649504267288,41.8480790220066,309.722599999994 0.456287003632875,41.8481350134275,309.558199999999 0.456078965491168,41.8481899983699,309.0 0.455871932564279,41.8482459896938,308.095300000001 0.455712005494252,41.8482810259857,308.0 0.455552078424193,41.8483160622584,308.0 0.455315038173561,41.8483710477143,308.0 0.455056037707484,41.8484109454313,307.344200000007 0.454950928531002,41.8484129569453,307.0 0.454838946344328,41.8484149684592,306.807100000005 0.454608947088879,41.8484349176417,306.0 0.454393028925499,41.8484929202627,306.0 0.454124976136304,41.8485710399315,306.0 0.453883074203314,41.8486640791803,306.0 0.4536839203998,41.8487390127557,305.477400000003 0.453484933682879,41.8488139475816,307.7114 0.453300028956392,41.8488769792766,307.039199999999 0.453047063372382,41.8489319642504,307.130300000004 0.452793929803416,41.8489879555941,307.331099999996 0.452600977968596,41.8490340560382,308.060500000007 0.452409033145189,41.8490799891593,307.195999999996 0.452233012756862,41.8491160314094,308.0 0.452056992368501,41.8491530793847,308.0 0.451837051549286,41.8492000174957,309.0 0.451615936631997,41.8492469562415,309.062000000005 0.451419968254424,41.8492900392694,310.0 0.451222993763768,41.8493339607217,311.800399999993 0.451026018374782,41.8493770436911,312.480500000005 0.450888052418531,41.8494300174223,312.904599999994 0.450673978496425,41.8495279174998,314.741299999994 0.450459066446161,41.8496259860541,316.538 0.450294948735342,41.8497089670726,317.509099999996 0.450130999009446,41.8497909422481,317.600399999996 0.450001079263164,41.8498829753272,318.0 0.449870992430254,41.8499750082739,319.120899999994 0.449768062566664,41.8500559773773,319.864199999996 0.4496820641496,41.8501230327766,320.0 0.449568070634991,41.8502060138195,320.380000000005 0.449453071007233,41.8502889947547,321.828999999998 0.449306051829534,41.8503530320612,322.180600000007 0.449159033550131,41.8504170699727,322.954400000002 0.449004974275546,41.85049904491,324.204599999997 0.448851082087587,41.8505820261342,324.392500000002 0.448665004161323,41.8506849557316,324.311799999996 0.448556039415666,41.8507449704297,325.357099999994 0.448378007699405,41.8508750575097,326.391300000003 0.448239035630004,41.8509659173655,325.966199999995 0.448100063560603,41.8510579500924,326.001999999993 0.447922032742639,41.851211004,326.122499999998 0.447819941007241,41.8512990141971,325.827799999999 0.447739977472211,41.8513680810527,326.651400000002 0.447633024054488,41.8514299392453,326.927899999995 0.447501931108463,41.8514919653308,327.244000000006 0.447370000034245,41.851553991356,327.491399999999 0.447233040191076,41.8516170230278,327.469400000002 0.44709607944961,41.8516810610123,327.417600000001 0.446896925646063,41.8517729267657,327.914399999994 0.446746050899155,41.8518280798786,328.204500000007 0.446602050060803,41.8518659660416,328.830799999996 0.44645804922245,41.8519050258357,328.222699999998 0.446328967604326,41.8519610165845,328.186700000006 0.446112044226127,41.8520689758064,329.131699999998 0.445974078269843,41.8521140703387,329.349300000002 0.445742066788162,41.8521650324148,330.018200000006 0.44559806594981,41.8522029183782,330.0 0.445408969684199,41.8523120508379,330.796600000001 0.445238985076236,41.8523950317176,331.649699999994 0.445042010585581,41.8524739890482,331.695000000007 0.44491192285434,41.8525140548327,332.061499999996 0.444817040099083,41.8525450673573,332.0 0.444598942622811,41.8526280486039,333.539199999999 0.444452930456524,41.8526929246545,334.0 0.444362070357136,41.8527990392142,334.160999999993 0.44428395106338,41.852879002402,334.479699999996 0.444189068308123,41.8529940025459,333.335900000005 0.44416207842543,41.8530910647869,332.637100000007 0.444117989111287,41.853191982998,331.496499999994 0.444038026474588,41.8533049712192,331.0 0.443948004503324,41.8533990159526,330.489300000001 0.443873069737279,41.8535200505601,329.270799999998 0.443782042551197,41.8536819890576,329.0 0.443685985697867,41.8538390660644,329.0 0.443570986070142,41.8539430014437,329.0 0.443455986442417,41.8540239708774,329.0 0.443241074392187,41.8541089628784,329.0 0.44305801390694,41.8541570749799,329.0 0.442894064181078,41.8541909384372,330.0 0.44276598867607,41.8542469291923,330.243100000007 0.442651994263131,41.8543149905461,331.107999999993 0.442562978405016,41.8543840574906,331.0 0.442491061978319,41.8544400480767,331.377800000002 0.442339014031635,41.8545200118893,332.0 0.442186966983281,41.8545999749328,331.775399999999 0.441988986379476,41.8546869794924,332.0 0.441834926206593,41.8547439761398,332.0 0.441760998451961,41.8547699599674,332.0 0.441583972848815,41.8548080136701,332.0196 0.441401917578388,41.8548549523153,333.866899999994 0.441219024179801,41.8549020588698,334.452499999999 0.441007967698746,41.8549479917919,334.194699999993 0.440809987094941,41.8550130354401,334.930300000007 0.440707058129715,41.8550470657185,334.3995 0.440487954540327,41.8551469778687,336.0 0.440268013721112,41.8552140332838,336.020199999999 0.440099034327968,41.8552790766616,337.418600000005 0.43993106104794,41.8553429470516,338.0 0.439762919782955,41.8554210663842,339.0 0.439629983493918,41.8555119258044,339.318899999998 0.43960500493916,41.8555290251187,339.493600000002 0.439362935919543,41.8556210586402,341.0 0.439187083516139,41.8556810727215,341.0 0.439010057912994,41.8557409194742,341.0 0.438871923971752,41.855801939753,341.0 0.438732951902351,41.8558629599735,341.0 0.438595991160885,41.8559100664547,341.0 0.4384580252046,41.8559570049603,341.0 0.438342020362057,41.8559970705703,341.195099999997 0.438084025110799,41.8560760281379,341.777000000002 0.437825023746392,41.8561549856081,342.358200000002 0.437669959256987,41.8562029302375,342.0 0.437515060955913,41.856251042102,342.0 0.437428057323997,41.8562780322888,341.941800000001 0.437283050372529,41.8563159184923,342.0 0.437138043421061,41.8563539719442,342.0 0.436947941940631,41.8563920260425,341.590700000001 0.436680056238064,41.8564439936863,341.015100000004 0.436519962081411,41.856526974558,340.115999999995 0.436354000129284,41.8566180023536,338.349799999996 0.43618803817719,41.8567100356462,337.875 0.435992069799617,41.8567779284473,336.350000000006 0.435905065269404,41.8568320756344,335.987999999998 0.435730050994193,41.8569589775719,333.888699999996 0.43556006638623,41.8570429647349,333.0 0.435394942562295,41.8571360037049,332.0 0.435166954634747,41.8572719582754,332.0 0.434955060923864,41.8574139475881,331.7592 0.434780046648619,41.8575529197458,331.728700000007 0.434583071259633,41.8576590342713,331.683699999994 0.434461031535023,41.8577120078343,331.701199999996 0.434250980268786,41.8577740338495,331.520399999994 0.434040929900847,41.8578360604736,331.208700000003 0.433831047517864,41.8578979184326,331.411399999997 0.433663074237836,41.8579389897721,330.884999999995 0.433616973595759,41.8579500541265,330.426999999996 0.433402061545495,41.8580010162361,330.534199999995 0.4333670254528,41.8580100686987,330.593699999998 0.433187987623389,41.8580529839106,330.0 0.432916078366689,41.858130935343,330.0 0.432642995910212,41.8582090546154,330.263900000005 0.432543922514162,41.858240067724,330.154899999994 0.432288944703887,41.8583069553067,330.471000000005 0.432032961678861,41.8583750163543,331.8125 0.431781001309637,41.8584529680633,332.740399999995 0.431603975706491,41.8585480188535,333.697700000004 0.431494004847718,41.8586740830695,335.203599999993 0.431374981665861,41.8588269688837,336.738100000002 0.431248080258925,41.8589919247665,337.997199999998 0.431166943524153,41.8590970339915,338.417799999996 0.431084967762891,41.8592019751113,339.0 0.430989078894518,41.8593149634201,339.0 0.430894028154303,41.8594269452764,339.363299999997 0.430717002551157,41.8595620620099,339.904599999994 0.430540983061127,41.8596960042781,339.839999999997 0.430415924997169,41.859776973788,339.998900000006 0.430291034019838,41.8598579431953,340.0 0.430180057946279,41.8599759602283,340.180099999998 0.430132951191086,41.8600889478386,341.486399999994 0.43008601331918,41.8602019359183,341.567200000005 0.430048965000221,41.8603350405442,341.537400000001 0.430011078553136,41.8604669720657,341.0 0.429998002675852,41.8605410682266,341.0 0.429901946720818,41.8606719930897,341.328399999999 0.429825000626839,41.8607509509069,341.563999999998 0.429724920219375,41.8608510307719,341.888300000006 0.429624002582017,41.8609499369926,341.897100000002 0.42947094852225,41.86109796152,341.308499999999 0.429318063345704,41.8612449801495,341.445699999997 0.429164003172821,41.8613919991101,341.0 0.429062079422347,41.8614830260021,341.132700000002 0.429020002334436,41.8615259415594,341.0 0.428905002706711,41.8616429533102,341.0 0.428773071632527,41.8617670050143,341.0 0.428641978686468,41.8618910571467,341.0 0.428510047612284,41.8620149417824,341.0 0.428378954666225,41.8621379878926,341.0 0.428248028806827,41.8622610344352,341.0 0.428140070174319,41.8623669819214,342.0 0.428128000410151,41.8623790517161,342.0 0.428043008106169,41.8624630384511,342.0 0.428006965900325,41.8624980749839,342.0 0.427861958948857,41.8625989930699,342.0 0.427715945884274,41.862700916529,343.054000000004 0.427542943835261,41.862820945397,343.414799999999 0.427369940887984,41.8629409747087,343.092699999994 0.427298024461253,41.8630460834638,344.056299999997 0.427225940049598,41.8631520309873,344.404800000004 0.427141952960436,41.8632710541541,345.1731 0.42705796676957,41.8633890709089,345.203999999998 0.42697900934769,41.8635469864258,345.716199999995 0.426901057140595,41.8637050688043,345.220799999996 0.426831990169957,41.863843035156,346.045599999998 0.426763929312468,41.86398100121,346.624100000001 0.426702071322004,41.8641060592403,347.346900000004 0.426640045346583,41.8642309491068,348.253400000001 0.42657298970388,41.8643080627793,348.258199999997 0.426446925526806,41.8644589374942,348.0 0.426321029334656,41.8646099791023,348.572499999995 0.426206029706931,41.8646790463016,349.0 0.42614400373151,41.864716932211,349.0 0.426043924222344,41.8647759409538,349.0 0.425969995569415,41.8648210352236,349.951100000006 0.425784922857937,41.8649009987672,350.604300000006 0.425592977136233,41.8649990671654,350.928100000005 0.425387956435575,41.8651080319501,350.860700000005 0.425254013135126,41.8651849773171,350.834499999997 0.425146054502618,41.8652230315123,351.0 0.425067935208863,41.8652470034427,350.903000000006 0.424905996810935,41.865288074745,350.906600000002 0.42476199597255,41.8653309904244,350.844599999997 0.424606930584848,41.8653750794816,351.748699999996 0.424445998300004,41.8654200060818,352.755000000005 0.424249022911018,41.8654759970407,353.756999999998 0.424117929964992,41.8655400351973,354.0 0.424090940082266,41.8655529433028,354.0 0.424007960004549,41.8655950205643,354.0 0.423964038675364,41.8656479942431,354.0 0.423748958640142,41.8656959384452,354.0 0.424127988401226,41.8660729561562,354.0 0.42433703355438,41.8662529995787,354.633100000006 0.423741079516767,41.8664870222893,353.352499999994 0.423744935984307,41.8665740267323,353.339399999997 0.423580985360114,41.8667500468693,353.0 0.423563047800506,41.8668509649339,353.0 0.423434973193828,41.8670789526753,353.0 0.423027947436902,41.8675149791487,353.0 0.422201995042171,41.8679449706185,353.0 0.421468075048307,41.8686420098056,354.0 0.421392973195635,41.8687129209689,354.0 0.421315021886837,41.8687920461292,354.0 0.421228017356624,41.8688879351335,354.0 0.421171021048485,41.8689219653869,354.471699999995 0.42113900149851,41.8689280000003,355.0</coordinates>
</LineString>
</Placemark>
</Folder>
</Document></kml>
