<?xml version="1.0" encoding="UTF-8"?>

<kml xmlns:xsd="http://www.w3.org/2001/XMLSchema" xmlns:gx="http://www.google.com/kml/ext/2.2" xmlns:atom="http://www.w3.org/2005/Atom" xmlns="http://www.opengis.net/kml/2.2">
<Document>
<name>ES22a_10a_huesca-bolea</name>
<visibility>1</visibility>
<Schema name="ES22a_10a_huesca-bolea" id="kml_schema_ft_ES22a_10a_huesca-bolea">
<SimpleField type="xsd:string" name="id">
<displayName>id</displayName>
</SimpleField>
<SimpleField type="xsd:string" name="nombre">
<displayName>nombre</displayName>
</SimpleField>
<SimpleField type="xsd:double" name="longitud">
<displayName>longitud</displayName>
</SimpleField>
<SimpleField type="xsd:string" name="_formato">
<displayName>_formato</displayName>
</SimpleField>
</Schema>
<Folder id="kml_ft_ES22a_10a_huesca-bolea">
<name>ES22a_10a_huesca-bolea</name>
<Placemark id="kml_1">
<name>&lt;img height='20' src='https://nco.ign.es/iconos/icono_todos_caminos_azul.png' /&gt;&lt;img height='20' src='https://nco.ign.es/iconos/Camino Santiago_20.png' /&gt;&lt;img height='20' src='https://nco.ign.es/iconos/icono_todos_caminos_azul.png' /&gt;  Camino de Santiago </name>
<visibility>1</visibility>
<description><![CDATA[<!DOCTYPE html>
<html>
<head>
<style>
#nco {
  border-collapse: collapse;
  overflow:hidden;
}
#nco th, #nco td {
  padding: 4px;
  text-align: left;
}
#nco th {
  color: #364B5F;
  padding-right: 5px;
}
#nco td {
  color: rgb(51, 51, 51);
  font-size: 12px;
  padding-right: 5px;
}
</style>
</head>
<body>
<table id="nco">
<tr>
<td>Caminos del Nordeste</td>
</tr>
<tr>
<th><b>Camino: </b></th>
<td>ES22a Camino de Santiago de Montserrat a San Juan de la Peña</td>
</tr>
<tr>
<th><b>Etapa: </b></th>
<td>10a Huesca-Bolea</td>
</tr>
<tr>
<th><b>Longitud: </b></th>
<td>22.07 km</td>
</tr>
</table>
</body>
</html>]]></description>
<Style>
<IconStyle>
<scale>0.8</scale>
</IconStyle>
<LabelStyle>
<color>ffffffff</color>
<scale>0.75</scale>
</LabelStyle>
<LineStyle>
<color>ffff0000</color>
<width>3.0</width>
<gx:labelVisibility>1</gx:labelVisibility>
</LineStyle>
<PolyStyle>
<color>66ff0000</color>
</PolyStyle>
</Style>
<ExtendedData>
<SchemaData schemaUrl="#kml_schema_ft_ES22a_10a_huesca-bolea">
<SimpleData name="id">ES22a_10a</SimpleData>
<SimpleData name="_formato">kml</SimpleData>
</SchemaData>
</ExtendedData>
<LineString>
<extrude>0</extrude>
<tessellate>1</tessellate>
<coordinates>-0.408530943466615,42.1403890101333,487.0 -0.408871918795656,42.1404220348717,487.0 -0.408864039672281,42.1410570478354,487.474700000006 -0.408903937447334,42.1412520113174,487.0 -0.408747028716655,42.1415549330313,487.315700000006 -0.409313980645276,42.1417790650185,489.0 -0.409328061737346,42.1418469587584,489.0 -0.409451946601561,42.1418940651641,489.0 -0.409475919043237,42.1419039552335,489.0 -0.409575998552404,42.1419559233662,488.534 -0.409615058199265,42.1419889479534,487.887199999997 -0.409626960876772,42.1420360542534,487.074900000007 -0.409614052984479,42.1420910396457,486.724199999997 -0.409587063101753,42.1421949748954,486.107900000003 -0.409552026110728,42.1423139980947,484.971099999995 -0.409533083336334,42.1423999967148,483.999299999996 -0.409546997341776,42.1424720807746,483.665399999998 -0.409575998552404,42.142524048441,483.150999999998 -0.409583039547587,42.1425379628731,482.975200000001 -0.409590080542803,42.1425530502703,482.617199999993 -0.409626960876772,42.142632007435,481.909899999999 -0.409834999916811,42.1428350176165,479.660499999998 -0.40955705577801,42.1434500815263,477.818799999994 -0.409927033215975,42.1437340604005,474.0 -0.410174970031033,42.1436309629283,473.971600000004 -0.410288963545642,42.1436859482677,474.0 -0.410166922922701,42.1438259258116,474.0 -0.41012199637873,42.1440379879873,473.0 -0.410186033682052,42.1441340444992,472.013699999996 -0.410351995634179,42.1443219668888,471.0 -0.410568080884186,42.1443070470948,471.0 -0.41078299293445,42.1442909536951,471.376799999998 -0.410973932543038,42.1442820690871,470.987800000003 -0.411164034023468,42.1442730166299,471.208599999998 -0.411353968417237,42.1442629584168,471.334600000002 -0.411543063784551,42.1442530673837,470.8416 -0.411803070363744,42.1442409976571,470.240099999995 -0.412064083056085,42.1442329509494,470.617499999993 -0.412305984989042,42.1442279221728,470.782500000001 -0.412466079145729,42.1442309394388,470.795800000007 -0.412627011430574,42.1442349624599,470.787100000001 -0.412862040353272,42.1442409976571,471.541599999997 -0.4130360485154,42.1442510558738,471.2693 -0.413190945918144,42.1442589347314,471.428799999994 -0.413304939432753,42.144280057578,471.1253 -0.41348196593423,42.1443159316994,471.192299999995 -0.413673072629445,42.1443660555258,471.399799999999 -0.413864013136363,42.1444160121313,471.385999999999 -0.414054952744952,42.1444709974549,473.0 -0.41416592881851,42.1445330229847,473.0 -0.414245054225381,42.1446409818835,473.0 -0.414292998210403,42.1447229570173,473.0 -0.414371956530614,42.144814990172,472.779599999994 -0.414411016177475,42.1448480152661,472.371400000004 -0.414903033340051,42.1450560537139,473.722500000003 -0.414977968106129,42.1450939402109,474.0 -0.415161028591342,42.145249005393,474.539199999999 -0.415119957616547,42.1452979555634,474.081300000005 -0.415120962831366,42.1452999677061,474.019100000005 -0.415228083335715,42.145414966785,472.720499999996 -0.415365044077214,42.1455309727217,472.791599999997 -0.415493957710382,42.1456419491156,472.0 -0.415652040539133,42.1457589603675,472.0 -0.415776930618134,42.1458419411156,472.0 -0.415849015029789,42.1459039673004,472.0 -0.415944065770004,42.1459500676238,472.0 -0.41610097539898,42.1460499802936,472.014500000005 -0.416275989674224,42.1461230705853,473.0 -0.416439939400086,42.1461899579391,472.933900000004 -0.416577067228212,42.1462439373309,473.8514 -0.416678990978653,42.1462819909595,474.645499999999 -0.416780076600969,42.1463180331209,474.395399999994 -0.416924078337618,42.1463559195286,475.0 -0.417130943279583,42.1464030259098,475.0 -0.417308974995845,42.1464519758539,475.0 -0.417474936947938,42.146522049191,476.0 -0.41769605096693,42.1466290016449,476.0 -0.417908951689259,42.1467220410747,476.0 -0.418087989518637,42.1467889284618,476.199099999998 -0.418219920592854,42.1468340230929,476.468900000007 -0.418416056955351,42.1469010782024,476.525699999998 -0.418640021328733,42.1469770188041,476.100300000006 -0.418843030701489,42.1470479294301,476.573600000003 -0.419046040972543,42.1471200135263,476.574299999993 -0.419201943590106,42.1471800283741,476.327900000004 -0.419357008977807,42.1472390367915,477.0 -0.419535040694069,42.1473230233038,477.0 -0.419656075203894,42.1473959462844,477.0 -0.419776942627059,42.1474680306503,477.099300000002 -0.419924967019578,42.1475649251496,477.368400000007 -0.420041977975203,42.1476410327938,477.146299999993 -0.420157983716044,42.1477169731739,477.591100000005 -0.420347918109847,42.1478339845867,477.151899999997 -0.420562997246738,42.1479799971246,477.369500000001 -0.42068704919758,42.1480589548476,477.895000000004 -0.420853011149707,42.1481479707357,477.986399999994 -0.42088301847345,42.148164063821,477.822100000005 -0.421034060307019,42.148235980141,477.808099999995 -0.421176049817436,42.1482939832154,477.1253 -0.42133195333333,42.1483580210414,477.395699999994 -0.421488023935817,42.1484220588027,477.237200000003 -0.421682987098571,42.14850503939,477.530599999998 -0.421833023717321,42.1485570074327,477.306599999996 -0.422002002212168,42.1486109868042,478.708599999998 -0.4221429865078,42.1486579256692,479.221699999995 -0.422283969905135,42.1487050316694,479.0 -0.422460995508281,42.1487690697456,479.0 -0.422621927793092,42.1488299222087,479.479200000002 -0.422782022848109,42.14889194813,479.558900000004 -0.423005987221458,42.1489759351134,479.896800000002 -0.42315300550086,42.1490290762838,480.0 -0.423349979991549,42.1491150744408,480.2307 -0.423570926923881,42.1492200158239,480.157699999996 -0.423733033306765,42.1492989733322,480.123699999996 -0.423894971704726,42.1493779307421,480.707599999994 -0.424076020862038,42.1494639290912,480.615999999995 -0.424275006680628,42.1495619973698,480.336599999995 -0.424436945078589,42.1496459841302,480.479099999997 -0.424579940702122,42.14971706293,480.3364 -0.424696951657781,42.1497700363109,480.208899999998 -0.424805916403439,42.1498099339842,480.936199999996 -0.424934998021563,42.149859052457,480.9859 -0.425117053291991,42.1499180610411,481.1823 -0.425247978253059,42.1499569529568,481.137400000007 -0.425518043268518,42.1500550211376,488.0 -0.425786935084168,42.1501529220003,488.0 -0.426057000099628,42.1502519955372,481.5723 -0.426067057637531,42.1503319594148,481.352499999994 -0.425916015803996,42.1504739488945,482.0 -0.425755083519151,42.1506380664329,482.796000000002 -0.425643939460635,42.1507560834258,483.118000000002 -0.425531957273927,42.1508749386841,483.0 -0.425416957646203,42.1510110608905,483.751199999999 -0.425300951905362,42.1511470156405,484.287700000001 -0.425152927512844,42.1513310817859,484.358900000007 -0.425046980208237,42.1514579837528,484.265799999994 -0.424940027688845,42.1515860595983,484.137400000007 -0.424815974839672,42.1517479978174,485.002099999998 -0.42471908075648,42.1518589739684,484.797300000006 -0.424621011676918,42.1519689449584,485.003500000006 -0.424517076598542,42.1521079165396,485.0 -0.42441297353521,42.1522460506803,485.0 -0.42434591789254,42.1523489802819,485.197899999999 -0.4242540525783,42.1525209767818,485.0 -0.424180962053529,42.1526410055032,485.0 -0.424109045626832,42.1527610346631,485.082299999995 -0.423991028558057,42.1529660562302,485.0 -0.423878040258267,42.1531729212014,486.0 -0.423802938405562,42.1533390509546,486.0 -0.423701014655121,42.1535420601006,486.0 -0.423603951688674,42.153747920249,486.993100000007 -0.423522982938826,42.1539209225444,487.0 -0.423474032840689,42.1540320667032,487.0 -0.423425919972379,42.1541420372474,487.0 -0.423339921555282,42.1543329766812,488.0 -0.423325002335054,42.1544409355163,488.0 -0.423374958546307,42.1545549297131,489.0 -0.423507056707152,42.1547369847605,489.0 -0.423608981355923,42.1548620425393,488.6875 -0.42371794610158,42.1549669837179,489.0 -0.423853061703475,42.1550870131283,489.0 -0.423966050003265,42.1551830695237,489.0 -0.424114074395783,42.1553079599344,489.0 -0.42427701890686,42.1554420701101,489.0 -0.424468964628564,42.1555989792475,489.671000000002 -0.424597040133572,42.1557000653952,490.0 -0.424723941540508,42.1558009835643,490.026500000007 -0.424913037806119,42.1559480019402,490.727899999998 -0.425117053291991,42.1561109458866,490.768299999996 -0.425215959601381,42.1561780011581,491.0 -0.425308999013695,42.1562259459699,491.0 -0.425442941415813,42.1562879719691,491.0 -0.425571016920822,42.1563830229773,491.0 -0.42566204410687,42.1564660037832,491.0 -0.425757932975244,42.1565590427392,491.0 -0.425835047054181,42.1566369941917,491.0 -0.425943005686689,42.1567419357568,491.0 -0.426039062540019,42.1568259223132,491.0 -0.426141992403609,42.1568919719389,491.0 -0.426239054471725,42.156935054925,491.0 -0.426382050095292,42.1569840053819,491.476500000004 -0.426580030699063,42.1570550839324,492.0 -0.426722020209514,42.1571310236732,492.0 -0.426880941166425,42.1572349595362,492.0 -0.426988061670808,42.1573050322573,492.0 -0.427106916867708,42.157392036037,492.0 -0.427241027254817,42.1574969776818,492.0 -0.427391062975236,42.1576019191526,492.396800000002 -0.427485946628824,42.1576929466877,492.008400000006 -0.427572951159037,42.1578029168639,492.499400000001 -0.42763698846236,42.1579080263049,492.417700000005 -0.427709072874014,42.1579980478631,492.0 -0.42777596053176,42.1580610796588,492.721300000005 -0.427901018595718,42.1581869759168,493.878599999996 -0.42802607665971,42.1583219243715,493.765899999999 -0.428136046620153,42.1584290453417,493.513500000001 -0.428247023592041,42.1585170551021,493.0 -0.428368058101833,42.1586060709329,493.0 -0.428457073959981,42.1586719528887,493.0 -0.42861398269066,42.1588090804977,493.0 -0.428733005872517,42.1589059756159,493.989400000006 -0.428853035167524,42.1589929798581,493.9329 -0.429012961339253,42.1591039559578,494.0 -0.429203062819682,42.1592120824534,494.0 -0.429389979772435,42.1593019363462,494.0 -0.42952107271846,42.1593589337537,494.0 -0.429670941352253,42.1594219655256,494.699099999998 -0.429857019278516,42.159490026797,494.400699999998 -0.430016946348543,42.1595619435668,494.827399999995 -0.430157929745878,42.1596420741437,494.820500000002 -0.430305954138396,42.1597309225828,495.0 -0.43053494728073,42.1598749232994,495.0 -0.430730078428441,42.1600110454605,495.438999999998 -0.430845078056166,42.1600930206671,495.300600000002 -0.430961083797006,42.1601749957675,496.0 -0.43113006319015,42.160320002305,496.200700000001 -0.431248080258925,42.1604390253873,496.762000000002 -0.431351010122482,42.1605359206733,496.206000000006 -0.431453939087741,42.1606319767888,496.0 -0.431592073028983,42.1607560294118,497.049400000004 -0.431729033770449,42.1608790756349,497.048200000005 -0.431826933966757,42.1609799935357,497.532600000006 -0.431925002148022,42.1610810790787,497.706699999995 -0.432033966893646,42.1611870267506,497.491299999994 -0.432141926424518,42.1612929735791,497.935899999997 -0.432263967047426,42.161417026238,498.531199999998 -0.432386006772037,42.1615410779877,498.825899999996 -0.432563033273513,42.1617050283257,499.0 -0.432736035322492,42.1618599256333,499.600399999996 -0.432909038269803,42.1620159971668,499.463499999998 -0.433068964441532,42.16217994694,499.390700000004 -0.433228053383399,42.1623430586208,499.984500000006 -0.43336400801175,42.162480019131,500.0 -0.433498956526984,42.1626169793447,500.0 -0.433596018595133,42.1627219209809,499.9666 -0.433693919689738,42.1628270295757,500.0 -0.433808081189304,42.1629519202159,500.321899999995 -0.433916039821846,42.1630749668298,501.126199999999 -0.43402500456747,42.1631970070845,500.404500000004 -0.434151068744577,42.1633200532219,500.702399999995 -0.434331949916898,42.1634779682511,501.734500000006 -0.434427000657113,42.1636080553036,501.519100000005 -0.434514004289029,42.1637560802967,501.035999999993 -0.434606037588193,42.1638880111994,501.841899999999 -0.434687007236339,42.1639989873701,502.770699999994 -0.434773005653436,42.1640769389796,502.0 -0.434888005281161,42.1641429883613,502.3174 -0.435068048325324,42.1641999854032,502.410799999998 -0.435229986723284,42.1642269750826,503.0 -0.435342975023108,42.1642330103713,504.007700000002 -0.435477923538342,42.1642440741779,504.085900000005 -0.435621924376694,42.1642660346564,504.602499999994 -0.435744971112751,42.1642980541536,504.320399999997 -0.43585594718631,42.1643470042416,504.445099999997 -0.435997936696761,42.1644229438876,505.0 -0.436129029642786,42.1644869820411,505.0 -0.436307061359048,42.1645560486236,505.890599999999 -0.436488948644518,42.1645949408661,505.0 -0.43669296413039,42.1646190805452,505.875400000004 -0.436885077837052,42.1646390293656,506.0 -0.437160003636505,42.16468093918,507.028999999995 -0.437445994883605,42.1647040733963,509.0141 -0.437617990819469,42.1647510116457,510.479999999996 -0.437692925585548,42.1648559530716,511.0 -0.437741037555526,42.1649399401782,511.0 -0.437811948767405,42.1650130299642,511.0 -0.43787296862971,42.1650839410253,511.0 -0.437986962144319,42.1652079929099,512.0 -0.438039935796623,42.1652929856357,512.597899999993 -0.438032057571611,42.1653799897517,514.061000000002 -0.437965001928908,42.1654649822463,515.656199999998 -0.437898952399321,42.1655439401297,516.0 -0.437875986070761,42.1656309439005,516.0 -0.437905993394504,42.1657199597112,515.563299999994 -0.437950919938508,42.1657950614189,515.691699999996 -0.438054017787022,42.1659990772985,515.311600000001 -0.438115037649328,42.1661350318114,514.715400000001 -0.438176058409963,42.166270986032,514.430500000002 -0.438231043390168,42.16638900317,514.815400000007 -0.438286028370406,42.1665070207536,515.906700000007 -0.438339002022709,42.1666139733951,514.767399999997 -0.438390970460228,42.1667219325854,514.8364 -0.438448972881483,42.1668500081685,514.749500000005 -0.438507981415853,42.1669780834924,515.348499999993 -0.438563972509207,42.1670890602352,517.0 -0.438620969715677,42.1671990307272,516.839699999997 -0.438679978250048,42.1673239207268,514.271299999993 -0.438738986784418,42.1674479728799,516.478499999997 -0.438836048852568,42.1676550062366,515.220199999996 -0.438923053382781,42.1678380669277,515.494699999996 -0.439015924810104,42.1680249834765,515.214900000006 -0.439102929340317,42.168192956488,515.890199999994 -0.439199991408466,42.1683800404379,515.378400000001 -0.43927593138933,42.1685349380487,516.0 -0.439341980918884,42.1686740776538,515.516000000003 -0.439409036561587,42.168813049836,515.9421 -0.439512971639962,42.1690160592767,514.510899999994 -0.439616069488509,42.1691949294762,515.206900000005 -0.439722016793116,42.1693850311903,515.749299999996 -0.439881942964812,42.169473041025,515.962899999999 -0.439976993705027,42.1695779826075,516.2071 -0.440076067999408,42.1697360651101,516.106400000004 -0.440170950754665,42.1698309481113,516.725300000006 -0.440252926515927,42.1698849273147,516.918399999995 -0.440420061667796,42.1699000148517,517.0 -0.440545957859913,42.1698810717064,517.0 -0.440712925026825,42.1698420122705,517.0 -0.440879054065579,42.1698039581594,517.0 -0.441151969435429,42.16974595549,517.0 -0.441346932598149,42.1697030403515,516.489499999996 -0.441543068960646,42.1696599574034,516.543600000005 -0.441707018686542,42.1696240829986,516.441800000001 -0.441870968412404,42.1695880407928,516.547399999996 -0.442099962453068,42.169533055317,516.637799999997 -0.442328955595401,42.1694790758132,516.813800000004 -0.442517045747896,42.1694349866919,516.7834 -0.44270597402855,42.1693900599656,516.722599999994 -0.442982073926077,42.1693360803398,516.449399999998 -0.443138982656755,42.1692970205674,516.3946 -0.443420950349723,42.1692339886459,516.0 -0.443625971948711,42.169183026961,516.792799999996 -0.443804003664972,42.1691459791444,516.786999999997 -0.444007013037695,42.1691149661292,516.325700000001 -0.444173980204607,42.1691189895661,516.0 -0.444309934832991,42.1691520139638,516.127399999998 -0.444504059867553,42.1691860443689,517.0 -0.444617048167377,42.1691149661292,517.0 -0.444755014123662,42.1691149661292,517.0 -0.444928016172641,42.1691719626865,516.121400000004 -0.445024073025972,42.1692120285603,516.0 -0.445187017537048,42.1692599728176,516.0 -0.445446018003125,42.1693240107356,516.0 -0.445708036808583,42.1693959276463,516.0 -0.445848014092769,42.1694349866919,516.0 -0.446119923349502,42.1694970130593,516.0 -0.44632192660911,42.1695389223186,516.0 -0.446492079202029,42.1695669184021,516.0 -0.446722079355809,42.1696039659721,516.0 -0.446878988086488,42.1696279386225,516.0 -0.447061043356916,42.1696629747886,516.0 -0.447146035660863,42.169682924016,516.0 -0.447217952087594,42.1696990169517,516.0 -0.447377041029462,42.1697360651101,516.0 -0.447535961986372,42.1697729454667,516.0 -0.447688009933023,42.1698029528104,516.590500000006 -0.4477979798935,42.1698160283378,516.596699999995 -0.447938964189132,42.1698190457156,516.823799999998 -0.448115989792277,42.1698120049453,516.988700000002 -0.448293015395423,42.1698049641741,517.0 -0.448528044318154,42.1698049641741,517.0 -0.448650923069254,42.1698109989306,517.0 -0.448758043573604,42.1698309481113,517.0 -0.448967925956586,42.1699169466312,517.0 -0.449140928903896,42.1699860132778,517.0 -0.449305046614749,42.1700430103818,517.0 -0.449443012571,42.170108053517,518.0 -0.449452064894118,42.1701120768907,518.0 -0.449600927414794,42.170199081037,518.0 -0.449747945694197,42.1702859179505,519.0 -0.449858922666086,42.1703809685712,519.0 -0.450003929617554,42.1705400570675,519.816099999996 -0.450101997798819,42.1706260552892,519.895300000004 -0.450220014867594,42.1707199329525,520.467099999994 -0.450338031936369,42.1708139775881,520.0 -0.450495946780163,42.1708639339586,520.0 -0.450654029608915,42.1708880739087,520.0 -0.450811945351007,42.1709120460725,520.0 -0.45109491825876,42.1709479204126,520.0 -0.451334975950476,42.1709920091452,520.949600000007 -0.451468918352594,42.1710089406324,521.0 -0.45164007705863,42.1710139699444,521.0 -0.451766979363862,42.1710139699444,521.0 -0.451896060083656,42.1710449826944,521.0 -0.452056992368501,42.1711789256955,520.989600000001 -0.452157072775998,42.1712429636681,521.0 -0.45218506787351,42.1713370081918,521.0 -0.452300068399531,42.1714050692959,521.0 -0.452448930920208,42.1714409440222,521.616399999999 -0.452613048631061,42.1715960092365,520.990600000005 -0.452764928592755,42.1717549302308,521.0 -0.452916975641142,42.1719140186003,521.0 -0.453109927475962,42.1720439385079,521.0 -0.453220065421362,42.1721790544759,521.0 -0.453374962824106,42.1723019333458,521.0 -0.45352701077079,42.172401007494,521.0 -0.453656930517073,42.1724600156985,521.0 -0.453795064458315,42.1725280769257,521.134699999995 -0.453914925768365,42.1725820564905,521.326700000005 -0.454149953792765,42.1726880035443,521.503700000001 -0.454551949882409,42.1728910131983,521.216899999999 -0.454666949510134,42.1729359401011,521.275800000003 -0.454810951246816,42.1729890817912,521.833400000003 -0.454979929741663,42.1731719745871,522.0 -0.455007925737472,42.1732390297538,522.0 -0.45507900403601,42.1733320693456,522.0 -0.455477982684637,42.1738049759906,522.0 -0.456041917172208,42.174339071198,522.0 -0.456446930702902,42.1747289969239,522.0 -0.456879940229404,42.17515898901,522.0 -0.457586031314086,42.1755640025241,522.0 -0.458026080937475,42.1758310495887,521.750499999995 -0.458317939081719,42.1760020402573,521.0 -0.458666961519059,42.1762280168245,522.0 -0.459261071315363,42.176587935448,522.253200000006 -0.459599029203354,42.1768149171563,523.0 -0.460060033827368,42.1771170009617,524.0 -0.460384916736406,42.1773429775391,524.141199999998 -0.460991933526707,42.1777570433756,525.304399999994 -0.461918972442051,42.1783139368769,526.849799999996 -0.462734028272356,42.1787910347929,528.087700000004 -0.46296302231302,42.1788989938369,529.0 -0.463180951804301,42.1790280752633,529.0 -0.463169049126794,42.1790280752633,529.0 -0.463494938148947,42.1792250500137,529.304999999993 -0.463855024237306,42.1794739927666,530.0 -0.463926941562333,42.1795579791041,530.0 -0.463960971541912,42.1796280517324,530.0 -0.463999025075691,42.1797319872516,530.062399999995 -0.46422600778842,42.1800830216609,531.067299999995 -0.464422982279076,42.1803549304303,532.343200000003 -0.46445600704387,42.1804139392019,532.998800000001 -0.464484002141381,42.1804419344659,533.0 -0.464585926790152,42.1806409211567,533.223599999998 -0.464734956397456,42.1812020056401,534.0 -0.464869066784532,42.1816229445424,534.0 -0.464928075318936,42.1817840450334,534.113100000002 -0.464936960555394,42.1817790159121,534.049100000004 -0.464950036432678,42.1817919238782,534.342999999993 -0.464929919560211,42.1818090228851,534.496499999994 -0.464927070104117,42.1818130461801,534.521299999993 -0.464942995437494,42.1818400363327,534.913499999995 -0.464952047760612,42.1818549559324,535.0 -0.465020946746259,42.1820309760561,535.0 -0.465076937839613,42.182149998897,535.0 -0.46509403727103,42.1822039782372,535.0 -0.46512002104064,42.1822589633481,535.0 -0.465182047016061,42.1823880445722,535.0 -0.465281959438601,42.1825550122364,535.125899999999 -0.465345997640254,42.1826700121818,536.0 -0.465434007385252,42.1828659810965,536.0 -0.465508941253,42.1829920449978,536.0 -0.465555041895077,42.183088939689,536.874200000006 -0.465611032988398,42.1831809729665,537.0 -0.465622935665939,42.1832049451305,537.0 -0.465637016758008,42.1832480281712,537.0 -0.465645063866307,42.1832879260374,537.0 -0.465672053749034,42.1833579985262,537.737200000003 -0.465744976288847,42.183475009937,538.0 -0.465840027029062,42.1836679616366,538.597999999998 -0.4658950120093,42.183782960889,538.169099999999 -0.465920995778877,42.1838520283691,539.373999999996 -0.465974975544296,42.1839559636016,539.580100000006 -0.465986039195348,42.1839909998183,539.437999999995 -0.4660279491966,42.184144053308,540.0 -0.466057956520343,42.1843069978583,540.0 -0.466071032397627,42.1845069901479,540.693599999999 -0.466080922848903,42.1845740452774,540.486000000004 -0.466083940289953,42.1845869533384,540.427599999995 -0.466103051049304,42.1847259251691,540.939100000003 -0.466105062377239,42.1847669969512,540.994000000006 -0.466119982495797,42.1848759615516,541.0 -0.46612400604993,42.1849160267962,541.0 -0.466137919157076,42.1850290148959,541.0 -0.466168932593935,42.1851639633389,541.0 -0.466166083137841,42.1852070463759,541.0 -0.466191060794336,42.1852950568252,541.191000000006 -0.466228947241421,42.1853649613474,542.0 -0.466333050304754,42.185491025591,542.0 -0.466404966731451,42.1855850702276,542.0 -0.466485936379597,42.1856730801506,542.0 -0.466597080438112,42.1858199312648,542.137300000002 -0.466686934424419,42.1859389542948,542.826499999996 -0.466809980262145,42.1860829552609,543.0 -0.466954987213613,42.1862529404111,543.407300000006 -0.467064958072386,42.1863449737423,544.0 -0.467182975141161,42.1864249372706,543.202799999999 -0.467259083106982,42.1865389310846,544.0 -0.467348937093255,42.1866450457884,544.0 -0.467425045059075,42.1867660807518,544.501799999998 -0.467506013808891,42.1869139370664,545.0 -0.467624030877666,42.1870629678411,545.0 -0.467764009060182,42.1872150154778,545.0 -0.467868950251673,42.187339067223,546.0 -0.468009933649008,42.1874730103262,546.0 -0.468149073703366,42.1875950507673,546.0 -0.468257032335874,42.1876979807722,546.945099999997 -0.468356944758414,42.1878260558134,547.0 -0.468417964620719,42.1878840585413,547.0 -0.468438919621345,42.1879090366455,547.0 -0.468450989385513,42.1879259682629,547.0 -0.468555930577004,42.188004926063,547.0 -0.468628014988658,42.1881180816984,547.075800000006 -0.468813925828295,42.1882850488734,547.102199999994 -0.468812919715179,42.188299968949,547.095400000006 -0.468878969244733,42.1884310619227,547.037599999996 -0.468986928775605,42.1885319797984,547.166599999997 -0.469064041956211,42.18859098826,548.0 -0.46917803547082,42.1887029707336,548.0962 -0.469210055020795,42.1887470597346,548.717699999994 -0.469297058652711,42.1888300406889,549.0 -0.469399988516268,42.1889190564642,549.0 -0.46948397560543,42.1889869495536,549.056200000006 -0.469602998787321,42.1890789828981,549.693299999999 -0.469636022653817,42.1891230716369,550.0 -0.469787065385683,42.1892429330809,550.0 -0.4698760803455,42.1892739462099,550.0 -0.470020082082183,42.189342007312,550.0 -0.470030978646575,42.1893510593125,550.0 -0.470016058528017,42.1893619556565,550.0 -0.470020920210341,42.1893609499528,550.0 -0.470163076807419,42.1894890256183,550.0 -0.470248070009697,42.1895939672672,550.360100000005 -0.470280926789534,42.1896300093867,550.627299999993 -0.470365080965357,42.1897129898475,551.0 -0.470432974736218,42.1897800454455,551.0 -0.470449068054519,42.1898030114073,551.0 -0.470555014460829,42.1898970569507,551.047600000005 -0.470595080220806,42.1899599211848,551.366899999994 -0.47065392166855,42.1899949574021,551.276299999998 -0.470685940320228,42.1900090391073,551.017900000006 -0.470846034476881,42.1901099571261,551.024399999995 -0.47094292945837,42.1902469174171,552.078899999993 -0.471044015080685,42.190391924241,552.236499999999 -0.471131019610898,42.1904710493486,552.240000000005 -0.471237972130291,42.1906110272397,553.0 -0.471287928341577,42.1906559541994,553.0 -0.471340063865722,42.1906839495874,553.0 -0.471383985194908,42.1907870469462,553.0 -0.471480042048239,42.1908980238436,553.053599999999 -0.471602082671146,42.1910059821826,554.0 -0.471745077396383,42.1910629796439,554.0 -0.471861921265415,42.1911090796817,554.0 -0.472032073858301,42.1911979278522,554.0 -0.472129974952906,42.1912520751774,554.0 -0.47220608202043,42.1913399174747,554.0 -0.472267940909191,42.1914269217019,555.0 -0.472314041551269,42.1914770454855,555.0 -0.472413953075478,42.191564049524,555.198799999998 -0.472516044810876,42.1916220521497,556.0 -0.472689047758186,42.1917269935853,556.121899999998 -0.472773033949051,42.1918399814919,557.0 -0.47292407578262,42.1919950472696,557.018100000001 -0.473043937092669,42.1921169199118,557.679600000003 -0.473119038945341,42.1922210232537,558.0 -0.473247952578508,42.1923720648081,558.0 -0.473357923437281,42.1924850528928,558.0 -0.473472923065006,42.1926010583974,558.024000000005 -0.473557077240829,42.1926939304011,558.159799999994 -0.47366503587337,42.1927750672534,558.0 -0.473824962943396,42.1929269467431,558.343999999997 -0.473938956458005,42.1930129451369,559.0 -0.474077928527406,42.1930999497233,558.788400000005 -0.474239028797208,42.1932149491225,558.480500000005 -0.474369954656606,42.1933230758807,558.967000000004 -0.474401973308251,42.1933569388728,559.0 -0.474513955494959,42.1934209763501,559.0 -0.47464907199515,42.1935369821335,559.0 -0.474673043538496,42.1935599480614,559.0 -0.474829953167505,42.193684000666,559.0 -0.474962052226646,42.1937859244405,559.0 -0.475070010859188,42.1939019302196,559.290099999998 -0.47521702913859,42.193985078778,560.0 -0.475348960212808,42.1940980666413,560.0 -0.475490949723225,42.1942249686843,560.0 -0.475560016693863,42.194367963786,560.2304 -0.475608967690297,42.194490004226,560.052500000005 -0.475631934018857,42.1945979630851,560.932499999995 -0.475680045988836,42.1947079336626,560.951100000006 -0.475735030969074,42.1947590631242,561.0 -0.475748944974517,42.1947999673292,561.0 -0.475877020479525,42.1949089319397,561.0 -0.475978944229966,42.1950039828209,561.0 -0.476053040867852,42.1950789166499,561.131699999998 -0.476106014520155,42.1951880491578,561.357000000004 -0.476134009617667,42.1952319705815,561.629300000001 -0.476180948387903,42.1952720359179,562.0 -0.476199053034139,42.1952980200395,562.0 -0.476257056353724,42.195355016958,562.0 -0.476389992642727,42.1954760512167,562.027499999997 -0.476426034848571,42.195521984317,562.0 -0.47649107916334,42.1956160293375,562.916700000002 -0.476586968031713,42.1957779673339,563.149900000004 -0.476598031682732,42.1958210504578,563.3802 -0.476651005335069,42.1959600222159,563.414000000004 -0.476660057658186,42.1960770335944,563.187600000005 -0.476671960335694,42.1961080466978,563.555900000007 -0.476639941684016,42.1961759400516,564.035999999993 -0.476611945688174,42.1962260640622,564.1158 -0.47663306777546,42.1962919461025,564.825700000001 -0.476706996428389,42.1963390519122,565.0 -0.476751923870691,42.1963410637629,565.0 -0.476834065820282,42.1963189353978,565.0 -0.476935990469053,42.1962550652391,565.0 -0.477000027772375,42.1961789575028,565.0 -0.477088037517407,42.1960399855606,565.024900000004 -0.477095916640749,42.1960150080073,565.022299999997 -0.477099940194915,42.1960150080073,565.0 -0.477146040836992,42.1959749424765,565.645300000004 -0.477155931288269,42.1959660578041,565.847399999999 -0.477166995837618,42.1959630396774,565.828200000004 -0.477306973121837,42.1959249859776,566.0 -0.477354918005156,42.1959030258431,566.0 -0.477463044622655,42.1958659777073,566.220100000006 -0.477580055578314,42.1958119980528,567.080400000006 -0.477609056788941,42.1957900372135,567.006500000003 -0.477671920892521,42.1957529896771,567.935800000007 -0.477764960304801,42.1956899575035,568.276800000007 -0.477803013838547,42.1956849281574,568.407099999997 -0.477840062157506,42.1956750378412,568.634699999995 -0.477851964835014,42.1956730259692,568.6054 -0.478039048874394,42.1955900453466,569.560899999997 -0.47806905619817,42.195554003298,569.590700000001 -0.478070061412956,42.1955399214972,569.819799999997 -0.478083975418398,42.1955250017994,570.092699999994 -0.478150024947985,42.1955189668346,570.262400000007 -0.478196963718188,42.1955179612289,570.307700000005 -0.478258989693643,42.1955149437462,570.404999999999 -0.478412042855112,42.195480074973,571.254199999996 -0.478428974301572,42.1954760512167,571.351800000004 -0.478511955277619,42.1954230775018,571.583799999993 -0.478540957386577,42.1954210662874,571.792600000001 -0.478570963812023,42.1954100019447,571.992299999998 -0.478699039317031,42.1953709423039,572.0 -0.478716976876607,42.1953739597934,572.0 -0.478748995528284,42.1953540106842,572.0 -0.478775985411011,42.1953439526037,572.124500000005 -0.478910933926245,42.1953509931937,572.322100000005 -0.478967931132715,42.1953379176217,572.317200000005 -0.479045044313321,42.1953080781272,572.0 -0.479130037515599,42.1952589603295,571.031400000007 -0.479246042358143,42.1952380055737,571.0 -0.47932902333419,42.1952029689351,571.098599999998 -0.479342937339632,42.1951999514374,571.032099999997 -0.47944502907503,42.1951260233638,571.689499999993 -0.479557011261738,42.1950559506084,572.0 -0.479666982120511,42.1949729698411,572.351800000004 -0.479676034443628,42.1949649229291,572.388900000005 -0.479770079070694,42.1948730572163,573.0 -0.479800924522629,42.194851934619,573.0 -0.479824058836147,42.194832991627,573.0 -0.479927993914489,42.1947129630863,573.0 -0.480007957449518,42.1946730651097,573.963900000002 -0.480045005768478,42.19465395435,574.0 -0.480069983424939,42.1946400407283,574.0 -0.480219013930574,42.1946070156641,574.326400000005 -0.480310041116622,42.1945999749913,574.759399999995 -0.480445995745006,42.1945580657014,575.0 -0.480449013186023,42.1945540418864,575.0 -0.480508021720427,42.1945179999125,575.0 -0.480588991368539,42.1944460829522,574.894700000004 -0.480605922815032,42.1944019945986,574.640899999999 -0.480781942305062,42.1943280662571,574.0 -0.480834077829207,42.1943240424274,574.0 -0.481018982555694,42.1943260543423,575.0 -0.481072962321147,42.1943240424274,575.0 -0.481168013061328,42.1942930297795,575.0 -0.481216963159499,42.1942990648614,575.0 -0.481225010267798,42.1943029203121,575.0 -0.481303967689712,42.1943230368027,575.0 -0.481351073546575,42.1943139841831,575.0 -0.481458026964298,42.1943069434776,575.0 -0.481589958038515,42.1943129785582,575.0 -0.48162499413121,42.1943159960983,575.0 -0.481768995867893,42.1943069434776,575.926699999996 -0.481872930946268,42.1942960473205,575.0 -0.482010058774394,42.1943439918618,575.0 -0.4821099711969,42.1943599174625,575.0 -0.482248943266301,42.1943790276455,575.420199999993 -0.482296050021494,42.1943800339349,575.868300000002 -0.482355058555865,42.19436896941,576.0 -0.482531916174053,42.1943959595265,576.0 -0.48269502777179,42.1944009883096,576.0 -0.482786055856169,42.1944259665008,576.200700000001 -0.482889990934511,42.1944450773294,576.840200000006 -0.482965930915375,42.1944680435929,576.1489 -0.483074057532874,42.1944730730358,576.106499999994 -0.48317698739643,42.1944910098481,576.454599999997 -0.483287964368319,42.1944759228536,576.268200000006 -0.483318976906881,42.1944589909941,576.809899999993 -0.483377985441252,42.1944460829522,577.0 -0.48345006985294,42.1944460829522,577.0 -0.48360295592775,42.1944360247273,577.0 -0.483846031060483,42.1944420597955,577.435400000002 -0.483927000708628,42.1944769284759,577.401400000002 -0.484052057874256,42.1944710611256,577.902000000002 -0.48424702103701,42.1945200118212,578.564199999993 -0.484424047538487,42.1945429780574,578.000899999999 -0.484658070348102,42.1945860606922,578.227299999999 -0.484737027769983,42.1946160682417,579.0 -0.484815985191897,42.1946209299586,579.0 -0.484866946617968,42.1946299818687,579.0 -0.48494204847064,42.1946360169184,579.0 -0.485068950775906,42.1946189180531,579.0 -0.485090072863158,42.1946269643437,579.0 -0.485268942707612,42.1946430575872,579.0 -0.485303979698637,42.1946420519676,579.0 -0.485347062001334,42.1946329993936,579.0 -0.485433060418431,42.1946470813966,579.1348 -0.485507995184476,42.1946670300635,579.229000000007 -0.485632047135318,42.1946489249215,579.743199999997 -0.485684014674506,42.19465395435,579.2163 -0.48574302320891,42.1946599893974,579.043000000005 -0.485881995278311,42.1946879850086,579.511100000003 -0.485888030160378,42.1946859731052,579.463499999998 -0.485998001019151,42.1947310675445,580.0 -0.486127920765434,42.1948009729463,580.0 -0.486233029941882,42.1948180717624,580.0 -0.486319027460649,42.1948279628783,580.205199999997 -0.486454982088999,42.1948430497887,580.077999999994 -0.486598983825682,42.1948619934432,580.850200000001 -0.486731920114684,42.1949260307266,580.622399999993 -0.486794952203221,42.1949530206053,581.0 -0.486879944507203,42.1949810160866,581.0 -0.486955046359908,42.1949959359128,581.020300000004 -0.487023946243885,42.195038013291,581.0 -0.487087983547241,42.1950680206259,581.0 -0.487212035498083,42.1951179764712,581.817599999995 -0.487235001826644,42.1951209939729,581.614199999996 -0.487343966572267,42.1951810085498,582.0 -0.487421080651204,42.1951969339395,582.0 -0.487500038073118,42.1952259355887,582.0 -0.487594082700217,42.1952309643057,582.0 -0.487726013774401,42.195254936559,582.0 -0.487795918873198,42.1952899731689,582.0 -0.487955007815065,42.1953409351128,582.002999999997 -0.488123987208209,42.1954200600146,582.203699999998 -0.488187018398449,42.1954369916167,582.005799999999 -0.488230939727635,42.1954520790473,582.164099999995 -0.4883390663451,42.1954750456103,583.0 -0.48839606355157,42.1954929828037,583.0 -0.488435961326589,42.1954970058935,583.0 -0.488475020973484,42.1954760512167,583.0 -0.48855196706743,42.195521984317,583.0 -0.488688926910598,42.1955699285938,583.0 -0.488728992670609,42.1955809929085,583.0 -0.488802083195379,42.1956059706333,583.009300000005 -0.488871988294142,42.1956349720948,583.736799999999 -0.488999057686035,42.1956750378412,583.0 -0.489118918996084,42.1957199645289,583.0 -0.489189997294623,42.1957419253925,583.0 -0.489280019265886,42.1957890316122,583.0 -0.489421002663188,42.1958490462202,583.0 -0.48954505461403,42.1958540755532,583.0 -0.489595010825317,42.1958569253087,582.721699999995 -0.489635076585294,42.1958569253087,582.059999999998 -0.489716045335109,42.1958559190428,581.723599999998 -0.489866081953859,42.1958750301046,580.233300000007 -0.489996000801844,42.1959139217231,580.0 -0.490244943729985,42.196014001744,579.0 -0.490363966911876,42.1960730105415,579.0 -0.490532945406722,42.1961249781156,579.0 -0.490756072550243,42.1961870042602,579.0 -0.491076931006783,42.1962860782552,579.491699999999 -0.491307936375382,42.1963630244107,580.064299999998 -0.491903051386472,42.1965499411723,580.209499999997 -0.49286898196372,42.1968639271578,582.0 -0.492887925636444,42.1968679501603,582.0 -0.493071992234773,42.1969809381936,582.0 -0.493488069416486,42.197230048618,583.0 -0.49393599816325,42.197456024519,584.0 -0.494124926443903,42.197541017166,584.295499999993 -0.494183934978307,42.1975639836354,585.0 -0.494208075404941,42.1975760531739,585.0 -0.494439080773506,42.197704967361,583.703099999999 -0.494529939974597,42.1977240778636,583.264200000005 -0.494532957415648,42.1977170368726,583.423800000004 -0.494960937274868,42.1978799810429,582.0 -0.495185069633207,42.1979859283022,580.996100000004 -0.495420936684097,42.1980739382627,579.923800000004 -0.496027953474398,42.1982239742424,576.897100000002 -0.49642793823614,42.1982449293391,576.418900000004 -0.496740080339478,42.198318019235,575.0 -0.496905036178455,42.1983959711383,574.174599999998 -0.49721600508205,42.1985290755843,574.0 -0.497532002754597,42.1984449214558,574.0 -0.497768036892147,42.1982070433871,574.0 -0.497894939197379,42.1980719271326,573.2111 -0.497942045054242,42.1979059654233,573.0 -0.497965011382802,42.1977029555537,571.0 -0.49805000458508,42.1975339761545,569.000899999999 -0.498234071183443,42.1973400192739,566.460099999997 -0.498438924797473,42.1972260249731,564.779200000004 -0.498607065164128,42.1971760687976,564.0 -0.498894061626047,42.1970709600503,561.112899999993 -0.498955920514842,42.1970469878203,561.0 -0.499222968089217,42.1968189999522,558.0 -0.499239061407551,42.1967720615433,558.0 -0.499424971348858,42.1962750147295,556.0 -0.499599985624069,42.1959920416405,556.0 -0.49970492681556,42.1959159335874,556.0 -0.500232987082311,42.195633966491,555.085000000006 -0.5008120087751,42.1954349804027,554.0 -0.501341074256636,42.1953519994675,551.770300000004 -0.501565039528315,42.1953040550255,550.656199999998 -0.501814987671274,42.1952639890439,550.0 -0.501929987298999,42.1952879612847,549.017500000002 -0.501957982396511,42.1952889675595,549.0 -0.502434075124074,42.1954410153756,545.0 -0.502636078383681,42.1954899653199,544.0 -0.503203030312335,42.195674032238,541.0 -0.5035669728682,42.1958939727842,540.0 -0.503681972495958,42.1960490385986,540.0 -0.504087992139735,42.1963249702862,540.0 -0.504190922003325,42.1963559839335,540.0 -0.50504000871154,42.1966139787419,539.0 -0.505352988943069,42.1967289784022,539.0 -0.505514927340997,42.1967879871977,538.704400000002 -0.505596064075802,42.1968169881167,539.0 -0.50564803161499,42.1968369374297,539.0 -0.505664963061449,42.1968439778533,539.0 -0.505693964272077,42.1968739849963,539.0 -0.50610702491107,42.1970689482227,539.0 -0.50650198000553,42.1972659233345,539.0 -0.506743043810329,42.1973279490249,539.419800000003 -0.507058035369759,42.1972880513681,540.586800000005 -0.507493056224196,42.1972530152005,541.0 -0.507638063175664,42.1972769873523,542.090200000006 -0.507674943509667,42.1972979420974,542.073499999999 -0.507680978391734,42.1973110179294,542.0 -0.507689025500067,42.1973269434479,542.040900000007 -0.507641918744873,42.1975849382854,543.599499999997 -0.50763906928878,42.1976749599471,544.0 -0.507637057062548,42.1976870301299,544.0 -0.507698077823184,42.1978759581048,544.0 -0.507746021808206,42.1979349664947,544.0 -0.507798995460509,42.1979879401005,544.237200000003 -0.508018937178055,42.1980509719786,545.981 -0.508114993133056,42.1980429254585,546.129400000005 -0.50810795303617,42.1980479546169,546.151500000007 -0.50850592557168,42.1979510595614,547.0 -0.508676078164567,42.1979339609275,546.145499999999 -0.508890990214831,42.1980489601823,547.0 -0.508906077420016,42.1980870139341,547.0 -0.508896018983782,42.198094054884,547.0 -0.509051922499676,42.1983649584921,548.0 -0.509256944098664,42.1987039226079,549.0 -0.50933405727927,42.1988170777237,549.0 -0.50933405727927,42.1988179162392,549.0 -0.509369932398454,42.1988319979752,549.0 -0.509398933609081,42.1988750810135,549.0 -0.509526003000974,42.1990460719186,549.0 -0.509882066433497,42.1992609836464,550.0 -0.510268975317956,42.1994039786667,551.0 -0.510360002504004,42.1994420329335,551.0 -0.510392021155682,42.1994700284227,551.0 -0.510491933578222,42.1995499913189,551.432799999995 -0.510699972618227,42.1998970026833,552.0 -0.510701983946161,42.1999000199568,552.0 -0.510698966505111,42.2002289258555,552.0 -0.510665941740317,42.2008049299635,553.543300000005 -0.510649010293858,42.2013350019754,553.0 -0.510735008710955,42.2015500815997,553.080499999996 -0.510926954432659,42.2020100803196,552.5484 -0.510958973084303,42.2024020180783,550.0 -0.510916057868233,42.2026549840329,550.0 -0.510899964549933,42.2027899327768,550.0 -0.51084598568281,42.2032720597208,551.0 -0.510813966132835,42.203966080919,552.023499999996 -0.510793012030507,42.2044859267185,553.0 -0.510763004706764,42.2048429961587,553.0 -0.51069594906406,42.2054639272052,554.0 -0.510688069940719,42.2057680227481,554.0 -0.510685052499668,42.205942031282,555.0 -0.510700978731342,42.2061899678612,555.0 -0.510667953966549,42.2064219789143,555.0 -0.510670971407599,42.2069719991551,556.0 -0.510686058612784,42.2075929305692,557.074099999998 -0.510691925509928,42.2079999560568,558.0 -0.510701983946161,42.2082349846572,558.955799999996 -0.510714053710296,42.2083660775361,559.634600000005 -0.510693937736159,42.2088859230611,560.0 -0.510693937736159,42.2092039325113,561.0 -0.51071304849551,42.2098689528488,562.0 -0.510719921505736,42.2102010438713,563.0 -0.510724950274688,42.2106560133294,564.0 -0.510666947853433,42.2119139696443,565.699999999997 -0.510661080057992,42.2127360661772,568.0 -0.510756969824696,42.2130220567762,569.631099999999 -0.510902981990983,42.2131900300154,571.596300000005 -0.511146057123716,42.2135380469656,571.937600000005 -0.511430036144584,42.2137930242023,572.148400000005 -0.511575043096052,42.2140210120339,572.406000000003 -0.511621981866288,42.2146540136193,573.776500000007 -0.511734970166079,42.2155649589218,576.0 -0.511786937705266,42.2163079305765,577.0 -0.51181694502901,42.2168440371716,578.0 -0.511874947450298,42.2172099909617,578.942800000004 -0.51201593174593,42.2173769584495,579.0 -0.512076951608236,42.2174160184579,579.0 -0.512381046603274,42.2176369650841,580.0 -0.512420945276624,42.2176899388032,580.0 -0.512453969143087,42.2177519650673,580.0 -0.512467045020371,42.2177920300949,580.0 -0.512471068574504,42.2181330062553,581.0 -0.512280967094108,42.2189120203508,582.704599999997 -0.512062031489677,42.2195530685856,584.366299999994 -0.512042082602167,42.2197949703196,585.0 -0.512072928054069,42.2198980674174,585.0 -0.512078962936137,42.2199379654322,585.472999999998 -0.51211198770093,42.2200159172708,586.0 -0.512187927681794,42.2200690579714,585.922200000001 -0.512184072112585,42.2200670468762,585.987099999998 -0.512236039651773,42.2201379574021,585.003899999996 -0.512435026368693,42.2204539549991,584.0 -0.512496047129296,42.2205189988284,583.842300000004 -0.512854960017912,42.2209600546564,583.666700000002 -0.513290986087168,42.2216029467912,580.295599999998 -0.513473041357596,42.2220039367092,577.0 -0.513729024382622,42.2222639435844,575.551200000002 -0.513828936805162,42.2223660347988,575.0 -0.514706019509219,42.2228600644028,572.782699999996 -0.514953956324277,42.2229660116811,572.549100000004 -0.515576061218093,42.2230240140869,571.077900000004 -0.516126919828414,42.2229490801388,568.0 -0.517068039835827,42.2229170610711,561.833299999998 -0.517968926996603,42.2228790076399,556.977700000003 -0.518645010757542,42.2228069233901,554.479399999997 -0.518865957689873,42.2227259541573,554.0 -0.518923961009459,42.2226979583299,554.0 -0.51900593587239,42.2226449848207,554.0 -0.519096963058438,42.222595028787,554.167400000006 -0.519327968427003,42.2225120475999,552.4758 -0.520337987420063,42.222135029616,549.0 -0.521675068635053,42.2216220573828,544.0 -0.522351991422447,42.221370935618,541.0 -0.5228740159088,42.2211630643038,538.0 -0.522972923116521,42.2210899742267,538.0 -0.523191019694462,42.2208899819458,536.849400000006 -0.523502994711173,42.2207250261727,534.0 -0.523669961878085,42.2207040712144,533.0 -0.523672979319102,42.2207030653443,533.0 -0.523725952971406,42.2206970301233,533.0 -0.523767023946201,42.2207050770845,532.998000000007 -0.523919071892886,42.2207340783347,533.0 -0.524000041541031,42.2207649236649,533.0 -0.524045974198118,42.2207769940933,532.847599999994 -0.524074975408746,42.220785040379,532.7163 -0.524371024193782,42.220829967174,532.487099999998 -0.524808056376154,42.2208780798489,533.0 -0.525019950985368,42.2208770739815,533.0 -0.525213069906814,42.2208059953104,533.0 -0.525619927678783,42.2206809368632,534.0 -0.525832995487773,42.2207409517767,534.0 -0.525834001600888,42.2207900697228,534.0 -0.525843053924006,42.2208380141182,534.0 -0.525773986953368,42.2211070732463,534.0 -0.525740962188608,42.2211789897973,534.0 -0.525748003183791,42.2211890484218,534.0 -0.525664016992926,42.2212990186204,534.762100000007 -0.525335948657914,42.2214679976564,536.0 -0.525239053676425,42.221528012487,536.0 -0.525233018794358,42.2215350528202,536.0 -0.525171998932052,42.2216710076664,537.781400000007 -0.525186080922418,42.221760023083,538.195300000007 -0.525272916569377,42.221908047657,539.0 -0.52547307648604,42.2221600074871,540.0 -0.52550995682001,42.2222399709348,540.0 -0.52551297426106,42.2223179225925,540.0 -0.525516997815226,42.222429066969,540.286399999997 -0.525435022952295,42.2225509394528,540.415099999998 -0.52497100088723,42.2229640000129,541.0 -0.524155944158561,42.2236489693163,542.0 -0.523657053985759,42.2242749294945,543.0 -0.523524954926584,42.2248199209105,544.0 -0.523541048244918,42.225229963867,545.069499999998 -0.523480027484282,42.2254309615001,546.0 -0.523212980808204,42.2258909606053,547.163700000005 -0.523046012742961,42.2261390650024,547.759600000005 -0.522990021649641,42.226223051861,548.048500000004 -0.522981975439639,42.2262399831905,548.0 -0.52294107155147,42.2264119796443,548.0 -0.522968061434196,42.2264840637693,548.0 -0.52298700420859,42.2265060245825,548.0 -0.523040983974009,42.2265779416359,548.0 -0.523054059851293,42.2265879994002,548.0 -0.523266959675326,42.2267920153506,548.0 -0.523670967991201,42.2271420433782,547.0046 -0.524720046631122,42.2279790605856,547.0 -0.525539964143786,42.2285719957978,546.151100000003 -0.525774993066517,42.2286960481712,546.033200000005 -0.526404977083676,42.2289689630669,546.0 -0.527162030492726,42.2293210031276,546.0 -0.527710038748657,42.2296879628359,546.0 -0.528174061712052,42.2300039605277,546.0 -0.528465918957965,42.2301989232817,545.403099999996 -0.528487041943548,42.2302170282135,545.011100000003 -0.528556947042344,42.2302869335953,545.0 -0.528726931650273,42.2304089738282,545.0 -0.528847966160099,42.2305080480331,545.0 -0.529066063636337,42.2306579165209,545.0 -0.529812052496072,42.2311730681925,544.0 -0.530113969076516,42.2314910778279,544.0 -0.530370958214691,42.2316949256146,544.0 -0.530900023696227,42.2320969216416,544.0 -0.531521961503384,42.2325389834158,545.0 -0.532199051377438,42.2330110520258,545.0 -0.532537009265429,42.2332640177779,545.1351 -0.532654021119385,42.2333959493045,545.0 -0.532799028070853,42.2335330771602,545.421000000002 -0.532874968051717,42.2335989588714,545.0 -0.532896928267161,42.2336130401704,545.0 -0.532952919360515,42.2336579671486,545.0 -0.533022992444235,42.2337119470565,545.0 -0.533287022577594,42.2338829374451,545.0 -0.534440037194221,42.2346440147127,546.0 -0.535313934472304,42.2352280653663,546.013099999996 -0.536233931494101,42.2358030639403,547.0 -0.536671969789588,42.2361549361915,546.970400000006 -0.536901969045038,42.2364830041824,546.051200000002 -0.537124928203601,42.2367859261355,545.0 -0.537159964296329,42.2368149273146,545.0 -0.537284016247171,42.2368880178087,544.052100000001 -0.537422988316572,42.2369790449388,545.0 -0.537870917063336,42.2372900133485,547.0 -0.538194961844181,42.2376430591552,548.272100000002 -0.538250952937535,42.2377500124951,549.0 -0.538687985119873,42.2387169485748,551.498600000006 -0.539203975622456,42.2398089431814,553.0 -0.53966498024647,42.240795995957,556.0 -0.540027078561094,42.2414650396035,557.0 -0.540258083929659,42.2416980562814,558.0 -0.540525968733896,42.2419220209811,558.021200000003 -0.541155952751088,42.2423900664705,558.0 -0.54162600969822,42.2428949920681,559.0 -0.542401000666879,42.2441640123079,560.065700000006 -0.542940962712807,42.2450040469971,563.0 -0.543220918179543,42.2454429234634,564.383300000001 -0.543313957591823,42.2455909476975,565.0 -0.543336923920384,42.2456020118956,565.0 -0.5433540233518,42.2456229665691,565.0 -0.543443039209948,42.2457770258646,565.0 -0.543535072509112,42.2459200213086,565.047999999995 -0.543869007741267,42.2464319874668,565.042199999996 -0.544278043927797,42.247078064786,565.098299999998 -0.544442999766775,42.2473479623251,565.001999999993 -0.544475019316749,42.247399929608,565.563999999998 -0.5444780367578,42.2474069703806,565.589200000002 -0.544485076854686,42.2475189530042,565.193899999998 -0.544439982325724,42.2475290114215,565.931500000006 -0.544387008673421,42.2475360521796,566.0 -0.544268991604679,42.247711066103,566.991299999994 -0.544276032599862,42.2479150816029,567.0 -0.544330012365281,42.2481390461774,568.0 -0.544539056620105,42.2487229293703,570.0 -0.544886067729511,42.2491230813871,571.022899999996 -0.545304995265647,42.2496239839932,573.0 -0.545555949521722,42.2499019278427,575.020199999999 -0.545639935712587,42.2499810528881,576.0 -0.54568100758568,42.2500310091912,576.0 -0.545682012800499,42.2500360381997,576.0 -0.545658040358823,42.2501729989012,577.140499999994 -0.545583944619233,42.2503270583892,577.410399999993 -0.545384958800677,42.2508160583071,580.234700000001 -0.545307006593582,42.2512039728532,582.3128 -0.545313041475649,42.2512539288526,583.022800000006 -0.545406080887929,42.2516029514839,585.080900000001 -0.545668936923215,42.2520289196784,588.227199999994 -0.54586004451676,42.2524590793328,593.311300000001 -0.545873958522203,42.2525199317571,592.9136 -0.546103957777652,42.2531410309911,595.232999999993 -0.546295065371197,42.2536189669155,598.024600000004 -0.546498074743954,42.2540789653691,599.219299999997 -0.546535961191039,42.2542439217466,600.884999999995 -0.546591952284393,42.2543850728388,600.874800000005 -0.546752046441079,42.2548029942585,600.910699999993 -0.546909962183171,42.2549679500719,602.583700000003 -0.547050945580506,42.2551240211244,604.0 -0.547092016555301,42.2552090139607,604.372300000003 -0.547115988996977,42.2552990352713,605.194699999993 -0.547286979718022,42.2557820006798,606.394199999995 -0.54752904963597,42.2562859208349,609.0 -0.547554027292431,42.256381977072,610.114400000006 -0.547582023288273,42.2565519625636,612.919999999998 -0.547605994831619,42.2565509565999,613.079899999997 -0.547708924695176,42.2565700672484,614.069300000003 -0.547947977172073,42.2566359488428,617.213600000003 -0.547973960941683,42.2566379607675,617.578999999998 -0.548060964573566,42.2566560654276,618.653300000005 -0.548065994240848,42.2566570713896,618.736900000004 -0.548125002775219,42.2567040098403,619.964900000006 -0.548127014103153,42.2567440754109,621.204599999997 -0.548128020216269,42.2567559780585,621.664399999994 -0.548113938225869,42.2568139806617,622.372600000002 -0.548129025431054,42.256906014257,623.0 -0.548133048985221,42.2569080255083,623.003700000001 -0.548164062422113,42.2569239512914,623.525500000003 -0.548208988966084,42.2569209334179,624.0 -0.548373944805062,42.2570040821276,625.039499999999 -0.548635963610519,42.2570790162021,627.459700000007 -0.54888507362532,42.2570639288652,629.497099999993 -0.549232922862917,42.257105000162,631.763600000006 -0.549313053484574,42.2571199199408,633.400800000003 -0.549346078249368,42.2572669387462,637.9476 -0.549283046160831,42.2573690305233,639.774300000005 -0.549461077877092,42.2576159613461,643.366200000004 -0.549988970158852,42.2578840146678,649.920599999998 -0.550472941111427,42.2581250780477,653.075200000007 -0.550619959390829,42.2581619580207,653.9902 -0.5506930499156,42.2581780516975,654.031199999998 -0.550759937573346,42.2581929712223,654.429799999998 -0.551113988779637,42.2582040352046,656.240699999995 -0.551232006746743,42.2582449388784,656.363700000002 -0.551581029184083,42.2585200330477,655.954700000002 -0.55191898707204,42.2587939538747,656.697400000005 -0.552121996444796,42.2590509430112,658.255799999999 -0.552262980740429,42.2591030781681,660.541500000007 -0.552394073686487,42.2591039165481,661.0</coordinates>
</LineString>
</Placemark>
</Folder>
</Document></kml>
