<?xml version="1.0" encoding="UTF-8"?>

<kml xmlns:xsd="http://www.w3.org/2001/XMLSchema" xmlns:gx="http://www.google.com/kml/ext/2.2" xmlns:atom="http://www.w3.org/2005/Atom" xmlns="http://www.opengis.net/kml/2.2">
<Document>
<name>ES22a_14a_berbegal-pueyodefananas</name>
<visibility>1</visibility>
<Schema name="ES22a_14a_berbegal-pueyodefananas" id="kml_schema_ft_ES22a_14a_berbegal-pueyodefananas">
<SimpleField type="xsd:string" name="id">
<displayName>id</displayName>
</SimpleField>
<SimpleField type="xsd:string" name="nombre">
<displayName>nombre</displayName>
</SimpleField>
<SimpleField type="xsd:double" name="longitud">
<displayName>longitud</displayName>
</SimpleField>
<SimpleField type="xsd:string" name="_formato">
<displayName>_formato</displayName>
</SimpleField>
</Schema>
<Folder id="kml_ft_ES22a_14a_berbegal-pueyodefananas">
<name>ES22a_14a_berbegal-pueyodefananas</name>
<Placemark id="kml_1">
<name>&lt;img height='20' src='https://nco.ign.es/iconos/icono_todos_caminos_azul.png' /&gt;&lt;img height='20' src='https://nco.ign.es/iconos/Camino Santiago_20.png' /&gt;&lt;img height='20' src='https://nco.ign.es/iconos/icono_todos_caminos_azul.png' /&gt;  Camino de Santiago </name>
<visibility>1</visibility>
<description><![CDATA[<!DOCTYPE html>
<html>
<head>
<style>
#nco {
  border-collapse: collapse;
  overflow:hidden;
}
#nco th, #nco td {
  padding: 4px;
  text-align: left;
}
#nco th {
  color: #364B5F;
  padding-right: 5px;
}
#nco td {
  color: rgb(51, 51, 51);
  font-size: 12px;
  padding-right: 5px;
}
</style>
</head>
<body>
<table id="nco">
<tr>
<td>Caminos del Nordeste</td>
</tr>
<tr>
<th><b>Camino: </b></th>
<td>ES22a Camino de Santiago de Barcelona a San Juan de la Peña</td>
</tr>
<tr>
<th><b>Etapa: </b></th>
<td>14a Berbegal-PueyodeFananas</td>
</tr>
<tr>
<th><b>Longitud: </b></th>
<td>31.99 km</td>
</tr>
</table>
</body>
</html>]]></description>
<Style>
<IconStyle>
<scale>0.8</scale>
</IconStyle>
<LabelStyle>
<color>ffffffff</color>
<scale>0.75</scale>
</LabelStyle>
<LineStyle>
<color>ffff0000</color>
<width>3.0</width>
<gx:labelVisibility>1</gx:labelVisibility>
</LineStyle>
<PolyStyle>
<color>66ff0000</color>
</PolyStyle>
</Style>
<ExtendedData>
<SchemaData schemaUrl="#kml_schema_ft_ES22a_14a_berbegal-pueyodefananas">
<SimpleData name="id">ES22a_14a</SimpleData>
<SimpleData name="_formato">kml</SimpleData>
</SchemaData>
</ExtendedData>
<LineString>
<extrude>0</extrude>
<tessellate>1</tessellate>
<coordinates>-0.00507004564950533,41.9609160344023,490.777600000001 -0.00509301197803204,41.9610189639575,488.550600000002 -0.00549400195455972,41.9610880311195,485.209300000002 -0.00573204831834133,41.9612270028721,484.0 -0.00644803075259659,41.9613059606505,479.0 -0.0074429625404718,41.9614580083556,472.660699999993 -0.00943500542911403,41.9617210326208,463.0 -0.0106589312576197,41.962037030365,458.876099999994 -0.0125579347339482,41.9622990482757,452.0 -0.0145340522892468,41.9625669339017,447.0 -0.016017984696945,41.9625679398659,443.2641 -0.0170549935727316,41.9625189896027,441.0 -0.0190909577905596,41.9627050674669,437.156400000007 -0.0222799366249811,41.9628500747913,431.0 -0.0212149326516828,41.9639809612212,431.971799999999 -0.019658077704138,41.9653929767135,434.191200000001 -0.0195610147376915,41.965448967536,434.496400000004 -0.0192329473009771,41.9657359636456,435.0 -0.0188760457402954,41.9659230480451,435.152799999996 -0.0185080805285614,41.9660489444563,435.155100000004 -0.0182919952785546,41.96612404629,435.132800000007 -0.0179389492870484,41.9662910134486,436.0 -0.0176839714768074,41.9664990525159,436.080900000001 -0.0173949636869539,41.9668170617352,437.432199999996 -0.0171019323429677,41.9671389266225,438.061000000002 -0.0168789740827016,41.9673149467969,438.1639 -0.0166819986937156,41.9674249172469,439.016799999998 -0.0153890067929027,41.9679269933984,441.944399999993 -0.0147749481090882,41.9680820589646,442.963499999998 -0.0146299411576203,41.9681690626018,443.0 -0.0145699274084307,41.9683600023811,441.865699999995 -0.0144410137752636,41.9687160656433,442.005000000005 -0.014378986901512,41.969257033512,444.4424 -0.0145199711971442,41.9702870023305,447.0 -0.014670006917597,41.9706980505557,446.0 -0.0151469368749884,41.9712660086509,445.0 -0.0157750766508721,41.9720019397267,446.0 -0.0166169552772775,41.9724039352919,445.0 -0.0174759324367691,41.9727479290174,443.0 -0.0180489201458215,41.973115056239,442.3609 -0.0184380074448078,41.9733360034214,441.559800000003 -0.0191719274386717,41.9740689166079,441.0 -0.019364040247036,41.9743240616368,440.298800000004 -0.0196570715910222,41.9744360442295,440.0 -0.0200000591462949,41.9746489446496,440.0 -0.0208979288660207,41.9750390379584,439.0 -0.0213399898173439,41.9751230248134,438.0 -0.0217210318046589,41.975140962306,438.0 -0.0221079397907868,41.9752760786992,437.248800000001 -0.023406967472031,41.975770945827,437.503100000002 -0.0241620095531473,41.9761399175298,436.0 -0.0271020454594285,41.9773090256008,437.0 -0.0277600254724288,41.9775730549305,438.0 -0.0300380587098741,41.9786890217563,445.0 -0.0328149830184187,41.9799040623335,457.0 -0.0329970382888464,41.9800269414269,457.260599999994 -0.0331690351230407,41.9802629752803,457.801500000001 -0.0335849452181267,41.9809090530189,453.067299999995 -0.033585950432912,41.9809120700426,453.0435 -0.0337619708212724,41.9810480249398,451.277700000006 -0.0341250743506817,41.9812240447416,449.0 -0.0347870770195177,41.9815019882405,446.250799999994 -0.0376399422072563,41.9826509797567,438.115300000005 -0.0377249345112376,41.9826979186164,438.0 -0.0377500801526561,41.9828030272675,438.0 -0.0380830092716954,41.9841979439657,438.0 -0.0385699976653202,41.9855569857071,438.0 -0.0387210394988554,41.9862419546659,438.0 -0.0401749645828437,41.9909500700671,441.0 -0.0407819822714752,41.9908499897683,441.0 -0.0435280611281178,41.9902530306929,444.0 -0.044654923990177,41.9900280606583,447.0 -0.0454719920467479,41.9899960412462,447.0 -0.045978930226213,41.9899179222526,448.0 -0.0474920309311988,41.9902139713657,449.470700000005 -0.0491310287266319,41.9900959539639,449.087 -0.053514931280668,41.9895660497479,452.0 -0.0539310093607112,41.9895469391847,453.0 -0.0547380189810151,41.9895980687087,454.0 -0.0560509597693712,41.9899819598039,452.477799999993 -0.0651540421925619,41.9938979850188,446.0 -0.0746669989304406,41.9980889366057,449.0 -0.0755090455418033,41.9985090375369,449.0 -0.0755090455418033,41.9985120550617,449.0 -0.0755769384143345,41.9987920106427,449.0 -0.0759450716110592,41.9989259532952,448.0 -0.0760159828229379,41.9989519372131,448.153999999995 -0.0769049673062061,41.9989090218849,439.814400000003 -0.0775719996423241,41.9988119595946,434.888600000006 -0.078153032663048,41.9988510196538,430.878899999996 -0.0787320543558372,41.9988320761056,427.0 -0.0790249186131967,41.9988220181847,425.217300000004 -0.0798059444639235,41.9988689564704,422.0 -0.0806159715252778,41.9989549547169,420.0 -0.0816920400479253,41.999173051768,418.0 -0.0828690271062283,41.9994600481204,416.883499999996 -0.0841779452387488,41.999660040624,415.860000000001 -0.086117014475054,42.000031023495,415.0 -0.0863969699417898,42.000032029535,415.0 -0.0872549418864961,42.0003039381543,414.0 -0.0881700772259682,42.0005470138244,414.0 -0.08910901881882,42.0006189300466,413.0 -0.0894109345009667,42.0006440761385,413.0 -0.0920059715240742,42.0011749856047,412.0 -0.0930210201844164,42.0013429590146,412.0 -0.096495989367641,42.0016700212726,413.0 -0.0968190280354039,42.0017360703749,413.0 -0.0973819573081894,42.0018589493866,413.069499999998 -0.09903302396946,42.0024190281312,414.0 -0.0995959523439484,42.0026830581367,414.0 -0.10041603784157,42.0029299884842,414.0 -0.102012958549091,42.0032929250771,415.0 -0.102432053171854,42.0033750676247,415.0 -0.103401001190119,42.0034939228677,415.257500000007 -0.104679073870704,42.0034850385546,416.171499999997 -0.106102991630949,42.0032649296187,416.725399999996 -0.107106976640239,42.0031289747715,416.579100000003 -0.107879955382667,42.0029940262947,417.533800000005 -0.109125003298459,42.0029749157579,418.0 -0.109287947809535,42.003002072905,418.0 -0.110568031818055,42.0032550386169,418.0 -0.110834073279348,42.0032560446061,418.0 -0.111246965933384,42.0032339168472,418.231199999995 -0.111774020086985,42.0032409574379,418.130000000005 -0.112330075451214,42.0033140474947,416.505399999995 -0.11276593443381,42.0033909931947,415.574999999997 -0.113100036752592,42.00341094204,413.972500000003 -0.11352399395601,42.0033750676247,413.5435 -0.113749969657293,42.003414965319,412.0 -0.114154983187987,42.0034850385546,411.475300000006 -0.114510040507394,42.0035430412345,411.0 -0.115080009877066,42.003616969375,410.0 -0.115625001590276,42.0036880477028,409.0 -0.116548016951454,42.0036880477028,408.0 -0.116714984118366,42.0036880477028,408.948699999994 -0.118272006152538,42.0037319691273,409.8465 -0.118901990169729,42.0038010360333,409.061400000006 -0.119343045906234,42.0036789958644,408.279800000004 -0.119697936139015,42.0034959348383,407.155199999994 -0.119953919164041,42.0032479980279,403.418900000004 -0.120199005624709,42.0030989679254,402.975000000006 -0.120479967204527,42.0029680426921,401.958199999994 -0.120575017944742,42.002844996265,401.158500000005 -0.120381060895136,42.0026490270856,400.0 -0.120291038923873,42.002513072925,399.813200000004 -0.120249967949077,42.0024599317592,399.0 -0.119969006369259,42.0021030304644,397.029399999999 -0.12018106896343,42.0019070610024,396.039600000004 -0.120326075914898,42.0018720248605,396.257100000003 -0.120750032219986,42.0019610404151,395.0 -0.120754055774152,42.0019610404151,395.0 -0.120911970617947,42.0019570177118,394.817999999999 -0.121598951841575,42.0019290216656,394.0 -0.12212499988206,42.0019550056925,393.0 -0.122337061577935,42.0019570177118,392.023799999995 -0.122594050716077,42.0019870244289,392.547000000006 -0.122793037432997,42.0020109970821,392.665200000003 -0.122967045595093,42.0020160257907,392.0 -0.123248007174944,42.0020130084321,391.0 -0.123473982876227,42.0020160257907,391.020600000003 -0.123655032033539,42.0020259163175,390.199099999998 -0.123913027284831,42.0020440217986,389.291800000006 -0.124112014001718,42.0020470391558,387.505799999999 -0.124344024585102,42.0020949837403,386.0 -0.124503951655128,42.0021320317733,386.0 -0.124654993488696,42.002207971562,385.0 -0.124760940793303,42.0023189478427,383.943400000004 -0.124817937999773,42.0023340352295,383.969800000006 -0.124916006181005,42.0023829856007,381.952399999995 -0.124967973720192,42.0024250628098,381.024900000004 -0.125080962020016,42.0024589257575,379.357699999993 -0.125198979088757,42.0025060322538,377.432499999995 -0.125258993736277,42.0025849895954,376.669299999994 -0.125234015181486,42.0026619355095,375.960000000006 -0.125209037525024,42.0026790348115,375.904899999994 -0.125201996529808,42.0027150765067,375.820900000006 -0.125119015553761,42.0028399669543,376.531900000002 -0.125040058131847,42.0029849736899,375.237200000003 -0.125139970554387,42.0030949446265,378.478199999998 -0.125385057015054,42.0030359362131,376.188399999999 -0.12561807371152,42.0029080281664,374.3174 -0.125908925742648,42.0027700618983,374.0 -0.125984027595353,42.0027579919383,374.081000000006 -0.126115959567868,42.0027990635707,375.0 -0.126293990385832,42.0029029988607,377.346300000005 -0.126462969778976,42.0030109579531,378.0 -0.126620046494612,42.003127969448,376.084799999997 -0.126635972726286,42.0032240258407,376.0 -0.126655083485638,42.0033539452273,375.572499999995 -0.126719958917118,42.0035529315239,371.198799999998 -0.126615017725661,42.0039269323304,367.348299999998 -0.126635972726286,42.0039629746539,366.8557 -0.126586016515,42.0040689219978,365.718200000003 -0.126614011612511,42.0040729452351,364.170499999993 -0.126730017353385,42.0039740384075,361.084099999993 -0.126815009657333,42.0039460432488,357.534799999994 -0.12678801977464,42.003985940585,357.662299999996 -0.126827079421501,42.0039819173422,357.018299999996 -0.12693503895234,42.0039690091861,356.239600000001 -0.128077995132733,42.004011925107,354.395000000004 -0.128197018314624,42.0040580251447,356.0 -0.128113031225462,42.0042630464137,357.492700000003 -0.128131974898153,42.0043009329411,357.834700000007 -0.128241944858629,42.004377040362,358.436100000006 -0.128322076378582,42.0043919603776,359.7932 -0.128387957923212,42.0043510566567,361.0 -0.128477979894476,42.0043140085807,361.5965 -0.128544028525732,42.0042860129041,362.649099999995 -0.128656010712407,42.0042670696388,363.303799999994 -0.128736980360552,42.0042270042602,362.901299999998 -0.128898080630355,42.0041820772031,365.880499999999 -0.129099078675176,42.0041029522894,366.706900000005 -0.129414070234607,42.0039309555767,369.076000000001 -0.129791926795914,42.0038600444047,370.863500000007 -0.130073055462392,42.0038560211539,372.832800000004 -0.130277070948265,42.0038129382432,373.531700000007 -0.130424928254123,42.0037359923859,374.967699999994 -0.130646042273114,42.0036179753584,376.991500000004 -0.1308430176621,42.0035690252697,377.908100000001 -0.131066982035482,42.0035639960163,380.061300000001 -0.131257921644071,42.003482020598,382.070800000001 -0.131510049099921,42.0033279617717,384.0 -0.131576936757634,42.0032999656612,384.800499999998 -0.131629072281779,42.0032560446061,386.0 -0.131662935174731,42.0032709642171,386.566200000001 -0.131697971267459,42.0033829466336,387.515599999999 -0.131985973842494,42.0033229324992,391.0 -0.131992008724561,42.0033339963641,391.0 -0.132333990166718,42.0032620798729,392.0 -0.132718048696753,42.003229055121,395.003400000001 -0.133149046895354,42.0032560446061,397.558900000004 -0.133393965371031,42.0032510153279,401.083700000003 -0.133512988552922,42.0031789311891,403.1342 -0.133655984176489,42.0031930130493,405.426099999997 -0.133788921363789,42.0032880633553,407.170100000003 -0.13402998427029,42.0033799293398,411.724900000001 -0.134219080535935,42.0033519339197,413.628500000006 -0.13447305223306,42.0033049949355,418.815199999997 -0.134779997582489,42.0033609864722,422.257400000002 -0.135082081249592,42.0035349946925,427.397500000006 -0.135259944980897,42.0035929973269,429.0 -0.135460943025719,42.0036089228424,430.0 -0.135753974369705,42.0036749719346,431.6247 -0.136126969248721,42.0037120203827,434.552599999995 -0.136465933249827,42.0037090031045,436.955499999996 -0.136697943833211,42.0036630696989,438.0 -0.136726945942169,42.0036570351377,438.0 -0.136928949201776,42.0036620643837,438.236399999994 -0.137354079604937,42.003677989882,439.0 -0.137540995659359,42.0036880477028,438.014200000005 -0.137909967882539,42.0038050592876,437.309800000003 -0.138152036902157,42.0038449573797,435.0 -0.138904061542256,42.0039750443852,432.0 -0.139297004410451,42.0040129304166,431.0 -0.139444023588151,42.0039500664939,429.793300000005 -0.139782987589257,42.003817967477,427.840899999996 -0.142621937873256,42.0035660073172,416.494600000005 -0.142849925800771,42.0034230125436,416.0 -0.143070034604944,42.0034620717751,415.0 -0.144615992988097,42.0033599804847,411.0 -0.146324056855871,42.0033519339197,409.0 -0.146251972444182,42.0042189578048,410.0 -0.146181062130601,42.0053169871734,414.925700000007 -0.145983081526829,42.0057759800457,416.0 -0.145908984888943,42.0057989466574,416.0 -0.145823992584962,42.0060939893823,417.672500000001 -0.145697929306185,42.0066500451539,419.322400000005 -0.145724080162422,42.0070490237966,420.349900000001 -0.145842936257686,42.0072880753628,420.577000000005 -0.145937986997901,42.0077309753428,421.0 -0.14599498330604,42.0083990130888,422.972699999998 -0.146097075041438,42.0087029406909,423.680900000007 -0.146129931821275,42.0089190259049,424.0 -0.146074946841037,42.0091969699639,424.885500000004 -0.145905967447893,42.0100740524371,428.0 -0.145784932938101,42.0102980171534,428.483800000002 -0.145666077741167,42.0103950792766,429.0 -0.145561974677835,42.0105179582516,429.0 -0.145571027000952,42.0105950714503,429.0 -0.145581923565345,42.0106200494027,429.0 -0.14562299454014,42.010716944168,430.0 -0.145584941006395,42.0108480376753,430.457399999999 -0.145518053348649,42.0109080520533,430.688599999994 -0.145444962823879,42.0109729275095,430.680600000007 -0.145283024425918,42.0111300047738,431.0 -0.145191997239869,42.0111960540674,431.0 -0.144891924900666,42.0114679630339,432.0 -0.144837946033578,42.0115499381741,432.0 -0.14481196136567,42.0116409652504,432.353900000002 -0.144631918321474,42.0119390258022,433.398199999996 -0.144469979923513,42.012137006764,434.0 -0.144416001056391,42.0123480624328,435.0 -0.144383981506416,42.0126189659733,435.209600000002 -0.144290942992433,42.0129260784732,436.504000000001 -0.144145936040965,42.0133850718433,438.0 -0.144054069828427,42.0136380376514,439.0 -0.143974945319886,42.0138529494396,439.483900000007 -0.1439149306724,42.0141749823791,440.637799999997 -0.143851060455704,42.0144279483826,441.0 -0.143805965926743,42.0147310375939,442.0 -0.143814012136744,42.0147370731069,442.0 -0.143824070572978,42.0149280127371,442.058099999995 -0.143828932255303,42.0150329540376,443.0 -0.143879055553216,42.0152009275681,443.0 -0.143895986999675,42.0153829824866,443.810899999997 -0.143892969558625,42.0155169249181,443.226299999995 -0.143892969558625,42.0155259777418,443.232999999993 -0.143906045435909,42.0155459267864,443.464399999997 -0.143941082426934,42.0156029233548,443.079199999993 -0.14401098752573,42.0156879158827,443.0 -0.144145936040965,42.0159539577923,442.0 -0.144100003383845,42.0160010636401,442.0 -0.144106038265945,42.0160139720245,441.888600000006 -0.144283063869091,42.0159779298545,442.0 -0.144655052634991,42.0158449928492,444.0 -0.145015977749839,42.0157730758177,445.0 -0.145586952334296,42.0155819685339,447.0 -0.145868920027263,42.0155650368841,448.179799999998 -0.146193970022927,42.015601917561,449.0 -0.146702919530294,42.0157710642354,449.297000000006 -0.147588048444353,42.0158609186347,450.0 -0.148416012167019,42.0159239503212,449.0 -0.149223021787323,42.0161670257135,449.0 -0.149624012662181,42.0161879803416,448.0 -0.149960965335353,42.0161150579123,448.0 -0.151041056513836,42.0161420472698,449.141000000003 -0.151892993576475,42.0161039936005,449.826000000001 -0.153544061136076,42.0160659399084,451.0 -0.154204051578681,42.0161769160425,450.0 -0.154641922787541,42.0162310635479,449.132800000007 -0.155522022034319,42.0161430530552,448.0 -0.156634971789266,42.0161090225299,447.0 -0.158127956520115,42.0159579809454,445.738800000006 -0.158395003196194,42.0159589867337,445.0239 -0.15880504639417,42.0159859761575,445.0 -0.158587955031014,42.0163140443387,446.0 -0.15843305762827,42.0172020227212,449.609200000006 -0.158278998353684,42.0180799431721,454.071599999996 -0.157869961268824,42.0194889411611,461.813500000004 -0.157455057286854,42.0200590780942,464.810299999997 -0.157224051918289,42.021032049632,468.0 -0.157165043383918,42.0217190305726,470.0 -0.157114919187674,42.0222009899102,471.5334 -0.157146937839352,42.0224489269265,473.1486 -0.15717895738936,42.0230309659641,473.188699999999 -0.157325975668763,42.0232819200979,471.0 -0.157450027619605,42.0237249876554,470.003200000006 -0.157563015919395,42.0244379523817,472.0 -0.157559998478345,42.0248250286113,474.0 -0.157750938086933,42.0250659245613,474.0 -0.158159975171793,42.0255919723938,473.857199999999 -0.158096943083256,42.0263649520107,469.473499999993 -0.157952942244871,42.0266730704789,468.067500000005 -0.157862082145482,42.0271119471543,469.0 -0.157945063121529,42.0275119311711,468.0 -0.158256031126793,42.0279709247001,464.038 -0.158830024050631,42.0283610182162,460.782099999997 -0.159295052228812,42.0286089552327,460.5147 -0.159707944882847,42.0290389464742,459.183499999999 -0.159430000744046,42.0297849359896,462.965500000006 -0.159365963440724,42.0302449346834,467.0 -0.159303937465302,42.0306739206466,472.721900000004 -0.159460008067823,42.0310539560941,472.820600000006 -0.159934926697279,42.0313989553784,468.493600000002 -0.160408001085462,42.031787037467,461.092499999999 -0.160632971571959,42.0322440184253,458.431200000006 -0.160618051453401,42.0325670571687,456.354600000006 -0.160626936689859,42.0333410422254,455.511899999998 -0.160482935851507,42.0336709538162,455.370999999999 -0.160428956086087,42.0342179571944,456.880699999994 -0.160528030380468,42.034595980482,458.0 -0.160638001239241,42.0347170152214,458.438500000004 -0.16104100254367,42.0346570012939,461.0 -0.161484070506406,42.0345740204215,463.712700000004 -0.161742064859401,42.0346360460801,465.908599999995 -0.162041969213613,42.0347649598681,468.668699999995 -0.16228102169051,42.0350199376694,472.0 -0.162308011573237,42.0353200096968,474.195800000001 -0.162336006670748,42.0353969553766,475.371299999999 -0.162367020107607,42.0355220131748,475.406499999997 -0.162356961671374,42.0356670201309,476.596000000005 -0.162311029014253,42.035857960297,477.950299999997 -0.162255037920933,42.0359530104955,478.034299999999 -0.16214791651822,42.0361080758345,479.0 -0.162212960833022,42.0362510711861,479.0 -0.162391997764069,42.0363260054738,478.0 -0.162510014832844,42.03640295127,479.140100000004 -0.162636917138076,42.0364879440176,478.607199999999 -0.162762981315184,42.0365729366515,479.396099999998 -0.162885021039794,42.0366510557425,479.847500000003 -0.163007061662702,42.0367280018123,480.806800000006 -0.163273942150451,42.0368160118346,483.944399999993 -0.163466054958815,42.0369360402257,487.0766 -0.163718015328006,42.037057075179,489.340400000001 -0.163939967475156,42.0370879206741,490.360000000001 -0.164125040186634,42.0370939553995,491.684399999998 -0.16420198628058,42.0371120602393,492.548200000005 -0.16432201467729,42.0371410615986,493.911099999998 -0.164513960398994,42.0372089553381,495.359400000001 -0.164655949909411,42.0372540498821,497.170199999993 -0.164797939419862,42.0372989769301,499.8217 -0.164948981253431,42.0372540498821,502.0 -0.165072027989454,42.0371980588252,501.955300000001 -0.1652490535926,42.0371489410951,502.021900000007 -0.165336057224516,42.0371249683411,501.646599999993 -0.165426917323938,42.0370850704421,501.745500000005 -0.165856070382935,42.0370039335171,501.694499999998 -0.166094954874841,42.0369789559199,501.931800000006 -0.166548918503672,42.0369469367836,502.483099999998 -0.16686407804806,42.0369439197476,502.818899999998 -0.167110003535184,42.0369010040298,502.6685 -0.167785082081303,42.0367110704557,506.0 -0.168120022528277,42.0366200425696,507.986900000004 -0.168256983269743,42.0366510557425,508.151400000002 -0.168489999966243,42.0367320249854,509.661800000002 -0.168795939202556,42.0368570828252,511.431500000006 -0.168906078046286,42.0368929577047,512.167799999996 -0.168975983145049,42.0369050271918,512.397500000006 -0.169142950311961,42.0369090510209,512.395399999994 -0.169348977125734,42.036931011609,513.770199999999 -0.16956606848889,42.0369910253907,515.0 -0.169709064112457,42.037024050627,516.0 -0.169855077177041,42.0370339410478,517.0 -0.170097984324817,42.0370450050535,517.0 -0.170395039222969,42.0370649540187,518.0 -0.170555971507781,42.0370780295946,518.0 -0.170716065664467,42.0370899322493,518.0 -0.170945059705131,42.0371189336187,518.0 -0.171227026499768,42.0371869948461,518.0 -0.171484015637943,42.0372619286974,518.0 -0.171672943918597,42.0373209373834,518.0 -0.171862039285911,42.0373789398981,518.169800000003 -0.172050967566565,42.037436943027,519.0 -0.172223970513875,42.0375070154759,519.0 -0.172396972562854,42.0375769210515,519.0 -0.172605011602893,42.0376389471154,519.0 -0.172758064764362,42.0376850474659,518.638500000001 -0.172911956952321,42.0377309803203,519.0 -0.17313893876672,42.0377960238967,519.0 -0.173388048781554,42.0379019709266,519.0 -0.17362106547802,42.0380199883897,519.0 -0.173857938642026,42.0381430348219,519.804300000003 -0.174019038911828,42.0382189743164,519.848400000003 -0.174179971196673,42.0382950825157,520.0 -0.174360014240869,42.0383690102938,520.0 -0.174539052070246,42.0384429386531,520.0 -0.174665954375479,42.0385220642126,520.0 -0.174891930076795,42.0386640533737,520.0 -0.175021011694886,42.0387520633835,520.0 -0.175149925328053,42.0388400732713,520.987500000003 -0.175305995930573,42.0389359623122,520.0 -0.175439939231023,42.0390279956402,520.0628 -0.175574049618098,42.0391440015035,521.0 -0.175722074010617,42.0392559834748,521.0 -0.17587496008546,42.0393500285102,521.0 -0.176012926041744,42.039415072431,521.0 -0.176196992640073,42.0394930239059,520.934599999993 -0.176350045801543,42.039515990351,520.346399999995 -0.176507960645338,42.0395200133476,521.0 -0.176717005798492,42.0395230309285,521.0 -0.176891013960587,42.0395290660897,521.0 -0.177056975912714,42.0395339277099,521.0 -0.177251939075469,42.0395099551885,521.506899999993 -0.177458972002358,42.0394879948244,521.0 -0.177672039811347,42.0394849772419,522.0 -0.177849065414493,42.0394859833252,522.0 -0.178026929145798,42.0394869887412,522.0 -0.178197081738717,42.0394900063236,522.0 -0.178366061131861,42.0394930239059,522.0 -0.178573932186909,42.039511966687,523.0 -0.178770069447736,42.0395429797829,523.0 -0.178920943296348,42.0395550501011,523.0 -0.179089922689492,42.0395560555161,523.0 -0.179242975850962,42.039547003445,523.0 -0.179396029910762,42.0395379507054,523.0 -0.179535001081832,42.0395300715051,523.0 -0.179715045024359,42.0395300715051,523.071899999995 -0.17989005929957,42.0395059321913,523.188599999994 -0.180114023672952,42.0394670398692,524.0 -0.180274955957797,42.0394479289493,524.0 -0.180467068766127,42.0394450794903,524.0 -0.180665049369899,42.0394350213193,524.0 -0.180833022649927,42.0394239570626,524.0 -0.181000996828285,42.0394130602622,524.0 -0.181209034969993,42.0394030020862,524.182499999995 -0.181417074009998,42.0393929439085,524.845600000001 -0.181585047290026,42.0393780240975,524.422500000001 -0.181753020570088,42.0393619307394,524.973499999993 -0.181985032051769,42.0393530460991,524.838300000003 -0.182172954219306,42.0393429879136,525.0 -0.182360038258686,42.0393329297265,524.998600000006 -0.182604957632693,42.0393329297265,524.0 -0.182855073760643,42.0393840592726,524.0 -0.183036961046113,42.0394030020862,524.185100000002 -0.183173920889249,42.0394050135881,524.154999999999 -0.183382966042403,42.0393820471029,524.860700000005 -0.183656047600549,42.0393300795951,525.0 -0.183869954436028,42.0392940372985,525.0 -0.184091068454986,42.0392700653537,525.0 -0.184291061285022,42.0392630240811,524.0 -0.18455307919215,42.0392569895617,523.001900000003 -0.184719041144243,42.0392660416741,523.0 -0.184851978331576,42.0393049341193,522.033200000005 -0.185022969052655,42.0393309175551,522.816600000006 -0.185201000768916,42.0394330091512,523.838600000003 -0.185329076273925,42.0395300715051,524.007299999997 -0.185474083225393,42.0396100350016,525.0 -0.185642056505421,42.0396920098902,525.183099999995 -0.185835007441944,42.0397639272214,526.0 -0.185982025721346,42.0398390288271,526.705900000001 -0.186196937771577,42.0399340797429,527.0 -0.186433978022243,42.0399949319756,527.0 -0.186599939974336,42.0400370096549,527.0 -0.18676606901309,42.0400789185154,527.815100000007 -0.186969917412335,42.0401330656804,528.0 -0.187186002662342,42.0401949244617,528.0 -0.187336038382761,42.0402609735886,528.0 -0.187488924457605,42.0403360759412,528.480800000005 -0.187641978517405,42.0404110100821,529.059500000003 -0.187763013027197,42.0404659949091,529.0 -0.187931992420374,42.0405050547424,529.0 -0.18807196970456,42.0405399234974,529.0 -0.18824497265187,42.0406039614689,529.0 -0.188394002259207,42.0407030354965,529.0 -0.188495926907945,42.0408109944744,528.504300000001 -0.188643951300463,42.0409340408395,528.811000000002 -0.188781917256748,42.0410560809081,528.0 -0.188913010202807,42.0411759425099,528.0 -0.189038068266765,42.0412619409333,528.0 -0.18916195223265,42.041315920304,528.0 -0.189319029846583,42.0413579971086,528.0 -0.189474932464146,42.0413990684995,528.0 -0.189666040057691,42.0414520423687,528.018599999996 -0.18985697966628,42.0415060215779,529.0 -0.190072059701501,42.041570059243,529.0 -0.190286971751765,42.0416349354402,529.803700000004 -0.190516971007215,42.0417340091945,530.0 -0.190717969052036,42.0418250370939,530.0 -0.190879069321839,42.0418850515909,530.0 -0.191007982955006,42.0419190816628,530.0 -0.191240999651472,42.0419809400397,530.0 -0.191412996485666,42.0420069243828,530.0 -0.191589016874026,42.042029052662,530.0 -0.191789008805732,42.0420769971294,530.0 -0.191917922438899,42.0421190740971,530.0 -0.192142054797205,42.042212951447,530.0 -0.192296952199983,42.0422679367161,531.0 -0.192466936807945,42.0423069961088,531.0 -0.192618984754596,42.0423180605307,531.0 -0.192804057466075,42.0423080021474,531.0 -0.192994997074663,42.0422699481273,531.0 -0.193187948011152,42.0422449699314,531.0 -0.193375032050565,42.04221697494,532.0 -0.193566977772236,42.0421919967232,532.0 -0.193724054487871,42.0421750654882,532.0 -0.193906947886458,42.0421660124558,532.0 -0.194094031925871,42.0421609835859,532.0 -0.194336939971943,42.0421730534068,532.0 -0.194499045456531,42.0421940081368,532.0 -0.194660983854492,42.0422330682422,532.0 -0.194815043129077,42.0422880534938,532.012799999997 -0.194990057404322,42.0423549410336,532.762700000007 -0.195228941896262,42.0424399331592,533.0 -0.195463969920663,42.0425230818852,533.0 -0.195627920544855,42.0425750494501,533.583799999993 -0.195801928706951,42.0426360699392,533.986999999994 -0.195976942982195,42.0426959168876,534.0 -0.19622504688388,42.04277403579,535.0 -0.19640106727224,42.0428070606894,534.487899999993 -0.19655395334705,42.0428070606894,535.0 -0.19669007506206,42.042786944076,534.5576 -0.196889061778981,42.042773030426,534.508600000001 -0.197084024941702,42.0427780592475,534.502800000002 -0.197268929668223,42.0428090720836,534.914399999994 -0.197489038472396,42.0428550052369,534.766300000003 -0.197693053958268,42.0428989262987,535.0 -0.197898074658925,42.0429430154463,535.0 -0.198154058582282,42.0430030295544,535.0 -0.198354050513988,42.0430380657217,536.0 -0.198532920358408,42.0430479565407,536.0 -0.198700055510278,42.0430270020923,536.0 -0.198919996329494,42.04301107644,536.0 -0.199071038163062,42.0430239846778,536.0 -0.199221074781812,42.0430360543348,536.0 -0.199376978297672,42.0430489625675,536.0 -0.199527014018125,42.0430400777757,535.003299999997 -0.199733040831898,42.0429830804519,534.998300000007 -0.199970081082564,42.0428729423204,534.0 -0.200075023172352,42.0428080667201,534.0 -0.20018700535906,42.0428830006144,533.0 -0.200339052407414,42.0429770456187,531.0 -0.200499985590556,42.0431049538062,529.286200000002 -0.200616996546215,42.0432010098638,528.0 -0.200685057403703,42.0433309296452,527.0 -0.200713053399546,42.0434320154651,526.0 -0.200702994963312,42.0435149961124,526.0 -0.20063493410579,42.0436660382777,525.834000000003 -0.200571063889095,42.0438189239995,525.0 -0.200575925571419,42.043924033095,523.965500000006 -0.200686063516819,42.0440289745704,523.365999999995 -0.200836938263728,42.0441020644518,523.0 -0.201041958964419,42.0441659347232,522.0 -0.201428029720685,42.0442470718432,521.0 -0.201920047781592,42.0443330701127,520.0 -0.202152058364976,42.0444269475269,519.963300000003 -0.202752035058391,42.0446730400236,518.0 -0.203134920388683,42.0448249199918,517.229999999996 -0.203483942826023,42.0449529952386,516.684899999993 -0.204041004303368,42.0451739425443,515.058999999994 -0.20442103927927,42.0453229727868,514.027100000007 -0.204745922188307,42.0454220467944,513.0 -0.204949937674146,42.0454909463468,512.516499999998 -0.2052550387823,42.0456109750297,511.010800000004 -0.205414965852326,42.0456810478043,511.0 -0.205621998779249,42.0457120605576,510.969599999997 -0.206038076859292,42.0457769365282,509.753899999996 -0.206526070467702,42.0458609234307,510.0 -0.206795968396501,42.0459130590423,509.186700000006 -0.207294020441145,42.046077008461,509.320699999997 -0.2077810097331,42.0462530285036,509.123200000002 -0.208035986645011,42.0463410386756,509.273000000001 -0.208192058145861,42.0464369277376,510.142099999997 -0.208324995333161,42.0465289608748,510.234599999996 -0.208445023729871,42.0465750614466,510.274600000004 -0.208587013240288,42.0466109361765,511.0 -0.208857078255748,42.0467200685304,511.0 -0.208857916383906,42.0467210744991,511.0 -0.208859927711808,42.0467210744991,511.0 -0.209242981027057,42.0468969266528,511.168000000005 -0.209806077386503,42.0471679971928,511.978600000002 -0.210062060411562,42.047311998298,511.971000000005 -0.210254006133267,42.0474499646684,512.3603 -0.210776030619586,42.0478009987115,512.0 -0.210842918277332,42.048317994347,510.0 -0.210859011595633,42.0486849538312,509.0 -0.210855994154616,42.0489560247464,508.0 -0.210928078566271,42.0492210609319,507.0 -0.210988931341916,42.0492939834114,507.0 -0.211072079404623,42.0493139318664,507.0 -0.211361926220932,42.0491550111133,507.614600000001 -0.211716983540339,42.049057948787,508.0 -0.21246397851319,42.0488370016479,508.000700000004 -0.21308205985284,42.0486750632227,508.174700000003 -0.213690083654587,42.0485560402647,509.0 -0.215153061061693,42.0483139712404,506.666700000002 -0.215404015317768,42.048209029505,506.0 -0.216771941984659,42.0475760280497,503.0 -0.217199083715721,42.0473530698427,503.0 -0.217661931682713,42.0469980121358,502.0 -0.218226034155274,42.0467009577907,502.0 -0.218817964638687,42.0464489974133,499.0 -0.219562947385273,42.0460999751947,497.0 -0.219987071675318,42.0459330078918,496.466 -0.220581013486666,42.0456359532366,496.0 -0.221005975904869,42.0454579215082,496.0 -0.221841987634131,42.0450899560678,497.780700000003 -0.222238954056493,42.0448549271649,499.027400000006 -0.222712028444675,42.044589053552,498.493600000002 -0.223095081759925,42.0443540247975,497.444699999993 -0.223864037846517,42.0438060159232,496.0 -0.224218927180967,42.0435260603239,496.0 -0.224851928639176,42.0433530581304,495.0 -0.225714929352867,42.0430400777757,495.0 -0.226378943349637,42.0428340507249,494.0 -0.227281004608487,42.0426449547876,494.0 -0.227570012398306,42.0425190584116,493.0 -0.227898917963179,42.0424709461604,493.0 -0.228548012739722,42.042287047455,492.0 -0.229148995546253,42.0420880609242,491.281700000007 -0.230008978818894,42.0418339220557,491.0 -0.230691935590058,42.0416169980072,491.0 -0.232777017890981,42.0409370583533,490.557400000005 -0.235112048334862,42.0402220817286,490.462199999994 -0.23546995600866,42.040219064181,490.0 -0.236096922584801,42.040188051415,487.0 -0.23618208287374,42.0402649972051,486.512199999997 -0.236989930622236,42.0408089823498,486.0 -0.238872002652105,42.0416169980072,483.241800000003 -0.239259079521487,42.0418890744375,483.468999999997 -0.23935496838986,42.0419120413508,483.0 -0.23995695641121,42.0423219158992,482.0 -0.240438077907724,42.0427190509589,481.0 -0.241054986047599,42.0432390639934,479.751600000003 -0.241477936239571,42.0437369490979,479.0 -0.241596959421461,42.0438769265871,479.0 -0.242327022947819,42.0444279528648,479.0 -0.242602955758686,42.0445580402505,478.0 -0.242846030891419,42.0447070706036,478.984899999996 -0.243309046843368,42.0449229881119,479.0 -0.243382975496297,42.0449260061033,479.0 -0.244175064998076,42.0453900279098,479.458599999998 -0.244343038278104,42.0455680598284,480.0 -0.245000012177989,42.0462669427257,480.418600000005 -0.248033925624709,42.0485560402647,483.0 -0.250357054289413,42.0502800306127,484.857099999994 -0.251607969102314,42.0509289574782,486.0 -0.25393897689036,42.0524859793708,487.521500000003 -0.254849083460914,42.0528889813996,488.0 -0.255980975990255,42.053320984851,487.0 -0.260635949672833,42.0550999601095,489.0 -0.260633938344899,42.0551569565673,489.0 -0.260986983438075,42.0553869562178,488.146699999998 -0.261158980272269,42.0555100023672,487.283899999995 -0.261476990171047,42.0556540039046,482.8465 -0.262010079206749,42.0557849287231,477.0 -0.262527074924117,42.0559130045512,472.282200000001 -0.262835025488365,42.0560310219093,470.1014 -0.263416059407385,42.0560209636961,467.0 -0.263627954016599,42.0560789664818,466.011400000003 -0.263226963141741,42.0562680617852,467.828200000004 -0.262886993925849,42.0565580760565,469.0 -0.262624975120392,42.0567659468274,469.063500000004 -0.262431018070787,42.0570499259957,470.0 -0.262109990730958,42.0574919871398,470.0 -0.261776056397134,42.057734056537,470.416599999997 -0.261635072101501,42.0579590272387,470.582399999999 -0.261605065676055,42.0581370586141,470.0 -0.261697937103378,42.0586260590637,471.808699999994 -0.261738001965058,42.058868966509,473.0 -0.261636078214617,42.0590109562185,473.0 -0.261496939058556,42.0593130398683,473.244200000001 -0.261440947965236,42.0595700287347,475.343699999998 -0.261519067258958,42.059864066309,477.323600000003 -0.26141395808251,42.0600570173061,478.723400000003 -0.261088069958687,42.0606340273539,480.185500000007 -0.26092898101682,42.0610199307519,482.365699999995 -0.26093199845787,42.0610710601851,483.005499999999 -0.260939039453053,42.0611770070851,484.695200000002 -0.261043980644544,42.0613999661218,485.0 -0.261037945762477,42.0616500818199,484.845499999996 -0.26098798955119,42.0617880483929,485.573999999993 -0.260942056894103,42.0619149503247,486.0 -0.260892938810976,42.0621219832414,485.831399999995 -0.260812975275979,42.0623950656073,485.077799999999 -0.260750949300558,42.0625999194607,483.918900000004 -0.260726976858882,42.0626810557107,484.164000000004 -0.260668974437627,42.062826062707,484.0 -0.2606560665453,42.0629320100133,484.0 -0.260627064436342,42.0630860698234,483.743300000002 -0.260621029554275,42.0630929430605,483.592300000004 -0.260501001157566,42.0632359377019,483.116200000004 -0.26032699299547,42.0633759155735,483.005099999995 -0.260144937725042,42.0635849604649,483.0 -0.260108057391073,42.0636989541044,483.0 -0.260104033836907,42.0638119425082,483.0 -0.260252058229425,42.0640240043818,483.909899999999 -0.260305031881729,42.0642479691162,485.0 -0.260448027505262,42.0645220573617,486.0 -0.260539054691344,42.0645659781146,486.316999999995 -0.260580964692595,42.0645669844676,486.325599999996</coordinates>
</LineString>
</Placemark>
</Folder>
</Document></kml>
