<?xml version="1.0" encoding="UTF-8"?>

<kml xmlns:xsd="http://www.w3.org/2001/XMLSchema" xmlns:gx="http://www.google.com/kml/ext/2.2" xmlns:atom="http://www.w3.org/2005/Atom" xmlns="http://www.opengis.net/kml/2.2">
<Document>
<name>ES22a_04a_linyola-algerri</name>
<visibility>1</visibility>
<Schema name="ES22a_04a_linyola-algerri" id="kml_schema_ft_ES22a_04a_linyola-algerri">
<SimpleField type="xsd:string" name="id">
<displayName>id</displayName>
</SimpleField>
<SimpleField type="xsd:string" name="nombre">
<displayName>nombre</displayName>
</SimpleField>
<SimpleField type="xsd:double" name="longitud">
<displayName>longitud</displayName>
</SimpleField>
<SimpleField type="xsd:string" name="_formato">
<displayName>_formato</displayName>
</SimpleField>
</Schema>
<Folder id="kml_ft_ES22a_04a_linyola-algerri">
<name>ES22a_04a_linyola-algerri</name>
<Placemark id="kml_1">
<name>&lt;img height='20' src='https://nco.ign.es/iconos/icono_todos_caminos_azul.png' /&gt;&lt;img height='20' src='https://nco.ign.es/iconos/Camino Santiago_20.png' /&gt;&lt;img height='20' src='https://nco.ign.es/iconos/icono_todos_caminos_azul.png' /&gt;  Camino de Santiago </name>
<visibility>1</visibility>
<description><![CDATA[<!DOCTYPE html>
<html>
<head>
<style>
#nco {
  border-collapse: collapse;
  overflow:hidden;
}
#nco th, #nco td {
  padding: 4px;
  text-align: left;
}
#nco th {
  color: #364B5F;
  padding-right: 5px;
}
#nco td {
  color: rgb(51, 51, 51);
  font-size: 12px;
  padding-right: 5px;
}
</style>
</head>
<body>
<table id="nco">
<tr>
<td>Caminos del Nordeste</td>
</tr>
<tr>
<th><b>Camino: </b></th>
<td>ES22a Camino de Santiago de Montserrat a San Juan de la Peña</td>
</tr>
<tr>
<th><b>Etapa: </b></th>
<td>04a Linyola-Algerri</td>
</tr>
<tr>
<th><b>Longitud: </b></th>
<td>28.96 km</td>
</tr>
</table>
</body>
</html>]]></description>
<Style>
<IconStyle>
<scale>0.8</scale>
</IconStyle>
<LabelStyle>
<color>ffffffff</color>
<scale>0.75</scale>
</LabelStyle>
<LineStyle>
<color>ffff0000</color>
<width>3.0</width>
<gx:labelVisibility>1</gx:labelVisibility>
</LineStyle>
<PolyStyle>
<color>66ff0000</color>
</PolyStyle>
</Style>
<ExtendedData>
<SchemaData schemaUrl="#kml_schema_ft_ES22a_04a_linyola-algerri">
<SimpleData name="id">ES22a_04a</SimpleData>
<SimpleData name="_formato">kml</SimpleData>
</SchemaData>
</ExtendedData>
<LineString>
<extrude>0</extrude>
<tessellate>1</tessellate>
<coordinates>0.9049982764212,41.7115777170774,240.0 0.903244614967957,41.7111975143311,246.0 0.902874637529991,41.7108748108915,247.886899999998 0.902642290976693,41.7117307709807,242.0 0.902501307579391,41.7126970368776,240.0 0.902434251936688,41.7136834188767,238.873300000007 0.900664665150068,41.7146416381609,238.0 0.898773204827167,41.7157852650892,234.0 0.898132827302158,41.7162016777662,234.0 0.896992217521283,41.7173515075521,232.0 0.895663686471201,41.7183989103147,231.0 0.894551407757752,41.7196203208789,231.0 0.893331170411795,41.7208589983861,231.0 0.892121996716857,41.7220792357764,231.0 0.891343485250606,41.7227134106384,231.0 0.889887716823673,41.7238603904219,233.945800000001 0.888097342123088,41.7248826475497,230.998699999996 0.886857322976248,41.7255959473849,229.002399999998 0.885707158714011,41.7267959005922,228.0 0.884476862931787,41.7279713789937,228.0 0.883447062137844,41.7288588549,228.0 0.881573371389594,41.7296071910186,228.0 0.879891123306507,41.7308205549723,228.0 0.878544654696783,41.7316778563343,228.828099999999 0.877748206569253,41.7319180813315,228.0 0.876551437710101,41.7325482333542,227.728000000003 0.876053552752084,41.7335265686021,227.0 0.874971784418953,41.7345608958683,229.0 0.874452442302066,41.7352814044299,229.903999999995 0.872798357301415,41.7363621665296,230.0 0.87113421386453,41.7375793866246,229.654299999995 0.86985949459491,41.7382256317307,229.0 0.869315676081475,41.7386432181619,229.0 0.868243631112994,41.7397405766709,229.0 0.867106709814668,41.7408674393617,230.0 0.865848418036635,41.74178978406,227.0 0.863988641293828,41.7426779310189,228.0 0.864355266219159,41.7432324774852,230.0 0.86367046430839,41.7441263237844,230.328299999994 0.863027572398905,41.7447103748867,230.0 0.861591752859483,41.7459061366051,228.0 0.860103796897585,41.7471399528647,228.0 0.85838500445041,41.7482636308735,228.968800000002 0.857861637881026,41.7487212827603,228.892399999997 0.856724046439532,41.7499431965363,229.0 0.855580084146023,41.7511607523132,229.0 0.854412987538996,41.752397250132,230.0 0.853725504157124,41.7532503604572,231.0 0.852194968949071,41.754353586452,232.0 0.849135741875942,41.7578332496801,234.0 0.847988594156458,41.7591671459167,236.0 0.845123324132967,41.7614443412371,242.0 0.843805186590702,41.7631384915689,245.0 0.842761303806359,41.7649672556119,249.0 0.842355620132498,41.7658446730173,245.8698 0.841176286674676,41.7668919082023,241.436300000001 0.838997661904899,41.7682936972625,237.0 0.837169401655492,41.7706138085138,235.0 0.834844931806088,41.7732936704939,234.0 0.832529515178132,41.7761280949467,234.617100000003 0.830790102801916,41.7784560842005,235.0 0.828324314483593,41.7810077034519,236.0 0.826482810371944,41.7826193758902,236.0 0.825417302443775,41.7828544044831,240.134699999995 0.81773713256601,41.783298812658,231.625199999995 0.810170285161323,41.7841596339422,217.0 0.810714605833001,41.7865997738314,216.0 0.811277032049246,41.7890945638595,218.0 0.805660989471745,41.7899344303627,216.0 0.804800000085988,41.7901293936365,219.0 0.803954936931939,41.7908442023288,233.868300000002 0.803290083908679,41.7913536540944,246.785999999993 0.803009122328828,41.7918503657011,256.169099999999 0.802488942083783,41.7920560573199,263.0 0.801770277280094,41.7921576464226,265.0 0.799491573001151,41.7928977683505,273.0 0.797675047444294,41.7936999162743,274.809299999994 0.796433352041137,41.7947156353685,274.0 0.795561802060903,41.7954866031825,276.001099999994 0.794365369171665,41.7962682992076,277.070900000006 0.79342944591816,41.7974509860448,276.0 0.792098901743516,41.797716691969,277.449699999997 0.790302325074203,41.7981084624637,276.002500000002 0.789335724353754,41.7982735855906,275.0 0.788040049185177,41.7986266313998,271.0 0.786787122146011,41.7987013978733,268.0 0.784763898733883,41.7990120316667,264.0 0.783703587559621,41.7990914921615,263.0 0.782119575642723,41.7995757983112,262.370800000004 0.780926328179459,41.7996596170284,264.0 0.777183976350242,41.800680030451,273.1345 0.775040387673193,41.8009611593779,272.961200000005 0.773984939079553,41.8008743228512,273.0 0.772142428854823,41.8009904959434,274.0 0.771253611458215,41.8012193217645,271.4326 0.770145859355473,41.8017542551178,270.001000000004 0.768848675915537,41.8020850044856,272.400299999994 0.767069030692683,41.8022655507641,270.111999999994 0.763170104306074,41.8016298674081,264.052899999995 0.763128865346321,41.8021850843735,266.576700000005 0.763011686405704,41.8024549820783,267.786900000006 0.763128362289746,41.8029275534508,269.0 0.763000286784738,41.8045263175792,274.0 0.760757122553394,41.8063938060214,287.158200000005 0.759950448004674,41.807018425201,292.0 0.758496857992303,41.807210203463,286.689400000003 0.757773332404587,41.8072341757054,284.355500000005 0.757353063683751,41.807381026168,283.785399999993 0.756128970768585,41.8079528399618,283.0 0.754740424172652,41.8084968254472,287.0 0.753966942373683,41.808677371737,287.840700000001 0.752582922388491,41.8092986381851,289.831699999995 0.750608146017926,41.8104484674365,300.0 0.747926942592797,41.8116656877743,309.0 0.747163854301646,41.8121561966285,309.697899999999 0.744577534530072,41.8121530116008,309.702999999994 0.744076297059421,41.8122224139682,309.0 0.74255833377378,41.8127999271817,311.551399999997 0.741967409403483,41.8131449261566,312.566099999996 0.741387717567492,41.8134807051629,313.795100000003 0.741223767841597,41.8138909151413,317.0 0.740276108997244,41.8141683566111,317.959799999997 0.739696752232871,41.814310681272,319.0 0.739225186116049,41.8144846893712,322.0 0.73870517295763,41.8150383976607,324.191500000001 0.737287626049401,41.8153223766348,327.0 0.735979713131699,41.8154707363799,331.0 0.734414141830951,41.8160408738294,329.0 0.73214247854719,41.8163966015106,322.899999999994 0.730144735848098,41.8176228741108,318.4038 0.728272888442792,41.8175784495305,318.0 0.727963428708888,41.817307378986,319.101800000004 0.727204531058562,41.817596219768,323.315799999997 0.725101177024778,41.817409805761,336.256399999998 0.724625420267129,41.8171088958466,339.0 0.723816566405551,41.8169419279266,343.117599999998 0.722952056522203,41.8164249321133,343.607300000003 0.720605962427269,41.8154985645897,343.3174 0.719517991227113,41.8149800600874,340.663799999995 0.717889889996039,41.813863254954,340.0 0.716959498568094,41.813832074377,340.0386 0.716578625464034,41.8137479200189,340.0 0.716038495433148,41.8139591439541,341.310800000007 0.714986231367219,41.8138526938249,341.603000000003 0.713135171875912,41.8133499475187,342.135200000004 0.712398737497572,41.8130134976208,339.241899999994 0.71109300479106,41.8125898764766,335.232099999994 0.709360800496686,41.8119074218527,335.493000000002 0.70871874671536,41.8117788437278,335.001699999993 0.707367584408301,41.8117875605906,335.399699999994 0.705735459623094,41.8124297816822,339.391699999993 0.704222526004735,41.8135080300803,342.0 0.703358855147876,41.8138176574308,343.588499999998 0.703026261100454,41.8141628243307,347.081000000006 0.702372807698161,41.814447976841,350.0 0.701591446775817,41.8143502433687,350.075599999996 0.701508968856311,41.8135264703088,347.877299999993 0.701119210515793,41.8130818940827,347.532500000001 0.70104762916068,41.8128557506164,346.505300000004 0.700612440321285,41.8122368306039,345.677200000006 0.699182320592346,41.8116938510733,344.449500000002 0.698383860238585,41.8112977224852,344.0 0.696943682073413,41.8107815642609,343.584499999997 0.695599224791623,41.8104997646679,341.502399999998 0.693221111146714,41.8102335560096,337.0 0.691315903905031,41.810013614738,335.0 0.688696894440281,41.8100541831703,336.506999999998 0.687243975469408,41.8103386649899,335.899999999994 0.685265678601251,41.8104816603582,337.577999999994 0.683268942015275,41.810713168021,339.0 0.682149958276558,41.8106702531948,339.192800000004 0.681251920571874,41.8105849249581,341.009300000005 0.680093542114679,41.8106751142072,342.186900000001 0.679190810712628,41.810713168021,341.388999999996 0.675511490971914,41.811332758249,349.660799999998 0.675226673822887,41.8116940184609,350.0 0.672796256668876,41.8117456508087,352.669500000004 0.672158394426673,41.8116871455271,351.983399999997 0.670375060721271,41.8121578731703,347.0 0.668780319326607,41.8122267720348,348.601200000005 0.667601823996944,41.8123789874842,349.289999999994 0.66681023665341,41.8123077413628,352.0 0.665490925013072,41.8124644833949,353.545400000003 0.664107073012837,41.8123154531684,354.209600000002 0.66334582896296,41.8121553583577,350.0 0.661688391449707,41.8121556937999,349.979999999996 0.660619027952328,41.8119526839533,347.723100000003 0.659847054424719,41.8118105267965,345.018700000001 0.658882968088746,41.8118063360889,345.3272 0.657876971751521,41.811478100858,344.0 0.653826333388142,41.8117744849612,337.955600000001 0.65273853017291,41.8116598205024,336.639500000005 0.650297552424422,41.8119401111881,337.263500000001 0.649359784929676,41.8117766643446,337.153699999995 0.647074375625431,41.8125181270944,342.704800000007 0.646227132260159,41.8129147589925,342.911099999998 0.644809920423547,41.8134173379838,343.638300000006 0.641835182597858,41.814444456497,339.0 0.641094055420447,41.8144330565531,337.0 0.640463903418332,41.8143038079494,337.0 0.640216469659849,41.8140831963983,338.158299999996 0.639426223501014,41.8142404409151,339.0 0.639085416156963,41.8144449593076,339.0772 0.63866782890723,41.8147487191571,340.0 0.638019908228793,41.8149279241923,341.116299999994 0.637104939975948,41.8148446081707,343.0</coordinates>
</LineString>
</Placemark>
</Folder>
</Document></kml>
