<?xml version="1.0" encoding="UTF-8"?>

<kml xmlns:xsd="http://www.w3.org/2001/XMLSchema" xmlns:gx="http://www.google.com/kml/ext/2.2" xmlns:atom="http://www.w3.org/2005/Atom" xmlns="http://www.opengis.net/kml/2.2">
<Document>
<name>ES22a_06a_tamarite_de_litera-monzon</name>
<visibility>1</visibility>
<Schema name="ES22a_06a_tamarite_de_litera-monzon" id="kml_schema_ft_ES22a_06a_tamarite_de_litera-monzon">
<SimpleField type="xsd:string" name="id">
<displayName>id</displayName>
</SimpleField>
<SimpleField type="xsd:string" name="nombre">
<displayName>nombre</displayName>
</SimpleField>
<SimpleField type="xsd:double" name="longitud">
<displayName>longitud</displayName>
</SimpleField>
<SimpleField type="xsd:string" name="_formato">
<displayName>_formato</displayName>
</SimpleField>
</Schema>
<Folder id="kml_ft_ES22a_06a_tamarite_de_litera-monzon">
<name>ES22a_06a_tamarite_de_litera-monzon</name>
<Placemark id="kml_1">
<name>&lt;img height='20' src='https://nco.ign.es/iconos/icono_todos_caminos_azul.png' /&gt;&lt;img height='20' src='https://nco.ign.es/iconos/Camino Santiago_20.png' /&gt;&lt;img height='20' src='https://nco.ign.es/iconos/icono_todos_caminos_azul.png' /&gt;  Camino de Santiago </name>
<visibility>1</visibility>
<description><![CDATA[<!DOCTYPE html>
<html>
<head>
<style>
#nco {
  border-collapse: collapse;
  overflow:hidden;
}
#nco th, #nco td {
  padding: 4px;
  text-align: left;
}
#nco th {
  color: #364B5F;
  padding-right: 5px;
}
#nco td {
  color: rgb(51, 51, 51);
  font-size: 12px;
  padding-right: 5px;
}
</style>
</head>
<body>
<table id="nco">
<tr>
<td>Caminos del Nordeste</td>
</tr>
<tr>
<th><b>Camino: </b></th>
<td>ES22a Camino de Santiago de Montserrat a San Juan de la Peña</td>
</tr>
<tr>
<th><b>Etapa: </b></th>
<td>06a Tamarite de Litera-Monzón</td>
</tr>
<tr>
<th><b>Longitud: </b></th>
<td>21.54 km</td>
</tr>
</table>
</body>
</html>]]></description>
<Style>
<IconStyle>
<scale>0.8</scale>
</IconStyle>
<LabelStyle>
<color>ffffffff</color>
<scale>0.75</scale>
</LabelStyle>
<LineStyle>
<color>ffff0000</color>
<width>3.0</width>
<gx:labelVisibility>1</gx:labelVisibility>
</LineStyle>
<PolyStyle>
<color>66ff0000</color>
</PolyStyle>
</Style>
<ExtendedData>
<SchemaData schemaUrl="#kml_schema_ft_ES22a_06a_tamarite_de_litera-monzon">
<SimpleData name="id">ES22a_06a</SimpleData>
<SimpleData name="_formato">kml</SimpleData>
</SchemaData>
</ExtendedData>
<LineString>
<extrude>0</extrude>
<tessellate>1</tessellate>
<coordinates>0.42113900149851,41.8689280000003,355.0 0.421102959292666,41.8689320237445,354.971300000005 0.421095081067621,41.8689050342159,355.0 0.421026014097017,41.8687539920514,355.0 0.420956947126379,41.8686029501991,355.279800000004 0.420889053355518,41.8684680017473,356.0 0.420821998611145,41.8683330530106,357.117899999997 0.420677996874462,41.8680609765465,359.641199999998 0.420657042772134,41.8679369243434,363.045899999997 0.420844964939705,41.8677639218255,367.214900000006 0.421054009194529,41.8675570564569,371.541299999997 0.421119052610967,41.867071073534,375.694300000003 0.420970023003663,41.8670360368312,378.137300000002 0.420906990915126,41.8670030123765,379.0 0.420770030173627,41.8669730049692,380.0 0.420481022383807,41.866956073951,381.0 0.420402064961893,41.8669570794164,381.496100000004 0.42025504668249,41.8669579176387,382.0 0.420027058754976,41.867007035573,383.694600000003 0.419923960906462,41.8670459275738,383.846399999995 0.419746935303283,41.8671119770908,383.708100000003 0.419570076786797,41.8671790326703,383.575500000006 0.419446024835955,41.8672100454424,383.0 0.419228933472799,41.8672640245815,382.9372 0.418990049879189,41.8673169982154,382.0 0.418874044138349,41.8673379529825,381.119200000001 0.418729037186881,41.8673780188208,381.0 0.418565925589144,41.8674209344353,380.0 0.418343972543697,41.8674680404302,378.920599999998 0.417677946320694,41.8675469978829,375.000199999995 0.417671073310468,41.8675469978829,375.002699999997 0.417461022942529,41.8675570564569,374.147800000006 0.416823997930154,41.867550015589,370.0 0.416416973071526,41.8675220200204,367.906099999993 0.415835939152505,41.8674420564102,365.0 0.415331013199305,41.8673760072342,363.0 0.414952989551338,41.8673760072342,363.0 0.414278078990175,41.8673830481213,361.520900000003 0.413879938469707,41.8674060144524,361.0 0.413639042649866,41.8674489293792,361.0 0.41336797152129,41.8674879896908,360.0 0.413316003982103,41.8674889951478,360.0 0.413155071697291,41.8674499355058,359.0 0.41291702533351,41.8674559702581,359.0 0.412677973754943,41.8674609995525,358.828899999993 0.412475969597005,41.86747105814,358.0 0.412272960224249,41.8674799426892,358.0 0.411991998644431,41.8674920128567,358.0 0.411711037064579,41.867504082353,358.0 0.411610957555413,41.8675119614409,358.0 0.411444995603286,41.8675250370588,357.392000000007 0.411278028436374,41.8675379454325,357.295800000007 0.411018020958851,41.8675610796184,357.0 0.411012992189899,41.8675629232887,357.0 0.410886928012825,41.8676130475511,357.0 0.410770923170282,41.8677159771673,357.177200000006 0.410625078090655,41.8677530250722,357.0 0.410504042682533,41.8677320704411,357.0 0.410413015496484,41.867695022524,357.0 0.410316958643154,41.8676549568845,357.0 0.410114955383513,41.8675820343056,357.0 0.409912951225575,41.8675099498586,357.0 0.409661996969501,41.8674189221811,357.315700000006 0.409411042713426,41.8673280629541,358.0 0.409188922581318,41.8672489373197,359.0 0.408966969535871,41.8671709856299,359.0 0.408744011275605,41.8670920283818,360.0 0.408494063132646,41.8670020069119,360.0 0.40824294089158,41.8669119846462,360.0 0.408137999700089,41.8668849949337,360.0 0.408025011400299,41.8668559936069,360.881299999994 0.407902970777358,41.8668189458512,361.0 0.407891068998181,41.8668320216109,361.0 0.407776068472126,41.8669550678166,360.0 0.407673977635025,41.8671109716278,360.0 0.407563000663136,41.8671629392574,359.0 0.407429058261017,41.8671590833133,358.0 0.407420005937899,41.8671590833133,358.0 0.407305006310175,41.8671210296014,358.292199999996 0.407197046779336,41.867089010654,357.247600000002 0.406951960318669,41.8670030123765,357.0 0.406777952156573,41.866947021417,356.335699999996 0.406603943994444,41.8668920358748,356.0 0.406407974718608,41.8668320216109,356.0 0.406211000227919,41.8667730127589,355.2356 0.406161044016666,41.8667629547305,355.727899999998 0.405981000074172,41.8666769566834,355.0 0.405851919354345,41.8666620365269,355.0 0.405554026328034,41.8666910379416,354.995599999995 0.405363924847604,41.8666459436527,354.981599999999 0.405260994984048,41.8666419197646,354.3024 0.405050944616108,41.8666839969784,352.947899999999 0.404845923017121,41.8667069635607,352.0 0.40464693719853,41.8667200393432,351.027799999996 0.404520034893298,41.866761948593,349.137900000002 0.404438060030367,41.866826992267,347.892800000001 0.404327921186637,41.8669409866166,346.183699999994 0.404234044544495,41.8670030123765,345.0 0.404008067944881,41.8670509569004,345.0 0.403831042341736,41.8670869990584,345.0 0.403652004512358,41.867093033845,344.656199999998 0.403450001252751,41.8670799581387,344.255300000004 0.40323492121753,41.8670390545615,344.182499999995 0.403077006373735,41.8670020069119,344.255600000004 0.402917917431868,41.866965964706,344.350300000006 0.402746926710789,41.8669309279456,344.262000000002 0.402574930774892,41.8668960590782,345.5383 0.402336046282985,41.8668290038708,346.203999999998 0.402173939900067,41.8667840769228,345.782000000007 0.402012001502106,41.8667399881683,346.1774 0.401737075702686,41.8666910379416,345.524099999995 0.401450079240767,41.8666890263335,346.439100000003 0.401259977760338,41.8666960672962,346.563599999994 0.401070043366535,41.8667039458148,347.313899999994 0.40089905264549,41.8667240625575,347.254199999996 0.400697048487519,41.8667909506315,347.524399999995 0.400495045227912,41.8668580052098,347.356899999999 0.40028298263374,41.8669039382411,346.893700000001 0.400070920937866,41.8669500391514,347.121700000003 0.399859026328653,41.8669969775814,347.024699999994 0.399622991292806,41.8670080417065,347.1728 0.399386957155289,41.8670199440512,347.224100000007 0.399150923017739,41.8670310081724,347.314499999993 0.399021003271456,41.8670199440512,346.991699999999 0.398766025461215,41.8669820574996,347.0 0.398563016088459,41.866928916345,347.669200000004 0.398369059038854,41.8669019266397,347.948000000004 0.398116931583003,41.8668950536119,349.0 0.39802992705279,41.8668960590782,349.0 0.397855080762502,41.8668990768151,349.820699999997 0.397646035609382,41.8669319340804,351.220700000005 0.397413018912882,41.8670189379178,352.371799999994 0.39727203551558,41.8670159208556,354.397400000002 0.397183019657433,41.8669999946445,354.998999999996 0.397113952686795,41.8669009211734,355.0 0.397043041474917,41.8668449294555,354.814100000003 0.396936927083649,41.8668469417277,354.0 0.396788064562973,41.8668680638922,353.0 0.396611038959827,41.8668870072046,353.0 0.396426972361498,41.8668920358748,352.801699999996 0.396265033963537,41.8668870072046,353.0 0.396102927580619,41.8668809717296,353.022700000001 0.395928919418524,41.866890024273,353.675199999998 0.395760946138496,41.8669129907813,354.284400000004 0.395593978073253,41.8669349511466,354.428799999994 0.395339001161309,41.8669820574996,355.886799999993 0.395065918704833,41.8670199440512,356.544500000004 0.394938010286484,41.8670300020392,357.675000000003 0.394768025678522,41.8670040185101,358.832599999994 0.394601058511609,41.8669629469722,359.032300000006 0.394406933477047,41.8668890188065,360.081300000005 0.394227057519478,41.8667909506315,361.283899999995 0.394030083028822,41.8667089751682,362.340500000006 0.393810980337765,41.8666259941294,363.592099999994 0.393553991199589,41.8665279262198,364.382500000007 0.393342934718534,41.8664689177561,365.301900000006 0.39313104010932,41.8664100764824,365.565700000006 0.392919983628265,41.86635106791,365.116500000004 0.39280196655949,41.866338998196,365.770999999993 0.392555035857581,41.866278983413,365.275899999993 0.392306931057566,41.8662199747195,364.802299999996 0.392060000355624,41.8661569433909,364.240300000005 0.3918120635406,41.8660940785764,363.681299999997 0.391661021707031,41.8660699390493,363.091899999999 0.391509979873462,41.8660449606098,363.392000000007 0.391341000480319,41.8660280293458,362.904999999999 0.391171015872356,41.8660099246826,362.757299999997 0.390874967087353,41.8659929934094,362.0 0.390578918302316,41.8660010399292,361.805300000007 0.390283036603906,41.8660099246826,362.3557 0.38998698781887,41.8660179712003,361.317999999999 0.389889925750754,41.8660300409748,361.0 0.389723963798627,41.8660330587526,361.0 0.389556996631715,41.8660350703813,360.890400000004 0.389277041165012,41.8660489845355,359.616399999999 0.388996917713319,41.8660620597836,359.244600000005 0.38874093468826,41.8660699390493,358.258700000006 0.388485956878019,41.8660769800801,357.734400000001 0.388322007152157,41.8660910614706,357.323600000003 0.38815906264108,41.8661059810913,356.535900000003 0.388065018013981,41.8661239184821,356.0 0.387950018386257,41.8661430292602,356.0 0.387799981767507,41.8661349827583,355.9571 0.387695040576016,41.8660890498435,355.867700000003 0.387622956164361,41.8660560248997,355.812699999995 0.38756394762999,41.8660000337798,354.842000000004 0.387467052648501,41.8660679274216,355.0 0.387332942261392,41.866150070283,354.988700000002 0.387181062299698,41.8661990202549,354.972999999998 0.387093052554666,41.8662189692425,354.474700000006 0.386930946171748,41.8662310389791,354.520099999994 0.386724081229816,41.8662000264012,354.695699999997 0.386286042934362,41.8660459667585,354.987800000003 0.386068951571206,41.8659589622659,354.964200000002 0.385679025245731,41.8658139554071,354.965200000006 0.385340061244624,41.8657400272507,354.713499999998 0.385109055876059,41.8657019733632,355.0 0.384805966095806,41.8656929206515,354.942599999995 0.383626967709602,41.8657339923364,355.0 0.382786933324471,41.8658439626894,354.809999999998 0.382196008954174,41.865962986197,354.521999999997 0.381628051810734,41.8661249239605,354.544899999994 0.381199065838364,41.8662930654279,354.334199999998 0.380614008365177,41.8665399958981,355.0 0.380069017550297,41.866766977942,354.934800000003 0.379081964885797,41.8672030045363,354.977199999994 0.378562956942197,41.8674140607943,355.0 0.378273949152344,41.8675200084384,355.0 0.378027018450402,41.8675719757356,355.0 0.377881005385818,41.8675919249637,355.0 0.377489067732408,41.8676120414271,355.0 0.376809965632122,41.8675810281811,354.876099999994 0.376092977983048,41.8675480040079,354.673999999999 0.374594964483247,41.8674740751809,355.946800000005 0.373948049019596,41.8674450741213,356.0 0.372734013642367,41.8673880767524,355.203699999998 0.371087975750014,41.867302917095,355.508600000001 0.370493028723881,41.8672769330079,356.0 0.369610917250839,41.8672219477495,355.800300000003 0.369258038345993,41.8672350234267,355.740099999995 0.369030051316775,41.8672779391372,355.573600000003 0.368833075927789,41.8673429822862,355.619500000001 0.368611961908831,41.8674469177949,355.455400000006 0.368394032417517,41.8676039951101,355.515400000004 0.368263944686276,41.8677479958008,355.0 0.368152968612718,41.8679389359123,355.750199999995 0.367995053768923,41.8682710265342,355.294599999994 0.367730017522449,41.8687670680843,356.0 0.367728006194514,41.868769079627,356.0 0.367727000081398,41.8687699178255,356.0 0.367636979008466,41.8687910400237,354.926399999997 0.367519967154509,41.8689829857982,353.821899999995 0.367281082662569,41.8693589980968,352.614000000001 0.367126018173165,41.8696159870159,351.0 0.367064997412562,41.8696439823365,351.0 0.366839021711246,41.8696749952506,350.805999999997 0.366677921441477,41.8696820365534,349.242599999998 0.366516989156632,41.8696890771864,349.0 0.366338957440371,41.8697120433581,348.741399999999 0.366160925724109,41.8697350101905,348.294899999994 0.365991946330932,41.8697509357201,347.804300000003 0.365822966937788,41.8697670291506,347.503800000006 0.365652982329859,41.8697930128945,346.852700000003 0.365449972058772,41.8698250318256,346.600200000001 0.36528602233291,41.8698540331433,346.826199999996 0.365122072607048,41.8698840405362,346.032900000006 0.364926941459337,41.8699100242326,345.0 0.364728960855565,41.8699269558063,344.094100000002 0.364531986364876,41.8699450606982,343.735700000005 0.364301987109427,41.8699569624961,343.447199999995 0.36404298574502,41.8699460661166,342.091199999995 0.363870989809156,41.8699430485235,342.0 0.363698992974962,41.8699410370177,341.0 0.363438986395769,41.869927961225,340.017399999997 0.363170932708244,41.869903989043,339.358200000002 0.362945963120077,41.8698610737574,339.071400000001 0.362752005172141,41.8698250318256,339.029200000004 0.362462997382288,41.8698010596049,338.177599999995 0.362181030587651,41.869798042005,338.428199999995 0.361881963463267,41.8697779255606,338.0 0.361642073756542,41.8697319925874,337.847800000003 0.361432023388602,41.8696629254953,337.160499999998 0.361261032667524,41.869639959306,337.0 0.361090041946445,41.869617998532,337.136899999998 0.360840931931645,41.8695829625561,337.0 0.360755938729333,41.8695690485021,337.0 0.360577068884913,41.8695110455948,336.885299999994 0.360440947169902,41.8694659506193,337.0 0.360210947914453,41.8693960457184,337.0 0.360003076859406,41.8693700618131,337.838399999993 0.359776933173132,41.8693310019825,336.645999999993 0.359543077450177,41.8692770225817,337.173800000004 0.35938298329349,41.8692379633632,337.3122 0.359222051008679,41.8692000767881,337.405899999998 0.359074026616161,41.8691579998924,337.512799999997 0.358924996110526,41.8691149168686,337.281600000002 0.35876791939489,41.869068984088,337.0 0.358610004551096,41.8690230512744,337.0 0.358377993069382,41.8689539840853,337.0 0.358224939907912,41.8689410759975,337.0 0.35804104039621,41.8689280000003,337.555500000002 0.357812047253876,41.8689209592834,338.0 0.357532929915299,41.8689060396507,337.737399999998 0.357287004428176,41.8689020165737,337.488200000007 0.357041079839383,41.8688979928276,338.0 0.356767997382907,41.8688840792934,337.752600000007 0.356610081640781,41.8688770385717,337.588699999993 0.35645199971036,41.8688699978493,338.0 0.356251001665538,41.8688699978493,338.0 0.356067940281995,41.8688770385717,338.0 0.355885047781706,41.8688840792934,338.0 0.355695951516095,41.8688969873927,338.250100000005 0.355508029348557,41.8689090572927,338.511400000003 0.355299990308518,41.8689300122069,340.818899999998 0.35505305960661,41.8689219653869,341.0 0.354807973145942,41.8689060396507,342.0 0.354572944223211,41.8688889405685,342.565499999997 0.354413018051482,41.8688609449173,343.749500000005 0.354210007780428,41.8688349614634,345.000100000005 0.353915971221657,41.8688289261723,347.8701 0.353645068078039,41.8688160180593,350.0 0.353402998160125,41.8687789701015,351.262799999997 0.35324508331633,41.868786010834,352.978600000002 0.353073924610294,41.8687620388926,354.282399999996 0.352884996329641,41.8687419221222,355.975999999995 0.352787934261491,41.8687570097006,357.694799999997 0.352690033166886,41.8688200411416,358.749800000005 0.352552067210601,41.8688720093888,360.409899999999 0.352392979167031,41.8688969873927,362.367800000007 0.352109000146162,41.8689070457543,366.4087 0.351944044307185,41.8689340352821,368.9179 0.351843963899688,41.8689900265083,370.406600000002 0.351760983821938,41.8690339478112,371.822199999995 0.35165604173215,41.8690720017224,373.362399999998 0.351580939879445,41.8690800478546,373.109700000001 0.351493936247529,41.8690840715893,371.632199999993 0.351471975133788,41.8690770308896,371.078999999998 0.351357981619179,41.8690419939483,368.4807 0.351249016873522,41.8689999169485,366.891499999998 0.351059921506241,41.8689680655109,365.052800000005 0.350850038224928,41.8689489549084,363.129300000001 0.350718945278903,41.8689539840853,362.948699999994 0.350637976529054,41.868957001725,362.0 0.350365061159238,41.8689749389848,361.0 0.350106060693162,41.868976950521,359.3698 0.349964071182711,41.8690250628091,358.656300000002 0.349837001790818,41.8690649603524,358.0 0.349560063765132,41.8691219575641,355.921400000007 0.349388066930938,41.8691809662548,355.0 0.34919293578326,41.8692190200784,354.0 0.348952039963419,41.8692850693571,352.721799999999 0.348775014360239,41.869339048751,352.0 0.348613075962312,41.8694000694332,351.0 0.348479971688352,41.8694409728377,350.358099999998 0.34827897364353,41.869499981234,349.0 0.348080993039726,41.8695539611154,348.0 0.347883012435954,41.8696089463749,347.276899999997 0.347741022925503,41.8696520290656,347.0 0.34759802730197,41.8696949444915,346.0 0.347412954590492,41.8697470799321,345.905899999998 0.347227044649186,41.869798042005,345.0 0.347081031584568,41.8698349221367,344.584099999993 0.346935018519985,41.8698719701514,344.0 0.346719939383094,41.8699380194244,344.0 0.346506033445945,41.8700030632116,343.0 0.346247032081538,41.8700699505306,343.0 0.346033964272582,41.8701460584346,342.842000000004 0.345826931345659,41.8701859566162,341.857699999993 0.345619060290612,41.8702270274213,341.466100000005 0.345491990000422,41.8702679316345,341.204299999998 0.345364082480371,41.8703279460177,341.364400000006 0.345246065411596,41.8703700228122,341.279599999994 0.345015060043031,41.8704260141185,340.373600000006 0.344733931376552,41.8704999422076,340.709300000002 0.344463028232934,41.8705639800144,339.080199999997 0.344296060167725,41.8706109191356,339.0 0.344127919801037,41.8706580254556,338.954800000007 0.343855004431187,41.8707220631041,338.197499999995 0.343719050701167,41.8707520700896,338.146699999998 0.343469939788036,41.8708100725397,337.902900000001 0.343181938111299,41.8708499709757,337.113400000002 0.342888068639154,41.8708940595714,336.391600000003 0.34271607180496,41.8709200435262,336.857399999994 0.342544074970765,41.8709450213988,335.662500000006 0.342271998627405,41.8709889426965,335.100200000001 0.342001933611979,41.8710229731692,334.306700000001 0.34178802767483,41.8710429219895,333.0 0.341562051075217,41.8710519746124,332.040800000002 0.341445040119591,41.8710439280595,332.0 0.341353006820393,41.8710370548081,331.382299999997 0.3411870448683,41.8710419165883,330.574800000002 0.340892002196379,41.8710680677153,329.965299999996 0.340709946925951,41.8710860050517,329.478199999998 0.340527053527365,41.871103942383,329.051000000007 0.340253971070889,41.8711210415416,328.728700000007 0.339981056599369,41.8711379727946,327.0 0.339776035000381,41.8711639566502,326.751000000004 0.339571014299724,41.8711889350964,326.0 0.33940203490658,41.8712080456983,325.014500000005 0.339233055513403,41.8712279944607,325.0 0.339064076120259,41.8712549843465,325.0 0.338893923527373,41.8712819742208,324.423599999995 0.338632073605203,41.8713319303424,324.363800000006 0.338433925016441,41.8713800421959,324.304300000003 0.338235944412669,41.8714279867817,324.584499999997 0.338019021034504,41.8714809603098,324.0 0.337801929671348,41.8715349398562,324.0 0.337582994066951,41.871573999678,324.0 0.337364059360851,41.8716120534149,324.0 0.337077062898932,41.8716539628024,324.0 0.336791071651799,41.8716970461216,323.716799999995 0.336574986401792,41.8717280587087,323.372900000002 0.336359069136742,41.8717580658908,323.0 0.336180031307331,41.8717699686889,323.839099999997 0.335999988263169,41.8717820380465,323.0 0.335776023889787,41.8717939408401,323.220400000006 0.335552059516405,41.8717890791171,324.0 0.335333962040133,41.871766951182,323.894700000004 0.335055012686547,41.8717580658908,323.760500000004 0.334834064855885,41.8717429790207,324.006299999994 0.334612950836926,41.8717270533183,323.915599999993 0.334390997791446,41.871711965772,324.031499999997 0.334090925452276,41.871706936812,324.407399999996 0.333859081955519,41.8717240358093,324.0 0.33361600682282,41.8717550483833,324.0 0.333431940224457,41.8717880730588,323.135899999994 0.333248041611086,41.8718219365447,323.127900000007 0.332982000149792,41.8718920086986,323.149099999995 0.332816038197665,41.8719320743583,323.051999999996 0.332651082358688,41.8719729781495,323.0 0.332392920020769,41.8720650114165,323.0 0.332235005176975,41.872121002576,322.910099999994 0.332076922348223,41.8721769936863,322.729000000007 0.331866032953795,41.8722700327104,322.829700000002 0.331708956238159,41.8723439613425,322.165299999993 0.33155204750748,41.8724180571179,322.0 0.331314001143698,41.8725379185755,322.0 0.331134964212651,41.8726160376384,322.0 0.330956932496356,41.8726939893778,322.0 0.330778062651936,41.8727719410221,322.0 0.330559965175698,41.8728559274829,321.931700000001 0.330343041797499,41.8729390763583,321.706600000005 0.330173056291239,41.8730029465011,321.392099999997 0.330003071683277,41.8730669838071,321.328099999999 0.329770054986811,41.8731489591443,321.0 0.329538043505096,41.8732309343763,321.431899999996 0.329303014582365,41.873296983523,321.0 0.32906899267108,41.8733640386351,321.0 0.328913927283379,41.8734119830706,321.0 0.328759029880601,41.8734609335023,321.0 0.32850405207036,41.8735360353514,321.0 0.328248069045334,41.8736109698867,320.278600000005 0.328060985005921,41.873669978447,320.468599999993 0.327874068053202,41.8737299929806,320.681100000002 0.327686984013789,41.8737900067888,320.390100000004 0.327531918626088,41.8738349341644,320.652000000002 0.327376015110228,41.8738800287334,320.6924 0.327219944507708,41.8739289788066,320.679000000004 0.327064040991814,41.8739769234873,320.643400000001 0.326800010858455,41.8740359323786,320.783899999995 0.326541010392379,41.8740629217475,320.355500000005 0.326265078479809,41.8741090221775,321.0 0.326025019889796,41.8741630015113,321.0 0.32581195208084,41.874239947351,321.0 0.325633082236386,41.8742989559994,321.0 0.325455050520124,41.8743569592444,321.047699999996 0.325284059799046,41.8744129504029,321.191900000005 0.325112063863182,41.8744689415122,321.313899999994 0.324904024823177,41.8745579571547,322.0 0.324729010547933,41.8746379205595,321.820300000007 0.324553996272721,41.8747190570991,322.321599999996 0.32438904043371,41.8748099171923,322.421400000007 0.32425593615975,41.8748880361539,323.038 0.324122998972417,41.874965987798,323.189400000003 0.324009004559511,41.875055004086,323.619999999995 0.323894004931787,41.8751440195812,323.670899999997 0.323689989445914,41.8752670658412,324.226299999995 0.323524028392118,41.8753210455347,324.232999999993 0.323358066440025,41.8753750251826,324.832500000004 0.323159917851262,41.8754410741204,325.563299999994 0.323039051326428,41.8755160084288,326.033100000001 0.322872083261185,41.8756020066249,324.990099999995 0.322640072677835,41.8757190180314,322.513900000005 0.322475954966982,41.8757889233752,322.797500000001 0.32231200524112,41.8758589958624,322.347699999998 0.322048980322547,41.8759210223337,322.0 0.321872960832517,41.8759550528562,322.0 0.321697946557306,41.8759880773683,322.0 0.321406926541221,41.8760239519501,321.610199999996 0.321149937403045,41.87608396628,320.633600000001 0.320877022931526,41.8761099501316,319.035199999998 0.320589021254822,41.8761510218125,318.0 0.320500005396674,41.8761770056369,318.0 0.32037092377855,41.8762569690226,317.996799999994 0.320291966356669,41.8763610719717,317.597699999998 0.320181995497896,41.8764420411122,317.0 0.320072024639123,41.8765230101501,317.0 0.319938082237004,41.876614037572,317.0 0.319804977963045,41.8767050655332,317.0 0.319694000991156,41.8767900581563,317.0 0.319582018804481,41.8768740446881,317.0 0.319470036617774,41.8769429434603,317.0 0.319332070661489,41.877017039924,317.0 0.319192930607131,41.8770899624416,317.0 0.318993944788574,41.8771970832912,317.0 0.318858996273307,41.877266988356,317.0 0.318723041644956,41.8773370605603,317.0 0.318578034693488,41.8774029429301,317.367599999998 0.318433027741987,41.8774689917787,318.0 0.318282992021568,41.8775390644304,318.0 0.318131950187999,41.8776079638233,318.0 0.31797805800004,41.8776810542194,319.0 0.31782500483857,41.8777539766481,319.1924 0.317583941033772,41.8778339400673,320.207800000004 0.317425020076861,41.8778740053466,320.0 0.317261070350966,41.8779310027298,320.971600000004 0.317095946527031,41.8779869934326,321.293600000005 0.316912047913626,41.8780530430153,321.642500000002 0.316728986530083,41.8781199306056,322.019 0.316553972254871,41.8782039173963,322.763399999996 0.316408965303403,41.8782919272317,323.8511 0.316263959250233,41.8783789316602,323.872700000007 0.316151976165228,41.8784560449881,324.065000000002 0.316038988763735,41.8785339969623,324.766699999993 0.315933041459128,41.8786240182446,324.177299999996 0.315739922537648,41.8787879686048,324.176300000006 0.315738078296374,41.8787889738841,324.186499999996 0.31559508267284,41.8788860364337,323.639999999999 0.315451081834455,41.8789849428456,323.0 0.315324012442595,41.8790669179498,323.0 0.315195936937587,41.8791490608287,322.940400000007 0.315009019984834,41.8792940675365,322.264899999995 0.314819924617521,41.8794479594763,321.0 0.314705930204615,41.8795510566421,321.0 0.314592942803122,41.8796539864317,319.325700000001 0.314462016943723,41.8797619457198,319.0 0.314313992551205,41.8798620252542,319.0 0.314131938179074,41.8799450065009,318.1302 0.313981063432165,41.879989932894,318.0 0.313831027711746,41.880035027802,318.0524 0.313592981347964,41.8800910186678,317.791899999997 0.313329957327722,41.8801530450447,317.642000000007 0.313180926822087,41.8801850641368,317.598700000002 0.313031059086592,41.8802179212612,317.232300000003 0.312773063835334,41.8802650271893,317.112999999998 0.312557983800112,41.8802930225276,316.596900000004 0.312343071749848,41.8803210185224,316.080799999996 0.312103014058165,41.8803520316068,316.076199999996 0.311861951151664,41.8803840505991,316.0 0.311579983458697,41.8804140577304,315.256200000003 0.31143698873346,41.8804470819449,315.296000000002 0.311258957017199,41.8805079348475,315.0 0.311081931414053,41.8805689548997,314.778699999995 0.310826953603812,41.8806619944155,314.462400000004 0.310571975793571,41.8807560390441,314.221999999994 0.310319010209562,41.8808670155543,313.915999999997 0.310159083139535,41.8809419495201,313.824600000007 0.309997982869733,41.8810180571863,313.672500000001 0.309835039256987,41.8811000323576,312.650200000004 0.30967192765925,41.8811820074238,312.030400000003 0.309476964496529,41.8812790696828,312.9087 0.30928300654856,41.881375964589,312.241999999998 0.309127942059189,41.8814679983615,311.506299999994 0.308973043758115,41.8815610372371,311.464999999997 0.30883206036078,41.8816379828645,311.0 0.308691076963478,41.881713923166,311.0 0.308522935698459,41.8818009269484,311.5 0.308354962418431,41.8818879312811,311.805399999997 0.308251027340056,41.8819229678691,312.0 0.308079030505895,41.881978959087,311.781199999998 0.307916924122977,41.8820550668557,310.0 0.307750963069181,41.8821630254313,309.0 0.30758902467122,41.8822349422022,308.811600000001 0.307386014400166,41.8822800368635,308.074800000002 0.307145956708484,41.8823040090856,307.0 0.306906067001725,41.8823279812987,308.0 0.306670032864208,41.8823690523275,307.2065 0.306423939392128,41.8824329224098,307.192500000005 0.306266024548333,41.8824850581614,308.103900000002 0.306106936504763,41.8825370259993,308.0 0.305921025665159,41.8825710563428,308.061600000001 0.305785071036776,41.8825740740085,309.081600000005 0.305536967135091,41.8825819532452,309.781499999997 0.305360946746764,41.8825920114598,311.045400000003 0.305185932471519,41.8826020696727,311.670800000007 0.305052995284186,41.8826280535494,312.648799999995 0.304772034602665,41.8827029874565,313.0 0.304532982125801,41.882744058913,312.938899999994 0.304293930547234,41.8827859683579,312.811600000001 0.304087065605269,41.8828159756989,312.198199999999 0.303881037893165,41.8828459830257,312.0 0.303738042269632,41.8828530235463,312.0 0.303553975671269,41.8828379359511,311.0 0.303353983739563,41.8827930095539,311.0 0.303227082332628,41.8827489204716,310.959300000002 0.303018037179507,41.8827209248717,311.0 0.302757024487199,41.8827219307579,310.265199999994 0.302600953884679,41.8827329948364,310.632299999997 0.302371959844015,41.8827579727742,310.365699999995 0.302212033672286,41.8827859683579,310.0 0.302052944730418,41.8828129580446,310.8367 0.301831997798087,41.8828379359511,310.250199999995 0.301655978308057,41.8828479947941,310.0 0.301480964032845,41.8828580529668,310.0 0.301304943644485,41.8828689491515,310.602100000004 0.301060024270478,41.8829130381511,310.203099999999 0.300857014897721,41.8829579651326,310.538100000005 0.300675965740443,41.8829980305434,310.933099999995 0.300494078454972,41.8830389346092,311.853600000002 0.300345047949338,41.8830739705661,312.542000000001 0.300196018342001,41.8831090071726,313.0 0.29992695854136,41.8831589634132,313.0 0.299696959285911,41.8832250123318,314.482499999998 0.299534015673165,41.8832749684818,314.487899999993 0.299393031377533,41.883353926473,315.0 0.299252047980198,41.8834320456916,315.0 0.299021042611633,41.883558947669,315.0 0.29881400968471,41.883667074247,316.736499999999 0.298615023866153,41.883729938499,316.373000000007 0.298370942620305,41.8837810679916,317.0 0.298165921021317,41.8838050403193,317.386700000003 0.297918990319375,41.8838410823935,318.037700000001 0.297697037273927,41.8838900328627,319.0 0.297470055459528,41.8839270807562,319.0 0.297235026536797,41.8839409950285,319.0 0.297008044722365,41.8839389832945,319.0 0.296772010584848,41.8839270807562,319.872900000002 0.296523067656675,41.8838950622016,320.490999999995 0.296388957269599,41.8838890269949,321.0 0.296269934986005,41.8839109875472,321.529399999999 0.296174045219335,41.8839369715603,322.0 0.296002049283471,41.883984077422,322.981799999994 0.295817982685108,41.8840219639283,322.705799999996 0.295634921301565,41.8840590117452,323.0 0.295377932163389,41.8840849956982,323.0 0.295119937810428,41.8841039392586,323.0 0.294926985975609,41.8841129913692,323.0 0.294734035039119,41.8841210382832,324.0 0.294557008537643,41.8841260669351,324.0 0.294380989047613,41.8841309283885,324.209099999993 0.294173956120724,41.8841349518445,325.0 0.293966923193801,41.8841389753003,325.0 0.293793920246491,41.884125061071,325.0 0.293620918197512,41.8841099737762,325.259000000005 0.293453950132269,41.8840900250217,325.709499999997 0.293287989078473,41.884069070396,326.0 0.293056983709908,41.8840269932568,326.056500000006 0.292913988086341,41.883984077422,326.012199999997 0.292770993361104,41.8839420008956,326.792000000001 0.292538981879424,41.8838640488305,327.062999999995 0.292318034947092,41.8837569284557,327.258000000002 0.292187948114149,41.883679982036,327.847899999993 0.292059034481015,41.8836030361924,327.332800000004 0.291843954445794,41.8834769723082,328.053599999999 0.291720069581578,41.8834070673485,328.343800000002 0.291596017630736,41.8833369951121,328.0 0.291483029330946,41.883291061851,329.0 0.291401054467982,41.8832779861142,329.0 0.291301980173634,41.8832630664886,329.0 0.291118081560229,41.883237920879,329.0 0.290871988986479,41.8832099248245,329.0 0.290627069612471,41.8831829353055,328.761899999998 0.290452055337227,41.8831720391743,329.0 0.290278047175131,41.8831599692925,329.0 0.290061961925091,41.8831579575339,328.861699999994 0.28986699876237,41.8831519222575,329.0 0.289672035599616,41.8831470607296,329.0 0.289447065113118,41.8831410261211,329.0 0.289286970956432,41.8831430378802,329.0 0.28912603867162,41.883144043091,328.9421 0.288956053165327,41.8831380084821,329.0 0.288785062444282,41.8831319732039,329.0 0.288644079046947,41.8831200711841,329.0 0.288481972664029,41.8830979431591,329.0 0.288287010399605,41.8830469809897,329.0 0.288111996124394,41.8829970246615,329.0 0.28797905893706,41.8829650056409,329.618100000007 0.287806056888081,41.8829410336668,330.328999999998 0.287721063685769,41.8829380160184,330.471900000004 0.287560969529116,41.882932987273,330.258300000001 0.287402048572206,41.8829279578584,331.045499999993 0.287164002208424,41.8829289637413,330.916299999997 0.286942050061274,41.8829070028516,331.190199999997 0.286705009810642,41.8829039858704,331.0 0.286467969559976,41.8829019741037,331.0 0.286230929309343,41.8828999623369,332.0 0.28600495270973,41.8828969446866,332.0 0.285777970895298,41.882893927705,332.256299999994 0.285539925429846,41.8828449771414,333.0 0.285419058006681,41.8828570470827,333.0 0.28528695894754,41.8828689491515,333.389200000005 0.285103060334135,41.8829070028516,334.0 0.284919999848922,41.8829460630804,334.646999999997 0.284782032994307,41.8829859606287,334.666800000006 0.284766945789122,41.8829909900387,334.768899999995 0.28461607194051,41.8830320613102,334.585200000001 0.284496042645503,41.8830810117304,334.596000000005 0.284339972042983,41.8831410261211,334.829599999997 0.284185074640239,41.8832010404553,335.0 0.283985081810236,41.8832610547332,334.269700000004 0.283785928006689,41.8833210689547,334.475999999995 0.283635054158077,41.8833629786899,334.355200000005 0.283485017539327,41.8834060614731,335.0 0.283235069396368,41.8834530005262,334.385699999999 0.283036082679448,41.8834969212542,334.904899999994 0.282764006336087,41.8835400046159,334.146099999998 0.282610953174617,41.8835549241768,334.845799999996 0.282457060986659,41.8835710174755,334.457699999999 0.282265953393113,41.8835919722645,334.526500000007 0.282094962672035,41.883621979227,334.084300000002 0.28192397195099,41.8836519868441,334.642099999997 0.281779971112604,41.8836860172625,335.0 0.281635970274252,41.8837200476628,334.970700000005 0.281396079669196,41.8837800621221,334.618100000007 0.281195081624374,41.8838129194043,334.753200000006 0.280994921707711,41.883844938,334.892000000007 0.280837006863917,41.8838739396444,334.880999999994 0.280679930148281,41.8839039464743,334.756500000003 0.280412044445746,41.8839440119607,335.0 0.280143990758221,41.883984077422,334.886899999998 0.279875937968994,41.884022969794,335.0 0.279669072128765,41.8840509654922,335.0 0.279462039201842,41.8840789611782,336.0 0.279255006274953,41.8841079620475,336.0 0.279046967234948,41.8841359577085,336.0 0.278820991533632,41.8841609357666,336.0 0.278594009719233,41.8841850758186,336.0 0.278361998237519,41.8842229622057,336.170499999993 0.278211962517099,41.8842499519542,337.0 0.278061926796646,41.8842759358294,337.0 0.277880039511176,41.8843200245269,337.0 0.277743916897868,41.8843689746292,337.0 0.277607962269518,41.8844169195033,337.8606 0.277526993519703,41.8844799508836,338.0 0.277369078675909,41.8845669555812,339.070800000001 0.277191046959613,41.8846420570864,339.643899999995 0.277000945479217,41.8847010654933,340.487800000003 0.276803970090231,41.8847419691377,341.198499999999 0.276567935952681,41.8847749937905,341.365900000004 0.276398956559537,41.8848019839745,341.845799999996 0.276187061950324,41.8848130476929,342.786500000002 0.275993943028844,41.8848229383599,343.006899999993 0.275800992092354,41.8848319910375,343.962400000004 0.275634024027111,41.8848569688235,344.413499999995 0.275431014654389,41.8849129601456,344.835800000001 0.275236051491634,41.8849649280152,345.728600000002 0.275041926457038,41.8850170637071,345.591400000005 0.274858027843667,41.8850710431905,345.673599999995 0.274675972573239,41.8851220050831,346.297600000005 0.274471957087367,41.8851759844778,346.651599999997 0.274268947714644,41.885229963827,346.0 0.274080019433957,41.8852970191256,346.199200000003 0.27381800152683,41.8854049782425,347.430800000002 0.273647009907454,41.8854849414505,348.098299999998 0.27347501397159,41.8855660782631,348.453099999999 0.273304023250512,41.8856460412696,349.0 0.273126996749036,41.8857260048447,349.0 0.272984002023799,41.885780990236,349.1921 0.272783003978978,41.885848045625,350.0 0.272582005934156,41.8859149330814,350.0 0.27242492921852,41.8859890291737,350.408599999995 0.272284951036004,41.8860619514845,350.431800000006 0.272145978966603,41.8861350415738,350.599300000002 0.271987058009693,41.8862039410613,350.015100000004 0.271827969966155,41.8862730076671,350.086899999995 0.271698050219873,41.886335034062,349.853799999997 0.271567963386929,41.8863960538996,350.003599999996 0.271351039110434,41.886506024819,349.678400000004 0.271205026944147,41.8865839763358,349.9954 0.271060019992679,41.886660922602,349.577099999995 0.270840916403325,41.8867599962086,349.638699999996 0.27057705425489,41.886845994655,349.6247 0.270392987656561,41.8868999739307,349.620800000004 0.270209927171315,41.8869529480099,349.624200000006 0.269950926705238,41.8870179912006,349.805099999998 0.269691925340831,41.8870840408113,350.0 0.269462932198497,41.8871579690262,350.0 0.269233938157867,41.8872310591991,350.0 0.269035957554062,41.8873029762844,350.238899999997 0.268905032592994,41.8873710372266,350.983999999997 0.268773939646935,41.8874399367187,350.980599999995 0.268546957832536,41.88756298271,351.1541 0.268415026758319,41.8876169620486,352.014500000005 0.268282927699177,41.8876709413417,351.967699999994 0.268097016859541,41.887760963127,352.592900000003 0.26793792881597,41.8878540022018,351.937999999995 0.267738942099083,41.8879879453823,352.272800000006 0.267620925030308,41.8880690823599,352.446299999996 0.267502069833408,41.8881510571788,352.676500000001 0.267319008449864,41.8882920409953,352.534499999994 0.267128068841276,41.8884439210721,352.6878 0.267010051772501,41.8885450068465,352.965599999996 0.266892034703726,41.8886459246059,353.024799999999 0.266765970526652,41.8887580744334,353.732999999993 0.266639069119717,41.8888700568782,354.168600000005 0.266465060059291,41.8890330012434,354.546300000002 0.266327932231164,41.8891520237015,354.839099999997 0.26621595004449,41.8892430511895,354.849199999997 0.266125928971557,41.8893230149437,355.005000000005 0.266056023872761,41.8893969432425,354.548500000004 0.265970025455664,41.8894980288464,355.058000000005 0.265880003484434,41.8895860391758,355.387400000007 0.265752934092541,41.8896619787242,355.827099999995 0.265575070361237,41.8897340636001,356.336500000005 0.265349931889782,41.8898120151905,356.0 0.265113059624073,41.8898770588139,357.242599999998 0.264965035231555,41.889893989779,358.677599999995 0.264817010839037,41.8898539246803,358.882599999997 0.264680050097571,41.889797933676,358.770699999994 0.264542922269445,41.8897419419539,358.7307 0.264328010219181,41.8896549382851,358.942200000005 0.26411293108229,41.8895669280507,358.277300000002 0.263898019032025,41.8894789183637,358.453099999999 0.263670031104511,41.8893810172583,358.567500000005 0.263442043176963,41.8892819437038,358.894100000005 0.263213050034629,41.8891840429652,358.411200000002 0.262996963886292,41.8890799395062,358.5049 0.26277299951291,41.8889480081854,358.794500000004 0.262622963792491,41.8888380381258,358.538199999995 0.262472927173741,41.8887280672082,358.670700000002 0.262259021236592,41.8885740076948,358.944099999993 0.262044947314487,41.8884209542752,358.467300000004 0.261846966710715,41.8882570045561,358.0 0.261713024308597,41.888180058206,358.340400000001 0.261642951224843,41.8881909548206,358.603000000003 0.261568017357129,41.8882499632935,358.694499999998 0.261499956499607,41.8883140013717,358.125400000004 0.261495932945441,41.8883599343654,358.405299999999 0.261502973940657,41.8884330245007,358.460399999996 0.261549074582701,41.8885160053163,359.0 0.261598024680872,41.8885949628493,359.0 0.261617973568382,41.8886869962546,359.0 0.26159299501359,41.8887550570598,359.0 0.261518061145842,41.8888400497057,359.0 0.261414964195626,41.8889550493711,359.239700000006 0.261287055777277,41.8890730661883,359.326100000006 0.261195022478113,41.8892130441922,360.0 0.261115058943083,41.8893250265082,360.0 0.261034928321426,41.8894380144084,359.986799999999 0.260964017109514,41.8895620663422,360.0 0.260915067011377,41.8896819277451,360.0 0.260884053574518,41.8898800761345,360.0 0.260861925374116,41.8900710156647,360.438099999999 0.260844993927657,41.890204958878,360.836299999995 0.26082906859428,41.8903390689922,361.0 0.260804929065977,41.8904969841352,361.0 0.260781962737417,41.8906560724987,360.616800000003 0.260770060059909,41.8908000734138,360.297200000001 0.260756984182625,41.8910210210373,360.894 0.260720941976815,41.8911330028588,361.0 0.260612983344273,41.8912480024087,360.3125 0.260495971490317,41.8913259541578,360.153999999995 0.260368063970266,41.8914310637179,360.0 0.26028106033835,41.8915730527296,359.9329 0.260125994950648,41.8917349911428,359.291700000002 0.259939077997896,41.8918550203274,358.557199999996 0.259841009816664,41.8919520824216,358.0 0.259743947748515,41.8920489771909,358.0 0.259595923355996,41.8921810759714,357.0 0.259449072163254,41.892313007302,356.0 0.25929702421657,41.892470922246,355.0 0.25912100472654,41.8926429190273,354.0 0.258959066328579,41.8928030131235,353.295100000003 0.258851945824229,41.8928980643313,352.429099999994 0.258715991195846,41.8929530495679,351.481700000004 0.258509963483776,41.8930350241378,350.791100000002 0.258375014968508,41.8930990621,349.842499999999 0.258240066453273,41.8931629321548,349.120599999995 0.258012916653917,41.8932779320623,348.131099999999 0.257793981947817,41.8933810296484,347.323300000004 0.257575046343387,41.8934829535089,346.572899999999 0.257306992655862,41.8935810215194,346.0 0.257119070488324,41.8936470710313,345.023100000006 0.256931986448945,41.89371194692,345.0 0.256725959635172,41.8937769905844,345.0 0.256518926708249,41.8938430398937,344.082699999999 0.256313066981103,41.8939089219621,344.0 0.256136041377957,41.8939620627511,344.0 0.255959015774811,41.8940160420321,344.0 0.255781989273335,41.8940619749378,343.931800000006 0.255605969783305,41.8941090813583,343.0 0.255406983066418,41.8941580319844,343.0 0.255207997247828,41.8942079876097,343.0 0.25500901053094,41.8942579438646,343.0 0.254766941511323,41.8943199698622,343.0 0.254525039578366,41.8943819964682,343.0 0.254243071885399,41.8944510629253,342.031900000002 0.253960937105805,41.8945199621367,342.0 0.253677964198052,41.8945920468798,342.0 0.253394991290266,41.8946639637025,341.105899999995 0.253209080450662,41.8947249836086,341.0 0.253024007739184,41.894786004125,341.0 0.252837929812921,41.8948470239145,340.868100000007 0.252622011649541,41.8949020094794,340.051900000006 0.252404921184715,41.8949569949969,340.0 0.252238959232622,41.8949960545453,340.0 0.252071991167379,41.8950359525926,339.0 0.251784995603791,41.8950889259432,339.0 0.251603946446479,41.8951169214729,338.593500000003 0.251422059161008,41.8951449169904,338.0 0.251196082561395,41.8951749245446,338.0 0.250968932762039,41.895204931416,337.3508 0.250736922178655,41.8952409737456,337.0 0.250524021456325,41.8952870742767,336.193499999994 0.250311959760451,41.8953330069371,336.0 0.250131077689799,41.89537994592,335.998999999996 0.249950028532487,41.8954270520371,335.058900000004 0.249680969630144,41.8955090267751,334.872900000002 0.249466057579913,41.8955819495863,334.052599999995 0.249250978442988,41.8956560458334,334.0 0.24900103030003,41.8957350032336,334.0 0.24875108125874,41.8958149662163,333.698499999999 0.248606074307272,41.8958570436156,333.472399999999 0.248460062140985,41.8958989531513,333.373500000002 0.24826895454744,41.8959410304953,333.0 0.248077008825736,41.8959829399758,333.0 0.247946921992826,41.8960129471363,333.0 0.247808956036542,41.8960439599591,332.295499999993 0.247540064220858,41.8961059862282,333.0 0.247294976861893,41.8961589600286,332.526400000002 0.247151982136657,41.8961899727805,332.1253 0.247050058386183,41.8962129394588,332.036300000007 0.246886945890183,41.8962499868928,332.291500000007 0.246724002277403,41.8962870349739,332.011899999998 0.246481932359489,41.8963480553353,332.0 0.246240031324829,41.8964080699677,332.181400000001 0.245994943965864,41.8964630548572,332.0 0.245749019377038,41.8965190460371,332.0 0.245537962895982,41.8965679968222,331.839200000002 0.245327074399884,41.8966179525685,331.547699999996 0.245116017918829,41.896667070443,331.441699999996 0.244920048642992,41.8967099857817,331.271699999998 0.244723074152303,41.8967520632601,331.082500000004 0.244481005132686,41.896809059851,331.196299999996 0.244238935214772,41.8968660570597,331.269400000005 0.243997033281814,41.8969220478862,331.0 0.243809949242435,41.8969550729292,330.698900000003 0.243624039301096,41.8969869237916,330.342999999993 0.243401918270691,41.8970290010875,329.403300000005 0.243180971338359,41.8970719168517,329.217699999994 0.242959019191209,41.8971139940915,329.012900000002 0.242742933042872,41.8971470183666,329.494099999996 0.242502037223031,41.8971669677245,329.0 0.242335070056118,41.8971820546103,329.0 0.242168941017365,41.8971959686703,328.498900000006 0.241928044299193,41.8972310048872,328.237200000003 0.241685975279609,41.8972650354276,328.0 0.241513978445415,41.8972880023879,327.970400000006 0.24134198161122,41.8973099623462,327.0 0.241189934562866,41.8973560633899,326.864499999996 0.240990947845946,41.8974410559587,326.0 0.240791961129059,41.8975260484143,325.0 0.240629017516313,41.8975800273577,325.332500000004 0.240466073005236,41.8976340069242,325.0 0.240304972735434,41.8976920097158,325.0 0.240144040450589,41.8977510181043,325.070300000007 0.239884033871396,41.8978400340776,324.833100000003 0.23962503340532,41.8979300555736,324.044800000003 0.239416994365281,41.897988058765,324.118100000007 0.239208955325277,41.898046061235,323.509699999995 0.238980967397728,41.898106075609,323.550199999998 0.238797068784357,41.8981389328782,323.329199999993 0.238572936426018,41.8981620666857,323.537800000006 0.238298009728267,41.8981600553994,323.386299999998 0.238108076232794,41.898147985006,324.0 0.237917974752365,41.8981350774657,323.527799999996 0.237633995731496,41.8981199894677,323.7981 0.237351022823744,41.898105069965,324.0 0.237092021459336,41.8981030580083,324.226899999994 0.236964952067444,41.8981119429797,324.416700000002 0.236796978787416,41.898143961764,324.051999999996 0.236589945860493,41.8981969358798,324.126900000003 0.236382074805445,41.8982490708026,324.096900000004 0.236243940864203,41.8982970152893,324.081600000005 0.236105974907919,41.8983459660488,325.0 0.235951077505174,41.8983880431179,325.0 0.235796012117473,41.898428946691,324.852299999999 0.235569030303041,41.8984980134521,325.074399999998 0.235342048488642,41.8985670808072,325.0 0.235187988315726,41.8985979258981,325.0 0.234948936737159,41.8986069786295,325.0 0.234783980898148,41.8986089899017,325.0 0.23461902505917,41.8986120074785,324.946899999995 0.234406963363296,41.8985809945654,324.835099999997 0.234163049204107,41.8985000253964,324.086599999995 0.233996920165354,41.8984599596779,323.704400000002 0.233831964326343,41.8984190561246,323.0 0.233613028721946,41.8983749671279,322.0 0.233486965443169,41.8983630652733,321.0 0.233289990952513,41.8983630652733,320.648499999996 0.233089998122477,41.8983709439001,319.712 0.232889000077655,41.8983779847157,319.0 0.232689008145949,41.8983860311701,318.0 0.232443921685315,41.8983860311701,317.879000000001 0.232199002311307,41.8983860311701,316.519400000005 0.231938995732081,41.8983870374783,316.0 0.231679994367708,41.8983890487575,315.261700000003 0.231465920445602,41.898405980141,314.818700000003 0.231229048179893,41.8984390050852,314.060200000007 0.231007933262605,41.8984720300123,314.0 0.230851024531926,41.898504048616,313.646800000002 0.23069394781629,41.8985360672037,313.025500000003 0.230487920104186,41.8985979258981,313.038199999995 0.230332016588326,41.8986609579966,312.277400000006 0.230175945985806,41.8987229837299,312.0 0.230001937823711,41.8987989237825,312.004499999995 0.229828934876401,41.8988750315729,312.0 0.229654926714272,41.8989509714446,311.604099999997 0.229423921345707,41.8990260734243,311.232999999993 0.229265000388796,41.8990770355511,311.030899999998 0.229106079431886,41.8991279976372,311.0 0.228942967834149,41.8991799653097,311.0 0.228779018108287,41.8992329385661,311.0 0.228575002622415,41.8992899356175,310.950800000006 0.228369981023461,41.899347938911,310.732000000004 0.228164959424473,41.8994059414831,310.648000000001 0.227902941517346,41.8994719909889,310.0 0.227640922711888,41.8995370341362,310.402100000007 0.227426011559954,41.8995890021445,310.0 0.227371025681419,41.8996020778859,310.0 0.227099955451175,41.8996679593627,309.801800000001 0.226924941175963,41.8997199272644,309.846600000004 0.226749926900719,41.8997720629497,309.215800000005 0.226574074497315,41.8998220188641,309.642800000001 0.226398054108988,41.8998729810243,312.443400000004 0.226179957531047,41.8999390307156,313.030799999993 0.225963034152848,41.90000507967,309.0 0.225684922029123,41.9000820258166,309.114000000001 0.225438997440297,41.9001569599785,309.104900000006 0.225430950331998,41.9001589718705,309.021800000002 0.22519407806629,41.9002310555981,309.0 0.225022081232095,41.9002820181004,308.266900000002 0.224849079183116,41.9003319742846,308.143200000006 0.22458907260389,41.9004050640932,308.0 0.224373992568702,41.9004570320637,308.0 0.224159918646596,41.9005079937171,308.622199999998 0.223946012709448,41.9005589559985,307.680699999997 0.223691034899207,41.9006189706854,307.794299999994 0.223436057987263,41.9006779790438,307.472299999994 0.223289038809563,41.9007130153562,307.632100000003 0.223142020530161,41.900747046047,307.296100000007 0.222873966842636,41.900813933281,307.036600000007 0.222606919268227,41.9008819945369,307.0 0.22233903446399,41.9009490494523,307.281400000007 0.222118925659817,41.9010050407108,307.1443 0.221897978727485,41.9010620375176,307.0 0.221678037009939,41.901118028677,307.0 0.22143395576409,41.9011750260516,306.964399999997 0.221190042503198,41.9012330283014,306.901199999993 0.220943949929448,41.9012860025292,307.0 0.220698025340622,41.9013389760445,306.517999999996 0.22069601311439,41.9013399816376,306.483800000002 0.220504067392686,41.9013820587397,306.753800000006 0.220309943256421,41.9014239686613,306.563599999994 0.22003501655867,41.9015039318755,306.483999999997 0.219804011190105,41.9015770216799,306.818700000003 0.219574011934623,41.9016489386602,307.0 0.219410062208761,41.9016930274024,306.981400000004 0.219246949712727,41.9017359427067,307.0 0.219066068540372,41.9017880780832,307.0 0.218904968270603,41.9018469188782,307.081200000001 0.218735988877426,41.9019149803701,307.235700000005 0.218566004269497,41.901983041121,307.541599999997 0.218376069875694,41.9020599868901,307.189100000003 0.218185968395298,41.9021369332349,307.233999999997 0.217996034899825,41.9022140466379,307.6685 0.21776201209021,41.9023089293926,308.0 0.217549949496039,41.902383025858,308.0 0.217314083343446,41.9024470638076,308.0 0.217067990769696,41.902523003443,307.335000000006 0.216878056375893,41.902574971027,307.010800000004 0.216688961008579,41.9026279448101,307.0 0.216451082629788,41.9026939943262,307.048599999995 0.216351002222291,41.9027290308696,307.0 0.216230973825615,41.9027830100952,307.0 0.216123014294743,41.9028390010828,307.0 0.215971972461208,41.9029209763357,307.0 0.215814057617414,41.9030160271943,306.989600000001 0.215735938323658,41.9030730242119,306.749100000001 0.215682964671355,41.9031149336922,307.0 0.2156249622501,41.9031139274585,307.0 0.21557098248468,41.9030770471434,306.326100000006 0.215457994184857,41.9029439425991,301.770799999998 0.215371995767793,41.9029199707675,306.287700000001 0.215240064693576,41.9029419307949,306.882100000003 0.215042922217963,41.9030269232838,306.084099999993 0.214821975285632,41.903105043183,306.480299999996 0.214669928237244,41.9031429290466,306.227100000004 0.214517042162435,41.9031819889371,306.0 0.214310009235512,41.9032220543672,305.760399999999 0.21410901119069,41.9032510559062,304.888500000001 0.213898960822751,41.9032899479141,304.0 0.213689077541472,41.9033290070461,304.0 0.213461927742082,41.9033779579599,303.0 0.213299989344121,41.903424057966,302.020900000003 0.213248021804967,41.903451047625,302.027700000006 0.213167053055118,41.9034639560967,301.9136 0.212988015225741,41.9035809672917,301.024799999999 0.212777964857802,41.9037839773153,300.020999999993 0.212522987047561,41.9039650263569,298.103400000007 0.21211495607585,41.9041650185136,296.917600000001 0.211791079279928,41.9043120370334,296.0 0.211578011470939,41.904404070524,295.554399999994 0.211392938759494,41.9044620731836,295.0 0.211079958527964,41.9045229259431,294.183799999999 0.210556927928529,41.9045730492969,294.3226 0.210178066152403,41.9045889748361,293.0 0.209663919891095,41.904653012579,292.0 0.209208950149148,41.9047349875087,291.012799999997 0.208704024195948,41.9048399292517,289.684999999998 0.207871030806033,41.9050149434253,288.520900000003 0.207333918216198,41.905059031849,287.758300000001 0.206843074253364,41.9050679171897,287.0 0.206216945805382,41.9050469620912,287.0 0.205972027329705,41.905064061527,286.512100000007 0.205636080769648,41.9051609557923,286.0 0.205366015754189,41.9053019395037,286.0 0.205138027826674,41.9054680691327,285.134600000005 0.204804930722678,41.9057609325164,285.035600000003 0.204572082011136,41.9058990661489,284.306299999997 0.204318948442169,41.906006019692,284.0 0.203798934385453,41.9063159823828,282.056500000006 0.202835016034437,41.9067499975527,282.0 0.202300920885653,41.907160040201,281.0 0.201766993721792,41.9075920433235,280.0 0.201379917750706,41.9078250602538,280.0 0.200966018983555,41.9080240468653,280.368600000002 0.200650021311009,41.9081380405992,281.410300000003 0.200291946550551,41.9083150660577,281.0 0.199732035617113,41.9086119530036,281.0 0.199638996204799,41.90866693875,281.0 0.199253931561649,41.9088129514557,281.0 0.19923599400204,41.9088280389327,281.0 0.198439042817969,41.9090860337025,279.8894 0.19836494707838,41.9091009533135,280.0 0.198301076861685,41.9090759756483,280.166400000002 0.198020953409992,41.9089539351249,280.952699999994 0.197705961850561,41.9092670830849,278.6204 0.197638068079699,41.9094399177559,278.0 0.197448972712419,41.9095200487592,277.0 0.196582954557711,41.9098269940552,276.0 0.194020942299397,41.9106619992223,272.927800000005 0.193577036208502,41.9107099437479,272.800300000003 0.193475950586187,41.9108509272386,270.731700000004 0.193172022677809,41.910980008241,269.0 0.193210076211554,41.9112589580761,267.872300000003 0.192999020628829,41.911706049003,266.0 0.192643962411091,41.9123380447385,264.424899999998 0.192522927901266,41.9127269645491,266.344400000002 0.191646013182166,41.9128949379419,268.0 0.191274024416265,41.9127879852443,267.0 0.191011000396022,41.9128439761479,267.0 0.191002954186021,41.9128620809125,267.0</coordinates>
</LineString>
</Placemark>
</Folder>
</Document></kml>
