<?xml version="1.0" encoding="UTF-8"?>

<kml xmlns:xsd="http://www.w3.org/2001/XMLSchema" xmlns:gx="http://www.google.com/kml/ext/2.2" xmlns:atom="http://www.w3.org/2005/Atom" xmlns="http://www.opengis.net/kml/2.2">
<Document>
<name>ES12a_01a_madrid-tres_cantos</name>
<visibility>1</visibility>
<Schema name="ES12a_01a_madrid-tres_cantos" id="kml_schema_ft_ES12a_01a_madrid-tres_cantos">
<SimpleField type="xsd:string" name="id">
<displayName>id</displayName>
</SimpleField>
<SimpleField type="xsd:string" name="nombre">
<displayName>nombre</displayName>
</SimpleField>
<SimpleField type="xsd:double" name="longitud">
<displayName>longitud</displayName>
</SimpleField>
<SimpleField type="xsd:string" name="_formato">
<displayName>_formato</displayName>
</SimpleField>
</Schema>
<Folder id="kml_ft_ES12a_01a_madrid-tres_cantos">
<name>ES12a_01a_madrid-tres_cantos</name>
<Placemark id="kml_1">
<name>&lt;img height='20' src='https://nco.ign.es/iconos/icono_todos_caminos_azul.png' /&gt;&lt;img height='20' src='https://nco.ign.es/iconos/Camino Santiago_20.png' /&gt;&lt;img height='20' src='https://nco.ign.es/iconos/icono_todos_caminos_azul.png' /&gt;  Camino de Santiago </name>
<visibility>1</visibility>
<description><![CDATA[<!DOCTYPE html>
<html>
<head>
<style>
#nco {
  border-collapse: collapse;
  overflow:hidden;
}
#nco th, #nco td {
  padding: 4px;
  text-align: left;
}
#nco th {
  color: #364B5F;
  padding-right: 5px;
}
#nco td {
  color: rgb(51, 51, 51);
  font-size: 12px;
  padding-right: 5px;
}
</style>
</head>
<body>
<table id="nco">
<tr>
<td>Caminos del Centro</td>
</tr>
<tr>
<th><b>Camino: </b></th>
<td>ES12a Camino de Madrid</td>
</tr>
<tr>
<th><b>Etapa: </b></th>
<td>01a Madrid-Tres Cantos</td>
</tr>
<tr>
<th><b>Longitud: </b></th>
<td>24.77 km</td>
</tr>
</table>
</body>
</html>]]></description>
<Style>
<IconStyle>
<scale>0.8</scale>
</IconStyle>
<LabelStyle>
<color>ffffffff</color>
<scale>0.75</scale>
</LabelStyle>
<LineStyle>
<color>ffff0000</color>
<width>3.0</width>
<gx:labelVisibility>1</gx:labelVisibility>
</LineStyle>
<PolyStyle>
<color>66ff0000</color>
</PolyStyle>
</Style>
<ExtendedData>
<SchemaData schemaUrl="#kml_schema_ft_ES12a_01a_madrid-tres_cantos">
<SimpleData name="id">ES12a_01a</SimpleData>
<SimpleData name="_formato">kml</SimpleData>
</SchemaData>
</ExtendedData>
<LineString>
<extrude>0</extrude>
<tessellate>1</tessellate>
<coordinates>-3.71093323420915,40.4166082109368,647.266399999993 -3.71077733159159,40.4166638666217,646.926699999996 -3.71082577863319,40.4169198496243,645.535799999998 -3.71086953197742,40.4172130488948,644.200400000002 -3.71090356285533,40.4175357520282,641.968099999998 -3.71085461185886,40.4176546075301,641.223700000002 -3.71054800247934,40.4177957586384,639.670400000003 -3.71014365909189,40.4178775657554,638.618199999997 -3.70978826670086,40.4179000297815,638.381200000003 -3.70965667069826,40.4180706852809,638.883100000006 -3.70950562886469,40.4182599483343,638.867599999998 -3.70936900409314,40.4183380679006,638.440700000006 -3.7093396669126,40.418449547341,638.4853 -3.70912509083225,40.4185311867882,639.056400000001 -3.70889609679158,40.4186870900835,640.782600000006 -3.70866710364925,40.4188465137861,642.406099999993 -3.70843810960862,40.4190059377948,644.045599999998 -3.70820408679901,40.4191506095562,645.880399999995 -3.70808204617606,40.4194325769256,648.332999999999 -3.70798431306642,40.4197442162089,651.576499999996 -3.70801851192928,40.4198815112117,652.606599999999 -3.70817910914251,40.4200856945485,653.092399999994 -3.70836887465303,40.4203120060616,652.884099999996 -3.70855847397521,40.420460533542,652.700700000001 -3.70854372184161,40.4205532372999,652.506599999993 -3.70839251202308,40.420801676559,651.253100000002 -3.70822705312753,40.4211356117325,649.732099999994 -3.70806142714535,40.4214695466161,649.091499999995 -3.70816854764974,40.4216031547098,648.490300000005 -3.70801750581617,40.4217109453578,648.785799999998 -3.7079444152914,40.4217592252757,649.132199999993 -3.70779337345783,40.4223117607107,650.804499999998 -3.70763746994197,40.4228829031025,651.353300000002 -3.707530014366,40.4234133104295,649.375700000004 -3.70748609303682,40.4240288771094,647.203099999999 -3.70746647922089,40.4246518203272,646.772599999997 -3.70744686540496,40.4252745957048,648.036900000006 -3.70733957781395,40.4256713946823,648.935899999997 -3.70705224538212,40.4261831940625,650.325800000006 -3.70682811392211,40.426620897193,651.652100000007 -3.70657950606556,40.4270919599926,654.120299999995 -3.70650641643908,40.4272145035744,654.840899999996 -3.70643332591431,40.4275185984441,656.767399999997 -3.70633592787625,40.427996869909,659.839300000007 -3.70626283824981,40.4283529331241,661.993400000007 -3.70614565930919,40.4287867804962,664.772500000006 -3.7060869858464,40.4290796442675,666.786600000007 -3.70602848036858,40.4293352921458,668.679099999994 -3.70618404791455,40.4294615241714,669.462100000004 -3.70631061514817,40.4295656267964,670.138200000001 -3.70625194168538,40.4297510350727,670.405899999998 -3.70610576153417,40.4298549704029,671.020499999999 -3.70592068882269,40.4299367778985,671.776899999997 -3.70574047779354,40.4299926010276,672.190000000002 -3.70555523799544,40.4305562002636,673.651500000007 -3.70537519495124,40.4310529123476,675.164999999994 -3.70534552269911,40.4313533193158,675.576799999995 -3.70528232262559,40.4314943028731,675.712700000004 -3.70515558830531,40.4318612627148,676.619600000005 -3.70519934254787,40.4321988859633,677.392200000002 -3.70497504220457,40.432187821812,677.338900000002 -3.70478041501173,40.4327106849027,677.637799999997 -3.70457589646932,40.4333146847473,678.323600000003 -3.70467798820472,40.4334484600818,678.335200000001 -3.70480455454007,40.433522891582,678.279200000004 -3.70478477363752,40.4337381384341,678.540500000003 -3.70450247087293,40.4339681380066,678.464600000007 -3.70447799537472,40.4345946014174,678.254300000001 -3.7044535207748,40.4352249207747,678.931700000001 -3.7044191548253,40.4358738475934,679.2114 -3.70438495686073,40.4365226067889,679.873800000001 -3.70435075799787,40.4371713658781,680.637600000002 -3.70433114508027,40.4378496299793,681.9041 -3.70431153126434,40.4385278933915,683.577300000004 -3.70430164081307,40.4392212440691,684.9856 -3.70429174946349,40.4399182836552,686.132299999997 -3.70428185901222,40.4406190106674,686.875799999994 -3.70426710687862,40.4413344896891,690.009699999995 -3.70423290891405,40.4418866892859,692.055200000003 -3.70429610808924,40.4420831616656,692.758300000001 -3.70424229630878,40.4423725047361,693.887300000002 -3.70423726753983,40.4428470881473,695.464600000007 -3.70420306957526,40.4435328952243,697.762300000002 -3.70416870362577,40.4442222229483,700.151299999998 -3.7041345056612,40.4449117186164,702.108399999997 -3.70411003016298,40.445601214048,703.672999999995 -3.70409511004442,40.4462905417534,705.341700000004 -3.70409997172675,40.4466132448398,706.239799999996 -3.70426040185335,40.4467284120665,706.242599999998 -3.70441613738425,40.4467434997003,706.246599999999 -3.70449878239038,40.4470512832726,706.423899999994 -3.70427448294542,40.447288490518,706.728799999997 -3.70400173556053,40.4474257867168,706.881899999993 -3.7039236162668,40.4480634815911,706.436799999996 -3.70384532988642,40.4487008416002,705.607000000004 -3.70374307016603,40.449360664806,704.906499999997 -3.70362605921041,40.4500350728236,704.533899999995 -3.70350904735645,40.4507094809092,706.585399999996 -3.70341651100071,40.4514172483973,708.833700000003 -3.70329463836273,40.4521655852257,710.162700000001 -3.70319237954067,40.4529551606142,710.666899999997 -3.70309011982031,40.4537443999858,711.706999999995 -3.7030460314045,40.4541819353273,712.225300000006 -3.70296791211075,40.4542784949857,712.276400000002 -3.70282642565687,40.4549716784151,712.352199999994 -3.70252450907639,40.4557238704419,713.355100000001 -3.70216408701812,40.4564983582231,715.401100000003 -3.70174515948198,40.4572431743885,717.646399999998 -3.70129220196627,40.4579547977861,719.015299999999 -3.70095608742125,40.4582994620494,718.737899999993 -3.70012309403134,40.4590776377021,718.303599999999 -3.69927082189712,40.4598558132266,717.396099999998 -3.69862306830527,40.4605562052528,716.211299999995 -3.69863765335225,40.4606415329294,715.882599999997 -3.69844285727615,40.4608120211875,716.270600000003 -3.69812132777808,40.4614716769451,717.634699999995 -3.69777549076675,40.462134852929,719.680300000007 -3.69749302001721,40.4625720534105,721.210699999996 -3.69691835695017,40.4631872848344,723.776100000003 -3.69633883220084,40.4638134130608,725.968599999993 -3.69592979511598,40.4642432370958,726.251000000004 -3.69562301775151,40.4644284772893,726.282399999996 -3.69511172184462,40.4646028208156,726.764200000005 -3.69361186410355,40.4651141167598,728.980800000005 -3.692749869503,40.4653885403539,730.305800000002 -3.6917321384732,40.4655553403679,731.219299999997 -3.69081180548148,40.4656924680249,730.703099999999 -3.69018349772061,40.4659261554059,729.347200000004 -3.69017360726933,40.4662413148334,729.249500000005 -3.69022708397821,40.4663266428062,729.001499999998 -3.69000295161987,40.4665712265533,729.242899999997 -3.68968125413684,40.4667564664774,729.119099999996 -3.6895109344573,40.4672640747084,729.4568 -3.68928177243167,40.4680459387552,729.089300000007 -3.68903802715574,40.4688536187582,728.496799999994 -3.68879461695142,40.46966146673,728.509900000005 -3.68858003997274,40.4705434105189,728.869200000001 -3.68836563097905,40.4714253543426,729.115000000005 -3.68811719110745,40.472340323231,729.330199999997 -3.68786875123586,40.4732554593753,729.116899999994 -3.68764948055984,40.4741890354706,729.453699999998 -3.68743004279717,40.4751227796704,730.221799999999 -3.68720607842379,40.4760452920045,731.589900000006 -3.68688454892571,40.4770603402937,731.472999999998 -3.68661180154085,40.4781087487003,731.643299999996 -3.686338886171,40.4791569897266,732.003200000006 -3.6862852423755,40.4794496859721,732.193400000004 -3.68624517661552,40.4797524403439,731.966 -3.68627903950847,40.4798711277862,732.023000000001 -3.68706190960047,40.4799044880074,732.035300000003 -3.68740221478632,40.4798899032047,731.887199999997 -3.68775693703411,40.4798863828996,731.656799999997 -3.68826756279782,40.4800198229715,729.195399999997 -3.68879763439244,40.4801567830695,726.037800000006 -3.68905043199149,40.480227358309,728.556599999996 -3.68903567985789,40.4807195441998,728.513399999996 -3.68899662021103,40.4812006649329,727.144 -3.68894297641553,40.4815079456049,725.923999999999 -3.689161744035,40.4815783540721,725.935100000002 -3.68903031601736,40.4822111872206,723.731 -3.68892319461468,40.4827513172794,722.760800000004 -3.68906401092535,40.4830438454871,722.602899999998 -3.689744621297,40.4833398945941,722.140499999994 -3.68966180830587,40.483488086738,722.615000000005 -3.68952065692361,40.4834624381211,722.893800000005 -3.68904875573518,40.4841581360442,721.714000000007 -3.68983145784225,40.4845096731752,719.065900000001 -3.68972450532283,40.4846429455451,719.546400000007 -3.69112025910227,40.4851869306628,710.1342 -3.69252087546234,40.4856717402484,704.912599999996 -3.69391176845776,40.4861674458235,705.689400000003 -3.69458282344975,40.4864376785822,706.824500000002 -3.69541917025062,40.4867965914188,708.7837 -3.69626523951782,40.4876473545794,716.8416 -3.69651300834789,40.4879470911465,717.594100000002 -3.69667829925849,40.48826560355,717.2601 -3.69684828476475,40.4887836052838,716.600600000005 -3.69679447298428,40.4889946620479,716.479800000001 -3.69688197967274,40.4891133495455,716.315300000002 -3.6970667164143,40.4891690053314,717.468800000002 -3.69734868410727,40.4895351269387,718.984299999996 -3.69775705015057,40.4900274795973,723.672999999995 -3.69769854467277,40.4901237042037,718.455499999996 -3.6977179905037,40.4902977125271,710.473700000002 -3.69749905579761,40.4903201755831,724.309800000003 -3.69765931704092,40.4907862098824,718.691999999995 -3.69775654709402,40.4910970107965,715.826799999995 -3.6978489163631,40.4916373084587,711.773799999995 -3.69791697722063,40.4922403025284,706.541800000006 -3.69769301284724,40.492976400806,705.201700000005 -3.69749821766945,40.4934794830587,700.338499999998 -3.697546832696,40.4941490295623,699.720700000005 -3.69756611054201,40.4948852954469,695.903000000006 -3.69761472556853,40.4956326260875,698.315499999997 -3.69765847891276,40.4959804750384,700.368199999997 -3.69762411296327,40.4967722295838,703.725600000005 -3.69735673031727,40.4968907496244,704.1011 -3.69706956676869,40.4969205894892,704.688999999998 -3.69685549284659,40.4968062604231,704.152499999997 -3.69562972367511,40.4968842122044,706.664900000003 -3.69567364410599,40.4971764048847,712.317999999999 -3.69567833870166,40.4981121607721,715.537800000006 -3.69651468460421,40.4981604404624,714.629799999995 -3.69691802187858,40.4981829043019,712.522100000002 -3.69738975508203,40.4982422481486,712.020600000003 -3.69792955004133,40.4984457603794,711.233399999997 -3.69864419129089,40.4987605847778,708.133000000002 -3.69877545132358,40.4988348483015,707.327000000005 -3.69889212810591,40.498934928646,705.560700000002 -3.6991886790492,40.4987577348974,705.4182 -3.69946075629089,40.4989870638135,705.199699999997 -3.69933402197061,40.4991131274401,705.2111 -3.69912011513513,40.4993722959649,704.977799999993 -3.69868241280959,40.4998235776299,702.530100000004 -3.69843900170694,40.4998497295761,700.956200000001 -3.69776777962833,40.500434283194,699.808000000005 -3.69762176656375,40.5008781886985,698.247199999998 -3.69761673689647,40.5015958470562,696.772200000007 -3.69748530887882,40.5018548482015,696.635800000004 -3.69797145914429,40.5024541541402,694.174299999999 -3.69802493585313,40.5026947149031,694.966700000004 -3.69838468686991,40.5033159816132,698.152300000002 -3.69875902293366,40.5039042235208,700.183000000005 -3.69911877395043,40.5045516414361,702.541800000006 -3.69954658672303,40.5053211004499,708.5193 -3.69889967125938,40.5055356767499,710.3897 -3.69906982385229,40.5057541094096,710.809699999998 -3.69823330996476,40.5062459598819,713.997000000003 -3.6976495945746,40.5068524740553,716.350200000001 -3.69760081156312,40.5069525540494,716.623000000007 -3.69785361006047,40.5070489456266,717.129400000005 -3.69808210104456,40.5075446517427,716.263000000006 -3.69830070067908,40.5081214941509,715.702799999999 -3.69855349917643,40.5087060480829,715.076499999996 -3.69879154464188,40.5092941225123,714.174100000004 -3.69898131105069,40.509904492564,713.547099999996 -3.69918549452152,40.5105406790582,710.421400000007 -3.69932647791885,40.5110326965871,705.064400000003 -3.69939453877634,40.5112694019533,701.040299999993 -3.6996424755914,40.5113582500846,696.914699999994 -3.69981262818432,40.5113362892247,694.823900000003 -3.70032811563033,40.5111146716111,692.923899999994 -3.70066339114885,40.5108856785183,691.687699999995 -3.70079951376219,40.5108119173455,689.971000000005 -3.70114937432769,40.5111004227832,687.356799999994 -3.70158707755156,40.5113669668128,686.002600000007 -3.70198555314358,40.5115890876217,684.067200000005 -3.7026371623046,40.5119811931261,682.125499999995 -3.7032207097098,40.5125100913788,680.156199999998 -3.70349295403812,40.5127987636637,678.976500000004 -3.70356554150634,40.5130207165044,678.506899999993 -3.70338080476478,40.5132611096087,678.359200000006 -3.70353151152673,40.5134570781956,678.924199999994 -3.70360912776391,40.5138233677609,679.039000000004 -3.70374541746388,40.5144263618404,680.713900000002 -3.70388153917889,40.5148960838451,682.583700000003 -3.70424615187799,40.5158316717597,686.863500000007 -3.70440172032227,40.5168410203625,692.685100000002 -3.70445033534879,40.5171776374751,694.068799999994 -3.70436266067537,40.5175697430789,696.341700000004 -3.70446961409313,40.5178916078979,697.176600000006 -3.70445486195953,40.5181061849512,698.713499999998 -3.70409477497284,40.51875343572,704.850900000005 -3.70404096319234,40.5190861971945,708.100999999995 -3.70420625410294,40.519404373974,709.636799999993 -3.70442988340474,40.5199961363739,712.766099999993 -3.70481394193477,40.5206174032876,715.797500000001 -3.70496464869672,40.5209836919759,717.970400000006 -3.70521711212249,40.5215234867128,719.837700000004 -3.70558172482159,40.5218674798031,722.162299999996 -3.70634045448699,40.5222927776251,724.960800000001 -3.70681218769044,40.5230619012876,726.937399999995 -3.70730336762319,40.5238865126862,727.240699999995 -3.70761450361341,40.5244115552837,728.677100000001 -3.70775062622672,40.5248884856238,728.370699999999 -3.707779794524,40.5254651603939,730.006099999999 -3.70768222939931,40.5262381397124,728.6348 -3.70764803143474,40.5269665274411,727.467399999994 -3.70749715758616,40.5278206431163,725.570999999996 -3.70745323625698,40.5287449989972,727.151299999998 -3.70731694655701,40.5291850491775,727.172900000005 -3.70737528404988,40.5296693557844,729.543900000004 -3.70736539359861,40.5305124074909,731.582699999999 -3.70722424221632,40.5310560575516,731.749899999995 -3.70708309083406,40.5314481632248,731.570399999997 -3.70687387859428,40.5317774041797,731.048899999994 -3.70674731225892,40.5323358065064,730.8269 -3.70643584029879,40.533241722645,729.0141 -3.70610509049264,40.5341400952693,731.251900000003 -3.70577434068649,40.5350383001868,733.958400000003 -3.70540939291581,40.5359366719356,737.124200000006 -3.7050348888671,40.53683504461,740.394799999995 -3.70478192328309,40.5372085421062,741.431899999996 -3.70429543794604,40.5375892482129,742.150200000004 -3.70404733314603,40.5376707203836,742.521399999998 -3.70350720401347,40.5376596565371,742.656000000003 -3.70315231378069,40.5378408730452,742.120899999994 -3.70274864143473,40.5381627381503,742.428599999999 -3.70275836479938,40.5383996105622,741.557499999995 -3.70310839245151,40.5386622994471,738.724499999997 -3.70366763324174,40.5390245654348,743.064799999993 -3.70423642941167,40.5395754238142,746.781700000007 -3.70483959063276,40.5401631632967,747.516399999993 -3.70539396974068,40.5407840944515,748.615000000005 -3.70569521527965,40.5410724319895,744.459400000007 -3.70585564540622,40.541113335953,743.929999999993 -3.70614247388318,40.5413497050493,740.524699999994 -3.70663851459993,40.5418564753418,739.373699999996 -3.70709063488578,40.5423741417161,747.101800000004 -3.70754258718671,40.5430173687636,748.223599999998 -3.70787333699286,40.5435978994035,743.217900000003 -3.70807265878136,40.5441598218607,742.119900000005 -3.70842268733182,40.5447624809211,734.446400000001 -3.70859770070873,40.5452392438966,735.229900000006 -3.70854891859552,40.5453688275448,736.507100000003 -3.70859250395479,40.5459086224657,741.683799999999 -3.70827147751329,40.5460232869424,753.101699999999 -3.70800878856463,40.5461490157168,747.727700000003 -3.70802320562665,40.546341631411,749.819499999998 -3.70822252741516,40.5465892328317,750.065199999997 -3.70852394004073,40.547058787466,751.649600000004 -3.70844095906468,40.5472696758696,754.602100000004 -3.70845554411165,40.5474693327806,757.654599999994 -3.70896616987534,40.5477871748101,761.258799999996 -3.70910229159035,40.5479130709222,762.219800000006 -3.70920924500807,40.5481978876731,762.042499999996 -3.70937939760096,40.5485306497095,759.462100000004 -3.70963219520001,40.5490629004796,757.424400000004 -3.70990930121065,40.5497466957784,755.779299999995 -3.71029335974072,40.549916848482,750.401199999993 -3.71058504989997,40.5501424892213,745.838300000003 -3.71084757176197,40.5506009797586,744.910900000003 -3.7111390939363,40.551151837813,745.714800000002 -3.71118787694781,40.5515032074475,750.956300000005 -3.71156673872394,40.5519095619283,752.686700000006 -3.7116125042944,40.55210921934,754.360000000001 -3.71173370589085,40.5525470895791,755.433199999999 -3.71180025847698,40.5530954341981,752.737399999998 -3.71212145290347,40.5537497252648,748.849900000001 -3.71241833981666,40.5545054379187,745.624200000006 -3.71272746447895,40.5554589630395,747.015400000004 -3.71269695499696,40.5561821538277,745.311799999996 -3.71253920723983,40.5566520431962,743.513300000006 -3.71251489972653,40.5570899137577,741.401599999997 -3.71301194655639,40.5578407648366,741.073699999994 -3.71325418356097,40.5584628691013,743.543900000004 -3.71318142900611,40.5588454192778,741.769 -3.71356330822329,40.5592001418357,742.794200000004 -3.71392071284054,40.559683777616,744.863500000007 -3.71426621478029,40.5601030398632,747.384300000005 -3.71444173121375,40.5606974846082,748.515199999994 -3.71429622210404,40.5613011495655,749.369500000001 -3.71433863426353,40.561692751995,748.213300000003 -3.71449621403574,40.5620107612756,745.003599999996 -3.71455656375485,40.5623472108686,746.266600000003 -3.71475638859989,40.5627113210157,746.674100000004 -3.71480483564149,40.5631123110472,752.215899999996 -3.71504103776396,40.5638584683617,756.834600000002 -3.71498638785534,40.5647337063077,757.308699999994 -3.71473777999878,40.5650884283724,758.202300000004 -3.71464675281274,40.5655400456283,761.692299999995 -3.71408281832513,40.5662355759229,762.575700000001 -3.71354319135082,40.5668896996754,755.071599999996 -3.71318528457532,40.5671892690298,754.611499999999 -3.71273048192,40.5678801050664,753.101699999999 -3.71227568016301,40.5685846881343,752.158299999996 -3.71194224798743,40.5693261510962,747.080600000001 -3.71157243853442,40.5701184089774,746.992599999998 -3.71123280349178,40.5709289386298,745.123099999997 -3.71086902892088,40.5717763492027,745.576300000001 -3.710511289232,40.5726559461329,746.580799999996 -3.71012924202987,40.5733928830821,750.427500000005 -3.71003217996175,40.5734805577966,750.421199999997 -3.70980771253179,40.5739918537376,750.611499999999 -3.70945600772502,40.574553776322,750.221099999995 -3.70935894565691,40.5748486517945,749.912200000006 -3.70914068109401,40.5750929006396,750.117599999998 -3.70897673046982,40.5755718425743,751.274600000004 -3.70863106144344,40.5760693924293,750.506800000003 -3.70829762926786,40.5768294634244,750.351500000004 -3.70813384662862,40.5771147835125,749.083799999993 -3.70749715758616,40.5774928071817,746.4666 -3.70693942506729,40.5779072084481,747.526299999998 -3.70649686105939,40.5784139783957,749.227700000003 -3.70656928054266,40.5787135473312,748.865600000005 -3.70669048303744,40.5789299682478,748.141900000002 -3.70681168553219,40.5790957620716,747.159400000004 -3.70689634276456,40.5798923786079,750.570200000002 -3.70710840446043,40.5801641194301,751.651899999997 -3.70710840446043,40.580486655093,749.950800000006 -3.70721133432399,40.5807124636542,750.865600000005 -3.70723547385232,40.5809565444061,750.0435 -3.70733840371588,40.5815367399632,755.558999999994 -3.70717462107665,40.5821675620988,752.808799999999 -3.70690774148719,40.5826465038729,751.735499999995 -3.70703497886404,40.5827938577597,753.871599999999 -3.70741082319915,40.5834201536967,757.599700000006 -3.70738634859923,40.5838808232216,755.908899999995 -3.70709532858315,40.5843549034758,752.379700000005 -3.70697999388384,40.5846040139225,751.3361 -3.70744669831834,40.584967788075,749.901400000002 -3.70782254265341,40.5855940841227,747.718599999993 -3.70813149933078,40.586105380267,744.761299999998 -3.7086890638647,40.5860364807588,738.504100000006 -3.70887698603223,40.5861194616954,737.141399999993 -3.70870716851093,40.5863591838988,739.046600000001 -3.70875561645082,40.5865435861635,737.936900000001 -3.70921008313623,40.5870962884924,741.786900000006 -3.70973763944807,40.5875707047878,747.859700000001 -3.71050743366279,40.5881462061552,749.147400000002 -3.71119843754229,40.58887375488,747.725000000006 -3.71175600207621,40.589582864106,748.247000000003 -3.71222874139277,40.5903194658869,748.806599999996 -3.71259234887709,40.5910148286522,752.003400000001 -3.7128466556458,40.5915534499011,753.257599999997 -3.7130225080492,40.5918483247943,754.037800000006 -3.71308905973703,40.592442434343,753.192800000004 -3.71327698190457,40.5929121564429,756.038700000005 -3.71336180712189,40.5934326722699,753.861799999999 -3.71356766684904,40.5937503465378,752.779200000004 -3.71375558901658,40.594261474595,751.588900000002 -3.71428297824179,40.5947910432226,751.232600000003 -3.71507707996981,40.5953620187088,750.613599999997 -3.7155620570355,40.5957489273973,751.357600000003 -3.7168351000488,40.5961173958788,752.640299999999 -3.71802516298439,40.5964479784364,750.288499999995 -3.71857250109711,40.5966783127218,750.186499999996 -3.71871231129467,40.5968555060958,749.924700000003 -3.71853746500439,40.5969708411133,751.278200000001 -3.71835624786212,40.5969450251417,751.483200000002 -3.71769541839306,40.5973609347281,745.603499999997 -3.71704699465805,40.5977495200165,745.543799999999 -3.71670769558532,40.5979347598497,743.785499999998 -3.71645187964692,40.5980118737304,743.258199999997 -3.71623763773986,40.5980076829982,742.796499999997 -3.71613638503095,40.5980891546329,742.413700000005 -3.71601132696696,40.5981662683356,742.190300000002 -3.71615985441605,40.5984239276963,741.574200000003 -3.71643360701573,40.5987359026789,739.161500000002 -3.71690349687623,40.5992963166916,736.288499999995 -3.71686762175705,40.5994139985971,736.094500000007 -3.71643327194411,40.5994865859176,736.561700000006 -3.71579658200335,40.599577110221,734.6351 -3.7155466338604,40.599613487697,734.600999999995 -3.71473291921479,40.5997199381155,735.198499999999 -3.7133582866243,40.5999754184281,734.690400000007 -3.71246846401287,40.6001249515226,734.534 -3.71183730679594,40.5991823225497,736.4035</coordinates>
</LineString>
</Placemark>
</Folder>
</Document></kml>
