<?xml version="1.0" encoding="UTF-8"?>

<kml xmlns:xsd="http://www.w3.org/2001/XMLSchema" xmlns:gx="http://www.google.com/kml/ext/2.2" xmlns:atom="http://www.w3.org/2005/Atom" xmlns="http://www.opengis.net/kml/2.2">
<Document>
<name>ES12a_07a_coca-alcazaren</name>
<visibility>1</visibility>
<Schema name="ES12a_07a_coca-alcazaren" id="kml_schema_ft_ES12a_07a_coca-alcazaren">
<SimpleField type="xsd:string" name="id">
<displayName>id</displayName>
</SimpleField>
<SimpleField type="xsd:string" name="nombre">
<displayName>nombre</displayName>
</SimpleField>
<SimpleField type="xsd:double" name="longitud">
<displayName>longitud</displayName>
</SimpleField>
<SimpleField type="xsd:string" name="_formato">
<displayName>_formato</displayName>
</SimpleField>
</Schema>
<Folder id="kml_ft_ES12a_07a_coca-alcazaren">
<name>ES12a_07a_coca-alcazaren</name>
<Placemark id="kml_1">
<name>&lt;img height='20' src='https://nco.ign.es/iconos/icono_todos_caminos_azul.png' /&gt;&lt;img height='20' src='https://nco.ign.es/iconos/Camino Santiago_20.png' /&gt;&lt;img height='20' src='https://nco.ign.es/iconos/icono_todos_caminos_azul.png' /&gt;  Camino de Santiago </name>
<visibility>1</visibility>
<description><![CDATA[<!DOCTYPE html>
<html>
<head>
<style>
#nco {
  border-collapse: collapse;
  overflow:hidden;
}
#nco th, #nco td {
  padding: 4px;
  text-align: left;
}
#nco th {
  color: #364B5F;
  padding-right: 5px;
}
#nco td {
  color: rgb(51, 51, 51);
  font-size: 12px;
  padding-right: 5px;
}
</style>
</head>
<body>
<table id="nco">
<tr>
<td>Caminos del Centro</td>
</tr>
<tr>
<th><b>Camino: </b></th>
<td>ES12a Camino de Madrid</td>
</tr>
<tr>
<th><b>Etapa: </b></th>
<td>07a Coca-Alcazarén</td>
</tr>
<tr>
<th><b>Longitud: </b></th>
<td>25.58 km</td>
</tr>
</table>
</body>
</html>]]></description>
<Style>
<IconStyle>
<scale>0.8</scale>
</IconStyle>
<LabelStyle>
<color>ffffffff</color>
<scale>0.75</scale>
</LabelStyle>
<LineStyle>
<color>ffff0000</color>
<width>3.0</width>
<gx:labelVisibility>1</gx:labelVisibility>
</LineStyle>
<PolyStyle>
<color>66ff0000</color>
</PolyStyle>
</Style>
<ExtendedData>
<SchemaData schemaUrl="#kml_schema_ft_ES12a_07a_coca-alcazaren">
<SimpleData name="id">ES12a_07a</SimpleData>
<SimpleData name="_formato">kml</SimpleData>
</SchemaData>
</ExtendedData>
<LineString>
<extrude>0</extrude>
<tessellate>1</tessellate>
<coordinates>-4.52144918929518,41.216369848575,783.471999999994 -4.5212849044977,41.2164472974185,783.572499999995 -4.52137676981194,41.2165882807836,784.950599999996 -4.52180525272774,41.2164404245081,784.258199999997 -4.52265132199491,41.2170982360055,785.817899999995 -4.52415805274624,41.2180651723471,784.542499999996 -4.52465040587873,41.2182846104425,784.815300000002 -4.52654270432979,41.2177325784498,784.133300000001 -4.52681008697578,41.2177959456621,784.268299999996 -4.52737703890444,41.217880435183,783.048500000004 -4.52813895399581,41.2182551066068,781.955499999996 -4.52998330846182,41.2184981812466,767.645099999994 -4.53096080574666,41.2186190482578,755.208700000003 -4.53119918718206,41.2188666501599,749.764500000005 -4.53166304126217,41.220232229458,746.098299999998 -4.53298402915882,41.2213019278423,766.393400000001 -4.53352885288704,41.2218633480128,769.073199999999 -4.53528855012068,41.2222665175781,778.760399999999 -4.53676661473301,41.2229493073912,779.248800000001 -4.53756507508677,41.2234570833262,778.656900000002 -4.53812867360442,41.2243445592944,778.348100000003 -4.53812967971757,41.2248630638369,778.168399999995 -4.53917775314267,41.226095035988,777.963900000002 -4.54148763794514,41.2286905755825,775.239000000001 -4.54194378088686,41.2292447871358,776.840100000001 -4.54313870550474,41.2305920945908,776.663799999995 -4.54434100529112,41.2313119322168,775.486000000004 -4.54498440025718,41.2318135055947,775.219800000006 -4.54519243929718,41.2326553834888,776.018299999996 -4.54581856684684,41.2338345499042,775.105500000005 -4.54605124847175,41.2347765083876,775.061400000006 -4.54608595039116,41.2357796542015,775.691099999996 -4.54640395939164,41.2365784499043,775.924700000003 -4.54797120784704,41.2391416356139,774.960699999996 -4.54922497301433,41.2406218795797,774.652400000006 -4.55285752196976,41.2424129247449,773.210699999996 -4.55638395653393,41.243000999066,772.8171 -4.55879459188709,41.2451177646515,771.8701 -4.56048052755443,41.2465834245795,771.547099999996 -4.56441817761802,41.24860430128,770.783200000005 -4.56923626379663,41.2503536043013,769.914699999994 -4.57351304584625,41.2517004084573,769.236099999995 -4.57618921960413,41.2514630331395,768.806400000001 -4.57716738793047,41.2520433963807,768.629100000006 -4.57784347258974,41.2520509402415,768.611499999999 -4.5781888065445,41.2521215154828,768.766600000003 -4.5786394176607,41.2519646065439,768.960699999996 -4.57887930826575,41.2527224977285,769.655700000003 -4.57928046622724,41.2541973777531,767.769899999999 -4.57902867384297,41.254786290141,767.584000000003 -4.57934819201314,41.2565466575568,767.377600000007 -4.57987172566915,41.258036457218,767.467600000004 -4.58039458828363,41.2585728986017,766.404800000004 -4.58063732834475,41.2594478020173,766.236000000004 -4.58100428834169,41.2599611093384,766.318799999994 -4.58099573817682,41.2605216910495,766.374299999996 -4.58168590482646,41.2615660761078,765.469899999996 -4.58374801990049,41.2634194825668,764.904800000004 -4.58520194498448,41.2653315626129,764.135800000004 -4.58822395665202,41.267907656592,763.160300000003 -4.58992028582721,41.2688377124669,762.557000000001 -4.59173128045684,41.2694650143561,762.244600000005 -4.59575325268117,41.271659061434,761.483399999997 -4.59624175024449,41.2721457146738,761.472099999999 -4.59668632558029,41.2731014192306,760.149699999994 -4.59957741228673,41.2766407617089,758.431599999996 -4.60023622952956,41.2772839886599,759.069799999997 -4.60092086345537,41.2794406527522,758.815499999997 -4.60133677355045,41.2801289743155,758.326400000005 -4.6041063217922,41.2813951450725,758.546300000002 -4.6078282225757,41.283066160886,757.295599999998 -4.60823440930613,41.2833531572698,757.675900000002 -4.60962848772756,41.2845795972527,758.247700000007 -4.6119219441401,41.2872157057498,756.739000000001 -4.61203040582919,41.2875653989044,756.5524 -4.61155397803004,41.2893869540159,756.6777 -4.61107604195953,41.2911416220493,756.172200000001 -4.61074948279421,41.2922919539098,756.115999999995 -4.61220910768865,41.2939275987949,755.025500000003 -4.61324980504698,41.2952093590938,754.185599999997 -4.61398305399935,41.2966124898608,754.786099999998 -4.61466131707315,41.2989280746092,754.775099999999 -4.6158567447476,41.3015289791974,753.150500000003 -4.61689375362339,41.3035550523913,752.3269 -4.61821859708925,41.3064469772455,752.170400000003 -4.61939089045018,41.3089979256736,751.9084 -4.62019689395737,41.3106424545619,752.153200000001 -4.62224492793933,41.3136079718012,752.291299999997 -4.62409296998962,41.3156643885525,752.794299999994 -4.62438901877466,41.3159694896471,752.964200000002 -4.62556013803752,41.3180104828013,752.7258 -4.62709486478467,41.3195026295153,753.210500000001 -4.62942570458776,41.3226728330925,758.290399999998 -4.63231109058538,41.3253751585403,762.916500000007 -4.63616458737148,41.328623984312,758.242800000007 -4.64030927036196,41.3324037196934,748.045499999993 -4.64470390239373,41.3355191052968,743.292600000001 -4.64663425437853,41.3363864642604,742.198000000004 -4.64701848089352,41.3362220112836,741.918399999995 -4.6474937345946,41.3357050159748,741.584099999993 -4.64814869716658,41.3357123916587,741.406499999997 -4.64997276677516,41.3363219237876,741.387199999997 -4.65610429679867,41.3383246957403,740.020399999994 -4.65971102907116,41.3392093221241,739.733300000007 -4.66370969989535,41.340665426357,739.094100000002 -4.66626685136963,41.3412892076637,738.816699999996 -4.66983871553435,41.3420987317685,737.664900000003 -4.67095501690363,41.3423501887648,737.290900000007 -4.6729680147929,41.3433913886216,736.813200000004 -4.67528980227287,41.34348308646,736.329700000002 -4.67798206934905,41.3428752312095,735.7016 -4.68435684249025,41.3426314849843,734.053799999994 -4.68420110606102,41.3434785604145,734.458100000003 -4.6839892123501,41.3443011604834,733.1538 -4.68546040395217,41.345835216477,734.165699999998 -4.6862171213913,41.3472041488406,734.043099999995 -4.68707609944912,41.3473754750339,734.357799999998 -4.68934474529183,41.3479777981857,734.032200000001 -4.68893537313539,41.349313705861,733.645999999993 -4.68644376813412,41.3525449300095,730.993000000002 -4.68532612558013,41.3543929719276,733.454899999997 -4.68482572623761,41.3565078939408,732.796600000001 -4.68411644882862,41.3569865004115,732.025999999998 -4.68292605171978,41.3586013575218,731.690799999997 -4.67872839417867,41.3628528268283,733.076400000005 -4.67543866479355,41.3661625049096,736.723899999997 -4.67491026945521,41.3672072254037,741.478799999997 -4.67456460042884,41.367145367017,741.641000000003 -4.67357000371255,41.368188411259,741.280599999998 -4.67292275317731,41.3689255158858,741.078299999994 -4.67318225669996,41.3690889626716,741.267699999997 -4.67186847688515,41.3698106446994,737.659799999994 -4.67143831771301,41.3703521156814,737.918799999999 -4.67144032904094,41.3708622381057,735.625599999999</coordinates>
</LineString>
</Placemark>
</Folder>
</Document></kml>
