<?xml version="1.0" encoding="UTF-8"?>

<kml xmlns:xsd="http://www.w3.org/2001/XMLSchema" xmlns:gx="http://www.google.com/kml/ext/2.2" xmlns:atom="http://www.w3.org/2005/Atom" xmlns="http://www.opengis.net/kml/2.2">
<Document>
<name>ES12a_02a_tres_cantos-manzanares_el_real</name>
<visibility>1</visibility>
<Schema name="ES12a_02a_tres_cantos-manzanares_el_real" id="kml_schema_ft_ES12a_02a_tres_cantos-manzanares_el_real">
<SimpleField type="xsd:string" name="id">
<displayName>id</displayName>
</SimpleField>
<SimpleField type="xsd:string" name="nombre">
<displayName>nombre</displayName>
</SimpleField>
<SimpleField type="xsd:double" name="longitud">
<displayName>longitud</displayName>
</SimpleField>
<SimpleField type="xsd:string" name="_formato">
<displayName>_formato</displayName>
</SimpleField>
</Schema>
<Folder id="kml_ft_ES12a_02a_tres_cantos-manzanares_el_real">
<name>ES12a_02a_tres_cantos-manzanares_el_real</name>
<Placemark id="kml_1">
<name>&lt;img height='20' src='https://nco.ign.es/iconos/icono_todos_caminos_azul.png' /&gt;&lt;img height='20' src='https://nco.ign.es/iconos/Camino Santiago_20.png' /&gt;&lt;img height='20' src='https://nco.ign.es/iconos/icono_todos_caminos_azul.png' /&gt;  Camino de Santiago </name>
<visibility>1</visibility>
<description><![CDATA[<!DOCTYPE html>
<html>
<head>
<style>
#nco {
  border-collapse: collapse;
  overflow:hidden;
}
#nco th, #nco td {
  padding: 4px;
  text-align: left;
}
#nco th {
  color: #364B5F;
  padding-right: 5px;
}
#nco td {
  color: rgb(51, 51, 51);
  font-size: 12px;
  padding-right: 5px;
}
</style>
</head>
<body>
<table id="nco">
<tr>
<td>Caminos del Centro</td>
</tr>
<tr>
<th><b>Camino: </b></th>
<td>ES12a Camino de Madrid</td>
</tr>
<tr>
<th><b>Etapa: </b></th>
<td>02a Tres Cantos-Manzanares El Real</td>
</tr>
<tr>
<th><b>Longitud: </b></th>
<td>24.09 km</td>
</tr>
</table>
</body>
</html>]]></description>
<Style>
<IconStyle>
<scale>0.8</scale>
</IconStyle>
<LabelStyle>
<color>ffffffff</color>
<scale>0.75</scale>
</LabelStyle>
<LineStyle>
<color>ffff0000</color>
<width>3.0</width>
<gx:labelVisibility>1</gx:labelVisibility>
</LineStyle>
<PolyStyle>
<color>66ff0000</color>
</PolyStyle>
</Style>
<ExtendedData>
<SchemaData schemaUrl="#kml_schema_ft_ES12a_02a_tres_cantos-manzanares_el_real">
<SimpleData name="id">ES12a_02a</SimpleData>
<SimpleData name="_formato">kml</SimpleData>
</SchemaData>
</ExtendedData>
<LineString>
<extrude>0</extrude>
<tessellate>1</tessellate>
<coordinates>-3.71874181556188,40.5968446095937,749.296000000002 -3.71923919746332,40.5976353588535,738.306800000006 -3.71986046422898,40.5980856343946,737.314400000003 -3.72067116233186,40.5983560346732,746.773700000005 -3.7216111082412,40.5987878701753,743.653200000001 -3.72241660959015,40.5985887162409,740.968699999998 -3.72384790341719,40.5992277527127,736.372799999997 -3.72482959224112,40.599594544593,734.833499999993 -3.72604044129408,40.5995058639486,727.702900000004 -3.72688835480255,40.5993065423173,726.9139 -3.72793559009953,40.59939254064,724.984800000006 -3.72901216167872,40.5989618788036,721.862200000003 -3.72943108921486,40.599135886979,720.858900000007 -3.73017439660342,40.6004198268092,711.737999999998 -3.73079365114285,40.6006753071752,705.728799999997 -3.73169152086257,40.6011396643782,696.812600000005 -3.73284436749424,40.6015860845659,687.465400000001 -3.73348357181951,40.6017280740239,682.843399999998 -3.73445721353514,40.601117200946,670.173899999994 -3.73533798382345,40.6011468730001,664.449900000007 -3.73584207164849,40.6020385399098,662.874400000001 -3.73492525915437,40.6029508264845,665.315100000007 -3.73413350472421,40.6040037607381,664.973400000003 -3.7339075281246,40.6045350056654,665.014200000005 -3.73499466119659,40.6064705550253,665.717399999994 -3.7357378006002,40.6080317682082,667.946100000001 -3.73561777130523,40.6083504485863,668.123900000006 -3.7360400522523,40.6088303962931,668.235499999995 -3.7364650146705,40.6095576101478,670.094800000006 -3.73596578852775,40.6105025860435,670.108600000007 -3.73631045233934,40.6109478327937,671.723499999993 -3.73703984572246,40.6112492459273,671.418999999994 -3.73738702391853,40.6119063869851,671.847999999998 -3.73743982958588,40.6124946288781,671.1829 -3.73729750500384,40.6136023815048,674.747799999997 -3.73768961064221,40.6141413376679,674.672500000001 -3.73849025030886,40.6153017282005,673.595799999996 -3.73827265588916,40.6165747717398,679.365900000004 -3.73831104449453,40.6172691283821,679.514200000005 -3.73897774175903,40.6174764965779,678.001999999993 -3.73920019696275,40.6180286963512,679.502500000002 -3.7395483812719,40.6187916173195,678.687900000004 -3.73939348386916,40.6190769377068,678.867400000003 -3.74008046419449,40.619400478943,680.168799999999 -3.74093944225231,40.6202307900889,683.168000000005 -3.74138234223009,40.6211581637946,682.355299999996 -3.74121051248255,40.6223835983353,683.6973 -3.74117715264618,40.6227118336602,683.517600000006 -3.74121051248255,40.6223835983353,683.6973 -3.74081404911673,40.6228689101248,682.776100000003 -3.74080549895186,40.6234928595168,684.787400000001 -3.74114111044033,40.6244914792373,693.944900000002 -3.7421999124449,40.6252264043358,698.748800000001 -3.74480132031999,40.6271168588214,706.515700000004 -3.74712947775365,40.6280437299,714.494099999996 -3.74916342974521,40.6289017014231,722.860799999995 -3.7502822463973,40.62945943335,732.5052 -3.75186072648867,40.6310622209658,736.811300000001 -3.75277569474152,40.6313388232762,735.004000000001 -3.75320082514468,40.6320306655902,738.591700000004 -3.75456975792469,40.6328458898489,736.853799999997 -3.75645182995455,40.6339284965873,750.986099999995 -3.75755891191406,40.6347925026677,751.373500000002 -3.75934626917363,40.6365937740705,752.213699999993 -3.7603351660794,40.63751092166,755.736199999999 -3.76114016437181,40.6385244614711,764.734800000006 -3.76099213997929,40.6390905752248,769.702399999995 -3.76037456079788,40.6405074520748,776.231199999995 -3.7606635685877,40.6414827703833,780.735799999995 -3.75959956982922,40.6430320814621,798.740399999995 -3.75958330942426,40.6443270855961,809.378700000001 -3.76019401469715,40.6463952363957,819.809299999994 -3.76071939259443,40.6477457286459,835.036300000007 -3.76092307300868,40.6493454982463,839.085500000001 -3.76176528670667,40.6499992867958,843.251399999994 -3.7620185873623,40.6505273470824,842.348199999993 -3.76307655123871,40.6511325205106,842.763900000005 -3.76420006158814,40.6520552000389,844.076199999996 -3.76504395154244,40.6528501401943,845.725000000006 -3.76534368881003,40.6533897664871,844.496700000003 -3.76527428586951,40.6540730596884,844.3603 -3.76519298204808,40.6550743617398,846.221699999995 -3.76517571553,40.6552601043798,847.317500000005 -3.76543538613931,40.6555439161777,850.800099999993 -3.76581542201351,40.65597726025,857.938299999994 -3.76626553007313,40.6565078349416,868.233800000002 -3.76622060352913,40.6568989343798,872.073099999994 -3.76606721439775,40.6572907048277,874.862800000003 -3.76603150726352,40.6576142462758,876.473499999993 -3.76600485335074,40.6578698943209,875.842699999994 -3.76616394139428,40.6579815408294,876.160799999998 -3.76639058813709,40.6579649449136,877.139800000004 -3.76670826206596,40.6580214390215,877.932199999996 -3.76693708812166,40.6582011472104,878.750700000004 -3.7672405129735,40.6582898276321,879.625899999999 -3.76786563530837,40.6581790184859,881.912200000006 -3.76893281949285,40.6579912640866,884.157900000006 -3.76970898366126,40.6578630209716,885.320399999997 -3.77021659198392,40.6578598357607,885.733399999997 -3.77037987156658,40.6579823790413,886.309299999994 -3.77102913342975,40.6580853086536,888.774600000004 -3.77157060464537,40.6582135520228,889.950899999996 -3.77183966354768,40.6581379475757,890.153099999996 -3.77245489543127,40.6581012346527,891.173599999995 -3.77334019143196,40.6580708921117,894.637000000002 -3.77431232487623,40.6580729038174,897.186300000001 -3.77525210369894,40.6580832976297,897.220100000006 -3.77568360405576,40.6580395437034,896.434800000003 -3.77627737788215,40.6580110451997,894.249599999996 -3.77644602220371,40.6585860435509,897.4902 -3.77653000839457,40.6593179513399,903.485199999996 -3.77666881337731,40.6601234526383,908.348599999998 -3.77670921420891,40.6608226710509,904.760500000004 -3.7764032740743,40.6614583544668,901.444199999998 -3.77644987777292,40.6617544029931,900.391199999998 -3.77612901841804,40.6620365380984,898.918699999995 -3.7755726279822,40.6625012306156,899.458700000003 -3.77576977045781,40.6627387742477,898.390700000004 -3.77689579519174,40.6629617325562,894.972399999999 -3.77796884627334,40.6632755512709,890.172699999996 -3.77887995895701,40.66359054327,891.098800000007 -3.77989919825815,40.6639129107533,893.118600000002 -3.78100527410454,40.664267633386,895.679399999994 -3.78201294669808,40.6645242869004,898.226999999999 -3.78297770407558,40.6648141333145,900.907300000006 -3.78393206704691,40.6651370038897,898.566000000006 -3.78503780782171,40.6654670834411,894.911600000007 -3.78563392894592,40.6656442769848,892.555900000007 -3.78601497003494,40.665905121896,889.723400000003 -3.78669843076098,40.6661557408559,887.455100000006 -3.78738138843047,40.6663570741338,885.411699999997 -3.7882490828415,40.6666475905605,884.4139 -3.7892252389416,40.6669785082296,881.076400000005 -3.79038713879472,40.6674891339967,876.250400000004 -3.79147410388176,40.6680495476826,871.342999999993 -3.7923617471803,40.6682000867227,868.8027 -3.79357343525971,40.6683482787945,871.161099999998 -3.79435261686916,40.668458416936,871.644799999995 -3.79523288499923,40.6688967907328,877.017099999997 -3.79648128542765,40.6693985312331,885.098599999998 -3.79701219515046,40.6695267746548,887.384000000005 -3.79790872368549,40.6695125254736,893.196599999996 -3.7983630223859,40.6695589611817,895.0533 -3.79909778050793,40.6695705278596,896.625499999995 -3.7995643169575,40.6697403450759,898.568899999998 -3.80015004457389,40.6699339675853,898.193599999999 -3.80062781265941,40.6701366419344,896.874200000006 -3.80084926264831,40.6705877560584,894.112899999993 -3.80132636059066,40.6707327629975,891.218800000002 -3.80203077541903,40.6709173323744,888.743300000002 -3.80237862465659,40.6710962018393,887.458100000003 -3.8028652779786,40.6711342559791,885.207800000004 -3.80317959939483,40.6712309828385,883.751499999998 -3.80342150132782,40.6715915723513,879.917100000006 -3.80378142032955,40.6718854419699,877.637100000007 -3.80434686308851,40.6721861848927,874.648700000005 -3.80486788236005,40.6723967380616,871.660099999994 -3.80520550517642,40.6726250608466,868.556500000006 -3.80566064290333,40.6727373782877,866.687600000005 -3.80600782109939,40.6728585806484,864.233600000007 -3.80618300246126,40.6730632669004,861.770799999998 -3.80606582352065,40.6732042507266,859.610000000001 -3.80604604261809,40.6733692063576,858.652600000001 -3.80629548770451,40.6734582222592,857.281700000007 -3.80638467154758,40.6736882215262,855.554799999998 -3.80659388378736,40.6740161214857,854.080199999997 -3.80706561699085,40.6746135840983,847.657600000006 -3.80753735109263,40.6752110461261,842.921700000006 -3.80780238644077,40.6756948490681,835.949399999998 -3.80812022835462,40.6760795783733,837.309099999999 -3.80865197620559,40.6762735360623,840.705600000001 -3.80881626190137,40.6764700078071,840.432499999995 -3.80906788630065,40.6767316905886,838.894799999995 -3.80960080735139,40.677024386873,838.844500000007 -3.8101987727169,40.6773330087294,840.2785 -3.81070738625436,40.6774037516435,844.642800000001 -3.81094727685938,40.67759150658,846.263500000001 -3.81151087537707,40.6777358429045,845.224700000006 -3.81210733247122,40.6779210830219,841.542400000006 -3.81232610009066,40.6781418622942,844.102799999993 -3.81308717615558,40.6785398348579,854.372600000002 -3.81342697918314,40.678949039686,858.551500000001 -3.81409853723167,40.6790927054392,863.072799999994 -3.81477210660814,40.6794008238112,864.751000000004 -3.8154456768829,40.6797089428027,866.302500000005 -3.81624732176433,40.679876245594,866.207899999994 -3.81713798250392,40.6802567842714,867.258199999997 -3.81787491993883,40.6804328042448,866.599799999996 -3.81834480890101,40.6808740272825,864.789900000003 -3.81853725767929,40.6815968828369,864.040800000002 -3.81861168849046,40.6823945044244,869.149600000004 -3.81876055190943,40.6830928844162,866.727400000003 -3.81894998234836,40.683568976746,867.874400000001 -3.81931073947825,40.6839121321308,867.407600000006 -3.81984232024256,40.6840814461931,867.629100000006 -3.82026409723476,40.6841198355679,864.816399999996 -3.8205594758766,40.6844142078699,863.080499999996 -3.82099533485919,40.684707574783,860.440900000001 -3.82166907222061,40.6850156930863,855.8315 -3.82226619855964,40.685250219208,850.814899999998 -3.82262662061794,40.6855605168583,849.399300000005 -3.82317882041296,40.6856555674954,846.988100000002 -3.82343010974065,40.6858843939095,846.435400000002 -3.82347688052593,40.6861804423071,841.904599999994 -3.82394392003202,40.6863747350397,847.457699999999 -3.8243665360507,40.6864706237318,851.949399999998 -3.82474472768362,40.6864681094891,855.1829 -3.82458815312623,40.6869219059378,856.147299999997 -3.82457138966473,40.687317196071,856.869300000006 -3.82497623521047,40.6877341123427,860.530799999993 -3.82561812190513,40.6880834700916,863.751600000003 -3.82629353552287,40.6885313989195,865.980100000001 -3.82666485414557,40.6888581251194,867.491299999994 -3.82724286972524,40.6892820816872,870.707200000004 -3.82765593036424,40.6894850916052,872.077000000005 -3.82815431837879,40.6895886918907,873.0576 -3.82898965816826,40.689854398477,874.015499999994 -3.8297611286393,40.6901947036067,876.086299999995 -3.83060954520434,40.6906412913841,878.927500000005 -3.83133692636123,40.6909078356581,881.603499999997 -3.83253084486603,40.6913272666837,882.029999999999 -3.83350918027903,40.6917894446944,883.668799999999 -3.83426053477593,40.6922449172499,886.153300000005 -3.83502261695393,40.6926921758105,895.131399999998 -3.83652096642368,40.69324102282,903.636199999994 -3.83755143736079,40.693546458964,907.700200000007 -3.83873479437278,40.6939741038567,911.036999999997 -3.83988244425054,40.6941387240718,916.2399 -3.84056556990496,40.694323294033,919.712199999994 -3.84153284166694,40.6947524473378,921.442500000005 -3.84244496046369,40.6950915791281,922.9476 -3.84378941774548,40.6954357397255,930.076100000006 -3.84530687707625,40.6957867741161,936.720000000001 -3.84634790950617,40.6960674003306,939.859800000006 -3.84829385175273,40.6961027717307,942.789499999999 -3.85041229389003,40.6961039452376,946.911399999997 -3.85267188740963,40.696161612552,952.291400000002 -3.8542181808644,40.6962162626218,955.194699999993 -3.85550413266832,40.6962070428094,960.2595 -3.85610109192072,40.6964085434686,961.728099999993 -3.85699560822948,40.6970603205817,964.649900000004 -3.85820260261153,40.6976356544377,964.957800000004 -3.8594414476603,40.6981613672623,967.349900000001 -3.86039396728868,40.6982696615539,969.059999999998 -3.86131513840858,40.698468647633,970.877299999993 -3.86215098215288,40.6987506151287,972.133400000006 -3.86325823119905,40.699121095178,974.361399999994 -3.86438610017423,40.6994173115579,978.013999999996 -3.86527474958591,40.6996000369201,981.537200000006 -3.86636456502734,40.699460562281,984.732799999998 -3.86757055329627,40.6991143895333,988.463699999993 -3.86831285457172,40.6988540477702,990.101699999999 -3.86875072488225,40.6984478610183,987.611499999999 -3.86966535806351,40.6981368919162,987.737099999998 -3.87025745563358,40.6979598664562,987.457399999999 -3.8709353845341,40.6977328842918,986.889599999995 -3.87136721996252,40.6977052241185,987.753299999997 -3.87178899695472,40.6977270169007,988.7353 -3.87233952049346,40.697673708411,989.6636 -3.87269742816725,40.6977699322744,991.031700000007 -3.87218378496252,40.6981689107097,993.407699999996 -3.87187600148493,40.6986074521448,997.480599999995 -3.87128893268385,40.6991797685188,999.4715 -3.87083044244427,40.6996687689047,1001.664 -3.87031897945076,40.7002405824056,1004.7733 -3.86987490537488,40.7010092024336,1006.0355 -3.86945262532614,40.7017858701236,1006.7895 -3.86927610277953,40.7023467868434,1007.1795 -3.86917451410068,40.7028579153405,1004.49189999999 -3.86924743664049,40.703491084146,997.751799999998 -3.86919278673187,40.7042814974825,992.826199999996 -3.8691916126338,40.7050303370912,989.169599999994 -3.86944424404452,40.7053495201081,987.160999999993 -3.8696977126851,40.7057262026411,985.051200000002 -3.8699510133407,40.7060864570926,983.386499999993 -3.8700026458083,40.706736221888,980.444499999998 -3.87022677816661,40.7073517889249,977.134999999995 -3.87041939403151,40.7080416193724,973.281199999998 -3.87065274669793,40.7085336373891,971.277499999997 -3.87079892684917,40.708977039996,970.283500000005 -3.87122975706281,40.709689669341,967.767200000002 -3.87149512748258,40.7101486625424,965.911200000002 -3.87170366957916,40.7103940844029,964.2834 -3.87165421642444,40.7107484711917,962.517399999997 -3.87165136607005,40.7113657143542,958.795299999998 -3.8717933555805,40.7114800440169,956.370200000005 -3.87168975557371,40.71182638401,952.240300000005 -3.87197272848147,40.7128033784002,940.662800000006 -3.87168975557371,40.7134885154057,934.063099999999 -3.87163996734742,40.7138182595339,932.111999999994 -3.87169629351235,40.7148299549647,923.478600000002 -3.87147484352345,40.715267825649,920.347399999999 -3.87139672422973,40.7159103822475,914.815300000002 -3.87039659568794,40.7163294774628,906.112200000003 -3.87038318473904,40.716963317528,898.231299999999 -3.86984691027736,40.7172967490426,894.786399999997 -3.86974733292644,40.7179559024502,895.836200000005 -3.86963887123736,40.7187714615773,894.131800000003 -3.86952068618363,40.7196693307523,894.934899999993 -3.86940250202823,40.7205672000717,898.837599999999 -3.86944709350061,40.721504967861,900.366099999999 -3.86942697662815,40.7224596665391,901.870699999999 -3.86940686065398,40.7234143651397,903.186799999996 -3.86911936113552,40.7237622143375,903.596300000005 -3.86861845873645,40.724333859772,904.691800000001 -3.86827848862223,40.7248055937603,906.274999999994 -3.86796617853393,40.7249150612961,905.588699999993 -3.86785000570643,40.7251383549042,905.9035 -3.86807983697692,40.7253507524904,906.972999999998 -3.86807329993661,40.725680161466,907.570699999997 -3.86808654290052,40.7258695926055,907.198600000003</coordinates>
</LineString>
</Placemark>
</Folder>
</Document></kml>
