<?xml version="1.0" encoding="UTF-8"?>

<kml xmlns:xsd="http://www.w3.org/2001/XMLSchema" xmlns:gx="http://www.google.com/kml/ext/2.2" xmlns:atom="http://www.w3.org/2005/Atom" xmlns="http://www.opengis.net/kml/2.2">
<Document>
<name>ES12a_06a_santa_maria_la_real_de_nieva-coca</name>
<visibility>1</visibility>
<Schema name="ES12a_06a_santa_maria_la_real_de_nieva-coca" id="kml_schema_ft_ES12a_06a_santa_maria_la_real_de_nieva-coca">
<SimpleField type="xsd:string" name="id">
<displayName>id</displayName>
</SimpleField>
<SimpleField type="xsd:string" name="nombre">
<displayName>nombre</displayName>
</SimpleField>
<SimpleField type="xsd:double" name="longitud">
<displayName>longitud</displayName>
</SimpleField>
<SimpleField type="xsd:string" name="_formato">
<displayName>_formato</displayName>
</SimpleField>
</Schema>
<Folder id="kml_ft_ES12a_06a_santa_maria_la_real_de_nieva-coca">
<name>ES12a_06a_santa_maria_la_real_de_nieva-coca</name>
<Placemark id="kml_1">
<name>&lt;img height='20' src='https://nco.ign.es/iconos/icono_todos_caminos_azul.png' /&gt;&lt;img height='20' src='https://nco.ign.es/iconos/Camino Santiago_20.png' /&gt;&lt;img height='20' src='https://nco.ign.es/iconos/icono_todos_caminos_azul.png' /&gt;  Camino de Santiago </name>
<visibility>1</visibility>
<description><![CDATA[<!DOCTYPE html>
<html>
<head>
<style>
#nco {
  border-collapse: collapse;
  overflow:hidden;
}
#nco th, #nco td {
  padding: 4px;
  text-align: left;
}
#nco th {
  color: #364B5F;
  padding-right: 5px;
}
#nco td {
  color: rgb(51, 51, 51);
  font-size: 12px;
  padding-right: 5px;
}
</style>
</head>
<body>
<table id="nco">
<tr>
<td>Caminos del Centro</td>
</tr>
<tr>
<th><b>Camino: </b></th>
<td>ES12a Camino de Madrid</td>
</tr>
<tr>
<th><b>Etapa: </b></th>
<td>06a Santa María la Real de Nieva-Coca</td>
</tr>
<tr>
<th><b>Longitud: </b></th>
<td>21.36 km</td>
</tr>
</table>
</body>
</html>]]></description>
<Style>
<IconStyle>
<scale>0.8</scale>
</IconStyle>
<LabelStyle>
<color>ffffffff</color>
<scale>0.75</scale>
</LabelStyle>
<LineStyle>
<color>ffff0000</color>
<width>3.0</width>
<gx:labelVisibility>1</gx:labelVisibility>
</LineStyle>
<PolyStyle>
<color>66ff0000</color>
</PolyStyle>
</Style>
<ExtendedData>
<SchemaData schemaUrl="#kml_schema_ft_ES12a_06a_santa_maria_la_real_de_nieva-coca">
<SimpleData name="id">ES12a_06a</SimpleData>
<SimpleData name="_formato">kml</SimpleData>
</SchemaData>
</ExtendedData>
<LineString>
<extrude>0</extrude>
<tessellate>1</tessellate>
<coordinates>-4.40636381467925,41.0703441875684,901.114400000006 -4.40749235469596,41.0703247412078,895.689199999993 -4.40996903957867,41.0706615259767,887.046000000002 -4.41128399259326,41.0711193459418,881.639599999995 -4.41186016393166,41.0726126655424,876.508199999997 -4.41467883025653,41.073345747049,863.139800000004 -4.42151444003679,41.0783727092588,840.781000000003 -4.42385500320449,41.0804448834848,837.711299999995 -4.42465363064491,41.0803339070768,837.349700000006 -4.42568980139254,41.0802428797384,837.720700000005 -4.42572718478309,41.0807060636124,837.837199999994 -4.42647652705375,41.0807276886347,838.246700000003 -4.42688807852305,41.0821340047066,836.603199999998 -4.42843269572147,41.0824033990221,834.8655 -4.42876126621476,41.0837490296181,834.846900000004 -4.42840201735623,41.0847632397358,834.006800000003 -4.42829171232417,41.0853311977147,833.659100000004 -4.42819364324461,41.0877123292005,832.946400000001 -4.42770615179441,41.0890990306271,832.489199999996 -4.42835424135613,41.0913576186081,832.539300000004 -4.42993808528811,41.0934294572062,831.126600000003 -4.42955167946019,41.0944542286434,831.103400000007 -4.42944053540168,41.095609590447,830.192800000004 -4.42966466776002,41.0984091462868,829.224100000007 -4.43015048295386,41.098825558948,829.804099999994 -4.43065188840947,41.1012199334869,828.581000000006 -4.43378118766802,41.1041998674932,826.875100000005 -4.44097001142474,41.1109099162113,823.298500000004 -4.444100651868,41.1138999089325,823.138900000005 -4.44902535549442,41.1185463334815,823.659799999994 -4.44891035586669,41.1195162871979,824.703999999998 -4.45110071443069,41.122466214024,822.129799999995 -4.45233603898183,41.1234913207301,821.959499999997 -4.45275530248788,41.1233520133732,822.065900000001 -4.45337891565306,41.1238284406846,821.671499999997 -4.4545771927836,41.1256471459885,820.608800000002 -4.45635331750883,41.1270980537786,819.205000000002 -4.45960080271942,41.1303745394999,818.659 -4.46246322238852,41.1322546006213,817.784199999995 -4.46726404115072,41.1348928881235,811.369900000005 -4.46824271253363,41.1360733954048,810.741500000004 -4.46924988207063,41.1403126271388,809.058099999995 -4.46983996741444,41.1420218643943,808.657999999996 -4.47759943068404,41.1435111613858,807.734299999996 -4.47881313009138,41.1436881867815,807.667499999996 -4.47906425233242,41.1454178763761,807.565600000002 -4.47989556946601,41.1465142296243,807.4804 -4.48188643915488,41.1472588776734,806.703299999994 -4.48331739791031,41.1485882478055,804.966799999995 -4.48484374247754,41.1503816397147,803.144499999995 -4.48554212242383,41.1530663634772,801.926999999996 -4.48815191158051,41.1534291322271,801.635599999994 -4.48849305489451,41.1545982397045,800.282999999996 -4.48663897796215,41.1579681003152,802.256800000003 -4.48469052133111,41.1608793027309,801.747300000003 -4.48450963926046,41.1621660923268,801.915599999993 -4.48505647521494,41.1640778373301,800.363800000006 -4.48665926192128,41.1662931740131,799.881200000003 -4.48687098944383,41.1691606228032,800.088900000002 -4.48766157067425,41.1716399897959,798.660000000003 -4.48777640231702,41.1730022169571,800.781199999998 -4.48791805675585,41.1755535008463,796.771699999998 -4.48751857505068,41.1764466760966,796.004400000005 -4.48773130778809,41.1784261467536,796.392500000002 -4.48709310957594,41.1799090726044,796.577000000005 -4.48704985928828,41.1817016264731,796.988100000002 -4.48868097706204,41.1842177059962,795.625599999999 -4.48926452536554,41.1849554814974,795.301500000001 -4.49012316745345,41.1867203748611,794.621499999994 -4.49082473282575,41.1889630372376,793.700299999997 -4.49084954339555,41.1900570430794,794.452799999999 -4.48964389019824,41.1905800734882,794.486499999999 -4.48911985348569,41.1906184630162,794.268500000006 -4.48852926508527,41.1932743527308,794.508199999997 -4.48834134291774,41.1942441388703,794.749200000006 -4.49088977624219,41.1946075780146,791.782399999996 -4.4920625726597,41.1944813468147,792.083700000003 -4.49551407245782,41.1967042276185,790.721999999994 -4.49895903431731,41.2004651874452,788.852799999993 -4.50403042115151,41.2046330050565,787.163100000005 -4.51078841469459,41.2090638467594,786.250799999994 -4.51556526101515,41.2122360613765,785.131500000003 -4.51956795539351,41.2146094813806,783.5717 -4.52163593826298,41.2159458920047,782.421600000001 -4.52143661647447,41.2164084054256,783.713099999994</coordinates>
</LineString>
</Placemark>
</Folder>
</Document></kml>
