<?xml version="1.0" encoding="UTF-8"?>

<kml xmlns:xsd="http://www.w3.org/2001/XMLSchema" xmlns:gx="http://www.google.com/kml/ext/2.2" xmlns:atom="http://www.w3.org/2005/Atom" xmlns="http://www.opengis.net/kml/2.2">
<Document>
<name>ES12a_11b_berrueces-moral_de_la_reina</name>
<visibility>1</visibility>
<Schema name="ES12a_11b_berrueces-moral_de_la_reina" id="kml_schema_ft_ES12a_11b_berrueces-moral_de_la_reina">
<SimpleField type="xsd:string" name="id">
<displayName>id</displayName>
</SimpleField>
<SimpleField type="xsd:string" name="nombre">
<displayName>nombre</displayName>
</SimpleField>
<SimpleField type="xsd:double" name="longitud">
<displayName>longitud</displayName>
</SimpleField>
<SimpleField type="xsd:string" name="_formato">
<displayName>_formato</displayName>
</SimpleField>
</Schema>
<Folder id="kml_ft_ES12a_11b_berrueces-moral_de_la_reina">
<name>ES12a_11b_berrueces-moral_de_la_reina</name>
<Placemark id="kml_1">
<name>&lt;img height='20' src='https://nco.ign.es/iconos/icono_todos_caminos_azul.png' /&gt;&lt;img height='20' src='https://nco.ign.es/iconos/Camino Santiago_20.png' /&gt;&lt;img height='20' src='https://nco.ign.es/iconos/icono_todos_caminos_azul.png' /&gt;  Camino de Santiago </name>
<visibility>1</visibility>
<description><![CDATA[<!DOCTYPE html>
<html>
<head>
<style>
#nco {
  border-collapse: collapse;
  overflow:hidden;
}
#nco th, #nco td {
  padding: 4px;
  text-align: left;
}
#nco th {
  color: #364B5F;
  padding-right: 5px;
}
#nco td {
  color: rgb(51, 51, 51);
  font-size: 12px;
  padding-right: 5px;
}
</style>
</head>
<body>
<table id="nco">
<tr>
<td>Caminos del Centro</td>
</tr>
<tr>
<th><b>Camino: </b></th>
<td>ES12a Camino de Madrid</td>
</tr>
<tr>
<th><b>Etapa: </b></th>
<td>11b Berrueces-Moral de la Reina</td>
</tr>
<tr>
<th><b>Longitud: </b></th>
<td>24.02 km</td>
</tr>
</table>
</body>
</html>]]></description>
<Style>
<IconStyle>
<scale>0.8</scale>
</IconStyle>
<LabelStyle>
<color>ffffffff</color>
<scale>0.75</scale>
</LabelStyle>
<LineStyle>
<color>ffff0000</color>
<width>3.0</width>
<gx:labelVisibility>1</gx:labelVisibility>
</LineStyle>
<PolyStyle>
<color>66ff0000</color>
</PolyStyle>
</Style>
<ExtendedData>
<SchemaData schemaUrl="#kml_schema_ft_ES12a_11b_berrueces-moral_de_la_reina">
<SimpleData name="id">ES12a_11b</SimpleData>
<SimpleData name="_formato">kml</SimpleData>
</SchemaData>
</ExtendedData>
<LineString>
<extrude>0</extrude>
<tessellate>1</tessellate>
<coordinates>-5.04678010918415,41.8863687293356,741.034100000004 -5.04721563309512,41.8857246639491,741.8851 -5.04809405698392,41.8856182134645,743.821400000001 -5.05215927949594,41.8900674954679,753.390400000004 -5.05233882038189,41.8909278140448,753.5334 -5.0533987955862,41.8938242643878,754.571899999995 -5.05520090497937,41.8961416930472,758.342799999999 -5.05663219880642,41.8977702966178,763.313699999999 -5.05999015613569,41.9036300851595,786.6967 -5.06131902315568,41.9062281401844,776.546799999996 -5.0675638765506,41.914967782479,759.645300000004 -5.0716148499856,41.9176855312014,763.294299999994 -5.07599171244271,41.9211303256214,768.328699999998 -5.07762484244274,41.9214391146829,772.828399999999 -5.08354129243103,41.9211345165216,781.092900000003 -5.09209737181311,41.9219091719418,786.467300000004 -5.09760411457333,41.9217804258529,784.864100000006 -5.09857473884795,41.927203685056,778.129199999996 -5.09924780606613,41.930461395199,782.4666 -5.10038673869236,41.9353490511517,781.328399999999 -5.09809210908007,41.9392261837385,780.561300000001 -5.09853986984188,41.9416835906464,771.308399999994 -5.09863458551048,41.9423395578921,768.942999999999 -5.09895678605005,41.9432102704813,766.828999999998 -5.09883675765337,41.9434680975192,766.534700000004 -5.09652871619389,41.9446787799973,764.801300000006 -5.09619930757247,41.9451122917324,765.436700000006 -5.09461261328611,41.9462101533075,765.111699999994 -5.0931543295764,41.9471487588132,765.223899999997 -5.09117033289776,41.9483535734545,769.449299999993 -5.08945690429112,41.9490829671419,767.767200000002 -5.08802309607964,41.9536978750613,768.681400000001 -5.08624563016967,41.9594875908914,764.774600000004 -5.08566509930719,41.9615931249162,767.576700000005 -5.08560290534682,41.9655416721614,758.823300000004 -5.08567582788663,41.9724520483353,770.807499999995 -5.08561262871147,41.9752033242879,772.786600000007 -5.08256563938746,41.9783941470084,770.349199999997 -5.07953407234026,41.9814845545708,762.746799999994 -5.07572768230936,41.9830784576526,758.552100000001 -5.06968617425711,41.9846696779232,756.911699999997 -5.06481880290874,41.9847712663427,755.050199999998 -5.06446760115854,41.9851342029988,757.691300000006 -5.06320226928363,41.9861686973003,759.308099999995 -5.06208999057018,41.9872145913413,761.486499999999 -5.06150124551277,41.9885079192302,764.679099999994 -5.06054822372615,41.9933132643521,765.365300000005 -5.05957676132337,41.9981333611248,765.511400000003 -5.05846012398421,42.0031982104199,768.2016 -5.0584845985841,42.0045515523257,771.350399999996 -5.0605606285619,42.0073075222264,768.874500000005 -5.06134685116657,42.0085758715893,768.4902 -5.06121642926204,42.0098608171262,766.785999999993 -5.05984934072331,42.0130918735677,768.478099999993 -5.05831528411937,42.016482520913,765.182400000005 -5.05642784735063,42.020178940455,764.959700000007 -5.05424855243765,42.023125011518,766.930800000002 -5.0520028729235,42.0258016887011,768.169099999999 -5.05127146821245,42.0274250952418,769.970000000001 -5.05159517792171,42.0297706870611,766.504199999996 -5.05240453394156,42.0353136397316,763.744099999996 -5.05318472166413,42.0405441150858,764.329899999997 -5.05326082962995,42.0429086502243,765.865399999995 -5.05139183257904,42.0460201798354,767.972299999994 -5.05103711033121,42.0468816722594,769.532000000007 -5.05306234596961,42.0509923251402,775.108200000002 -5.05343349660731,42.0518264917832,776.679799999998 -5.05337867871374,42.0530958475066,776.683300000004 -5.05217889331186,42.0556255057724,774.430900000007 -5.05194017680488,42.0559289308382,773.808199999999 -5.05261978106341,42.056843061163,773.812999999995 -5.05416221894897,42.0578272643847,773.204899999997 -5.05547951926138,42.0589437332609,770.949600000007 -5.0556208377303,42.0593599787295,770.867700000003</coordinates>
</LineString>
</Placemark>
</Folder>
</Document></kml>
