<?xml version="1.0" encoding="UTF-8"?>

<kml xmlns:xsd="http://www.w3.org/2001/XMLSchema" xmlns:gx="http://www.google.com/kml/ext/2.2" xmlns:atom="http://www.w3.org/2005/Atom" xmlns="http://www.opengis.net/kml/2.2">
<Document>
<name>ES12a_04a_cercedilla-segovia</name>
<visibility>1</visibility>
<Schema name="ES12a_04a_cercedilla-segovia" id="kml_schema_ft_ES12a_04a_cercedilla-segovia">
<SimpleField type="xsd:string" name="id">
<displayName>id</displayName>
</SimpleField>
<SimpleField type="xsd:string" name="nombre">
<displayName>nombre</displayName>
</SimpleField>
<SimpleField type="xsd:double" name="longitud">
<displayName>longitud</displayName>
</SimpleField>
<SimpleField type="xsd:string" name="_formato">
<displayName>_formato</displayName>
</SimpleField>
</Schema>
<Folder id="kml_ft_ES12a_04a_cercedilla-segovia">
<name>ES12a_04a_cercedilla-segovia</name>
<Placemark id="kml_1">
<name>&lt;img height='20' src='https://nco.ign.es/iconos/icono_todos_caminos_azul.png' /&gt;&lt;img height='20' src='https://nco.ign.es/iconos/Camino Santiago_20.png' /&gt;&lt;img height='20' src='https://nco.ign.es/iconos/icono_todos_caminos_azul.png' /&gt;  Camino de Santiago </name>
<visibility>1</visibility>
<description><![CDATA[<!DOCTYPE html>
<html>
<head>
<style>
#nco {
  border-collapse: collapse;
  overflow:hidden;
}
#nco th, #nco td {
  padding: 4px;
  text-align: left;
}
#nco th {
  color: #364B5F;
  padding-right: 5px;
}
#nco td {
  color: rgb(51, 51, 51);
  font-size: 12px;
  padding-right: 5px;
}
</style>
</head>
<body>
<table id="nco">
<tr>
<td>Caminos del Centro</td>
</tr>
<tr>
<th><b>Camino: </b></th>
<td>ES12a Camino de Madrid</td>
</tr>
<tr>
<th><b>Etapa: </b></th>
<td>04a Cercedilla-Segovia</td>
</tr>
<tr>
<th><b>Longitud: </b></th>
<td>28.73 km</td>
</tr>
</table>
</body>
</html>]]></description>
<Style>
<IconStyle>
<scale>0.8</scale>
</IconStyle>
<LabelStyle>
<color>ffffffff</color>
<scale>0.75</scale>
</LabelStyle>
<LineStyle>
<color>ffff0000</color>
<width>3.0</width>
<gx:labelVisibility>1</gx:labelVisibility>
</LineStyle>
<PolyStyle>
<color>66ff0000</color>
</PolyStyle>
</Style>
<ExtendedData>
<SchemaData schemaUrl="#kml_schema_ft_ES12a_04a_cercedilla-segovia">
<SimpleData name="id">ES12a_04a</SimpleData>
<SimpleData name="_formato">kml</SimpleData>
</SchemaData>
</ExtendedData>
<LineString>
<extrude>0</extrude>
<tessellate>1</tessellate>
<coordinates>-4.05708353929419,40.7405877112492,1187.55190000001 -4.05798627069625,40.7401215097051,1186.00930000001 -4.05842833254587,40.7397553885618,1185.5891 -4.05918404477022,40.7388432694593,1184.85370000001 -4.06062288175069,40.7386276873036,1186.0615 -4.06097073098825,40.738496761698,1186.5478 -4.06169844811509,40.7384687658803,1182.52310000001 -4.06237168241994,40.7385475558594,1179.7589 -4.06332856067404,40.7388477957575,1179.87790000001 -4.06501231702851,40.7390771248484,1178.7264 -4.06593617051785,40.7390682397212,1178.67110000001 -4.06671049044498,40.7393383051276,1177.49559999999 -4.06668216027588,40.7401905769327,1178.7225 -4.06637990862379,40.7414287517922,1179.29760000001 -4.06679581871887,40.7429157011596,1186.1945 -4.0673312541541,40.7440076952155,1190.7871 -4.06720200544931,40.745553150666,1201.75079999999 -4.06808277573762,40.7472169586046,1217.1096 -4.06823599688408,40.7489300520646,1214.539 -4.06990533707487,40.7508528608362,1226.1516 -4.0700862182472,40.7525230384182,1238.4509 -4.07063037183225,40.7541471157943,1249.8854 -4.07067093975047,40.7575443013083,1286.32889999999 -4.07042417703352,40.7587605156939,1291.307 -4.07048670606548,40.7609005832585,1299.23050000001 -4.07079080106052,40.7615260406513,1312.9711 -4.07073028425479,40.7629854974999,1320.853 -4.07048603502398,40.7634776829151,1327.6404 -4.07022619642971,40.7638741467818,1332.8026 -4.07040422814601,40.7644902168333,1335.6113 -4.0708105828614,40.764507651668,1343.1105 -4.07051285692172,40.7651493701525,1345.933 -4.06990684534624,40.7657939379558,1351.75139999999 -4.06917124999435,40.767962672106,1360.8703 -4.06848661606854,40.7689487188048,1372.86229999999 -4.06734835358551,40.7722179963045,1389.5693 -4.0667852572261,40.7737887653869,1399.93520000001 -4.06663572456222,40.7749508318361,1409.26300000001 -4.06626809352374,40.7756145113141,1414.02280000001 -4.06647814479001,40.7764858940401,1430.03019999999 -4.06707661231377,40.7771192303998,1445.159 -4.06700855145625,40.7781315966001,1463.8275 -4.06653581213968,40.7792222497245,1482.96030000001 -4.06544348231374,40.7801268249517,1494.3673 -4.06424872568082,40.7807556351243,1511.6335 -4.06447453429548,40.7817436938018,1523.8076 -4.06501080875715,40.7828571462835,1543.56449999999 -4.0636024812587,40.7850319143807,1586.0723 -4.0634581444504,40.7856402731,1598.1324 -4.06396273533202,40.7865406575284,1618.67 -4.0629981459395,40.7875508444556,1635.5331 -4.06095882920904,40.7857591288316,1654.7237 -4.06060930371516,40.78595912117,1669.492 -4.06090686077156,40.7869393003931,1681.069 -4.06050469759525,40.7882473801136,1715.03140000001 -4.06004067553019,40.7901284469383,1754.78479999999 -4.05987521663464,40.7915597407707,1785.6091 -4.06006598825827,40.7925935649404,1789.71249999999 -4.06213028354352,40.7946405933987,1784.7632 -4.06362762690012,40.7953828946547,1783.7494 -4.06383298357069,40.795956049012,1786.1924 -4.06378503868734,40.7964676805463,1776.86320000001 -4.06260386098825,40.797980110824,1785.8521 -4.06085070259158,40.7996363753876,1790.2362 -4.06039925334722,40.8003327434644,1782.0785 -4.05968947377999,40.8015212975011,1775.8579 -4.05922293643212,40.8030377517318,1752.5386 -4.05794000296754,40.8043168301957,1740.133 -4.05602104970537,40.8052609674388,1724.07120000001 -4.05442580615246,40.8063085377356,1716.9607 -4.05585492066662,40.8071686889084,1698.71279999999 -4.05627066277675,40.8086345155909,1691.3073 -4.05727347368796,40.8091151344958,1688.3256 -4.05685974290577,40.8104394746161,1677.1664 -4.05694808772239,40.8115888016087,1657.825 -4.05682571202786,40.8126973921252,1647.4801 -4.0562689865204,40.8129473403432,1638.6639 -4.05520750214639,40.8131808602358,1636.89969999999 -4.05445883091726,40.8136988620498,1635.6991 -4.05396278930219,40.8142465349777,1632.79150000001 -4.05352860657594,40.8151556362081,1629.62420000001 -4.05393630247603,40.8161103351193,1632.66559999999 -4.05443016477821,40.8172028322839,1635.6217 -4.05395239579437,40.8180271087312,1632.6597 -4.05280172847559,40.8188257366131,1626.1761 -4.05227785974796,40.8193841389913,1625.601 -4.05257558478932,40.8195945250892,1626.5313 -4.05365902937876,40.8198506758042,1632.95209999999 -4.05536944054435,40.8207510598834,1640.4385 -4.057174064322,40.822278745348,1650.66869999999 -4.05770480605985,40.8230406606133,1656.8058 -4.05790513396147,40.8241782526023,1663.916 -4.05721949392255,40.8260267973732,1666.5931 -4.05636521046039,40.8269612119295,1669.0148 -4.05514715242729,40.8270681647946,1671.3029 -4.05422832860523,40.8274706637839,1673.0395 -4.05230183129131,40.8288831825096,1670.5433 -4.05106214811442,40.8302786015934,1665.90850000001 -4.0506038258598,40.8314438534469,1659.8302 -4.04997099148825,40.8322164976782,1659.18610000001 -4.049389287426,40.8344581537676,1637.63129999999 -4.04936313656976,40.8354594555548,1636.38430000001 -4.04859518659632,40.8383310956948,1595.4906 -4.04839318243838,40.8397491461751,1590.8239 -4.04830416658023,40.8412196673064,1581.4639 -4.04815178356196,40.8422221432301,1578.9826 -4.047935530327,40.8436297999861,1572.4866 -4.04846040516771,40.8449026756693,1570.19040000001 -4.04842235163396,40.8460427820318,1566.124 -4.04801666706177,40.8470048571272,1563.8829 -4.04857238735442,40.8484480533248,1561.2568 -4.04929675196859,40.849921759289,1543.5759 -4.04970612412503,40.8509723472638,1534.17969999999 -4.0495570936194,40.8521982844279,1519.0111 -4.05119525238838,40.854686032774,1506.9713 -4.0515249969797,40.8551302735723,1506.8769 -4.0529090169649,40.855735279392,1497.0554 -4.05397402093819,40.8565562035105,1494.6508 -4.05479343629261,40.8569320478642,1490.2411 -4.05560195418428,40.8583836259231,1484.7684 -4.05571594859722,40.8593837543705,1482.2614 -4.05499074585485,40.8605297282082,1468.5649 -4.05560731892318,40.861376132585,1461.33379999999 -4.05652983122778,40.8620491998489,1447.7852 -4.05657274644385,40.8629859613867,1440.6057 -4.05679671081723,40.8638358861,1431.5053 -4.05673233754396,40.8650824427251,1417.02740000001 -4.05713450161856,40.8665589987384,1400.78720000001 -4.05738880838727,40.8675576185912,1393.79949999999 -4.05796280131111,40.869245566643,1373.6917 -4.05800621958376,40.8710875731844,1340.871 -4.0579187128953,40.8735270424394,1310.3805 -4.05793681754153,40.875539537606,1284.15730000001 -4.0584868380237,40.8765995131823,1269.2635 -4.05835608014925,40.8780807632114,1257.8196 -4.05842933776068,40.8791558261137,1256.18949999999 -4.05981637518689,40.8807936495955,1238.50350000001 -4.06097676587032,40.8822846225905,1225.3616 -4.06196834514556,40.8846288730257,1210.1988 -4.06316377192168,40.8856828135374,1202.4265 -4.06510217101482,40.8866765723553,1193.93859999999 -4.06598210317497,40.8872968331287,1189.5634 -4.06640036056787,40.8880064451142,1186.913 -4.06711801925848,40.8881276471619,1185.8051 -4.06796157324287,40.8890996127306,1182.52439999999 -4.06865224205075,40.8892954138165,1178.7899 -4.06960610286383,40.8901386336091,1172.57150000001 -4.07184910000855,40.8917363919354,1162.33130000001 -4.07491251862077,40.8945937828758,1135.9593 -4.07706482365102,40.8966394701557,1125.0579 -4.07890465150632,40.8993168173231,1120.47560000001 -4.07928753683661,40.9004207141975,1118.99980000001 -4.07950311903008,40.9007382208916,1118.9489 -4.07977703961471,40.9020454626038,1116.5769 -4.080251288101,40.9027225521067,1115.55319999999 -4.08118587016977,40.9040876292368,1112.2893 -4.08195868092721,40.9058694542905,1107.7433 -4.08240593953077,40.9066105817922,1110.049 -4.08286828533952,40.9082782454698,1109.72289999999 -4.08338679022654,40.9090827404678,1107.0129 -4.08449471031424,40.9098815358735,1104.4566 -4.08517079407515,40.9108868612284,1104.22659999999 -4.08629732186562,40.9119625947915,1101.1051 -4.08865699579271,40.9146132879891,1099.1167 -4.0908919458291,40.9164982105272,1100.6045 -4.09187145534017,40.9172043018627,1098.7524 -4.09252138824487,40.9177080542378,1096.8319 -4.09289136568283,40.9181957129921,1095.22 -4.09346703396469,40.9184503557469,1092.808 -4.09400833809365,40.9189365061611,1089.6085 -4.09433791380169,40.9192801642089,1087.3686 -4.09516638147923,40.9198503008034,1085.0288 -4.09578563601866,40.9204370342029,1083.4237 -4.09690747011176,40.9214670021466,1079.61079999999 -4.09495012824423,40.9217603691094,1077.2931 -4.09497460374248,40.9220927951582,1083.2365 -4.0951710751766,40.9224518759678,1074.77830000001 -4.09653631947402,40.9220778758385,1077.2184 -4.09766368539266,40.921896994091,1078.7019 -4.09986443836283,40.9233883025979,1072.8308 -4.1005364994679,40.9241272511087,1071.3049 -4.10148784499821,40.9256090036529,1066.40150000001 -4.10376017932347,40.9271635112115,1059.2267 -4.10498661953645,40.9283017736457,1056.439 -4.10626469221704,40.9300039708183,1054.1703 -4.10709617643729,40.9310290776183,1049.9638 -4.10729801261027,40.9313465839307,1048.781 -4.1072566065639,40.9322308751465,1042.99890000001 -4.10733288161634,40.932592135019,1041.36440000001 -4.10826679354191,40.9330194444679,1035.15889999999 -4.10916147783566,40.9336179122095,1029.1027 -4.11020049803935,40.9344601258082,1022.3308 -4.11224953813443,40.9360590576046,1018.2176 -4.11268908559958,40.9363103470023,1018.1427 -4.11351872647685,40.9372179398058,1016.8515 -4.11525227105766,40.9400874000376,1009.1197 -4.11547573327277,40.9408519978794,1008.2249 -4.11564119127002,40.9423412941643,1003.8312 -4.11603229079528,40.9438922813249,992.486000000004 -4.1165501255391,40.9446112809045,988.057199999996 -4.11674290938896,40.9452164547166,986.889899999995 -4.11701515281898,40.9455332903098,988.898300000001 -4.11746978748931,40.9458482821907,992.066600000006 -4.11804830612556,40.9476638025135,982.241999999998 -4.11809625100891,40.9480252303891,982.392999999996</coordinates>
</LineString>
</Placemark>
</Folder>
</Document></kml>
